{"type":"FeatureCollection","features":[{"type":"Feature","id":"02d12b0e-8742-422a-9816-88351fb5e043","geometry":{"type":"Point","coordinates":[-97.09897544243105,28.129732841404177]},"properties":{"substrate":"Buried Shell","lease_number":null,"poll_year":2025}},{"type":"Feature","id":"06b2c02d-ae5a-4fed-ba0e-7ce760dda7d4","geometry":{"type":"Point","coordinates":[-97.09830039622427,28.128931768398658]},"properties":{"substrate":"Buried Shell","lease_number":null,"poll_year":2025}},{"type":"Feature","id":"0bed900f-4213-4fe1-a784-1f502798ae7b","geometry":{"type":"Point","coordinates":[-97.0986680083981,28.129524362854834]},"properties":{"substrate":"Solid Reef","lease_number":null,"poll_year":2025}},{"type":"Feature","id":"0d62713c-2973-405f-adb3-497a66fa05fe","geometry":{"type":"Point","coordinates":[-97.09891282985575,28.12970078072668]},"properties":{"substrate":"Buried Shell","lease_number":null,"poll_year":2025}},{"type":"Feature","id":"1316f502-c805-44c6-8493-bd434ffedb00","geometry":{"type":"Point","coordinates":[-97.0996144410421,28.129729642466742]},"properties":{"substrate":"Buried Shell","lease_number":null,"poll_year":2025}},{"type":"Feature","id":"1aa87e00-785f-42d3-9f9c-4f9023570988","geometry":{"type":"Point","coordinates":[-97.09823862986197,28.129340830635634]},"properties":{"substrate":"Buried Shell","lease_number":null,"poll_year":2025}},{"type":"Feature","id":"1e3093a7-c4eb-4cbc-948b-727f4ceee4fb","geometry":{"type":"Point","coordinates":[-97.09864143084211,28.129375623756626]},"properties":{"substrate":"Buried Shell","lease_number":null,"poll_year":2025}},{"type":"Feature","id":"1e9011c0-1660-42c7-b1ac-cfabd77b30d5","geometry":{"type":"Point","coordinates":[-97.09856330436185,28.12951897741173]},"properties":{"substrate":"Buried Shell","lease_number":null,"poll_year":2025}},{"type":"Feature","id":"2790bce7-b166-4eae-a343-445d92a35029","geometry":{"type":"Point","coordinates":[-97.09840002477917,28.12943452938223]},"properties":{"substrate":"Buried Shell","lease_number":null,"poll_year":2025}},{"type":"Feature","id":"287ceb82-d0cc-4307-b246-4b3b54e70293","geometry":{"type":"Point","coordinates":[-97.09853025893581,28.1296599439497]},"properties":{"substrate":"Solid Reef","lease_number":null,"poll_year":2025}},{"type":"Feature","id":"29d0bc1d-22bf-46de-af63-c085c2e5c88d","geometry":{"type":"Point","coordinates":[-97.0975733348676,28.129904608677258]},"properties":{"substrate":"Solid Reef","lease_number":null,"poll_year":2025}},{"type":"Feature","id":"3a24f999-a123-4681-8611-c41a3a0be105","geometry":{"type":"Point","coordinates":[-97.09921946079483,28.12914138888708]},"properties":{"substrate":"Mud","lease_number":null,"poll_year":2025}},{"type":"Feature","id":"3be9e697-ca64-4d45-80f2-5fb7ab4b227b","geometry":{"type":"Point","coordinates":[-97.09897530768376,28.12930633141387]},"properties":{"substrate":"Solid Reef","lease_number":null,"poll_year":2025}},{"type":"Feature","id":"412611d6-52e9-4880-991a-5cbc16d25b5d","geometry":{"type":"Point","coordinates":[-97.10008934889177,28.12896536224037]},"properties":{"substrate":"Mud","lease_number":null,"poll_year":2025}},{"type":"Feature","id":"424a5c6c-a744-459f-9309-1e84ee7cceb2","geometry":{"type":"Point","coordinates":[-97.09804701202533,28.129998270489466]},"properties":{"substrate":"Solid Reef","lease_number":null,"poll_year":2025}},{"type":"Feature","id":"45d9aeee-37d7-436c-8b96-978ac7beedd3","geometry":{"type":"Point","coordinates":[-97.09875468953481,28.128941187033927]},"properties":{"substrate":"Buried Shell","lease_number":null,"poll_year":2025}},{"type":"Feature","id":"4f8687b4-3d39-4c5b-b1d5-3cf0995ba977","geometry":{"type":"Point","coordinates":[-97.0980942652059,28.1289491963194]},"properties":{"substrate":"Buried Shell","lease_number":null,"poll_year":2025}},{"type":"Feature","id":"4fbbf6c4-f682-43ac-ac77-f0377254fc5e","geometry":{"type":"Point","coordinates":[-97.09874119144935,28.1291763658661]},"properties":{"substrate":"Buried Shell","lease_number":null,"poll_year":2025}},{"type":"Feature","id":"519b2659-9e97-4a3f-a407-66a39855d10c","geometry":{"type":"Point","coordinates":[-97.09891791791351,28.129986250340995]},"properties":{"substrate":"Buried Shell","lease_number":null,"poll_year":2025}},{"type":"Feature","id":"568b88e2-284a-4e26-b86a-862fb2aed7e8","geometry":{"type":"Point","coordinates":[-97.0979103647959,28.13009934092739]},"properties":{"substrate":"Solid Reef","lease_number":null,"poll_year":2025}},{"type":"Feature","id":"58d95270-dd3e-49f2-9330-fd7a48017968","geometry":{"type":"Point","coordinates":[-97.09888835435751,28.129508625603833]},"properties":{"substrate":"Buried Shell","lease_number":null,"poll_year":2025}},{"type":"Feature","id":"5b344733-d084-441d-a8b7-0caf8587398d","geometry":{"type":"Point","coordinates":[-97.0995665392779,28.12943058892679]},"properties":{"substrate":"Buried Shell","lease_number":null,"poll_year":2025}},{"type":"Feature","id":"5cd6fc89-2aaa-4435-9393-c0c4933ad4e7","geometry":{"type":"Point","coordinates":[-97.09907826809004,28.130077525165735]},"properties":{"substrate":"Buried Shell","lease_number":null,"poll_year":2025}},{"type":"Feature","id":"62d89cfd-4df1-4d3f-a165-977276d67d51","geometry":{"type":"Point","coordinates":[-97.09838361076231,28.12970848733173]},"properties":{"substrate":"Buried Shell","lease_number":null,"poll_year":2025}},{"type":"Feature","id":"65943279-8d52-42bd-a5b6-aac6960ebebd","geometry":{"type":"Point","coordinates":[-97.09855657508206,28.129791294482725]},"properties":{"substrate":"Buried Shell","lease_number":null,"poll_year":2025}},{"type":"Feature","id":"661eac26-c32e-4078-bcb0-77aae4609e70","geometry":{"type":"Point","coordinates":[-97.09940076327706,28.12902241748048]},"properties":{"substrate":"Mud","lease_number":null,"poll_year":2025}},{"type":"Feature","id":"66f3722f-5708-48a1-9c60-1015aba64dcc","geometry":{"type":"Point","coordinates":[-97.09748219449382,28.129606784342158]},"properties":{"substrate":"Solid Reef","lease_number":null,"poll_year":2025}},{"type":"Feature","id":"6c98b39a-8419-4a69-b005-419d06923abc","geometry":{"type":"Point","coordinates":[-97.09839575508664,28.129798894133202]},"properties":{"substrate":"Solid Reef","lease_number":null,"poll_year":2025}},{"type":"Feature","id":"6d2e6e5d-d1bd-486c-a970-3be63f3a964e","geometry":{"type":"Point","coordinates":[-97.09728925523541,28.130126868486126]},"properties":{"substrate":"Solid Reef","lease_number":null,"poll_year":2025}},{"type":"Feature","id":"714414e8-41c5-4b45-ab57-f80bdb146291","geometry":{"type":"Point","coordinates":[-97.09795125790427,28.129519899544107]},"properties":{"substrate":"Buried Shell","lease_number":null,"poll_year":2025}},{"type":"Feature","id":"738409b7-f85e-4216-bcbb-81c360c6bfb8","geometry":{"type":"Point","coordinates":[-97.09769953019872,28.129884793199256]},"properties":{"substrate":"Solid Reef","lease_number":null,"poll_year":2025}},{"type":"Feature","id":"75a47ae7-8689-4bb9-beba-9f2938794df2","geometry":{"type":"Point","coordinates":[-97.09825145510928,28.129977020342704]},"properties":{"substrate":"Solid Reef","lease_number":null,"poll_year":2025}},{"type":"Feature","id":"7fdfd142-4cdc-4641-a9a4-5e2f1139740b","geometry":{"type":"Point","coordinates":[-97.09749620012742,28.12978199475335]},"properties":{"substrate":"Solid Reef","lease_number":null,"poll_year":2025}},{"type":"Feature","id":"814e1464-f4d9-448c-b8fe-968c6c343f2b","geometry":{"type":"Point","coordinates":[-97.09941829569645,28.129343192217416]},"properties":{"substrate":"Buried Shell","lease_number":null,"poll_year":2025}},{"type":"Feature","id":"8b73a495-c44c-4eb4-bc9f-c2e88d5850f9","geometry":{"type":"Point","coordinates":[-97.09904207856052,28.129595210955884]},"properties":{"substrate":"Buried Shell","lease_number":null,"poll_year":2025}},{"type":"Feature","id":"8d700f6c-2abc-4dbb-a82c-4dcf71c9657e","geometry":{"type":"Point","coordinates":[-97.09872373448843,28.129877124632852]},"properties":{"substrate":"Buried Shell","lease_number":null,"poll_year":2025}},{"type":"Feature","id":"9190804a-920e-4bc4-8434-108d80eebe81","geometry":{"type":"Point","coordinates":[-97.0997382791939,28.1300173650388]},"properties":{"substrate":"Buried Shell","lease_number":null,"poll_year":2025}},{"type":"Feature","id":"91c9a6ec-1e47-489e-a92b-ffa4148fb3e6","geometry":{"type":"Point","coordinates":[-97.09957807095118,28.130108456837554]},"properties":{"substrate":"Buried Shell","lease_number":null,"poll_year":2025}},{"type":"Feature","id":"9a637149-de29-47a7-be37-6c7daa194244","geometry":{"type":"Point","coordinates":[-97.09938204867474,28.12981188317283]},"properties":{"substrate":"Buried Shell","lease_number":null,"poll_year":2025}},{"type":"Feature","id":"9ad48e1b-5105-4524-9c75-85d2f1f7e985","geometry":{"type":"Point","coordinates":[-97.09935232162536,28.12997144241613]},"properties":{"substrate":"Buried Shell","lease_number":null,"poll_year":2025}},{"type":"Feature","id":"a2596385-1251-429b-9658-b6267ae70155","geometry":{"type":"Point","coordinates":[-97.09918114495301,28.129200346135242]},"properties":{"substrate":"Buried Shell","lease_number":null,"poll_year":2025}},{"type":"Feature","id":"a3a63a38-017d-4591-8827-87b24bd27aa4","geometry":{"type":"Point","coordinates":[-97.09825315202684,28.129189732866482]},"properties":{"substrate":"Buried Shell","lease_number":null,"poll_year":2025}},{"type":"Feature","id":"ac06ccf1-da69-443c-9f61-662806ce0cb4","geometry":{"type":"Point","coordinates":[-97.09858323528304,28.129070383627795]},"properties":{"substrate":"Buried Shell","lease_number":null,"poll_year":2025}},{"type":"Feature","id":"aecd070c-82b9-4fad-b9bd-760dcec75e8a","geometry":{"type":"Point","coordinates":[-97.09784728509663,28.12959336193915]},"properties":{"substrate":"Buried Shell","lease_number":null,"poll_year":2025}},{"type":"Feature","id":"b29c8e2a-00d1-415e-bbf4-07f4dd6961fd","geometry":{"type":"Point","coordinates":[-97.09807938101997,28.129081308248182]},"properties":{"substrate":"Buried Shell","lease_number":null,"poll_year":2025}},{"type":"Feature","id":"b5370577-b05c-4c2b-8370-898778c7d2c6","geometry":{"type":"Point","coordinates":[-97.09826563411772,28.130098272241945]},"properties":{"substrate":"Solid Reef","lease_number":null,"poll_year":2025}},{"type":"Feature","id":"c33fbeb1-674c-4ccb-a423-07744b19879b","geometry":{"type":"Point","coordinates":[-97.09844569422991,28.12898964042914]},"properties":{"substrate":"Buried Shell","lease_number":null,"poll_year":2025}},{"type":"Feature","id":"cf37d63d-2a66-497d-bccc-8377da63a96c","geometry":{"type":"Point","coordinates":[-97.09799773404211,28.129676535971775]},"properties":{"substrate":"Buried Shell","lease_number":null,"poll_year":2025}},{"type":"Feature","id":"d008e1ab-16c6-4c38-a67d-bd482a8db032","geometry":{"type":"Point","coordinates":[-97.09850489410543,28.129298592299236]},"properties":{"substrate":"Buried Shell","lease_number":null,"poll_year":2025}},{"type":"Feature","id":"d0acc2cd-0223-45c1-8f13-e2ebec03dc9a","geometry":{"type":"Point","coordinates":[-97.09803568516791,28.129251644246352]},"properties":{"substrate":"Buried Shell","lease_number":null,"poll_year":2025}},{"type":"Feature","id":"d278b5c6-1b47-459b-8cae-f40fe4f495ac","geometry":{"type":"Point","coordinates":[-97.09887980149769,28.129265559447944]},"properties":{"substrate":"Buried Shell","lease_number":null,"poll_year":2025}},{"type":"Feature","id":"dd3258ce-b67b-45e7-93b8-1e88c7ec0d20","geometry":{"type":"Point","coordinates":[-97.09932465710786,28.129574030443646]},"properties":{"substrate":"Buried Shell","lease_number":null,"poll_year":2025}},{"type":"Feature","id":"e384e035-b740-4d81-85fd-1f72fdc1652e","geometry":{"type":"Point","coordinates":[-97.0990354543836,28.129373277227597]},"properties":{"substrate":"Buried Shell","lease_number":null,"poll_year":2025}},{"type":"Feature","id":"ed36d520-79c8-48ac-b9c1-4f0f2f0d8a3f","geometry":{"type":"Point","coordinates":[-97.09903715399612,28.129114864016802]},"properties":{"substrate":"Buried Shell","lease_number":null,"poll_year":2025}},{"type":"Feature","id":"edb8c4f0-fa4d-454f-a1f0-dff85bae502d","geometry":{"type":"Point","coordinates":[-97.09787579492883,28.129941904196585]},"properties":{"substrate":"Solid Reef","lease_number":null,"poll_year":2025}},{"type":"Feature","id":"f4ba269c-e100-415a-922f-af7dc0469d03","geometry":{"type":"Point","coordinates":[-97.09820925225723,28.12963343267531]},"properties":{"substrate":"Buried Shell","lease_number":null,"poll_year":2025}},{"type":"Feature","id":"f820f94c-3e8c-4fac-b2b0-32c272c36fc2","geometry":{"type":"Point","coordinates":[-97.09818997441123,28.12978774301449]},"properties":{"substrate":"Buried Shell","lease_number":null,"poll_year":2025}},{"type":"Feature","id":"fa2df3d4-18a1-45a3-acb0-5e26e011275b","geometry":{"type":"Point","coordinates":[-97.0983282916088,28.128750585668463]},"properties":{"substrate":"Buried Shell","lease_number":null,"poll_year":2025}},{"type":"Feature","id":"fb485616-405b-4d43-a709-a03addf87866","geometry":{"type":"Point","coordinates":[-97.09766919678651,28.129543708619103]},"properties":{"substrate":"Solid Reef","lease_number":null,"poll_year":2025}}]}