{"type":"FeatureCollection","features":[{"type":"Feature","id":"0125ec7b-3eea-4b20-ba17-5e4d2337fcad","geometry":{"type":"Point","coordinates":[-97.04993270013053,28.159927399974485]},"properties":{"substrate":"Firm/Hard Bottom","lease_number":null,"poll_year":2025}},{"type":"Feature","id":"01d71650-fbdf-4593-bdfd-1a0ae46014fd","geometry":{"type":"Point","coordinates":[-97.04218970028514,28.15655500001046]},"properties":{"substrate":"Firm/Hard Bottom","lease_number":null,"poll_year":2025}},{"type":"Feature","id":"01fb1cb1-c04f-4372-91f9-9141cfae6f15","geometry":{"type":"Point","coordinates":[-97.04983009994866,28.15988130009806]},"properties":{"substrate":"Firm/Hard Bottom","lease_number":null,"poll_year":2025}},{"type":"Feature","id":"025beafa-b7db-4de8-b084-db9759706438","geometry":{"type":"Point","coordinates":[-97.0416795003229,28.15638780022992]},"properties":{"substrate":"Firm/Hard Bottom","lease_number":null,"poll_year":2025}},{"type":"Feature","id":"027b1d19-8ea2-42c7-9f04-681a30dfd0d1","geometry":{"type":"Point","coordinates":[-97.03785370039365,28.155839399939158]},"properties":{"substrate":"Mud","lease_number":null,"poll_year":2025}},{"type":"Feature","id":"02db33a9-63ae-44a1-9c3f-dd8890fd2db0","geometry":{"type":"Point","coordinates":[-97.0383283998342,28.15599549970643]},"properties":{"substrate":"Firm/Hard Bottom","lease_number":null,"poll_year":2025}},{"type":"Feature","id":"03fb399e-2ad4-4908-b3c9-45a76adf56c8","geometry":{"type":"Point","coordinates":[-97.04173699968761,28.157294200204266]},"properties":{"substrate":"Firm/Hard Bottom","lease_number":null,"poll_year":2025}},{"type":"Feature","id":"04881e5f-be56-4efe-81b3-84b442b2e5f8","geometry":{"type":"Point","coordinates":[-97.04516880032986,28.158203499927968]},"properties":{"substrate":"Mud","lease_number":null,"poll_year":2025}},{"type":"Feature","id":"069f1693-9b0e-4db7-81aa-b8bae5da0c29","geometry":{"type":"Point","coordinates":[-97.03881490044262,28.155463000338504]},"properties":{"substrate":"Firm/Hard Bottom","lease_number":null,"poll_year":2025}},{"type":"Feature","id":"07683bd3-1729-435d-b77d-e4d2628ce692","geometry":{"type":"Point","coordinates":[-97.03237209968158,28.154119699921402]},"properties":{"substrate":"Firm/Hard Bottom","lease_number":null,"poll_year":2025}},{"type":"Feature","id":"077af536-1abb-42df-9f51-1e7d02aa9b1e","geometry":{"type":"Point","coordinates":[-97.03131830039483,28.153031500151315]},"properties":{"substrate":"Firm/Hard Bottom","lease_number":null,"poll_year":2025}},{"type":"Feature","id":"07abef05-c70b-428b-8f69-ef6c12dbd7cc","geometry":{"type":"Point","coordinates":[-97.03910950024509,28.15644089981903]},"properties":{"substrate":"Mud","lease_number":null,"poll_year":2025}},{"type":"Feature","id":"084c8909-fcc4-4b0b-b379-3eaed2063d20","geometry":{"type":"Point","coordinates":[-97.04291219999679,28.157676599907532]},"properties":{"substrate":"Firm/Hard Bottom","lease_number":null,"poll_year":2025}},{"type":"Feature","id":"0a679652-c265-42cc-aac5-33ad3254089f","geometry":{"type":"Point","coordinates":[-97.03902199984485,28.15641190033755]},"properties":{"substrate":"Mud","lease_number":null,"poll_year":2025}},{"type":"Feature","id":"0b718d70-4cdd-4965-a88d-54e97a35ba6c","geometry":{"type":"Point","coordinates":[-97.04199790009052,28.154173800174345]},"properties":{"substrate":"Firm/Hard Bottom","lease_number":null,"poll_year":2025}},{"type":"Feature","id":"0bf92a43-e1fa-4322-8e80-cdfecadd50f4","geometry":{"type":"Point","coordinates":[-97.04887160023544,28.158746500174026]},"properties":{"substrate":"Mud","lease_number":null,"poll_year":2025}},{"type":"Feature","id":"0c5a6510-fc6b-460a-ab98-f5ce8cdadfaf","geometry":{"type":"Point","coordinates":[-97.03841129996187,28.15621539983412]},"properties":{"substrate":"Mud","lease_number":null,"poll_year":2025}},{"type":"Feature","id":"0d34ffea-a7f8-4307-b437-632bbc08074d","geometry":{"type":"Point","coordinates":[-97.03460929999775,28.154091600347247]},"properties":{"substrate":"Mud","lease_number":null,"poll_year":2025}},{"type":"Feature","id":"0ec63c49-dc37-4374-926e-4774a762233a","geometry":{"type":"Point","coordinates":[-97.03796499986072,28.155178599728025]},"properties":{"substrate":"Firm/Hard Bottom","lease_number":null,"poll_year":2025}},{"type":"Feature","id":"0f7abf95-ca80-4896-8043-9aa31273ca9c","geometry":{"type":"Point","coordinates":[-97.03334729997424,28.153586499779443]},"properties":{"substrate":"Firm/Hard Bottom","lease_number":null,"poll_year":2025}},{"type":"Feature","id":"0fa93fb9-ae3b-4940-98c1-d60644760c9d","geometry":{"type":"Point","coordinates":[-97.04068110013972,28.15606609982476]},"properties":{"substrate":"Mud","lease_number":null,"poll_year":2025}},{"type":"Feature","id":"0ffd7378-0d30-48a5-93e6-10cd06893193","geometry":{"type":"Point","coordinates":[-97.0422433997762,28.15726400027469]},"properties":{"substrate":"Mud","lease_number":null,"poll_year":2025}},{"type":"Feature","id":"10b2c695-2cbc-44eb-9cd5-a8409ef35d09","geometry":{"type":"Point","coordinates":[-97.04436030040448,28.157281099656295]},"properties":{"substrate":"Firm/Hard Bottom","lease_number":null,"poll_year":2025}},{"type":"Feature","id":"10dbd498-b067-4715-870d-242abf6921bf","geometry":{"type":"Point","coordinates":[-97.04029659963854,28.15682649990684]},"properties":{"substrate":"Firm/Hard Bottom","lease_number":null,"poll_year":2025}},{"type":"Feature","id":"116b5cea-b33c-43dd-a9ea-12f7711b7234","geometry":{"type":"Point","coordinates":[-97.03490549969978,28.15491469985729]},"properties":{"substrate":"Firm/Hard Bottom","lease_number":null,"poll_year":2025}},{"type":"Feature","id":"13fc53f0-2fed-4bcd-bce9-5a000745447d","geometry":{"type":"Point","coordinates":[-97.04651260004485,28.15883129970853]},"properties":{"substrate":"Mud","lease_number":null,"poll_year":2025}},{"type":"Feature","id":"1474b40d-1c7a-4407-9899-9b789b15561a","geometry":{"type":"Point","coordinates":[-97.04827660020871,28.159394300038084]},"properties":{"substrate":"Mud","lease_number":null,"poll_year":2025}},{"type":"Feature","id":"1575ab52-7e36-4fdd-8faf-f2109cae73f8","geometry":{"type":"Point","coordinates":[-97.03963320008943,28.155723900284528]},"properties":{"substrate":"Firm/Hard Bottom","lease_number":null,"poll_year":2025}},{"type":"Feature","id":"168d920a-f05a-41c7-81f6-90248baafcef","geometry":{"type":"Point","coordinates":[-97.03701759973117,28.154714699821458]},"properties":{"substrate":"Firm/Hard Bottom","lease_number":null,"poll_year":2025}},{"type":"Feature","id":"17cf78a2-9f56-466c-90c9-a337e7f71b90","geometry":{"type":"Point","coordinates":[-97.03422210005918,28.153822600290656]},"properties":{"substrate":"Firm/Hard Bottom","lease_number":null,"poll_year":2025}},{"type":"Feature","id":"17df5dd0-9128-4d4a-a02c-3cc8f6e17b55","geometry":{"type":"Point","coordinates":[-97.03445580037359,28.154699100122933]},"properties":{"substrate":"Firm/Hard Bottom","lease_number":null,"poll_year":2025}},{"type":"Feature","id":"1814c40c-1fdd-4101-b99d-545b51e124eb","geometry":{"type":"Point","coordinates":[-97.0429407996605,28.154578900155993]},"properties":{"substrate":"Firm/Hard Bottom","lease_number":null,"poll_year":2025}},{"type":"Feature","id":"19a65872-76cb-4e5f-9a50-d892b87af1f9","geometry":{"type":"Point","coordinates":[-97.03720259967909,28.154935400146172]},"properties":{"substrate":"Firm/Hard Bottom","lease_number":null,"poll_year":2025}},{"type":"Feature","id":"1a340f39-2f59-4fff-818c-e4df2fec954b","geometry":{"type":"Point","coordinates":[-97.0318383997915,28.15383200010499]},"properties":{"substrate":"Firm/Hard Bottom","lease_number":null,"poll_year":2025}},{"type":"Feature","id":"1a401ece-e93e-4774-abe6-8326bd884353","geometry":{"type":"Point","coordinates":[-97.03315100011835,28.153630200134717]},"properties":{"substrate":"Firm/Hard Bottom","lease_number":null,"poll_year":2025}},{"type":"Feature","id":"1a552eb8-1a0d-4e7d-ada6-9784e96b7ff9","geometry":{"type":"Point","coordinates":[-97.03562819973574,28.154233699623212]},"properties":{"substrate":"Firm/Hard Bottom","lease_number":null,"poll_year":2025}},{"type":"Feature","id":"1b96c07b-897c-4578-8444-3f47ce34b3ad","geometry":{"type":"Point","coordinates":[-97.04372359968393,28.15775399983116]},"properties":{"substrate":"Mud","lease_number":null,"poll_year":2025}},{"type":"Feature","id":"1c834625-c2f1-417e-94a3-698b28fd9a81","geometry":{"type":"Point","coordinates":[-97.03672820027586,28.154611599680017]},"properties":{"substrate":"Firm/Hard Bottom","lease_number":null,"poll_year":2025}},{"type":"Feature","id":"1d5c3ec1-957e-45ce-af85-b468f73b9d3d","geometry":{"type":"Point","coordinates":[-97.0370112001331,28.155572300363524]},"properties":{"substrate":"Firm/Hard Bottom","lease_number":null,"poll_year":2025}},{"type":"Feature","id":"1de845d0-5edc-4c43-8e5f-5bc9526d24cc","geometry":{"type":"Point","coordinates":[-97.04455369960033,28.157354799622837]},"properties":{"substrate":"Firm/Hard Bottom","lease_number":null,"poll_year":2025}},{"type":"Feature","id":"1df6ff47-11d0-430e-979e-28e259adb019","geometry":{"type":"Point","coordinates":[-97.03548519962061,28.15501499991121]},"properties":{"substrate":"Firm/Hard Bottom","lease_number":null,"poll_year":2025}},{"type":"Feature","id":"1e536e3a-abc2-4939-98a8-7dc9bffc10c9","geometry":{"type":"Point","coordinates":[-97.03334100008914,28.15371120038905]},"properties":{"substrate":"Firm/Hard Bottom","lease_number":null,"poll_year":2025}},{"type":"Feature","id":"1e9a7c40-60dd-4c8a-ad9b-f10ff20e7dae","geometry":{"type":"Point","coordinates":[-97.0391602002614,28.156253300002838]},"properties":{"substrate":"Firm/Hard Bottom","lease_number":null,"poll_year":2025}},{"type":"Feature","id":"1eb78d3e-9068-4490-a100-6aa05534ca3f","geometry":{"type":"Point","coordinates":[-97.04772529962726,28.159040300166613]},"properties":{"substrate":"Mud","lease_number":null,"poll_year":2025}},{"type":"Feature","id":"20da640d-d43d-463a-baaa-763828c15d82","geometry":{"type":"Point","coordinates":[-97.0314082999082,28.152983900356382]},"properties":{"substrate":"Firm/Hard Bottom","lease_number":null,"poll_year":2025}},{"type":"Feature","id":"216ab690-a600-43e5-9b48-31d8487180cc","geometry":{"type":"Point","coordinates":[-97.03969809977545,28.15663179960989]},"properties":{"substrate":"Mud","lease_number":null,"poll_year":2025}},{"type":"Feature","id":"21c8d16d-3723-4a86-9112-e466fcb37049","geometry":{"type":"Point","coordinates":[-97.04465469988264,28.158242699852757]},"properties":{"substrate":"Firm/Hard Bottom","lease_number":null,"poll_year":2025}},{"type":"Feature","id":"22e03953-1be9-4c04-b34e-99f8047a0ac7","geometry":{"type":"Point","coordinates":[-97.0441226996051,28.15807670021037]},"properties":{"substrate":"Firm/Hard Bottom","lease_number":null,"poll_year":2025}},{"type":"Feature","id":"232646ac-c18b-48b0-87dc-009c031b1d53","geometry":{"type":"Point","coordinates":[-97.0332527001883,28.15443550003998]},"properties":{"substrate":"Firm/Hard Bottom","lease_number":null,"poll_year":2025}},{"type":"Feature","id":"23c9fb6f-1d02-4885-8362-92fc8452690a","geometry":{"type":"Point","coordinates":[-97.04095359958957,28.156151500244444]},"properties":{"substrate":"Mud","lease_number":null,"poll_year":2025}},{"type":"Feature","id":"24fe0679-b069-4f21-8e1b-4e8f0fb630cf","geometry":{"type":"Point","coordinates":[-97.04059949987425,28.15360330036037]},"properties":{"substrate":"Firm/Hard Bottom","lease_number":null,"poll_year":2025}},{"type":"Feature","id":"25c388f3-a1b9-47e7-a6ce-1db60c6ada69","geometry":{"type":"Point","coordinates":[-97.04840460025522,28.159437099907418]},"properties":{"substrate":"Mud","lease_number":null,"poll_year":2025}},{"type":"Feature","id":"25cab56f-a6a4-4f6c-8891-5b43591de976","geometry":{"type":"Point","coordinates":[-97.0420398002103,28.15650689964749]},"properties":{"substrate":"Firm/Hard Bottom","lease_number":null,"poll_year":2025}},{"type":"Feature","id":"26cf8992-c997-46bc-a3b0-1508f43c14dc","geometry":{"type":"Point","coordinates":[-97.04104519990078,28.15617819979133]},"properties":{"substrate":"Mud","lease_number":null,"poll_year":2025}},{"type":"Feature","id":"28056f01-b144-46b7-a4b6-3e6e14d47439","geometry":{"type":"Point","coordinates":[-97.03630389991604,28.15464080003129]},"properties":{"substrate":"Firm/Hard Bottom","lease_number":null,"poll_year":2025}},{"type":"Feature","id":"28d0f44d-c268-499a-9023-421062e19161","geometry":{"type":"Point","coordinates":[-97.03450060025513,28.153893200257844]},"properties":{"substrate":"Firm/Hard Bottom","lease_number":null,"poll_year":2025}},{"type":"Feature","id":"2900a9d1-5c6a-4c63-8d50-4f34f2c731c8","geometry":{"type":"Point","coordinates":[-97.03565609961183,28.155084200383207]},"properties":{"substrate":"Firm/Hard Bottom","lease_number":null,"poll_year":2025}},{"type":"Feature","id":"2917f082-f02c-46a9-be66-7cba69b7b741","geometry":{"type":"Point","coordinates":[-97.03243159959443,28.153359299622174]},"properties":{"substrate":"Firm/Hard Bottom","lease_number":null,"poll_year":2025}},{"type":"Feature","id":"29e1c124-e11a-4040-b584-2e0f55d5ea92","geometry":{"type":"Point","coordinates":[-97.04550650040136,28.158331800329442]},"properties":{"substrate":"Mud","lease_number":null,"poll_year":2025}},{"type":"Feature","id":"2a197744-6f03-439f-accf-7b1d2bec1598","geometry":{"type":"Point","coordinates":[-97.0431948001037,28.156879299899472]},"properties":{"substrate":"Mud","lease_number":null,"poll_year":2025}},{"type":"Feature","id":"2b41e591-51eb-45e4-a8ca-94817f0246d0","geometry":{"type":"Point","coordinates":[-97.04050640027484,28.15689189994787]},"properties":{"substrate":"Mud","lease_number":null,"poll_year":2025}},{"type":"Feature","id":"2c0988f3-568e-41bb-9af2-f0ca9fa547d9","geometry":{"type":"Point","coordinates":[-97.0499597996077,28.159780800271207]},"properties":{"substrate":"Mud","lease_number":null,"poll_year":2025}},{"type":"Feature","id":"2c5217f5-3f3a-413c-8835-34bd1a3b2234","geometry":{"type":"Point","coordinates":[-97.03329189997237,28.15434499997784]},"properties":{"substrate":"Firm/Hard Bottom","lease_number":null,"poll_year":2025}},{"type":"Feature","id":"2c740ee8-84fc-405b-a8d9-ec63563b4710","geometry":{"type":"Point","coordinates":[-97.03425409984621,28.154640099881927]},"properties":{"substrate":"Firm/Hard Bottom","lease_number":null,"poll_year":2025}},{"type":"Feature","id":"2d1bd16c-9d6a-4bd4-875b-41ffc592b678","geometry":{"type":"Point","coordinates":[-97.04020160010231,28.15590990036659]},"properties":{"substrate":"Firm/Hard Bottom","lease_number":null,"poll_year":2025}},{"type":"Feature","id":"2dfb7668-a7bd-4718-bd83-eaec5933abad","geometry":{"type":"Point","coordinates":[-97.0374760001392,28.155903900062388]},"properties":{"substrate":"Firm/Hard Bottom","lease_number":null,"poll_year":2025}},{"type":"Feature","id":"2e1ee5f8-dd8f-4689-bb7a-088b02c85d1c","geometry":{"type":"Point","coordinates":[-97.03191229969836,28.153209000042036]},"properties":{"substrate":"Firm/Hard Bottom","lease_number":null,"poll_year":2025}},{"type":"Feature","id":"2f08b6cc-8c5f-4539-88be-5037ebcd5266","geometry":{"type":"Point","coordinates":[-97.03660969991348,28.15562510018276]},"properties":{"substrate":"Firm/Hard Bottom","lease_number":null,"poll_year":2025}},{"type":"Feature","id":"2fad0199-80dc-4cd1-8f93-7eb467a16cbb","geometry":{"type":"Point","coordinates":[-97.03356589960875,28.15363769988218]},"properties":{"substrate":"Firm/Hard Bottom","lease_number":null,"poll_year":2025}},{"type":"Feature","id":"3082ba82-a37d-43f3-99e2-41555793d33c","geometry":{"type":"Point","coordinates":[-97.03802940008345,28.155027500384342]},"properties":{"substrate":"Firm/Hard Bottom","lease_number":null,"poll_year":2025}},{"type":"Feature","id":"30f1c480-cdbe-4d7d-b692-aa55b309ddf0","geometry":{"type":"Point","coordinates":[-97.04284959999791,28.157466400069875]},"properties":{"substrate":"Firm/Hard Bottom","lease_number":null,"poll_year":2025}},{"type":"Feature","id":"333f93f7-ab8d-48e5-a3a9-e7673ee3af58","geometry":{"type":"Point","coordinates":[-97.03758860036679,28.15574670005136]},"properties":{"substrate":"Firm/Hard Bottom","lease_number":null,"poll_year":2025}},{"type":"Feature","id":"346e26e9-6a76-48c6-b2ca-b8d945b7ce4f","geometry":{"type":"Point","coordinates":[-97.04498320030733,28.158343399914937]},"properties":{"substrate":"Mud","lease_number":null,"poll_year":2025}},{"type":"Feature","id":"351f12a9-c82b-49d3-aa70-57cd715365f8","geometry":{"type":"Point","coordinates":[-97.03280809969968,28.154185800184315]},"properties":{"substrate":"Firm/Hard Bottom","lease_number":null,"poll_year":2025}},{"type":"Feature","id":"35b455a7-91f2-4f3f-8c1a-3069cf76a67f","geometry":{"type":"Point","coordinates":[-97.03889399979832,28.15617819979133]},"properties":{"substrate":"Mud","lease_number":null,"poll_year":2025}},{"type":"Feature","id":"37af162f-2824-4127-95d4-efdbe673ae18","geometry":{"type":"Point","coordinates":[-97.03169059997781,28.15314470026421]},"properties":{"substrate":"Firm/Hard Bottom","lease_number":null,"poll_year":2025}},{"type":"Feature","id":"3817e791-f99d-4fab-880b-55f059270aa2","geometry":{"type":"Point","coordinates":[-97.04934939976202,28.159573000328336]},"properties":{"substrate":"Firm/Hard Bottom","lease_number":null,"poll_year":2025}},{"type":"Feature","id":"3926803d-460c-4912-a418-e06e84ec83ff","geometry":{"type":"Point","coordinates":[-97.03537059974317,28.15415699968295]},"properties":{"substrate":"Firm/Hard Bottom","lease_number":null,"poll_year":2025}},{"type":"Feature","id":"39a173b7-719d-4012-9c16-9f84dd4581d1","geometry":{"type":"Point","coordinates":[-97.03858430021423,28.156269300233028]},"properties":{"substrate":"Mud","lease_number":null,"poll_year":2025}},{"type":"Feature","id":"39b4f361-2cf0-4a65-b895-38315947b238","geometry":{"type":"Point","coordinates":[-97.04958460026299,28.159650500255108]},"properties":{"substrate":"Mud","lease_number":null,"poll_year":2025}},{"type":"Feature","id":"39e2a728-1275-4a28-b6e3-cb888fa8d94a","geometry":{"type":"Point","coordinates":[-97.03584780009345,28.155170499737164]},"properties":{"substrate":"Mud","lease_number":null,"poll_year":2025}},{"type":"Feature","id":"3a2be667-24c3-477b-b264-e1ec8ffeb3ec","geometry":{"type":"Point","coordinates":[-97.0445248996123,28.158203499927968]},"properties":{"substrate":"Firm/Hard Bottom","lease_number":null,"poll_year":2025}},{"type":"Feature","id":"3b67a3ba-4d3d-415e-aa95-dbf76568c336","geometry":{"type":"Point","coordinates":[-97.03436739986144,28.154674400067606]},"properties":{"substrate":"Firm/Hard Bottom","lease_number":null,"poll_year":2025}},{"type":"Feature","id":"3c32c42a-f829-4083-818b-c56bc49ac99b","geometry":{"type":"Point","coordinates":[-97.03757230043595,28.155051200035512]},"properties":{"substrate":"Firm/Hard Bottom","lease_number":null,"poll_year":2025}},{"type":"Feature","id":"3e14dc4d-b92d-4906-82b3-6413fa189699","geometry":{"type":"Point","coordinates":[-97.03747579981487,28.155023499884607]},"properties":{"substrate":"Firm/Hard Bottom","lease_number":null,"poll_year":2025}},{"type":"Feature","id":"3e39724a-3b22-411d-8112-d38edaaf05f2","geometry":{"type":"Point","coordinates":[-97.03149409979761,28.153087799645206]},"properties":{"substrate":"Firm/Hard Bottom","lease_number":null,"poll_year":2025}},{"type":"Feature","id":"3e515e21-325d-47a9-96be-4e14c7dbcda5","geometry":{"type":"Point","coordinates":[-97.04371639968691,28.15502560032519]},"properties":{"substrate":"Firm/Hard Bottom","lease_number":null,"poll_year":2025}},{"type":"Feature","id":"3e5e872c-db55-4663-9395-2531896fdb54","geometry":{"type":"Point","coordinates":[-97.03767919995477,28.15597140029706]},"properties":{"substrate":"Firm/Hard Bottom","lease_number":null,"poll_year":2025}},{"type":"Feature","id":"3ec2b3b3-3f7d-495b-bd6d-a23d3b61caa5","geometry":{"type":"Point","coordinates":[-97.0393145999975,28.1565109000918]},"properties":{"substrate":"Mud","lease_number":null,"poll_year":2025}},{"type":"Feature","id":"3f55f612-b89c-46a8-a42c-ebc7b8bdd1a2","geometry":{"type":"Point","coordinates":[-97.03666940015064,28.155450700296818]},"properties":{"substrate":"Firm/Hard Bottom","lease_number":null,"poll_year":2025}},{"type":"Feature","id":"4126422f-7431-4043-9f00-9252c068a78e","geometry":{"type":"Point","coordinates":[-97.0389978998424,28.156202500325332]},"properties":{"substrate":"Mud","lease_number":null,"poll_year":2025}},{"type":"Feature","id":"424ee824-acd2-4200-a009-f6c76300d4fc","geometry":{"type":"Point","coordinates":[-97.05031050009799,28.159886399691942]},"properties":{"substrate":"Mud","lease_number":null,"poll_year":2025}},{"type":"Feature","id":"428d699e-784f-4834-a3a8-9071e102d7a2","geometry":{"type":"Point","coordinates":[-97.04582460013168,28.158606800296607]},"properties":{"substrate":"Mud","lease_number":null,"poll_year":2025}},{"type":"Feature","id":"428f881c-8769-4f85-acb5-eb4d408b4b1a","geometry":{"type":"Point","coordinates":[-97.0386939000688,28.155423700393555]},"properties":{"substrate":"Firm/Hard Bottom","lease_number":null,"poll_year":2025}},{"type":"Feature","id":"443fc524-b5d0-44aa-a724-b39a302eaab3","geometry":{"type":"Point","coordinates":[-97.04087499969715,28.15681370026468]},"properties":{"substrate":"Mud","lease_number":null,"poll_year":2025}},{"type":"Feature","id":"4485dca8-adfc-42df-8ddb-a14bbeca2360","geometry":{"type":"Point","coordinates":[-97.04279549985824,28.15764030008674]},"properties":{"substrate":"Firm/Hard Bottom","lease_number":null,"poll_year":2025}},{"type":"Feature","id":"44e3594f-7859-4f7e-8abb-4261b986e470","geometry":{"type":"Point","coordinates":[-97.03672410036492,28.154772500106223]},"properties":{"substrate":"Firm/Hard Bottom","lease_number":null,"poll_year":2025}},{"type":"Feature","id":"45bdba0c-cf95-4521-8392-f64e48bf4013","geometry":{"type":"Point","coordinates":[-97.03305640033241,28.153585500235067]},"properties":{"substrate":"Firm/Hard Bottom","lease_number":null,"poll_year":2025}},{"type":"Feature","id":"45c10b8b-7bd1-4aaa-add0-c1627f5ae8e4","geometry":{"type":"Point","coordinates":[-97.0419194996241,28.156469100153927]},"properties":{"substrate":"Firm/Hard Bottom","lease_number":null,"poll_year":2025}},{"type":"Feature","id":"45dc0558-0e6c-4b63-9053-d397e19e93db","geometry":{"type":"Point","coordinates":[-97.03725519963224,28.155642899968935]},"properties":{"substrate":"Firm/Hard Bottom","lease_number":null,"poll_year":2025}},{"type":"Feature","id":"45ff3c16-7901-4faf-bccc-32c931d547fe","geometry":{"type":"Point","coordinates":[-97.03818569975637,28.155090100146687]},"properties":{"substrate":"Mud","lease_number":null,"poll_year":2025}},{"type":"Feature","id":"4605d0bb-616d-4af9-96ac-c2605bb80e2f","geometry":{"type":"Point","coordinates":[-97.035173900137,28.154917899626714]},"properties":{"substrate":"Firm/Hard Bottom","lease_number":null,"poll_year":2025}},{"type":"Feature","id":"4694b179-95b2-48b1-b591-cbefcf3bf8dc","geometry":{"type":"Point","coordinates":[-97.03681120011655,28.154802500356816]},"properties":{"substrate":"Firm/Hard Bottom","lease_number":null,"poll_year":2025}},{"type":"Feature","id":"48dd229a-dd64-42f1-8f0a-040a7178f6a0","geometry":{"type":"Point","coordinates":[-97.03149629977173,28.15375870006479]},"properties":{"substrate":"Firm/Hard Bottom","lease_number":null,"poll_year":2025}},{"type":"Feature","id":"4a96f7fd-5fa8-4a7c-9db2-8891161ef302","geometry":{"type":"Point","coordinates":[-97.03321600041569,28.153656600130475]},"properties":{"substrate":"Firm/Hard Bottom","lease_number":null,"poll_year":2025}},{"type":"Feature","id":"4b91d848-90c7-4f3e-9045-8435d3bf83d8","geometry":{"type":"Point","coordinates":[-97.03178040006519,28.15385269981118]},"properties":{"substrate":"Firm/Hard Bottom","lease_number":null,"poll_year":2025}},{"type":"Feature","id":"4c0d5bc0-9512-41bd-aef0-6739572c22e8","geometry":{"type":"Point","coordinates":[-97.04859960024889,28.158672299833235]},"properties":{"substrate":"Mud","lease_number":null,"poll_year":2025}},{"type":"Feature","id":"4c628c0b-8fac-481f-8c7f-97a013d1eb92","geometry":{"type":"Point","coordinates":[-97.03634989994679,28.15448739988711]},"properties":{"substrate":"Firm/Hard Bottom","lease_number":null,"poll_year":2025}},{"type":"Feature","id":"4cad29d4-2b01-438f-b909-007cf6082241","geometry":{"type":"Point","coordinates":[-97.0395609997951,28.156387699644494]},"properties":{"substrate":"Mud","lease_number":null,"poll_year":2025}},{"type":"Feature","id":"4cc91ac1-20d2-454c-b7d3-b38255e67385","geometry":{"type":"Point","coordinates":[-97.03948619977633,28.155525100083082]},"properties":{"substrate":"Mud","lease_number":null,"poll_year":2025}},{"type":"Feature","id":"4cdfbc9f-1a5b-4151-b2a5-0580c76b1b22","geometry":{"type":"Point","coordinates":[-97.03893550016781,28.15550249985755]},"properties":{"substrate":"Firm/Hard Bottom","lease_number":null,"poll_year":2025}},{"type":"Feature","id":"4ddc59ad-8440-4de4-ac23-5b9c03a93364","geometry":{"type":"Point","coordinates":[-97.03642409989095,28.1546775000492]},"properties":{"substrate":"Firm/Hard Bottom","lease_number":null,"poll_year":2025}},{"type":"Feature","id":"4f45112b-5a1e-4e02-95e3-f7e9e4d4e85c","geometry":{"type":"Point","coordinates":[-97.03726769968941,28.154796499990578]},"properties":{"substrate":"Firm/Hard Bottom","lease_number":null,"poll_year":2025}},{"type":"Feature","id":"4fcd152c-ad6a-4049-a145-d437d4e144bb","geometry":{"type":"Point","coordinates":[-97.05014439980532,28.1598399996353]},"properties":{"substrate":"Firm/Hard Bottom","lease_number":null,"poll_year":2025}},{"type":"Feature","id":"4febd6f0-767c-4d1b-a98d-eebec2cf1d3b","geometry":{"type":"Point","coordinates":[-97.04500429993672,28.157519099954527]},"properties":{"substrate":"Mud","lease_number":null,"poll_year":2025}},{"type":"Feature","id":"50086c3b-c9ac-4279-b645-550fa2e14f7e","geometry":{"type":"Point","coordinates":[-97.04582490016898,28.15841979985723]},"properties":{"substrate":"Mud","lease_number":null,"poll_year":2025}},{"type":"Feature","id":"51ac5d87-905c-4ffb-934a-7157a3e456cd","geometry":{"type":"Point","coordinates":[-97.03613059962638,28.154416199956135]},"properties":{"substrate":"Firm/Hard Bottom","lease_number":null,"poll_year":2025}},{"type":"Feature","id":"51f1c46b-66c2-4c1a-b51b-edec1276fef8","geometry":{"type":"Point","coordinates":[-97.04225279974733,28.15428490020846]},"properties":{"substrate":"Firm/Hard Bottom","lease_number":null,"poll_year":2025}},{"type":"Feature","id":"52626841-dd2c-4925-8954-76622fbb665c","geometry":{"type":"Point","coordinates":[-97.03284749980804,28.153509599783334]},"properties":{"substrate":"Firm/Hard Bottom","lease_number":null,"poll_year":2025}},{"type":"Feature","id":"529b53cf-4503-4938-9358-05a2732dd709","geometry":{"type":"Point","coordinates":[-97.03714050004182,28.1547617000773]},"properties":{"substrate":"Firm/Hard Bottom","lease_number":null,"poll_year":2025}},{"type":"Feature","id":"52d44bbd-e0fb-496e-a498-bc1be3ccd759","geometry":{"type":"Point","coordinates":[-97.0399622996904,28.15583090003055]},"properties":{"substrate":"Firm/Hard Bottom","lease_number":null,"poll_year":2025}},{"type":"Feature","id":"53f19e9b-9b9b-433c-a9a8-e8acf9f73615","geometry":{"type":"Point","coordinates":[-97.04484969987631,28.158300400025027]},"properties":{"substrate":"Firm/Hard Bottom","lease_number":null,"poll_year":2025}},{"type":"Feature","id":"54c23d7b-8b54-4e26-9f8a-bbe4a1f10252","geometry":{"type":"Point","coordinates":[-97.03571419994947,28.15443939997444]},"properties":{"substrate":"Mud","lease_number":null,"poll_year":2025}},{"type":"Feature","id":"565529cf-3eaf-40f7-bf05-429289958163","geometry":{"type":"Point","coordinates":[-97.03456989988939,28.154735899915824]},"properties":{"substrate":"Firm/Hard Bottom","lease_number":null,"poll_year":2025}},{"type":"Feature","id":"59f47998-69d9-4be1-a437-7ec4bced4a12","geometry":{"type":"Point","coordinates":[-97.04639219974561,28.158593200160468]},"properties":{"substrate":"Mud","lease_number":null,"poll_year":2025}},{"type":"Feature","id":"5d6519cc-5cbc-4c00-a5f4-560ed2736c9d","geometry":{"type":"Point","coordinates":[-97.03843929955096,28.156032900192223]},"properties":{"substrate":"Firm/Hard Bottom","lease_number":null,"poll_year":2025}},{"type":"Feature","id":"5ed783a8-eeb8-41a8-b016-fa4caf80e593","geometry":{"type":"Point","coordinates":[-97.0406867999502,28.156949900226934]},"properties":{"substrate":"Mud","lease_number":null,"poll_year":2025}},{"type":"Feature","id":"5f9957d6-ee22-40bd-adc8-734ac39cd468","geometry":{"type":"Point","coordinates":[-97.04381830008117,28.157977300360475]},"properties":{"substrate":"Mud","lease_number":null,"poll_year":2025}},{"type":"Feature","id":"60262b01-9fcf-4157-bb59-77bf3aaaf01c","geometry":{"type":"Point","coordinates":[-97.03379260025046,28.154594400076938]},"properties":{"substrate":"Firm/Hard Bottom","lease_number":null,"poll_year":2025}},{"type":"Feature","id":"6054f4d3-ec1f-4ada-8378-064ebc7a9b12","geometry":{"type":"Point","coordinates":[-97.04427669959088,28.15812069969218]},"properties":{"substrate":"Firm/Hard Bottom","lease_number":null,"poll_year":2025}},{"type":"Feature","id":"6094c0d1-70f2-4389-b468-70023eac92b5","geometry":{"type":"Point","coordinates":[-97.03996080040218,28.156516600190066]},"properties":{"substrate":"Mud","lease_number":null,"poll_year":2025}},{"type":"Feature","id":"60c576e3-0d7b-4f15-b177-bba6ab88afff","geometry":{"type":"Point","coordinates":[-97.04254910006065,28.15441260019867]},"properties":{"substrate":"Firm/Hard Bottom","lease_number":null,"poll_year":2025}},{"type":"Feature","id":"61032e3d-2483-4a46-8ba1-1ca84ae52a4b","geometry":{"type":"Point","coordinates":[-97.03398670013223,28.1537471997784]},"properties":{"substrate":"Firm/Hard Bottom","lease_number":null,"poll_year":2025}},{"type":"Feature","id":"62992ec0-dcbb-4319-9c13-12f895749eb2","geometry":{"type":"Point","coordinates":[-97.0333723000886,28.154476199856592]},"properties":{"substrate":"Firm/Hard Bottom","lease_number":null,"poll_year":2025}},{"type":"Feature","id":"62f9daae-0f3b-447a-98e9-a88b3c0f53ae","geometry":{"type":"Point","coordinates":[-97.03690500040189,28.155527000133365]},"properties":{"substrate":"Firm/Hard Bottom","lease_number":null,"poll_year":2025}},{"type":"Feature","id":"630d263d-29d1-482b-8f89-9a61ca3aa5d2","geometry":{"type":"Point","coordinates":[-97.0456571999768,28.15855520023681]},"properties":{"substrate":"Mud","lease_number":null,"poll_year":2025}},{"type":"Feature","id":"65aa7954-ffd6-42d3-9665-b6a4c2022dfb","geometry":{"type":"Point","coordinates":[-97.03274389980128,28.154267900143722]},"properties":{"substrate":"Firm/Hard Bottom","lease_number":null,"poll_year":2025}},{"type":"Feature","id":"65c5d994-80fb-4d05-809c-285c120d4ed9","geometry":{"type":"Point","coordinates":[-97.033570100131,28.154529199806703]},"properties":{"substrate":"Firm/Hard Bottom","lease_number":null,"poll_year":2025}},{"type":"Feature","id":"65cd53f9-bea8-43e3-9af4-3641f2b9a840","geometry":{"type":"Point","coordinates":[-97.03817860037068,28.156136799690156]},"properties":{"substrate":"Firm/Hard Bottom","lease_number":null,"poll_year":2025}},{"type":"Feature","id":"662354f1-b621-4d27-a729-b815eed71071","geometry":{"type":"Point","coordinates":[-97.04726799965546,28.159077999753364]},"properties":{"substrate":"Mud","lease_number":null,"poll_year":2025}},{"type":"Feature","id":"67a251e3-e21f-4416-b3c1-4f8a6b8e2213","geometry":{"type":"Point","coordinates":[-97.03197739970868,28.15391810008486]},"properties":{"substrate":"Firm/Hard Bottom","lease_number":null,"poll_year":2025}},{"type":"Feature","id":"67d79b68-f3c7-4522-ae09-53a6080d4c0a","geometry":{"type":"Point","coordinates":[-97.04694200014055,28.15896790022768]},"properties":{"substrate":"Mud","lease_number":null,"poll_year":2025}},{"type":"Feature","id":"691b0b53-8211-4e4c-adb3-7421853862d0","geometry":{"type":"Point","coordinates":[-97.04409859960263,28.157190899793672]},"properties":{"substrate":"Mud","lease_number":null,"poll_year":2025}},{"type":"Feature","id":"69d5381f-10e0-4b24-b66b-b844a60cc069","geometry":{"type":"Point","coordinates":[-97.03166610022507,28.15381429981354]},"properties":{"substrate":"Firm/Hard Bottom","lease_number":null,"poll_year":2025}},{"type":"Feature","id":"6af03c36-2b62-47c7-95c2-6a207d04c5c9","geometry":{"type":"Point","coordinates":[-97.04119850009896,28.156228200339807]},"properties":{"substrate":"Mud","lease_number":null,"poll_year":2025}},{"type":"Feature","id":"6c089dd1-e0f2-4b95-9eb0-d5b903c2a42e","geometry":{"type":"Point","coordinates":[-97.03677409969531,28.15547650028605]},"properties":{"substrate":"Firm/Hard Bottom","lease_number":null,"poll_year":2025}},{"type":"Feature","id":"6c102821-4128-4bf3-bedf-18340144d0c0","geometry":{"type":"Point","coordinates":[-97.04975210013086,28.15901359974963]},"properties":{"substrate":"Mud","lease_number":null,"poll_year":2025}},{"type":"Feature","id":"6c87107a-3560-420b-8680-cc35654c1ff5","geometry":{"type":"Point","coordinates":[-97.03556429987462,28.154394400234786]},"properties":{"substrate":"Firm/Hard Bottom","lease_number":null,"poll_year":2025}},{"type":"Feature","id":"6c8fa2c1-b4d3-45a7-bb1c-d7a76cb4e500","geometry":{"type":"Point","coordinates":[-97.04898999998653,28.159608900332053]},"properties":{"substrate":"Firm/Hard Bottom","lease_number":null,"poll_year":2025}},{"type":"Feature","id":"6c9943d8-9eda-4265-986f-505271f14505","geometry":{"type":"Point","coordinates":[-97.03650030038324,28.15557879965718]},"properties":{"substrate":"Firm/Hard Bottom","lease_number":null,"poll_year":2025}},{"type":"Feature","id":"6d1cec7b-edf4-4a16-ba9e-f552307bc38f","geometry":{"type":"Point","coordinates":[-97.03943090038577,28.15654939970751]},"properties":{"substrate":"Mud","lease_number":null,"poll_year":2025}},{"type":"Feature","id":"6db18f3f-4c21-47e4-beef-915afc3b15da","geometry":{"type":"Point","coordinates":[-97.03829499957361,28.15617749965199]},"properties":{"substrate":"Mud","lease_number":null,"poll_year":2025}},{"type":"Feature","id":"6f3b9af8-8470-419a-a635-e9ebc90aa30b","geometry":{"type":"Point","coordinates":[-97.04179799978698,28.154095200115535]},"properties":{"substrate":"Firm/Hard Bottom","lease_number":null,"poll_year":2025}},{"type":"Feature","id":"6f530eee-fc6e-4942-bf5a-dd92840a96d6","geometry":{"type":"Point","coordinates":[-97.03984799985028,28.15668060005277]},"properties":{"substrate":"Mud","lease_number":null,"poll_year":2025}},{"type":"Feature","id":"6f5b6d61-f27b-4ef1-920d-34d07a3c9ed8","geometry":{"type":"Point","coordinates":[-97.03502960015965,28.154955199902208]},"properties":{"substrate":"Firm/Hard Bottom","lease_number":null,"poll_year":2025}},{"type":"Feature","id":"6fb72f8b-2a2d-4100-8cc6-5ffa6761b033","geometry":{"type":"Point","coordinates":[-97.0389055000306,28.15637480015647]},"properties":{"substrate":"Mud","lease_number":null,"poll_year":2025}},{"type":"Feature","id":"71024455-be8f-4333-b644-a53f72d5d685","geometry":{"type":"Point","coordinates":[-97.03470430043231,28.15485989983078]},"properties":{"substrate":"Firm/Hard Bottom","lease_number":null,"poll_year":2025}},{"type":"Feature","id":"71d4392c-37f6-4a41-b04e-6da1f6e84961","geometry":{"type":"Point","coordinates":[-97.04541319957931,28.157656399901857]},"properties":{"substrate":"Mud","lease_number":null,"poll_year":2025}},{"type":"Feature","id":"71ea5d62-b866-46a4-9ff7-e44385a02f6e","geometry":{"type":"Point","coordinates":[-97.03939460036344,28.155646200302726]},"properties":{"substrate":"Firm/Hard Bottom","lease_number":null,"poll_year":2025}},{"type":"Feature","id":"7251f416-9127-4ac8-874b-df62bcf809ee","geometry":{"type":"Point","coordinates":[-97.04354419983348,28.157685499630407]},"properties":{"substrate":"Firm/Hard Bottom","lease_number":null,"poll_year":2025}},{"type":"Feature","id":"73535f6d-1c07-4c02-8608-f63192308c13","geometry":{"type":"Point","coordinates":[-97.03508799963627,28.15488969967523]},"properties":{"substrate":"Firm/Hard Bottom","lease_number":null,"poll_year":2025}},{"type":"Feature","id":"755b0179-fe15-46f1-b5c4-692354b5d070","geometry":{"type":"Point","coordinates":[-97.03856259961192,28.156078099622597]},"properties":{"substrate":"Mud","lease_number":null,"poll_year":2025}},{"type":"Feature","id":"75d90003-e81f-4ffb-97e9-18ab52782842","geometry":{"type":"Point","coordinates":[-97.03202290027613,28.153239099735085]},"properties":{"substrate":"Firm/Hard Bottom","lease_number":null,"poll_year":2025}},{"type":"Feature","id":"75df62ab-3cf5-40a4-8db7-1aca6f4d95d5","geometry":{"type":"Point","coordinates":[-97.03263499973431,28.15413069960611]},"properties":{"substrate":"Firm/Hard Bottom","lease_number":null,"poll_year":2025}},{"type":"Feature","id":"75fb32ba-228f-4a53-b784-36e3771c0167","geometry":{"type":"Point","coordinates":[-97.04446909986012,28.157321499805427]},"properties":{"substrate":"Firm/Hard Bottom","lease_number":null,"poll_year":2025}},{"type":"Feature","id":"77739bd6-56bf-47cd-b84c-9d624ec0383a","geometry":{"type":"Point","coordinates":[-97.03876180012784,28.156326900091493]},"properties":{"substrate":"Firm/Hard Bottom","lease_number":null,"poll_year":2025}},{"type":"Feature","id":"77840f11-3043-4821-9d6a-bb79225ebf98","geometry":{"type":"Point","coordinates":[-97.03546569989072,28.154187700258372]},"properties":{"substrate":"Firm/Hard Bottom","lease_number":null,"poll_year":2025}},{"type":"Feature","id":"77eb5168-670f-4139-979d-e3e3ccf35f8a","geometry":{"type":"Point","coordinates":[-97.03355149961473,28.153757400342414]},"properties":{"substrate":"Firm/Hard Bottom","lease_number":null,"poll_year":2025}},{"type":"Feature","id":"77fe789d-856f-47f5-adb6-03c739633766","geometry":{"type":"Point","coordinates":[-97.04598450025223,28.15866080007468]},"properties":{"substrate":"Mud","lease_number":null,"poll_year":2025}},{"type":"Feature","id":"780cb968-113d-466c-b9bd-fbbfc6fbc1c1","geometry":{"type":"Point","coordinates":[-97.04264330009627,28.157590799951297]},"properties":{"substrate":"Too Deep to Poll","lease_number":null,"poll_year":2025}},{"type":"Feature","id":"7913254d-5ec2-4335-82db-fe9c8fc6533c","geometry":{"type":"Point","coordinates":[-97.03480170026701,28.154805499747788]},"properties":{"substrate":"Firm/Hard Bottom","lease_number":null,"poll_year":2025}},{"type":"Feature","id":"793f630a-f90c-4027-b66e-4eb77789237f","geometry":{"type":"Point","coordinates":[-97.0398423000398,28.155792599744398]},"properties":{"substrate":"Mud","lease_number":null,"poll_year":2025}},{"type":"Feature","id":"798b8c20-6976-4c65-af77-f36d114cb1b2","geometry":{"type":"Point","coordinates":[-97.0463116002034,28.158770400168255]},"properties":{"substrate":"Mud","lease_number":null,"poll_year":2025}},{"type":"Feature","id":"79b7bca2-e603-4089-a097-1f7eb81a7fec","geometry":{"type":"Point","coordinates":[-97.04102820018234,28.15377850003847]},"properties":{"substrate":"Mud","lease_number":null,"poll_year":2025}},{"type":"Feature","id":"79d9cf29-76ec-47fa-a55e-ea90e39ed2c4","geometry":{"type":"Point","coordinates":[-97.04011599963887,28.1567657996041]},"properties":{"substrate":"Mud","lease_number":null,"poll_year":2025}},{"type":"Feature","id":"7a82b17f-62da-42eb-8ac3-bf51af20df2a","geometry":{"type":"Point","coordinates":[-97.04310340011682,28.154641100208455]},"properties":{"substrate":"Firm/Hard Bottom","lease_number":null,"poll_year":2025}},{"type":"Feature","id":"7b7ab808-33bb-4b1f-8aa9-42eb0f2f3c9a","geometry":{"type":"Point","coordinates":[-97.03531350012877,28.154958699846695]},"properties":{"substrate":"Firm/Hard Bottom","lease_number":null,"poll_year":2025}},{"type":"Feature","id":"7bc3d1bc-2914-41ef-82da-9e13b0c44afc","geometry":{"type":"Point","coordinates":[-97.04860129986142,28.159493600365625]},"properties":{"substrate":"Mud","lease_number":null,"poll_year":2025}},{"type":"Feature","id":"7e26afba-8a40-431f-9609-746f955b39c2","geometry":{"type":"Point","coordinates":[-97.03197290004742,28.153937500054205]},"properties":{"substrate":"Firm/Hard Bottom","lease_number":null,"poll_year":2025}},{"type":"Feature","id":"7e2c4660-118a-489b-936d-42f5d1314ffb","geometry":{"type":"Point","coordinates":[-97.04155900031068,28.15634880000482]},"properties":{"substrate":"Mud","lease_number":null,"poll_year":2025}},{"type":"Feature","id":"7e80f25a-f7a4-4262-9dc8-b9c268764e9d","geometry":{"type":"Point","coordinates":[-97.04474769976906,28.157423300035216]},"properties":{"substrate":"Firm/Hard Bottom","lease_number":null,"poll_year":2025}},{"type":"Feature","id":"7f367872-ea3e-45fe-96bb-7e507fcdec70","geometry":{"type":"Point","coordinates":[-97.03820389962401,28.155260299748218]},"properties":{"substrate":"Mud","lease_number":null,"poll_year":2025}},{"type":"Feature","id":"7fa6cf12-cb09-42fa-8756-ab85a0208179","geometry":{"type":"Point","coordinates":[-97.03692850032972,28.15485029972497]},"properties":{"substrate":"Firm/Hard Bottom","lease_number":null,"poll_year":2025}},{"type":"Feature","id":"7fda9709-4d0c-4a27-bd19-c9e23076814d","geometry":{"type":"Point","coordinates":[-97.03165849957944,28.153089299760733]},"properties":{"substrate":"Firm/Hard Bottom","lease_number":null,"poll_year":2025}},{"type":"Feature","id":"80394767-ff83-4d38-8852-b606b7456f22","geometry":{"type":"Point","coordinates":[-97.03621430015298,28.154608899668837]},"properties":{"substrate":"Firm/Hard Bottom","lease_number":null,"poll_year":2025}},{"type":"Feature","id":"80795b96-a827-42ab-a011-d94f258a3db9","geometry":{"type":"Point","coordinates":[-97.03360399985489,28.154441300044002]},"properties":{"substrate":"Firm/Hard Bottom","lease_number":null,"poll_year":2025}},{"type":"Feature","id":"8082c7ca-fd51-4b4c-aaaa-02a1888b8143","geometry":{"type":"Point","coordinates":[-97.03997159994853,28.15334610038047]},"properties":{"substrate":"Firm/Hard Bottom","lease_number":null,"poll_year":2025}},{"type":"Feature","id":"81292013-c291-492f-bb6d-4ab833904ff5","geometry":{"type":"Point","coordinates":[-97.0321885002072,28.15328799993671]},"properties":{"substrate":"Firm/Hard Bottom","lease_number":null,"poll_year":2025}},{"type":"Feature","id":"81ab881b-d319-4e31-a1b9-23807995b88b","geometry":{"type":"Point","coordinates":[-97.0362172996277,28.154447000252464]},"properties":{"substrate":"Firm/Hard Bottom","lease_number":null,"poll_year":2025}},{"type":"Feature","id":"820e8c21-901b-4014-8a89-62a43c3e5d34","geometry":{"type":"Point","coordinates":[-97.03686870037956,28.1557112003046]},"properties":{"substrate":"Firm/Hard Bottom","lease_number":null,"poll_year":2025}},{"type":"Feature","id":"84016c87-26f8-4d2b-96e9-bc84e2f78185","geometry":{"type":"Point","coordinates":[-97.04495950005519,28.15813849985539]},"properties":{"substrate":"Mud","lease_number":null,"poll_year":2025}},{"type":"Feature","id":"84e48ea8-a005-41b7-99d8-debb4f1343eb","geometry":{"type":"Point","coordinates":[-97.03645430035247,28.154512899930953]},"properties":{"substrate":"Firm/Hard Bottom","lease_number":null,"poll_year":2025}},{"type":"Feature","id":"8503d579-094d-4115-ad3c-4c135879eb37","geometry":{"type":"Point","coordinates":[-97.04037270041783,28.156649999985408]},"properties":{"substrate":"Mud","lease_number":null,"poll_year":2025}},{"type":"Feature","id":"851eb998-7b19-42c7-8e26-dbf7aea2f54f","geometry":{"type":"Point","coordinates":[-97.03561409977902,28.155131400066004]},"properties":{"substrate":"Firm/Hard Bottom","lease_number":null,"poll_year":2025}},{"type":"Feature","id":"85aebb1b-454f-462d-9593-ca8f400ec2e1","geometry":{"type":"Point","coordinates":[-97.03689540010645,28.154667400159916]},"properties":{"substrate":"Firm/Hard Bottom","lease_number":null,"poll_year":2025}},{"type":"Feature","id":"8733aec8-96f8-49ac-978f-9e0ad8ad6b9c","geometry":{"type":"Point","coordinates":[-97.04117069993586,28.15710440010689]},"properties":{"substrate":"Mud","lease_number":null,"poll_year":2025}},{"type":"Feature","id":"87735d29-d147-46d6-8023-3dc99c88124b","geometry":{"type":"Point","coordinates":[-97.03897240026474,28.155354900110527]},"properties":{"substrate":"Mud","lease_number":null,"poll_year":2025}},{"type":"Feature","id":"87cb93c5-2334-4eac-bd96-e98fa371504d","geometry":{"type":"Point","coordinates":[-97.03460189967645,28.15391599962254]},"properties":{"substrate":"Firm/Hard Bottom","lease_number":null,"poll_year":2025}},{"type":"Feature","id":"87e2e059-99ba-4a9e-b440-55af0c33310c","geometry":{"type":"Point","coordinates":[-97.0377233000487,28.15509679985086]},"properties":{"substrate":"Firm/Hard Bottom","lease_number":null,"poll_year":2025}},{"type":"Feature","id":"8805698b-688e-4931-bd4c-e1745e96cbe8","geometry":{"type":"Point","coordinates":[-97.03484520028633,28.15416389982851]},"properties":{"substrate":"Mud","lease_number":null,"poll_year":2025}},{"type":"Feature","id":"884dd3e1-f538-467a-90c5-3dbb436616bb","geometry":{"type":"Point","coordinates":[-97.0420114996856,28.157386399789626]},"properties":{"substrate":"Firm/Hard Bottom","lease_number":null,"poll_year":2025}},{"type":"Feature","id":"8976449b-6a18-4ae0-a9d5-518342c33316","geometry":{"type":"Point","coordinates":[-97.03607750020993,28.155294300351883]},"properties":{"substrate":"Firm/Hard Bottom","lease_number":null,"poll_year":2025}},{"type":"Feature","id":"89e329fc-6b7b-4973-a566-50a3eefdf315","geometry":{"type":"Point","coordinates":[-97.03589000025056,28.154496799643077]},"properties":{"substrate":"Firm/Hard Bottom","lease_number":null,"poll_year":2025}},{"type":"Feature","id":"8abebab0-d4c2-4602-beb1-0b3471856698","geometry":{"type":"Point","coordinates":[-97.04621240014488,28.158537800100518]},"properties":{"substrate":"Mud","lease_number":null,"poll_year":2025}},{"type":"Feature","id":"8b2c9689-fb1e-4111-bf5a-b25d5daa8c9e","geometry":{"type":"Point","coordinates":[-97.0461164995984,28.158706099770686]},"properties":{"substrate":"Mud","lease_number":null,"poll_year":2025}},{"type":"Feature","id":"8bc795b5-44f8-4633-8545-89d2edfa3708","geometry":{"type":"Point","coordinates":[-97.03526419968766,28.155027200208256]},"properties":{"substrate":"Firm/Hard Bottom","lease_number":null,"poll_year":2025}},{"type":"Feature","id":"8c9acc6b-2361-4034-ac73-21df020214c2","geometry":{"type":"Point","coordinates":[-97.04791579995967,28.159099599731178]},"properties":{"substrate":"Mud","lease_number":null,"poll_year":2025}},{"type":"Feature","id":"8d06fde1-b1c1-4e6c-8364-2aadfbd2de69","geometry":{"type":"Point","coordinates":[-97.03422289955978,28.153970199774104]},"properties":{"substrate":"Firm/Hard Bottom","lease_number":null,"poll_year":2025}},{"type":"Feature","id":"8d6f3235-0eaa-42f1-9c93-dc98de2eec67","geometry":{"type":"Point","coordinates":[-97.03179940033176,28.153172000131498]},"properties":{"substrate":"Firm/Hard Bottom","lease_number":null,"poll_year":2025}},{"type":"Feature","id":"8fa397ed-2f65-488d-a6c5-6853ecc57799","geometry":{"type":"Point","coordinates":[-97.03371639975818,28.15447840010312]},"properties":{"substrate":"Firm/Hard Bottom","lease_number":null,"poll_year":2025}},{"type":"Feature","id":"8fd4a17d-a373-4301-a499-f652853d8a9f","geometry":{"type":"Point","coordinates":[-97.04131920043548,28.15626839971524]},"properties":{"substrate":"Mud","lease_number":null,"poll_year":2025}},{"type":"Feature","id":"90a51d51-514d-47be-a493-6ccbe9c067ba","geometry":{"type":"Point","coordinates":[-97.03240760020331,28.154055399898475]},"properties":{"substrate":"Firm/Hard Bottom","lease_number":null,"poll_year":2025}},{"type":"Feature","id":"91efd482-b472-4b1f-8ca9-f5cb04b78266","geometry":{"type":"Point","coordinates":[-97.0365758001896,28.154722600256846]},"properties":{"substrate":"Firm/Hard Bottom","lease_number":null,"poll_year":2025}},{"type":"Feature","id":"9282da7d-6761-4655-a9d8-15389c30f841","geometry":{"type":"Point","coordinates":[-97.04772980018683,28.159219999747656]},"properties":{"substrate":"Mud","lease_number":null,"poll_year":2025}},{"type":"Feature","id":"929d209b-7426-414e-b263-ec713b760cbd","geometry":{"type":"Point","coordinates":[-97.03220059961575,28.154051499950025]},"properties":{"substrate":"Firm/Hard Bottom","lease_number":null,"poll_year":2025}},{"type":"Feature","id":"9467cb0c-2934-42f0-b351-97725f34cba3","geometry":{"type":"Point","coordinates":[-97.0429891002767,28.15750910012568]},"properties":{"substrate":"Firm/Hard Bottom","lease_number":null,"poll_year":2025}},{"type":"Feature","id":"95fb9290-bd04-4c38-80e4-34570a846886","geometry":{"type":"Point","coordinates":[-97.033378999724,28.15371990005778]},"properties":{"substrate":"Firm/Hard Bottom","lease_number":null,"poll_year":2025}},{"type":"Feature","id":"9651c537-57ec-4354-ba3c-3cc4ba31ae8a","geometry":{"type":"Point","coordinates":[-97.03392570003285,28.15464080003129]},"properties":{"substrate":"Firm/Hard Bottom","lease_number":null,"poll_year":2025}},{"type":"Feature","id":"9a1632f3-61df-4eb6-9bbb-ea4abb88fd44","geometry":{"type":"Point","coordinates":[-97.03402930003963,28.15457120009225]},"properties":{"substrate":"Firm/Hard Bottom","lease_number":null,"poll_year":2025}},{"type":"Feature","id":"9abac27d-e656-4ebb-8267-bbe331ce6367","geometry":{"type":"Point","coordinates":[-97.03312449981749,28.154392000395983]},"properties":{"substrate":"Firm/Hard Bottom","lease_number":null,"poll_year":2025}},{"type":"Feature","id":"9b016081-210a-4bd4-a72f-a43e0eae240d","geometry":{"type":"Point","coordinates":[-97.03975909987481,28.156453599712393]},"properties":{"substrate":"Mud","lease_number":null,"poll_year":2025}},{"type":"Feature","id":"9b80535f-8096-4b47-a853-40b7969686c8","geometry":{"type":"Point","coordinates":[-97.048833199952,28.159379400347884]},"properties":{"substrate":"Firm/Hard Bottom","lease_number":null,"poll_year":2025}},{"type":"Feature","id":"9ba5e5af-2404-437f-bd2a-f07488e346aa","geometry":{"type":"Point","coordinates":[-97.03504189989252,28.154063599769266]},"properties":{"substrate":"Firm/Hard Bottom","lease_number":null,"poll_year":2025}},{"type":"Feature","id":"9bb4562a-4d0b-42f5-be42-29db22c9de56","geometry":{"type":"Point","coordinates":[-97.03853460002283,28.15537389985007]},"properties":{"substrate":"Firm/Hard Bottom","lease_number":null,"poll_year":2025}},{"type":"Feature","id":"9bbebcb3-e0f4-4741-a41a-32253608e6b1","geometry":{"type":"Point","coordinates":[-97.04240380025837,28.157321400012872]},"properties":{"substrate":"Mud","lease_number":null,"poll_year":2025}},{"type":"Feature","id":"9bff735c-5175-4746-bbc0-8bc508fdec95","geometry":{"type":"Point","coordinates":[-97.03779909989237,28.15495109960503]},"properties":{"substrate":"Mud","lease_number":null,"poll_year":2025}},{"type":"Feature","id":"9c72f518-77cc-4107-b804-da82bd5bc780","geometry":{"type":"Point","coordinates":[-97.03328229967691,28.15369420023321]},"properties":{"substrate":"Firm/Hard Bottom","lease_number":null,"poll_year":2025}},{"type":"Feature","id":"9da53359-79a7-49b4-a700-ec9d83598c15","geometry":{"type":"Point","coordinates":[-97.0377940998695,28.156016899926705]},"properties":{"substrate":"Mud","lease_number":null,"poll_year":2025}},{"type":"Feature","id":"9da67fcd-d118-411d-954d-c45df8f04e80","geometry":{"type":"Point","coordinates":[-97.03515670009423,28.15409600006402]},"properties":{"substrate":"Firm/Hard Bottom","lease_number":null,"poll_year":2025}},{"type":"Feature","id":"9ecfbc6f-743f-433e-95b0-cbf13b657119","geometry":{"type":"Point","coordinates":[-97.03410750018173,28.153783999898483]},"properties":{"substrate":"Firm/Hard Bottom","lease_number":null,"poll_year":2025}},{"type":"Feature","id":"9ef71dae-e534-4a44-a0e2-889684eeaacb","geometry":{"type":"Point","coordinates":[-97.03434510008282,28.154761600282363]},"properties":{"substrate":"Firm/Hard Bottom","lease_number":null,"poll_year":2025}},{"type":"Feature","id":"9f540151-6432-4d2f-9189-314cccd29af9","geometry":{"type":"Point","coordinates":[-97.03419439960906,28.154714200054553]},"properties":{"substrate":"Firm/Hard Bottom","lease_number":null,"poll_year":2025}},{"type":"Feature","id":"a0d2aedb-bd5f-4b8e-b794-2559c1b34fbd","geometry":{"type":"Point","coordinates":[-97.04956999994467,28.159788100007273]},"properties":{"substrate":"Mud","lease_number":null,"poll_year":2025}},{"type":"Feature","id":"a0f80a0d-e717-4590-81f7-47a69b709fa3","geometry":{"type":"Point","coordinates":[-97.03211979974921,28.153963800178506]},"properties":{"substrate":"Firm/Hard Bottom","lease_number":null,"poll_year":2025}},{"type":"Feature","id":"a121b8cf-8ad0-4f47-9a52-3cc974b663fc","geometry":{"type":"Point","coordinates":[-97.04460459994094,28.15803940023049]},"properties":{"substrate":"Mud","lease_number":null,"poll_year":2025}},{"type":"Feature","id":"a22b96d2-0c4b-4854-bb4a-6744c72cd2da","geometry":{"type":"Point","coordinates":[-97.04142380026717,28.15393860018301]},"properties":{"substrate":"Mud","lease_number":null,"poll_year":2025}},{"type":"Feature","id":"a4ef9697-013c-4701-b655-dc3bac325402","geometry":{"type":"Point","coordinates":[-97.03232370025071,28.153324800214623]},"properties":{"substrate":"Firm/Hard Bottom","lease_number":null,"poll_year":2025}},{"type":"Feature","id":"a581502f-5b25-497c-be6e-dfe1b280cf3c","geometry":{"type":"Point","coordinates":[-97.04044970041073,28.15584150036374]},"properties":{"substrate":"Mud","lease_number":null,"poll_year":2025}},{"type":"Feature","id":"a5e06b27-8b61-4db8-a7c8-00b57e1ff64e","geometry":{"type":"Point","coordinates":[-97.03757159975004,28.15488069992506]},"properties":{"substrate":"Mud","lease_number":null,"poll_year":2025}},{"type":"Feature","id":"a6c7a571-52bc-40be-bb94-c8f73b01eb08","geometry":{"type":"Point","coordinates":[-97.0381305000788,28.155928699627896]},"properties":{"substrate":"Firm/Hard Bottom","lease_number":null,"poll_year":2025}},{"type":"Feature","id":"a8c7aec0-c41c-4659-8324-63c8e2411527","geometry":{"type":"Point","coordinates":[-97.03250939998624,28.15338339961951]},"properties":{"substrate":"Firm/Hard Bottom","lease_number":null,"poll_year":2025}},{"type":"Feature","id":"a9876532-c3c8-4c02-99f5-aeeee698013a","geometry":{"type":"Point","coordinates":[-97.03266700041969,28.153443000122117]},"properties":{"substrate":"Firm/Hard Bottom","lease_number":null,"poll_year":2025}},{"type":"Feature","id":"aa0cf1ac-5a36-4922-959e-20f76e17260e","geometry":{"type":"Point","coordinates":[-97.03856969989593,28.155229300096885]},"properties":{"substrate":"Mud","lease_number":null,"poll_year":2025}},{"type":"Feature","id":"ab098092-dadf-44ac-a9fc-b6c25f762659","geometry":{"type":"Point","coordinates":[-97.04432180040803,28.157968799829597]},"properties":{"substrate":"Firm/Hard Bottom","lease_number":null,"poll_year":2025}},{"type":"Feature","id":"abea5239-8916-4c60-b93f-bf1d04fd81d5","geometry":{"type":"Point","coordinates":[-97.03404960016842,28.15466820010413]},"properties":{"substrate":"Firm/Hard Bottom","lease_number":null,"poll_year":2025}},{"type":"Feature","id":"acd9e79c-44c5-4d79-b211-4c1951652333","geometry":{"type":"Point","coordinates":[-97.04135099989823,28.157160799627665]},"properties":{"substrate":"Firm/Hard Bottom","lease_number":null,"poll_year":2025}},{"type":"Feature","id":"adb640c2-865b-45cf-8eac-09ae75199e50","geometry":{"type":"Point","coordinates":[-97.0354913000797,28.15509379967601]},"properties":{"substrate":"Firm/Hard Bottom","lease_number":null,"poll_year":2025}},{"type":"Feature","id":"adbd1562-47db-4322-aa62-ba4d6a109be2","geometry":{"type":"Point","coordinates":[-97.03526659998612,28.154300800145457]},"properties":{"substrate":"Firm/Hard Bottom","lease_number":null,"poll_year":2025}},{"type":"Feature","id":"add02fe8-6ea5-4388-ae67-92603f9c8d26","geometry":{"type":"Point","coordinates":[-97.0433629997592,28.157832799955877]},"properties":{"substrate":"Firm/Hard Bottom","lease_number":null,"poll_year":2025}},{"type":"Feature","id":"adf0cb7a-c3c7-4164-8766-0ede866a8dfb","geometry":{"type":"Point","coordinates":[-97.04033550028362,28.153498299854405]},"properties":{"substrate":"Firm/Hard Bottom","lease_number":null,"poll_year":2025}},{"type":"Feature","id":"af6bb692-dd11-4d98-b662-d9b126057a59","geometry":{"type":"Point","coordinates":[-97.03535459984965,28.15505580009419]},"properties":{"substrate":"Firm/Hard Bottom","lease_number":null,"poll_year":2025}},{"type":"Feature","id":"afb00709-078e-49fc-84a4-e2ce76130783","geometry":{"type":"Point","coordinates":[-97.04295549969181,28.15680040007185]},"properties":{"substrate":"Firm/Hard Bottom","lease_number":null,"poll_year":2025}},{"type":"Feature","id":"b32da1fc-b7af-4ee6-bfef-6534886e148f","geometry":{"type":"Point","coordinates":[-97.04280850027703,28.15451770039511]},"properties":{"substrate":"Firm/Hard Bottom","lease_number":null,"poll_year":2025}},{"type":"Feature","id":"b5a9e57f-a92d-416a-af2b-bd330642c38f","geometry":{"type":"Point","coordinates":[-97.03617629961983,28.155354599935364]},"properties":{"substrate":"Firm/Hard Bottom","lease_number":null,"poll_year":2025}},{"type":"Feature","id":"b5bc05f9-c976-45da-8578-b24fc6326c88","geometry":{"type":"Point","coordinates":[-97.03138510001767,28.153674900015705]},"properties":{"substrate":"Firm/Hard Bottom","lease_number":null,"poll_year":2025}},{"type":"Feature","id":"b6827cd0-209a-4077-bb44-c523d93b7469","geometry":{"type":"Point","coordinates":[-97.03371280020883,28.153681500012517]},"properties":{"substrate":"Firm/Hard Bottom","lease_number":null,"poll_year":2025}},{"type":"Feature","id":"b6981a8b-837e-46ae-853a-9efecd8f553c","geometry":{"type":"Point","coordinates":[-97.04046640009186,28.15355239962937]},"properties":{"substrate":"Firm/Hard Bottom","lease_number":null,"poll_year":2025}},{"type":"Feature","id":"b798aafa-56ad-4bf4-a49b-1f915181fcc7","geometry":{"type":"Point","coordinates":[-97.04083239978976,28.153699499713678]},"properties":{"substrate":"Firm/Hard Bottom","lease_number":null,"poll_year":2025}},{"type":"Feature","id":"b8668eec-d19f-48a0-8f70-4f6f09480ab2","geometry":{"type":"Point","coordinates":[-97.04228219980995,28.15747550018707]},"properties":{"substrate":"Too Deep to Poll","lease_number":null,"poll_year":2025}},{"type":"Feature","id":"b905847d-d4e3-477c-a790-cffed303ab12","geometry":{"type":"Point","coordinates":[-97.04939189995643,28.15973839970048]},"properties":{"substrate":"Mud","lease_number":null,"poll_year":2025}},{"type":"Feature","id":"b9fd5ffd-04a7-470f-810a-6ca94570b288","geometry":{"type":"Point","coordinates":[-97.03739930018361,28.155675500165888]},"properties":{"substrate":"Mud","lease_number":null,"poll_year":2025}},{"type":"Feature","id":"bbfefe83-ae47-426c-afbe-51650a4da214","geometry":{"type":"Point","coordinates":[-97.04038569993831,28.156855400275038]},"properties":{"substrate":"Mud","lease_number":null,"poll_year":2025}},{"type":"Feature","id":"bc6d6176-4ef3-4a42-be46-2d91822a0812","geometry":{"type":"Point","coordinates":[-97.03274220018874,28.153469700344452]},"properties":{"substrate":"Firm/Hard Bottom","lease_number":null,"poll_year":2025}},{"type":"Feature","id":"bca2bc7a-b8ed-49c8-8701-c37aa2193687","geometry":{"type":"Point","coordinates":[-97.04268080026782,28.15741440029051]},"properties":{"substrate":"Firm/Hard Bottom","lease_number":null,"poll_year":2025}},{"type":"Feature","id":"bcd0f020-3c78-4f3c-a3e7-af35d1b90f82","geometry":{"type":"Point","coordinates":[-97.03573049988027,28.154264999741045]},"properties":{"substrate":"Firm/Hard Bottom","lease_number":null,"poll_year":2025}},{"type":"Feature","id":"bd0f9327-f75b-49a5-aafd-c7e4216786d0","geometry":{"type":"Point","coordinates":[-97.04512250026181,28.157559299637192]},"properties":{"substrate":"Firm/Hard Bottom","lease_number":null,"poll_year":2025}},{"type":"Feature","id":"bde8b022-b6ba-44b7-a607-65befecd5650","geometry":{"type":"Point","coordinates":[-97.04150129972336,28.15721330007748]},"properties":{"substrate":"Mud","lease_number":null,"poll_year":2025}},{"type":"Feature","id":"bf4c496f-4d4d-4c7b-a0e0-7a53bb880abd","geometry":{"type":"Point","coordinates":[-97.03996789978788,28.15671909960745]},"properties":{"substrate":"Mud","lease_number":null,"poll_year":2025}},{"type":"Feature","id":"bf6956ac-e1eb-4fb4-a038-d3c3ec2aebfb","geometry":{"type":"Point","coordinates":[-97.03922620038367,28.156480500354597]},"properties":{"substrate":"Mud","lease_number":null,"poll_year":2025}},{"type":"Feature","id":"c11ae28e-5c6b-4e66-950c-b1ab19855d73","geometry":{"type":"Point","coordinates":[-97.04321290025838,28.157780500186128]},"properties":{"substrate":"Firm/Hard Bottom","lease_number":null,"poll_year":2025}},{"type":"Feature","id":"c437c552-de53-4a37-b82d-d2d6455020dc","geometry":{"type":"Point","coordinates":[-97.03159980006552,28.153646400348894]},"properties":{"substrate":"Firm/Hard Bottom","lease_number":null,"poll_year":2025}},{"type":"Feature","id":"c4806230-376d-4cd2-b68d-9497e605d9a6","geometry":{"type":"Point","coordinates":[-97.04346490015345,28.15505909965407]},"properties":{"substrate":"Firm/Hard Bottom","lease_number":null,"poll_year":2025}},{"type":"Feature","id":"c486980d-f1d3-4ebc-8185-4711f14e2794","geometry":{"type":"Point","coordinates":[-97.04486360040704,28.157468099708858]},"properties":{"substrate":"Mud","lease_number":null,"poll_year":2025}},{"type":"Feature","id":"c4dc07a4-b80e-4267-8d3f-8211f6da44c4","geometry":{"type":"Point","coordinates":[-97.04744829961783,28.158950599949506]},"properties":{"substrate":"Mud","lease_number":null,"poll_year":2025}},{"type":"Feature","id":"c753406a-3ef5-4f77-bdf0-d35b5bad9dfa","geometry":{"type":"Point","coordinates":[-97.03391789996124,28.154537299846083]},"properties":{"substrate":"Firm/Hard Bottom","lease_number":null,"poll_year":2025}},{"type":"Feature","id":"c7da0e70-96d2-4bbd-904c-fd07554f21c6","geometry":{"type":"Point","coordinates":[-97.0390610002029,28.155542499917075]},"properties":{"substrate":"Firm/Hard Bottom","lease_number":null,"poll_year":2025}},{"type":"Feature","id":"c7ecb269-8b26-48c4-aef4-66b3be4cad92","geometry":{"type":"Point","coordinates":[-97.03385509963806,28.153719800261868]},"properties":{"substrate":"Firm/Hard Bottom","lease_number":null,"poll_year":2025}},{"type":"Feature","id":"c83f19ae-8574-4cdc-a1f5-6c9f624d5338","geometry":{"type":"Point","coordinates":[-97.04674429981114,28.158900400298485]},"properties":{"substrate":"Mud","lease_number":null,"poll_year":2025}},{"type":"Feature","id":"c888662c-56fa-41e5-8716-b89b74579e24","geometry":{"type":"Point","coordinates":[-97.04603460019396,28.158479399931927]},"properties":{"substrate":"Mud","lease_number":null,"poll_year":2025}},{"type":"Feature","id":"cb02e3e2-bc0a-49c8-aef3-308e5d643c7b","geometry":{"type":"Point","coordinates":[-97.04827160018583,28.159212399808492]},"properties":{"substrate":"Mud","lease_number":null,"poll_year":2025}},{"type":"Feature","id":"cb395989-0220-416a-926d-1b48e9c22650","geometry":{"type":"Point","coordinates":[-97.03411389977984,28.154597500060866]},"properties":{"substrate":"Firm/Hard Bottom","lease_number":null,"poll_year":2025}},{"type":"Feature","id":"cc2ccb89-57d0-4f83-b6a6-9adde827c2f6","geometry":{"type":"Point","coordinates":[-97.04363490003277,28.157917700006216]},"properties":{"substrate":"Firm/Hard Bottom","lease_number":null,"poll_year":2025}},{"type":"Feature","id":"cc30307f-48a0-4f89-89b0-b8b6036f44ad","geometry":{"type":"Point","coordinates":[-97.03295199992674,28.15423199993285]},"properties":{"substrate":"Firm/Hard Bottom","lease_number":null,"poll_year":2025}},{"type":"Feature","id":"ccb94255-9784-4387-88a2-a1cf263879f1","geometry":{"type":"Point","coordinates":[-97.03541420037382,28.154346800253744]},"properties":{"substrate":"Firm/Hard Bottom","lease_number":null,"poll_year":2025}},{"type":"Feature","id":"cd80e8b2-df19-4483-b116-c9ca67440f80","geometry":{"type":"Point","coordinates":[-97.0495505002148,28.15894389969456]},"properties":{"substrate":"Mud","lease_number":null,"poll_year":2025}},{"type":"Feature","id":"ce88963e-301d-46b7-87e8-af260bbf08b6","geometry":{"type":"Point","coordinates":[-97.04209650007441,28.157216099815603]},"properties":{"substrate":"Mud","lease_number":null,"poll_year":2025}},{"type":"Feature","id":"ce965766-9cfb-497b-b3b4-c35e6095cd37","geometry":{"type":"Point","coordinates":[-97.0343788003807,28.153861699647766]},"properties":{"substrate":"Firm/Hard Bottom","lease_number":null,"poll_year":2025}},{"type":"Feature","id":"d020553a-f8a4-4d2b-8910-f6b871a99807","geometry":{"type":"Point","coordinates":[-97.03398619977061,28.15389149977006]},"properties":{"substrate":"Firm/Hard Bottom","lease_number":null,"poll_year":2025}},{"type":"Feature","id":"d0488be2-266d-4a4c-8879-ed8ee1614a36","geometry":{"type":"Point","coordinates":[-97.03254549968426,28.154187300284455]},"properties":{"substrate":"Firm/Hard Bottom","lease_number":null,"poll_year":2025}},{"type":"Feature","id":"d0f51fae-c0a2-4441-9741-cef0f5102909","geometry":{"type":"Point","coordinates":[-97.04479709992317,28.1580912001226]},"properties":{"substrate":"Mud","lease_number":null,"poll_year":2025}},{"type":"Feature","id":"d1251c0f-e0ac-4544-8152-60b5847a847c","geometry":{"type":"Point","coordinates":[-97.03383240010913,28.15451430023134]},"properties":{"substrate":"Firm/Hard Bottom","lease_number":null,"poll_year":2025}},{"type":"Feature","id":"d2f2d0e2-449f-4857-b4c9-a60dc1ad44c4","geometry":{"type":"Point","coordinates":[-97.04652700003885,28.1586380001365]},"properties":{"substrate":"Firm/Hard Bottom","lease_number":null,"poll_year":2025}},{"type":"Feature","id":"d3529a37-ecfb-4949-ae77-ce4989a8b6e6","geometry":{"type":"Point","coordinates":[-97.04249509963397,28.15665060032847]},"properties":{"substrate":"Firm/Hard Bottom","lease_number":null,"poll_year":2025}},{"type":"Feature","id":"d4ca396f-1a95-4331-ada2-e0d318198a82","geometry":{"type":"Point","coordinates":[-97.03627479989073,28.155421100197177]},"properties":{"substrate":"Firm/Hard Bottom","lease_number":null,"poll_year":2025}},{"type":"Feature","id":"d555f455-c7c4-403b-9320-57f26c787295","geometry":{"type":"Point","coordinates":[-97.0438758003442,28.15780230000997]},"properties":{"substrate":"Firm/Hard Bottom","lease_number":null,"poll_year":2025}},{"type":"Feature","id":"d5f82fde-8066-4d7e-ab12-70be1c1eb715","geometry":{"type":"Point","coordinates":[-97.04414250027058,28.15789060014112]},"properties":{"substrate":"Firm/Hard Bottom","lease_number":null,"poll_year":2025}},{"type":"Feature","id":"d6e0977b-9828-4039-9768-2a2c77571080","geometry":{"type":"Point","coordinates":[-97.04901940004915,28.158777500390833]},"properties":{"substrate":"Mud","lease_number":null,"poll_year":2025}},{"type":"Feature","id":"d6e99e39-e8a6-43c4-b523-791a7f87dc5f","geometry":{"type":"Point","coordinates":[-97.0363861002561,28.15549500024072]},"properties":{"substrate":"Firm/Hard Bottom","lease_number":null,"poll_year":2025}},{"type":"Feature","id":"d6f38cb6-56ab-40c5-b86e-45d4dca205e4","geometry":{"type":"Point","coordinates":[-97.03841229978678,28.15533320037473]},"properties":{"substrate":"Mud","lease_number":null,"poll_year":2025}},{"type":"Feature","id":"d797b250-5249-4a68-aa5f-359006f47de8","geometry":{"type":"Point","coordinates":[-97.04337829986511,28.1549578001099]},"properties":{"substrate":"Firm/Hard Bottom","lease_number":null,"poll_year":2025}},{"type":"Feature","id":"d8845e55-7b22-4ba1-b33f-0f88ae941452","geometry":{"type":"Point","coordinates":[-97.04258649962087,28.157381700038584]},"properties":{"substrate":"Mud","lease_number":null,"poll_year":2025}},{"type":"Feature","id":"d906d160-4619-4a7a-b73d-615742b71451","geometry":{"type":"Point","coordinates":[-97.04213220002212,28.157425699806062]},"properties":{"substrate":"Too Deep to Poll","lease_number":null,"poll_year":2025}},{"type":"Feature","id":"d98eb2ed-8346-4d6e-8333-2b5011b8fe48","geometry":{"type":"Point","coordinates":[-97.04179840043558,28.156427700165256]},"properties":{"substrate":"Firm/Hard Bottom","lease_number":null,"poll_year":2025}},{"type":"Feature","id":"da148b0b-522d-4dea-9f57-292a3f8f438c","geometry":{"type":"Point","coordinates":[-97.03868730014639,28.156123200032237]},"properties":{"substrate":"Mud","lease_number":null,"poll_year":2025}},{"type":"Feature","id":"da179096-0df7-46f4-85d8-b8e13fbddb05","geometry":{"type":"Point","coordinates":[-97.04926760007058,28.15969719976489]},"properties":{"substrate":"Firm/Hard Bottom","lease_number":null,"poll_year":2025}},{"type":"Feature","id":"db838bbd-26f1-4da5-a329-874655705272","geometry":{"type":"Point","coordinates":[-97.04331599990353,28.154870100288772]},"properties":{"substrate":"Firm/Hard Bottom","lease_number":null,"poll_year":2025}},{"type":"Feature","id":"dc05741a-4631-467c-b1d9-1af4c74f9d4f","geometry":{"type":"Point","coordinates":[-97.04306260043325,28.15772900031217]},"properties":{"substrate":"Firm/Hard Bottom","lease_number":null,"poll_year":2025}},{"type":"Feature","id":"dc48ca41-8cad-40b7-8164-af2ea8695304","geometry":{"type":"Point","coordinates":[-97.03600800025134,28.15453720005093]},"properties":{"substrate":"Firm/Hard Bottom","lease_number":null,"poll_year":2025}},{"type":"Feature","id":"dcb7a8c5-24d8-4787-b9e9-91782bf1d020","geometry":{"type":"Point","coordinates":[-97.03494540016975,28.154847300335224]},"properties":{"substrate":"Firm/Hard Bottom","lease_number":null,"poll_year":2025}},{"type":"Feature","id":"dec0b403-0f95-4f45-bfda-c34a26ac1398","geometry":{"type":"Point","coordinates":[-97.03128279987311,28.152947300346572]},"properties":{"substrate":"Firm/Hard Bottom","lease_number":null,"poll_year":2025}},{"type":"Feature","id":"dff4d6c9-9cdd-4144-96fb-6deab9fb9554","geometry":{"type":"Point","coordinates":[-97.04084089964898,28.157001299890833]},"properties":{"substrate":"Firm/Hard Bottom","lease_number":null,"poll_year":2025}},{"type":"Feature","id":"e0b04325-90bb-4ece-9b03-01355d621ea8","geometry":{"type":"Point","coordinates":[-97.03704259984552,28.155768299909347]},"properties":{"substrate":"Firm/Hard Bottom","lease_number":null,"poll_year":2025}},{"type":"Feature","id":"e0bbcdf5-bd9d-4e55-b89f-a543ab2ab05d","geometry":{"type":"Point","coordinates":[-97.0474315999367,28.15912829990394]},"properties":{"substrate":"Mud","lease_number":null,"poll_year":2025}},{"type":"Feature","id":"e29a1d23-1c6c-4cf6-811a-2a5a87f889f1","geometry":{"type":"Point","coordinates":[-97.03483979961484,28.153993700068042]},"properties":{"substrate":"Firm/Hard Bottom","lease_number":null,"poll_year":2025}},{"type":"Feature","id":"e2e4ed99-3083-4040-a97b-68faf425636e","geometry":{"type":"Point","coordinates":[-97.04322770000269,28.154759099864847]},"properties":{"substrate":"Firm/Hard Bottom","lease_number":null,"poll_year":2025}},{"type":"Feature","id":"e313f896-9339-4d18-8667-347c0ffd0170","geometry":{"type":"Point","coordinates":[-97.03672589969044,28.155665900133226]},"properties":{"substrate":"Firm/Hard Bottom","lease_number":null,"poll_year":2025}},{"type":"Feature","id":"e39d1aae-98ba-42b8-aa5d-d80fce783814","geometry":{"type":"Point","coordinates":[-97.04054210022254,28.156705100058996]},"properties":{"substrate":"Firm/Hard Bottom","lease_number":null,"poll_year":2025}},{"type":"Feature","id":"e54e7102-c5eb-4349-8b54-2e35ebca760d","geometry":{"type":"Point","coordinates":[-97.0485725995864,28.159311400140712]},"properties":{"substrate":"Mud","lease_number":null,"poll_year":2025}},{"type":"Feature","id":"e5d38171-f222-4deb-96e1-c013633c1c02","geometry":{"type":"Point","coordinates":[-97.03630079982999,28.155347100308198]},"properties":{"substrate":"Firm/Hard Bottom","lease_number":null,"poll_year":2025}},{"type":"Feature","id":"e6230044-db92-4c89-af95-8ae305c09cfe","geometry":{"type":"Point","coordinates":[-97.04709810038747,28.158840600083945]},"properties":{"substrate":"Mud","lease_number":null,"poll_year":2025}},{"type":"Feature","id":"e6600f98-e2d9-4aee-a036-abfbddc2f4c4","geometry":{"type":"Point","coordinates":[-97.0404705997158,28.155998400062227]},"properties":{"substrate":"Mud","lease_number":null,"poll_year":2025}},{"type":"Feature","id":"e6ac5c3d-2388-4ef3-ab12-f893e2dc6b49","geometry":{"type":"Point","coordinates":[-97.03880970009543,28.15530210015807]},"properties":{"substrate":"Mud","lease_number":null,"poll_year":2025}},{"type":"Feature","id":"e7768332-73f3-4b86-8ea7-c35c19e79d0b","geometry":{"type":"Point","coordinates":[-97.03800289978257,28.15608240025605]},"properties":{"substrate":"Mud","lease_number":null,"poll_year":2025}},{"type":"Feature","id":"e96d2b92-b8f9-4e7e-a0c6-b4d94bde125f","geometry":{"type":"Point","coordinates":[-97.03239100023515,28.15334610038047]},"properties":{"substrate":"Firm/Hard Bottom","lease_number":null,"poll_year":2025}},{"type":"Feature","id":"ea1064f8-6264-43f3-b39b-329d7ad748fa","geometry":{"type":"Point","coordinates":[-97.04882759985452,28.15956269973602]},"properties":{"substrate":"Firm/Hard Bottom","lease_number":null,"poll_year":2025}},{"type":"Feature","id":"ea2d6af4-7852-4ae2-af74-2c4dddc9a884","geometry":{"type":"Point","coordinates":[-97.0418280996372,28.157322900069108]},"properties":{"substrate":"Firm/Hard Bottom","lease_number":null,"poll_year":2025}},{"type":"Feature","id":"ea31fd4e-4176-4b53-a6b0-a48bffbc4a5d","geometry":{"type":"Point","coordinates":[-97.03587269959651,28.15521730020387]},"properties":{"substrate":"Firm/Hard Bottom","lease_number":null,"poll_year":2025}},{"type":"Feature","id":"eabc3de1-5f56-42e9-bb1a-71c9b7703a28","geometry":{"type":"Point","coordinates":[-97.03346140038836,28.15439590033203]},"properties":{"substrate":"Firm/Hard Bottom","lease_number":null,"poll_year":2025}},{"type":"Feature","id":"eb1db90f-d3b0-45a1-b1f7-b538f2bc2970","geometry":{"type":"Point","coordinates":[-97.03342920027701,28.15372929988113]},"properties":{"substrate":"Firm/Hard Bottom","lease_number":null,"poll_year":2025}},{"type":"Feature","id":"eb850167-9794-4921-8485-a1114dadee5a","geometry":{"type":"Point","coordinates":[-97.03921150035234,28.15559050012716]},"properties":{"substrate":"Firm/Hard Bottom","lease_number":null,"poll_year":2025}},{"type":"Feature","id":"ec19d332-c20d-41f8-bb40-4f89bacabfe5","geometry":{"type":"Point","coordinates":[-97.03309550040346,28.154278700222427]},"properties":{"substrate":"Firm/Hard Bottom","lease_number":null,"poll_year":2025}},{"type":"Feature","id":"ecc29411-b336-4a47-bb09-73f795c42e36","geometry":{"type":"Point","coordinates":[-97.03656540039356,28.15455810000307]},"properties":{"substrate":"Firm/Hard Bottom","lease_number":null,"poll_year":2025}},{"type":"Feature","id":"ed34e9e3-8488-425a-a859-b1ba6bcd86d0","geometry":{"type":"Point","coordinates":[-97.03142499958933,28.1535894002005]},"properties":{"substrate":"Firm/Hard Bottom","lease_number":null,"poll_year":2025}},{"type":"Feature","id":"ed8adda8-6964-4283-a97f-800aace8ecbe","geometry":{"type":"Point","coordinates":[-97.03649389988682,28.155412399874653]},"properties":{"substrate":"Firm/Hard Bottom","lease_number":null,"poll_year":2025}},{"type":"Feature","id":"edda4440-817b-4b1b-8d57-19ff995bea29","geometry":{"type":"Point","coordinates":[-97.03223469966393,28.154001499968977]},"properties":{"substrate":"Firm/Hard Bottom","lease_number":null,"poll_year":2025}},{"type":"Feature","id":"ede95b8a-ae91-48dd-b309-12c5e544153a","geometry":{"type":"Point","coordinates":[-97.04845720020836,28.15928370030019]},"properties":{"substrate":"Mud","lease_number":null,"poll_year":2025}},{"type":"Feature","id":"ee3095ac-df2d-4e8e-af7f-d129ebd7e9aa","geometry":{"type":"Point","coordinates":[-97.03578170025824,28.155185899777933]},"properties":{"substrate":"Firm/Hard Bottom","lease_number":null,"poll_year":2025}},{"type":"Feature","id":"ee7864e0-62b8-4bff-99eb-91de406e2a01","geometry":{"type":"Point","coordinates":[-97.03173660000856,28.1537566003914]},"properties":{"substrate":"Firm/Hard Bottom","lease_number":null,"poll_year":2025}},{"type":"Feature","id":"efe0bb0e-2dc0-484c-a2f7-aa02f3a951b0","geometry":{"type":"Point","coordinates":[-97.03295410018787,28.15354679996136]},"properties":{"substrate":"Firm/Hard Bottom","lease_number":null,"poll_year":2025}},{"type":"Feature","id":"f1026f1d-d8bc-4580-89ac-a64fbe13b889","geometry":{"type":"Point","coordinates":[-97.03808459976102,28.15522129990437]},"properties":{"substrate":"Mud","lease_number":null,"poll_year":2025}},{"type":"Feature","id":"f2bf3e2e-0c32-4277-812b-88e0aa5c147e","geometry":{"type":"Point","coordinates":[-97.03160200003965,28.153115100319024]},"properties":{"substrate":"Firm/Hard Bottom","lease_number":null,"poll_year":2025}},{"type":"Feature","id":"f3ed60c4-cb4d-4618-b288-68752a820069","geometry":{"type":"Point","coordinates":[-97.04788609985975,28.159272000233877]},"properties":{"substrate":"Mud","lease_number":null,"poll_year":2025}},{"type":"Feature","id":"f46fad37-f23a-4f2a-95e5-eb128ca4a71e","geometry":{"type":"Point","coordinates":[-97.03492459967934,28.15402340035797]},"properties":{"substrate":"Firm/Hard Bottom","lease_number":null,"poll_year":2025}},{"type":"Feature","id":"f5145b33-06fe-4d49-a2f8-f2345bcdea6d","geometry":{"type":"Point","coordinates":[-97.0454956999567,28.158507400146938]},"properties":{"substrate":"Mud","lease_number":null,"poll_year":2025}},{"type":"Feature","id":"f5cb17f2-b158-4598-99fc-7497344e7bc0","geometry":{"type":"Point","coordinates":[-97.03610560041032,28.15528740027915]},"properties":{"substrate":"Firm/Hard Bottom","lease_number":null,"poll_year":2025}},{"type":"Feature","id":"f667a1da-7b1e-4e64-b801-cefc83c9ac9b","geometry":{"type":"Point","coordinates":[-97.04967480010066,28.159825300379552]},"properties":{"substrate":"Firm/Hard Bottom","lease_number":null,"poll_year":2025}},{"type":"Feature","id":"f79338b2-132c-4cbf-b890-1f5c3e82b7fb","geometry":{"type":"Point","coordinates":[-97.03741270035269,28.154839300114162]},"properties":{"substrate":"Mud","lease_number":null,"poll_year":2025}},{"type":"Feature","id":"f7c8297c-7f02-45b5-a094-fe4b24ad72c1","geometry":{"type":"Point","coordinates":[-97.04023510007588,28.156606399863975]},"properties":{"substrate":"Mud","lease_number":null,"poll_year":2025}},{"type":"Feature","id":"f7ecc07d-ddbf-4667-880b-cbf0690d62a2","geometry":{"type":"Point","coordinates":[-97.04322010025537,28.15758830039185]},"properties":{"substrate":"Firm/Hard Bottom","lease_number":null,"poll_year":2025}},{"type":"Feature","id":"f8293370-3006-4c29-8ef5-025b37430bde","geometry":{"type":"Point","coordinates":[-97.04529400032763,28.157613500320256]},"properties":{"substrate":"Firm/Hard Bottom","lease_number":null,"poll_year":2025}},{"type":"Feature","id":"fa0bdfd6-37ad-4ee7-879c-798b0f9aee9e","geometry":{"type":"Point","coordinates":[-97.03472369955088,28.153955799891424]},"properties":{"substrate":"Firm/Hard Bottom","lease_number":null,"poll_year":2025}},{"type":"Feature","id":"fc3ba30f-6902-4fd0-8919-e853ce580cf8","geometry":{"type":"Point","coordinates":[-97.04418429977908,28.1572198000635]},"properties":{"substrate":"Firm/Hard Bottom","lease_number":null,"poll_year":2025}},{"type":"Feature","id":"fc50ca52-a10e-49b0-81f3-ff1220f50317","geometry":{"type":"Point","coordinates":[-97.03367370013778,28.15378700011003]},"properties":{"substrate":"Firm/Hard Bottom","lease_number":null,"poll_year":2025}},{"type":"Feature","id":"fc9ad11f-8a32-4be4-a7e9-2f7969bd4a9b","geometry":{"type":"Point","coordinates":[-97.04537079999622,28.158466199737536]},"properties":{"substrate":"Mud","lease_number":null,"poll_year":2025}},{"type":"Feature","id":"fcbe96f4-9488-456e-a279-4225d16f877b","geometry":{"type":"Point","coordinates":[-97.04340920011427,28.15695150008124]},"properties":{"substrate":"Firm/Hard Bottom","lease_number":null,"poll_year":2025}},{"type":"Feature","id":"fe803b0c-7129-4a86-ab9e-f2b9638c3b02","geometry":{"type":"Point","coordinates":[-97.03600289961715,28.155245500069068]},"properties":{"substrate":"Firm/Hard Bottom","lease_number":null,"poll_year":2025}},{"type":"Feature","id":"fece44a4-a503-4a18-be8a-a3a395645784","geometry":{"type":"Point","coordinates":[-97.0455088000885,28.15768980019929]},"properties":{"substrate":"Mud","lease_number":null,"poll_year":2025}},{"type":"Feature","id":"feeee3e8-281f-48bc-aa77-bf626ec44d94","geometry":{"type":"Point","coordinates":[-97.03735200029064,28.154985100306902]},"properties":{"substrate":"Firm/Hard Bottom","lease_number":null,"poll_year":2025}},{"type":"Feature","id":"ff1aa265-2da1-4303-942b-768349164828","geometry":{"type":"Point","coordinates":[-97.04691679970188,28.15876369990199]},"properties":{"substrate":"Mud","lease_number":null,"poll_year":2025}},{"type":"Feature","id":"ff4e3d65-1881-4c16-b12e-9b347b3699a6","geometry":{"type":"Point","coordinates":[-97.04568880001355,28.158384499788042]},"properties":{"substrate":"Mud","lease_number":null,"poll_year":2025}}]}