{"type":"FeatureCollection","features":[{"type":"Feature","id":"08227805-995c-4b8f-aeeb-67b7b7953e44","geometry":{"type":"Point","coordinates":[-97.0289158998979,28.139161600334464]},"properties":{"substrate":"Mud","lease_number":null,"poll_year":2025}},{"type":"Feature","id":"084be8fb-f484-4812-8485-457bf81a16a9","geometry":{"type":"Point","coordinates":[-97.02841402282677,28.144800043850058]},"properties":{"substrate":"Mud","lease_number":null,"poll_year":2025}},{"type":"Feature","id":"0b18fef5-bb91-4780-a8a5-57604bd01734","geometry":{"type":"Point","coordinates":[-97.02891300013616,28.1421852000454]},"properties":{"substrate":"Mud","lease_number":null,"poll_year":2025}},{"type":"Feature","id":"0b997275-0b51-4096-b330-388130305bda","geometry":{"type":"Point","coordinates":[-97.02891300013616,28.1379917002009]},"properties":{"substrate":"Mud","lease_number":null,"poll_year":2025}},{"type":"Feature","id":"0c1bc6ba-47bd-4c0e-8550-2a2a5da2b8b2","geometry":{"type":"Point","coordinates":[-97.02913420039341,28.137332699735637]},"properties":{"substrate":"Mud","lease_number":null,"poll_year":2025}},{"type":"Feature","id":"11d6b816-8974-4420-bed5-d48018fc8d44","geometry":{"type":"Point","coordinates":[-97.02624329963824,28.137869100283503]},"properties":{"substrate":"Firm/Hard Bottom","lease_number":null,"poll_year":2025}},{"type":"Feature","id":"12d9080a-cdd7-4a7e-a152-c13331096712","geometry":{"type":"Point","coordinates":[-97.02797923373767,28.14557587150205]},"properties":{"substrate":"Firm/Hard Bottom","lease_number":null,"poll_year":2025}},{"type":"Feature","id":"134c7c2c-8434-4a72-b6b0-6e11bb0dbc1f","geometry":{"type":"Point","coordinates":[-97.02891619993521,28.13931750023878]},"properties":{"substrate":"Mud","lease_number":null,"poll_year":2025}},{"type":"Feature","id":"1458edeb-79b0-4b5a-9790-2221553d68a4","geometry":{"type":"Point","coordinates":[-97.0274466863861,28.145248167018085]},"properties":{"substrate":"Firm/Hard Bottom","lease_number":null,"poll_year":2025}},{"type":"Feature","id":"2401b192-2767-4057-ac64-dba5ca115134","geometry":{"type":"Point","coordinates":[-97.02892830024207,28.141631499813293]},"properties":{"substrate":"Mud","lease_number":null,"poll_year":2025}},{"type":"Feature","id":"24a6573a-b814-481a-a61a-c67dacaa1a80","geometry":{"type":"Point","coordinates":[-97.02798055695608,28.143373303748906]},"properties":{"substrate":"Firm/Hard Bottom","lease_number":null,"poll_year":2025}},{"type":"Feature","id":"28ccd92c-7951-4204-ade3-6769e4ef2b77","geometry":{"type":"Point","coordinates":[-97.02892039955915,28.13960169978851]},"properties":{"substrate":"Mud","lease_number":null,"poll_year":2025}},{"type":"Feature","id":"2ff30d15-4d0e-4f50-9620-e717280d7536","geometry":{"type":"Point","coordinates":[-97.02841402282677,28.144800043850058]},"properties":{"substrate":"Mud","lease_number":null,"poll_year":2025}},{"type":"Feature","id":"323e070a-aec1-43ec-858c-77dc9ef8123a","geometry":{"type":"Point","coordinates":[-97.02798055695608,28.143373303748906]},"properties":{"substrate":"Mud","lease_number":null,"poll_year":2025}},{"type":"Feature","id":"3317dd5d-e3ef-406c-8212-7d3e84bb707f","geometry":{"type":"Point","coordinates":[-97.02617339992933,28.13806959993918]},"properties":{"substrate":"Firm/Hard Bottom","lease_number":null,"poll_year":2025}},{"type":"Feature","id":"342dd93b-3db2-4563-924c-77bd14d1d00d","geometry":{"type":"Point","coordinates":[-97.02760663411738,28.144607041329603]},"properties":{"substrate":"Firm/Hard Bottom","lease_number":null,"poll_year":2025}},{"type":"Feature","id":"3cc62552-98e4-4261-b41b-670cb15166d3","geometry":{"type":"Point","coordinates":[-97.02743955106779,28.145576334083337]},"properties":{"substrate":"Firm/Hard Bottom","lease_number":null,"poll_year":2025}},{"type":"Feature","id":"474fbc9b-c293-4e67-8662-c2656b017c3e","geometry":{"type":"Point","coordinates":[-97.0263604004254,28.137716400139148]},"properties":{"substrate":"Firm/Hard Bottom","lease_number":null,"poll_year":2025}},{"type":"Feature","id":"481d6c05-75fd-431b-81b5-f73cd7fbc949","geometry":{"type":"Point","coordinates":[-97.02891730037142,28.138119100385097]},"properties":{"substrate":"Firm/Hard Bottom","lease_number":null,"poll_year":2025}},{"type":"Feature","id":"4b265f7b-66c4-4ba5-87c9-31f5b5186c0c","geometry":{"type":"Point","coordinates":[-97.02893309994064,28.14103259967029]},"properties":{"substrate":"Mud","lease_number":null,"poll_year":2025}},{"type":"Feature","id":"4fede1e6-c09b-46a9-bfde-1aec64710fe7","geometry":{"type":"Point","coordinates":[-97.02891550014759,28.138345299918544]},"properties":{"substrate":"Firm/Hard Bottom","lease_number":null,"poll_year":2025}},{"type":"Feature","id":"51f12fc5-9e8a-45cf-ad99-632dead6451e","geometry":{"type":"Point","coordinates":[-97.02761280015348,28.145816054679376]},"properties":{"substrate":"Mud","lease_number":null,"poll_year":2025}},{"type":"Feature","id":"55ade23f-1d51-4e03-ad5c-434156c17093","geometry":{"type":"Point","coordinates":[-97.02892980042861,28.140872900057193]},"properties":{"substrate":"Mud","lease_number":null,"poll_year":2025}},{"type":"Feature","id":"564b3b07-1663-4d6b-bf61-893f642b4405","geometry":{"type":"Point","coordinates":[-97.0280935461542,28.14546765752806]},"properties":{"substrate":"Mud","lease_number":null,"poll_year":2025}},{"type":"Feature","id":"57263fb8-5993-4352-ba41-3f660db30b90","geometry":{"type":"Point","coordinates":[-97.02846250041107,28.13701590018153]},"properties":{"substrate":"Firm/Hard Bottom","lease_number":null,"poll_year":2025}},{"type":"Feature","id":"58408507-91bb-417c-b4fb-6c96fa156743","geometry":{"type":"Point","coordinates":[-97.02742791159666,28.14536018009107]},"properties":{"substrate":"Firm/Hard Bottom","lease_number":null,"poll_year":2025}},{"type":"Feature","id":"58a70b78-73a7-48f4-9080-49383688d33d","geometry":{"type":"Point","coordinates":[-97.02798055695608,28.143373303748906]},"properties":{"substrate":"Firm/Hard Bottom","lease_number":null,"poll_year":2025}},{"type":"Feature","id":"58b23dd6-5540-4cfe-8c10-e68c81796d92","geometry":{"type":"Point","coordinates":[-97.02758699964022,28.13693310019767]},"properties":{"substrate":"Firm/Hard Bottom","lease_number":null,"poll_year":2025}},{"type":"Feature","id":"5a3241fc-4bea-482c-bddb-6547712b1480","geometry":{"type":"Point","coordinates":[-97.02804699994776,28.136938600130648]},"properties":{"substrate":"Firm/Hard Bottom","lease_number":null,"poll_year":2025}},{"type":"Feature","id":"5c188870-188e-4b39-8e4f-76648d4f4f16","geometry":{"type":"Point","coordinates":[-97.02798055695608,28.143373303748906]},"properties":{"substrate":"Mud","lease_number":null,"poll_year":2025}},{"type":"Feature","id":"5c942dbb-3adb-4045-9db8-f52e6376edf2","geometry":{"type":"Point","coordinates":[-97.02750981369607,28.144945281066935]},"properties":{"substrate":"Mud","lease_number":null,"poll_year":2025}},{"type":"Feature","id":"5ec678b4-3d63-47fc-ba0c-26a4a26e2f06","geometry":{"type":"Point","coordinates":[-97.02891890027094,28.138787799745977]},"properties":{"substrate":"Mud","lease_number":null,"poll_year":2025}},{"type":"Feature","id":"66eb7c38-2e1f-4b90-8af1-882d24d0ab14","geometry":{"type":"Point","coordinates":[-97.02798055695608,28.143373303748906]},"properties":{"substrate":"Firm/Hard Bottom","lease_number":null,"poll_year":2025}},{"type":"Feature","id":"69c4ab08-94df-4f7c-a8f9-a0906ad012c3","geometry":{"type":"Point","coordinates":[-97.02830891634525,28.145127155634256]},"properties":{"substrate":"Mud","lease_number":null,"poll_year":2025}},{"type":"Feature","id":"6a516016-a588-4886-b8dc-94114b0b69eb","geometry":{"type":"Point","coordinates":[-97.02782577453767,28.14571038197355]},"properties":{"substrate":"Mud","lease_number":null,"poll_year":2025}},{"type":"Feature","id":"6cd7ad02-fe7e-456e-92c4-5d17cb8c0ca5","geometry":{"type":"Point","coordinates":[-97.02892629969394,28.140369799845605]},"properties":{"substrate":"Mud","lease_number":null,"poll_year":2025}},{"type":"Feature","id":"6d267385-9bf1-41f8-bae5-3a7bb754493c","geometry":{"type":"Point","coordinates":[-97.02787209975855,28.13691319967442]},"properties":{"substrate":"Mud","lease_number":null,"poll_year":2025}},{"type":"Feature","id":"75bb0ef6-36d3-4e5e-b07f-af919971fac8","geometry":{"type":"Point","coordinates":[-97.02698599976569,28.13721179981681]},"properties":{"substrate":"Mud","lease_number":null,"poll_year":2025}},{"type":"Feature","id":"80354c99-baba-4781-a994-7305a54d44e0","geometry":{"type":"Point","coordinates":[-97.02820597121033,28.145273143312185]},"properties":{"substrate":"Firm/Hard Bottom","lease_number":null,"poll_year":2025}},{"type":"Feature","id":"837c28c0-c219-4d29-9a8a-42efbff65846","geometry":{"type":"Point","coordinates":[-97.02768294420413,28.14437882090547]},"properties":{"substrate":"Firm/Hard Bottom","lease_number":null,"poll_year":2025}},{"type":"Feature","id":"85a57028-2bb2-4be3-816f-3e585f8fb134","geometry":{"type":"Point","coordinates":[-97.02817701222051,28.143795474836363]},"properties":{"substrate":"Mud","lease_number":null,"poll_year":2025}},{"type":"Feature","id":"8f895397-28ed-4b9a-8e4f-8e6fa5820385","geometry":{"type":"Point","coordinates":[-97.02907230018212,28.137444500075816]},"properties":{"substrate":"Mud","lease_number":null,"poll_year":2025}},{"type":"Feature","id":"90fe0fd9-f1d6-454c-943b-027b899588b0","geometry":{"type":"Point","coordinates":[-97.02877240031947,28.13709320017665]},"properties":{"substrate":"Mud","lease_number":null,"poll_year":2025}},{"type":"Feature","id":"a027fdff-1b31-47dd-b805-54a673ecfe94","geometry":{"type":"Point","coordinates":[-97.0272901998636,28.137039900084527]},"properties":{"substrate":"Mud","lease_number":null,"poll_year":2025}},{"type":"Feature","id":"a399d77b-f84e-44d4-998f-bd197a7b4ddf","geometry":{"type":"Point","coordinates":[-97.02745116089451,28.145723792060352]},"properties":{"substrate":"Mud","lease_number":null,"poll_year":2025}},{"type":"Feature","id":"a50bfd9f-03e4-4448-9604-4afb7cff0159","geometry":{"type":"Point","coordinates":[-97.02682490039422,28.13734460023725]},"properties":{"substrate":"Mud","lease_number":null,"poll_year":2025}},{"type":"Feature","id":"aa0906e6-8d27-4031-8615-dcdf16429f3c","geometry":{"type":"Point","coordinates":[-97.02791274852517,28.144013607490834]},"properties":{"substrate":"Firm/Hard Bottom","lease_number":null,"poll_year":2025}},{"type":"Feature","id":"b03fb507-06c1-4e00-be1e-6d51c968bf0f","geometry":{"type":"Point","coordinates":[-97.02860190007854,28.137050800127806]},"properties":{"substrate":"Mud","lease_number":null,"poll_year":2025}},{"type":"Feature","id":"ba711d73-1cf8-4e81-aae4-8d8af86da276","geometry":{"type":"Point","coordinates":[-97.02778490119225,28.144135508078996]},"properties":{"substrate":"Firm/Hard Bottom","lease_number":null,"poll_year":2025}},{"type":"Feature","id":"badc6227-6edc-4858-9cdb-eb25352f0418","geometry":{"type":"Point","coordinates":[-97.02891689972282,28.13947610030902]},"properties":{"substrate":"Mud","lease_number":null,"poll_year":2025}},{"type":"Feature","id":"bb30ce50-e839-4493-bfe9-b54e28479b7c","geometry":{"type":"Point","coordinates":[-97.02892629969394,28.140241599909583]},"properties":{"substrate":"Mud","lease_number":null,"poll_year":2025}},{"type":"Feature","id":"bd007874-41c0-48b8-aed0-98dd6acd5abc","geometry":{"type":"Point","coordinates":[-97.02892599965664,28.14177859963858]},"properties":{"substrate":"Mud","lease_number":null,"poll_year":2025}},{"type":"Feature","id":"c087ad77-ac16-4e0b-a074-fbb41ddfc8ff","geometry":{"type":"Point","coordinates":[-97.02841402282677,28.144800043850058]},"properties":{"substrate":"Mud","lease_number":null,"poll_year":2025}},{"type":"Feature","id":"c2f85c11-473f-4190-b3bc-47952c142acd","geometry":{"type":"Point","coordinates":[-97.02891520011029,28.13903530008763]},"properties":{"substrate":"Firm/Hard Bottom","lease_number":null,"poll_year":2025}},{"type":"Feature","id":"c410f3a2-bbe4-49bc-b55d-79c8b5ebbe72","geometry":{"type":"Point","coordinates":[-97.02583210030852,28.13890830023177]},"properties":{"substrate":"Mud","lease_number":null,"poll_year":2025}},{"type":"Feature","id":"d0d668e4-f2ff-4550-83d8-d8a3742192b1","geometry":{"type":"Point","coordinates":[-97.02892249982028,28.139794300210323]},"properties":{"substrate":"Mud","lease_number":null,"poll_year":2025}},{"type":"Feature","id":"d2672ed3-9d7a-4cea-9eb1-9454b88ff2fd","geometry":{"type":"Point","coordinates":[-97.02803627226665,28.143917188736385]},"properties":{"substrate":"Mud","lease_number":null,"poll_year":2025}},{"type":"Feature","id":"d47a3602-95b0-4ebc-a558-1439318b7a05","geometry":{"type":"Point","coordinates":[-97.02892589994366,28.14150239995317]},"properties":{"substrate":"Mud","lease_number":null,"poll_year":2025}},{"type":"Feature","id":"d5985b7a-0e57-4d0e-a6a2-daf5d82887e4","geometry":{"type":"Point","coordinates":[-97.02901060029515,28.137170299701157]},"properties":{"substrate":"Firm/Hard Bottom","lease_number":null,"poll_year":2025}},{"type":"Feature","id":"db37cb4e-a883-438b-8a3c-572333e96355","geometry":{"type":"Point","coordinates":[-97.02891950034555,28.13773650013479]},"properties":{"substrate":"Mud","lease_number":null,"poll_year":2025}},{"type":"Feature","id":"dbedcb58-b41e-482e-9301-5a5de7d429d6","geometry":{"type":"Point","coordinates":[-97.027475873548,28.14508807368222]},"properties":{"substrate":"Mud","lease_number":null,"poll_year":2025}},{"type":"Feature","id":"ed6d4a94-4318-4524-9513-d8e2f887121c","geometry":{"type":"Point","coordinates":[-97.02754425151079,28.144806836081305]},"properties":{"substrate":"Mud","lease_number":null,"poll_year":2025}},{"type":"Feature","id":"f0802826-b757-4d12-a899-735901167c99","geometry":{"type":"Point","coordinates":[-97.02653260027886,28.13758620001692]},"properties":{"substrate":"Mud","lease_number":null,"poll_year":2025}},{"type":"Feature","id":"fd4e6f6f-b581-44f8-9b33-981554881ead","geometry":{"type":"Point","coordinates":[-97.02771913553032,28.144264581794648]},"properties":{"substrate":"Firm/Hard Bottom","lease_number":null,"poll_year":2025}}]}