{"type":"FeatureCollection","features":[{"type":"Feature","id":"0c85b0f4-eff1-49a8-a248-a6f6ccf45de1","geometry":{"type":"Point","coordinates":[-97.00962119970933,28.060594600188523]},"properties":{"substrate":"Mud","lease_number":null,"poll_year":2025}},{"type":"Feature","id":"10bd8da8-5997-48dd-824e-b222fad93fd9","geometry":{"type":"Point","coordinates":[-97.01137030041589,28.060916900168262]},"properties":{"substrate":"Mud","lease_number":null,"poll_year":2025}},{"type":"Feature","id":"14a9de07-420b-4310-8c9b-7df97e359dd6","geometry":{"type":"Point","coordinates":[-97.01222029981245,28.062278500216642]},"properties":{"substrate":"Mud","lease_number":null,"poll_year":2025}},{"type":"Feature","id":"1544bc74-b9c4-487a-9b4f-cfa9e9a949bb","geometry":{"type":"Point","coordinates":[-97.01090439997357,28.060830700143402]},"properties":{"substrate":"Mud","lease_number":null,"poll_year":2025}},{"type":"Feature","id":"178599e1-4da3-44f0-a3ff-43707d38cd18","geometry":{"type":"Point","coordinates":[-97.00931360038638,28.060540399608296]},"properties":{"substrate":"Mud","lease_number":null,"poll_year":2025}},{"type":"Feature","id":"27de8381-fac8-4660-bad5-61ab02661c7e","geometry":{"type":"Point","coordinates":[-97.01238730021703,28.06201920007844]},"properties":{"substrate":"Mud","lease_number":null,"poll_year":2025}},{"type":"Feature","id":"28d529de-cbad-429b-a3b7-ffacca15251c","geometry":{"type":"Point","coordinates":[-97.01043399986997,28.060744500049427]},"properties":{"substrate":"Mud","lease_number":null,"poll_year":2025}},{"type":"Feature","id":"3590f9d1-5f3f-4c88-9af5-d5c447580c97","geometry":{"type":"Point","coordinates":[-97.01189530012245,28.062765900214913]},"properties":{"substrate":"Mud","lease_number":null,"poll_year":2025}},{"type":"Feature","id":"3fbe3fa6-fcb1-4c9f-9057-6781e467f3e6","geometry":{"type":"Point","coordinates":[-97.00946730033486,28.060565600150568]},"properties":{"substrate":"Mud","lease_number":null,"poll_year":2025}},{"type":"Feature","id":"45833f35-f6ab-4980-8622-3a0ab7aec87d","geometry":{"type":"Point","coordinates":[-97.01129800040856,28.063413200383827]},"properties":{"substrate":"Mud","lease_number":null,"poll_year":2025}},{"type":"Feature","id":"57208307-865c-4e3c-a726-252171615865","geometry":{"type":"Point","coordinates":[-97.0102881997061,28.060716200021893]},"properties":{"substrate":"Mud","lease_number":null,"poll_year":2025}},{"type":"Feature","id":"58ad3529-7293-4182-8c1c-c8b9338ce052","geometry":{"type":"Point","coordinates":[-97.01176809957653,28.062909100303038]},"properties":{"substrate":"Mud","lease_number":null,"poll_year":2025}},{"type":"Feature","id":"6558d4ac-becb-474b-a1e2-460c38268ba6","geometry":{"type":"Point","coordinates":[-97.0105760998732,28.060768899899106]},"properties":{"substrate":"Mud","lease_number":null,"poll_year":2025}},{"type":"Feature","id":"6929a37f-4e30-4107-affb-0881c804c561","geometry":{"type":"Point","coordinates":[-97.01101230021558,28.0608498997503]},"properties":{"substrate":"Mud","lease_number":null,"poll_year":2025}},{"type":"Feature","id":"74d24c99-e3bf-4ee9-920a-e9cf1e2eb0e6","geometry":{"type":"Point","coordinates":[-97.01272889987517,28.06150289996143]},"properties":{"substrate":"Mud","lease_number":null,"poll_year":2025}},{"type":"Feature","id":"7770b5a2-2940-4ee9-a707-c0b8fd27e841","geometry":{"type":"Point","coordinates":[-97.0109779998431,28.06591769996098]},"properties":{"substrate":"Mud","lease_number":null,"poll_year":2025}},{"type":"Feature","id":"7d6cd12b-2556-46fc-9cf9-b772dd15d169","geometry":{"type":"Point","coordinates":[-97.0123217995581,28.062121100310716]},"properties":{"substrate":"Mud","lease_number":null,"poll_year":2025}},{"type":"Feature","id":"7e4871f0-fcde-4678-a4c9-20535c939952","geometry":{"type":"Point","coordinates":[-97.01213579978524,28.062408300268828]},"properties":{"substrate":"Mud","lease_number":null,"poll_year":2025}},{"type":"Feature","id":"853786db-10b5-4c67-afea-7c2b8e3a03e8","geometry":{"type":"Point","coordinates":[-97.01149289979092,28.063210799802206]},"properties":{"substrate":"Mud","lease_number":null,"poll_year":2025}},{"type":"Feature","id":"8daca536-c1a4-48a4-b01f-64baffab17df","geometry":{"type":"Point","coordinates":[-97.01101779970178,28.06371719966387]},"properties":{"substrate":"Mud","lease_number":null,"poll_year":2025}},{"type":"Feature","id":"96e9efa0-36d7-409e-9c05-6fef69c15893","geometry":{"type":"Point","coordinates":[-97.01068420043956,28.06078789975224]},"properties":{"substrate":"Mud","lease_number":null,"poll_year":2025}},{"type":"Feature","id":"99733a6e-87ff-454b-9947-d90dab3e553a","geometry":{"type":"Point","coordinates":[-97.0117245995572,28.06099090022639]},"properties":{"substrate":"Mud","lease_number":null,"poll_year":2025}},{"type":"Feature","id":"9e97cb0e-14b0-46c6-add6-4b958983e2f9","geometry":{"type":"Point","coordinates":[-97.01190240040644,28.061029499936556]},"properties":{"substrate":"Mud","lease_number":null,"poll_year":2025}},{"type":"Feature","id":"a1e15ecf-b9a2-4c21-8038-f373cd5937f6","geometry":{"type":"Point","coordinates":[-97.011582200415,28.06095780036738]},"properties":{"substrate":"Mud","lease_number":null,"poll_year":2025}},{"type":"Feature","id":"a993024b-6f71-4b06-9872-373665f747d1","geometry":{"type":"Point","coordinates":[-97.01122890020027,28.06088819986417]},"properties":{"substrate":"Mud","lease_number":null,"poll_year":2025}},{"type":"Feature","id":"acb7c2fc-6808-43e5-a4f8-f8f2ce2e7a88","geometry":{"type":"Point","coordinates":[-97.01014370030276,28.060692300365368]},"properties":{"substrate":"Mud","lease_number":null,"poll_year":2025}},{"type":"Feature","id":"dd4dd2c6-126e-4985-8e6f-ce516d49fe36","geometry":{"type":"Point","coordinates":[-97.00996489962861,28.06066000026723]},"properties":{"substrate":"Mud","lease_number":null,"poll_year":2025}},{"type":"Feature","id":"e2307e9b-b9c8-4bb8-a099-77bd453e9c03","geometry":{"type":"Point","coordinates":[-97.00977009995925,28.06062329977828]},"properties":{"substrate":"Mud","lease_number":null,"poll_year":2025}},{"type":"Feature","id":"e9b10194-4075-410a-9d83-0c2c780d0e18","geometry":{"type":"Point","coordinates":[-97.01119059962981,28.06353140032081]},"properties":{"substrate":"Mud","lease_number":null,"poll_year":2025}}]}