{"type":"FeatureCollection","features":[{"type":"Feature","id":"00583298-893b-4ef9-83a9-1aab93b9f617","geometry":{"type":"Point","coordinates":[-97.00588440036687,28.060253200207892]},"properties":{"substrate":"Mud","lease_number":null,"poll_year":2025}},{"type":"Feature","id":"025182ca-ec18-4088-93f5-ab25323b3fad","geometry":{"type":"Point","coordinates":[-97.00448579982628,28.060716200021893]},"properties":{"substrate":"Mud","lease_number":null,"poll_year":2025}},{"type":"Feature","id":"098c6750-e21c-4e4c-8f6f-4f149fae969c","geometry":{"type":"Point","coordinates":[-97.00912360041558,28.060506700314587]},"properties":{"substrate":"Mud","lease_number":null,"poll_year":2025}},{"type":"Feature","id":"0b36cfc4-bcec-48f3-854c-b32170bd29a2","geometry":{"type":"Point","coordinates":[-97.00676909988621,28.06006529971015]},"properties":{"substrate":"Mud","lease_number":null,"poll_year":2025}},{"type":"Feature","id":"0cea98bb-a56f-4bfa-adfe-4a3852d50c1a","geometry":{"type":"Point","coordinates":[-96.99262249996218,28.06755989996445]},"properties":{"substrate":"Mud","lease_number":null,"poll_year":2025}},{"type":"Feature","id":"14dc22c1-fe3e-41c6-bdb5-9f020c83b2c3","geometry":{"type":"Point","coordinates":[-97.00319920033702,28.06114700014984]},"properties":{"substrate":"Mud","lease_number":null,"poll_year":2025}},{"type":"Feature","id":"1712153e-baca-466c-aa04-d08b1c166e2d","geometry":{"type":"Point","coordinates":[-96.99586049986169,28.06506630004315]},"properties":{"substrate":"Mud","lease_number":null,"poll_year":2025}},{"type":"Feature","id":"1bd48180-d668-42f9-8acd-bd868277f961","geometry":{"type":"Point","coordinates":[-97.00374760025842,28.06096349999657]},"properties":{"substrate":"Mud","lease_number":null,"poll_year":2025}},{"type":"Feature","id":"1f8a88cb-e98e-46d1-ae1d-43d025ec8363","geometry":{"type":"Point","coordinates":[-96.99704579992961,28.064427600219346]},"properties":{"substrate":"Mud","lease_number":null,"poll_year":2025}},{"type":"Feature","id":"2176bfac-756f-494d-b5b9-a9f448a428bb","geometry":{"type":"Point","coordinates":[-96.99492110012802,28.065782399773493]},"properties":{"substrate":"Mud","lease_number":null,"poll_year":2025}},{"type":"Feature","id":"21c2dca6-f9e2-40bb-8867-d69b6f13a6eb","geometry":{"type":"Point","coordinates":[-96.99502680039595,28.065701500346908]},"properties":{"substrate":"Mud","lease_number":null,"poll_year":2025}},{"type":"Feature","id":"2b1bf5cc-f628-4a41-a6b2-db00a76f6679","geometry":{"type":"Point","coordinates":[-97.00345310016893,28.061059899784812]},"properties":{"substrate":"Mud","lease_number":null,"poll_year":2025}},{"type":"Feature","id":"2bd19184-9098-4902-92c3-4722463226e7","geometry":{"type":"Point","coordinates":[-97.00711140023029,28.0601233000482]},"properties":{"substrate":"Mud","lease_number":null,"poll_year":2025}},{"type":"Feature","id":"2cf0c87c-d34c-443e-a4df-200593a9ef25","geometry":{"type":"Point","coordinates":[-96.99446429961955,28.06613500016979]},"properties":{"substrate":"Mud","lease_number":null,"poll_year":2025}},{"type":"Feature","id":"2da4a2a3-93b0-49b6-b30f-7d25abfca380","geometry":{"type":"Point","coordinates":[-96.99344720010541,28.066919800041745]},"properties":{"substrate":"Mud","lease_number":null,"poll_year":2025}},{"type":"Feature","id":"30ade1d9-1e1a-4d14-b673-5d5d0a3436aa","geometry":{"type":"Point","coordinates":[-97.00798190007995,28.060292199714414]},"properties":{"substrate":"Mud","lease_number":null,"poll_year":2025}},{"type":"Feature","id":"3222a04b-c7ed-4c00-850d-e755f598ead9","geometry":{"type":"Point","coordinates":[-96.98937639995378,28.070072899966956]},"properties":{"substrate":"Mud","lease_number":null,"poll_year":2025}},{"type":"Feature","id":"36c931a4-d0ba-4c61-8fdb-41c086243ede","geometry":{"type":"Point","coordinates":[-96.98902640014941,28.070343899957752]},"properties":{"substrate":"Mud","lease_number":null,"poll_year":2025}},{"type":"Feature","id":"372760cd-0f09-4f97-b1a8-dccd5363695e","geometry":{"type":"Point","coordinates":[-97.00270259996987,28.061385900339133]},"properties":{"substrate":"Mud","lease_number":null,"poll_year":2025}},{"type":"Feature","id":"3854127a-e977-4366-b54d-eb89e23c6d3d","geometry":{"type":"Point","coordinates":[-97.00419150006111,28.060813700323468]},"properties":{"substrate":"Mud","lease_number":null,"poll_year":2025}},{"type":"Feature","id":"3cf5ee75-a0c5-4b56-8f8d-c688f1429085","geometry":{"type":"Point","coordinates":[-97.00360240016914,28.061012400265874]},"properties":{"substrate":"Mud","lease_number":null,"poll_year":2025}},{"type":"Feature","id":"3d672842-c543-442e-aa06-8ac2867c21bd","geometry":{"type":"Point","coordinates":[-97.008097199745,28.060315199721654]},"properties":{"substrate":"Mud","lease_number":null,"poll_year":2025}},{"type":"Feature","id":"3ed82c5c-d5c9-4a10-89c1-53a647615a37","geometry":{"type":"Point","coordinates":[-97.00305060012442,28.06120760000723]},"properties":{"substrate":"Mud","lease_number":null,"poll_year":2025}},{"type":"Feature","id":"43bb15c2-0a76-455b-b6ed-56c661b9e73e","geometry":{"type":"Point","coordinates":[-97.00566419993453,28.060322699654016]},"properties":{"substrate":"Mud","lease_number":null,"poll_year":2025}},{"type":"Feature","id":"4b8f5c94-ee35-47a2-8ef7-a38c049de168","geometry":{"type":"Point","coordinates":[-96.99883190044609,28.06345609960945]},"properties":{"substrate":"Mud","lease_number":null,"poll_year":2025}},{"type":"Feature","id":"4ce1f65a-27b2-486f-a401-6058f5b5350c","geometry":{"type":"Point","coordinates":[-97.00741380010439,28.06018309983362]},"properties":{"substrate":"Mud","lease_number":null,"poll_year":2025}},{"type":"Feature","id":"4d50025c-80bf-46ab-bcac-c9329bc72d45","geometry":{"type":"Point","coordinates":[-97.00874129988854,28.06043790016649]},"properties":{"substrate":"Mud","lease_number":null,"poll_year":2025}},{"type":"Feature","id":"50266855-3720-4467-b2de-178622db7417","geometry":{"type":"Point","coordinates":[-96.99140240005846,28.068501400117317]},"properties":{"substrate":"Mud","lease_number":null,"poll_year":2025}},{"type":"Feature","id":"5114662f-b87f-4d17-9b26-178ee18e4fcb","geometry":{"type":"Point","coordinates":[-96.99435689973912,28.066217399808327]},"properties":{"substrate":"Mud","lease_number":null,"poll_year":2025}},{"type":"Feature","id":"5a31a8d8-d865-4ff8-83dc-163e76e322b6","geometry":{"type":"Point","coordinates":[-97.00832159980126,28.06035709977042]},"properties":{"substrate":"Mud","lease_number":null,"poll_year":2025}},{"type":"Feature","id":"6681a598-d515-468f-8492-d552a590d271","geometry":{"type":"Point","coordinates":[-97.00764100020942,28.060227500177778]},"properties":{"substrate":"Mud","lease_number":null,"poll_year":2025}},{"type":"Feature","id":"68ada929-ba6b-4cc1-a0dc-465395b80310","geometry":{"type":"Point","coordinates":[-96.9924482995606,28.067689799854957]},"properties":{"substrate":"Mud","lease_number":null,"poll_year":2025}},{"type":"Feature","id":"70285da0-4dc5-446f-ac30-e122ec3d5893","geometry":{"type":"Point","coordinates":[-97.0061055997258,28.060180499705794]},"properties":{"substrate":"Mud","lease_number":null,"poll_year":2025}},{"type":"Feature","id":"789a5de6-6144-4423-9380-e6a05c07c11d","geometry":{"type":"Point","coordinates":[-97.00389429963589,28.060913600089474]},"properties":{"substrate":"Mud","lease_number":null,"poll_year":2025}},{"type":"Feature","id":"79d0bf71-2c3f-4156-8303-d8a8421cc56c","geometry":{"type":"Point","coordinates":[-97.0062882999866,28.060124500229804]},"properties":{"substrate":"Mud","lease_number":null,"poll_year":2025}},{"type":"Feature","id":"81450180-031f-4891-9cc7-67045344d2f9","geometry":{"type":"Point","coordinates":[-97.0050013995617,28.0605468000234]},"properties":{"substrate":"Mud","lease_number":null,"poll_year":2025}},{"type":"Feature","id":"8c571f13-b91f-4142-a382-3b10ea71d0f0","geometry":{"type":"Point","coordinates":[-96.99551040034432,28.06532779966159]},"properties":{"substrate":"Mud","lease_number":null,"poll_year":2025}},{"type":"Feature","id":"97d096b6-16a6-46da-a286-dbf54ba64dd6","geometry":{"type":"Point","coordinates":[-96.99478949963385,28.065884799789266]},"properties":{"substrate":"Mud","lease_number":null,"poll_year":2025}},{"type":"Feature","id":"99be6f6f-9317-4460-bfbc-4a443a721f10","geometry":{"type":"Point","coordinates":[-97.00692189972278,28.060092100077988]},"properties":{"substrate":"Mud","lease_number":null,"poll_year":2025}},{"type":"Feature","id":"a527fa9e-64e1-4634-87b0-b39bbee18b34","geometry":{"type":"Point","coordinates":[-97.00540789980418,28.060408599645285]},"properties":{"substrate":"Mud","lease_number":null,"poll_year":2025}},{"type":"Feature","id":"ab4c8116-1875-4899-a176-59366dae487b","geometry":{"type":"Point","coordinates":[-96.99866399992959,28.063548000191552]},"properties":{"substrate":"Mud","lease_number":null,"poll_year":2025}},{"type":"Feature","id":"ac15990f-374c-42f0-ba4a-d9e5a838c2cc","geometry":{"type":"Point","coordinates":[-96.99316890023374,28.067138600334918]},"properties":{"substrate":"Mud","lease_number":null,"poll_year":2025}},{"type":"Feature","id":"af9b0f08-807d-4642-801e-89364f0d40fc","geometry":{"type":"Point","coordinates":[-96.99662040003186,28.064658999828612]},"properties":{"substrate":"Mud","lease_number":null,"poll_year":2025}},{"type":"Feature","id":"b5931ad5-e52c-40dc-b577-a8afc2f47619","geometry":{"type":"Point","coordinates":[-96.99713919956633,28.064376600080177]},"properties":{"substrate":"Mud","lease_number":null,"poll_year":2025}},{"type":"Feature","id":"b74c89fd-129c-4ba6-bfae-b2df58f276d9","geometry":{"type":"Point","coordinates":[-97.0051844995728,28.060485900145416]},"properties":{"substrate":"Mud","lease_number":null,"poll_year":2025}},{"type":"Feature","id":"b7acaa85-494c-4307-b53c-825ac13aeb7f","geometry":{"type":"Point","coordinates":[-96.99468179971613,28.065968399736]},"properties":{"substrate":"Mud","lease_number":null,"poll_year":2025}},{"type":"Feature","id":"c05e1210-048d-426b-b3c1-75eccf845567","geometry":{"type":"Point","coordinates":[-96.98916889990294,28.070229299794104]},"properties":{"substrate":"Mud","lease_number":null,"poll_year":2025}},{"type":"Feature","id":"c148d002-0080-41bb-8796-1d9f2e6b851e","geometry":{"type":"Point","coordinates":[-96.99610540037106,28.064940499928134]},"properties":{"substrate":"Mud","lease_number":null,"poll_year":2025}},{"type":"Feature","id":"c37144e4-2690-431b-a608-741284adad94","geometry":{"type":"Point","coordinates":[-96.99537800034953,28.065430700293668]},"properties":{"substrate":"Mud","lease_number":null,"poll_year":2025}},{"type":"Feature","id":"c61d337c-ba9d-4c71-a954-115c85646914","geometry":{"type":"Point","coordinates":[-96.98885179999753,28.070476600071302]},"properties":{"substrate":"Mud","lease_number":null,"poll_year":2025}},{"type":"Feature","id":"d2963575-27ca-4b47-bfa8-96d7f323e150","geometry":{"type":"Point","coordinates":[-97.00859190017532,28.06040699993585]},"properties":{"substrate":"Mud","lease_number":null,"poll_year":2025}},{"type":"Feature","id":"d6c9df09-f19e-4e42-9ada-dcc726e2a652","geometry":{"type":"Point","coordinates":[-96.99643970031921,28.06476029987108]},"properties":{"substrate":"Mud","lease_number":null,"poll_year":2025}},{"type":"Feature","id":"d83d1a05-e7d1-443f-b7a2-be27ffe1a5e0","geometry":{"type":"Point","coordinates":[-97.00779180039615,28.060258299784394]},"properties":{"substrate":"Mud","lease_number":null,"poll_year":2025}},{"type":"Feature","id":"de581743-fb09-4590-bdc1-d97dc3f66e95","geometry":{"type":"Point","coordinates":[-96.9936093002001,28.066795000072066]},"properties":{"substrate":"Mud","lease_number":null,"poll_year":2025}},{"type":"Feature","id":"eae1f14d-0983-48d0-927e-d4532b61048e","geometry":{"type":"Point","coordinates":[-97.00474279974425,28.060632300305432]},"properties":{"substrate":"Mud","lease_number":null,"poll_year":2025}},{"type":"Feature","id":"ee0d5c9b-07cb-4979-ba7c-4f4d37184d8b","geometry":{"type":"Point","coordinates":[-96.99510830005009,28.065637400163236]},"properties":{"substrate":"Mud","lease_number":null,"poll_year":2025}},{"type":"Feature","id":"ee7d28f1-d8f3-4279-b344-5af3998f79b5","geometry":{"type":"Point","coordinates":[-96.99154709978612,28.068390499717026]},"properties":{"substrate":"Mud","lease_number":null,"poll_year":2025}}]}