{"type":"FeatureCollection","features":[{"type":"Feature","id":"00409966-f739-4d38-8cce-613ee9e57b87","geometry":{"type":"Point","coordinates":[-96.9882923013908,28.077055509149716]},"properties":{"substrate":"Mud","lease_number":null,"poll_year":2025}},{"type":"Feature","id":"00d0794b-a84b-4802-981d-01da5560a708","geometry":{"type":"Point","coordinates":[-96.99082507528324,28.079588058703592]},"properties":{"substrate":"Mud","lease_number":null,"poll_year":2025}},{"type":"Feature","id":"01feacfe-96c0-4613-b0bf-4330e7d02afd","geometry":{"type":"Point","coordinates":[-96.98732335337253,28.077826452422034]},"properties":{"substrate":"Solid Reef","lease_number":null,"poll_year":2025}},{"type":"Feature","id":"035f3a88-0694-4a59-b542-0052003be33b","geometry":{"type":"Point","coordinates":[-97.00588929977842,28.082951099906285]},"properties":{"substrate":"Buried Shell","lease_number":null,"poll_year":2025}},{"type":"Feature","id":"03ce6d6a-037e-4a00-8450-43f0acfe6864","geometry":{"type":"Point","coordinates":[-96.98844944009019,28.079372291607815]},"properties":{"substrate":"Mud","lease_number":null,"poll_year":2025}},{"type":"Feature","id":"04a9775b-65af-4efb-8f6c-12e66299fb1b","geometry":{"type":"Point","coordinates":[-96.98855574312765,28.078927470830195]},"properties":{"substrate":"Solid Reef","lease_number":null,"poll_year":2025}},{"type":"Feature","id":"04b97ddf-0a51-4d91-a49b-976321610b9a","geometry":{"type":"Point","coordinates":[-97.00192729998075,28.084450800369368]},"properties":{"substrate":"Mud","lease_number":null,"poll_year":2025}},{"type":"Feature","id":"07bbb17f-4190-49d9-89ec-754323c28383","geometry":{"type":"Point","coordinates":[-97.0046421003975,28.085795899622735]},"properties":{"substrate":"Solid Reef","lease_number":null,"poll_year":2025}},{"type":"Feature","id":"0d602517-85ff-4dbd-9851-594b571a0c5b","geometry":{"type":"Point","coordinates":[-97.00417770014172,28.082421300084658]},"properties":{"substrate":"Solid Reef","lease_number":null,"poll_year":2025}},{"type":"Feature","id":"0e3c9119-1d05-4526-9d98-5cf2165566d6","geometry":{"type":"Point","coordinates":[-97.00384750010453,28.082321399709592]},"properties":{"substrate":"Solid Reef","lease_number":null,"poll_year":2025}},{"type":"Feature","id":"12d5dc46-3fa5-444a-994b-541ec2fa657c","geometry":{"type":"Point","coordinates":[-96.9876598128706,28.077351792754133]},"properties":{"substrate":"Solid Reef","lease_number":null,"poll_year":2025}},{"type":"Feature","id":"1466ef7a-b335-47c8-a8b2-d392992536a7","geometry":{"type":"Point","coordinates":[-96.98808481211974,28.07791937028857]},"properties":{"substrate":"Solid Reef","lease_number":null,"poll_year":2025}},{"type":"Feature","id":"1561374b-51cf-43a0-bad8-f6698ca08a9f","geometry":{"type":"Point","coordinates":[-97.00431829995841,28.082460099745898]},"properties":{"substrate":"Solid Reef","lease_number":null,"poll_year":2025}},{"type":"Feature","id":"1591587b-e381-42c3-8835-dc0ead965a73","geometry":{"type":"Point","coordinates":[-97.00659259979751,28.084673300202134]},"properties":{"substrate":"Buried Shell","lease_number":null,"poll_year":2025}},{"type":"Feature","id":"16d1066a-01b1-4700-bb2b-1bcc21b81b0f","geometry":{"type":"Point","coordinates":[-96.98849637975873,28.077980447337378]},"properties":{"substrate":"Solid Reef","lease_number":null,"poll_year":2025}},{"type":"Feature","id":"19ca1390-525b-46f7-a73f-57e81161113e","geometry":{"type":"Point","coordinates":[-96.9889026617106,28.078982367534632]},"properties":{"substrate":"Solid Reef","lease_number":null,"poll_year":2025}},{"type":"Feature","id":"1a470537-51e0-4d6e-835d-ef24888d01a7","geometry":{"type":"Point","coordinates":[-97.00177079998353,28.084993800215855]},"properties":{"substrate":"Buried Shell","lease_number":null,"poll_year":2025}},{"type":"Feature","id":"23085841-c5ad-4e8f-a305-8b01ac65736f","geometry":{"type":"Point","coordinates":[-96.98790162676869,28.07838626326029]},"properties":{"substrate":"Solid Reef","lease_number":null,"poll_year":2025}},{"type":"Feature","id":"23430a8e-412d-4b98-a650-e6714a614b57","geometry":{"type":"Point","coordinates":[-96.98831033057856,28.078427603036534]},"properties":{"substrate":"Solid Reef","lease_number":null,"poll_year":2025}},{"type":"Feature","id":"234eac5c-acf6-4fec-b07a-17821a864642","geometry":{"type":"Point","coordinates":[-96.98746983805263,28.077343713037976]},"properties":{"substrate":"Solid Reef","lease_number":null,"poll_year":2025}},{"type":"Feature","id":"25eb16e4-1d0b-4db0-ab95-aa89bd660f23","geometry":{"type":"Point","coordinates":[-96.98760134602034,28.076976093236357]},"properties":{"substrate":"Solid Reef","lease_number":null,"poll_year":2025}},{"type":"Feature","id":"27b2ab56-e474-49ab-bff8-80e763f51ca9","geometry":{"type":"Point","coordinates":[-97.00556099967807,28.086440799948118]},"properties":{"substrate":"Solid Reef","lease_number":null,"poll_year":2025}},{"type":"Feature","id":"28b52a82-f796-4ff6-b95c-d7a9a5c589a6","geometry":{"type":"Point","coordinates":[-97.00443129993631,28.082493299976036]},"properties":{"substrate":"Solid Reef","lease_number":null,"poll_year":2025}},{"type":"Feature","id":"293b61a9-8e2f-4266-8ed9-3846dfc36f79","geometry":{"type":"Point","coordinates":[-96.98787916170005,28.079290968872634]},"properties":{"substrate":"Mud","lease_number":null,"poll_year":2025}},{"type":"Feature","id":"2b01c145-0800-4083-9568-1470daf3c6e0","geometry":{"type":"Point","coordinates":[-97.00594249980617,28.083033000018812]},"properties":{"substrate":"Buried Shell","lease_number":null,"poll_year":2025}},{"type":"Feature","id":"2baebd8a-8a35-452c-8ab0-bd4efebb9b9e","geometry":{"type":"Point","coordinates":[-97.00476180001081,28.08595170038555]},"properties":{"substrate":"Solid Reef","lease_number":null,"poll_year":2025}},{"type":"Feature","id":"2c216278-6f4b-4f56-8b59-0ed5949a6a20","geometry":{"type":"Point","coordinates":[-96.98771495236106,28.078780488477104]},"properties":{"substrate":"Mud","lease_number":null,"poll_year":2025}},{"type":"Feature","id":"2f614ce4-627c-49a1-83ed-dc9e05479a84","geometry":{"type":"Point","coordinates":[-97.00555210006854,28.086870699645406]},"properties":{"substrate":"Solid Reef","lease_number":null,"poll_year":2025}},{"type":"Feature","id":"33e20273-68df-4578-ad94-6cfb28f4580a","geometry":{"type":"Point","coordinates":[-96.9896575959939,28.079534344836773]},"properties":{"substrate":"Mud","lease_number":null,"poll_year":2025}},{"type":"Feature","id":"3976507e-f3f5-4769-94dc-1f078a3be8a0","geometry":{"type":"Point","coordinates":[-97.00184629978989,28.08472320016972]},"properties":{"substrate":"Buried Shell","lease_number":null,"poll_year":2025}},{"type":"Feature","id":"3c496f58-af98-4fd6-bd0a-d9f6f5614415","geometry":{"type":"Point","coordinates":[-97.00235790022568,28.083020900106778]},"properties":{"substrate":"Solid Reef","lease_number":null,"poll_year":2025}},{"type":"Feature","id":"3c959d54-0784-462f-a3f9-7c6cb0c76549","geometry":{"type":"Point","coordinates":[-97.00538879982463,28.086756599763042]},"properties":{"substrate":"Solid Reef","lease_number":null,"poll_year":2025}},{"type":"Feature","id":"3db17f34-bf11-413e-a358-9d2a18e526da","geometry":{"type":"Point","coordinates":[-96.98752547880302,28.07835017911845]},"properties":{"substrate":"Solid Reef","lease_number":null,"poll_year":2025}},{"type":"Feature","id":"4048a8f3-f52e-471e-985b-c0b0a5bffe02","geometry":{"type":"Point","coordinates":[-97.0064864997793,28.084103999703917]},"properties":{"substrate":"Buried Shell","lease_number":null,"poll_year":2025}},{"type":"Feature","id":"4107b7a7-5dc6-4062-88da-28bd8803c07d","geometry":{"type":"Point","coordinates":[-97.00181369992823,28.084845899686464]},"properties":{"substrate":"Buried Shell","lease_number":null,"poll_year":2025}},{"type":"Feature","id":"42f2fbd8-96fa-40f6-bd1d-ceea4fb5ea55","geometry":{"type":"Point","coordinates":[-96.98959994661054,28.079079216402995]},"properties":{"substrate":"Solid Reef","lease_number":null,"poll_year":2025}},{"type":"Feature","id":"43cc01c8-19b4-4840-99fb-ce10cf092a12","geometry":{"type":"Point","coordinates":[-96.99031998044674,28.078216603409214]},"properties":{"substrate":"Mud","lease_number":null,"poll_year":2025}},{"type":"Feature","id":"440cb371-b21d-44bb-91fa-c8c5d6027943","geometry":{"type":"Point","coordinates":[-96.99009826545485,28.078186915404395]},"properties":{"substrate":"Solid Reef","lease_number":null,"poll_year":2025}},{"type":"Feature","id":"44813298-afc4-40e7-9016-13222e0929bd","geometry":{"type":"Point","coordinates":[-97.00502470006354,28.08630369962236]},"properties":{"substrate":"Solid Reef","lease_number":null,"poll_year":2025}},{"type":"Feature","id":"44cd9f45-6030-4f0e-bb2c-9e1c54de0d21","geometry":{"type":"Point","coordinates":[-97.00454499970182,28.082526400333688]},"properties":{"substrate":"Solid Reef","lease_number":null,"poll_year":2025}},{"type":"Feature","id":"486f5129-9ced-4a7b-a6f3-31fcc81d6b36","geometry":{"type":"Point","coordinates":[-96.9880176720354,28.07702016405441]},"properties":{"substrate":"Mud","lease_number":null,"poll_year":2025}},{"type":"Feature","id":"48ee1b6b-afc6-44cc-bd92-bc1090998f89","geometry":{"type":"Point","coordinates":[-96.99040236583976,28.07858462239127]},"properties":{"substrate":"Mud","lease_number":null,"poll_year":2025}},{"type":"Feature","id":"499984f6-b5db-4a8a-b777-368dda52025d","geometry":{"type":"Point","coordinates":[-97.00573890024029,28.082879700285574]},"properties":{"substrate":"Buried Shell","lease_number":null,"poll_year":2025}},{"type":"Feature","id":"4b1aba5d-c761-40ed-8783-10964b636737","geometry":{"type":"Point","coordinates":[-96.99104737687502,28.07954592679499]},"properties":{"substrate":"Mud","lease_number":null,"poll_year":2025}},{"type":"Feature","id":"4be0ce5a-5752-41a0-9154-4b01467c09db","geometry":{"type":"Point","coordinates":[-96.99072723527406,28.078265544174673]},"properties":{"substrate":"Mud","lease_number":null,"poll_year":2025}},{"type":"Feature","id":"4ee2bd9c-5c72-4082-828c-ec4452304a0a","geometry":{"type":"Point","coordinates":[-97.00130750016395,28.086560400305526]},"properties":{"substrate":"Solid Reef","lease_number":null,"poll_year":2025}},{"type":"Feature","id":"4ff55d54-0f44-4348-b003-00798cccf484","geometry":{"type":"Point","coordinates":[-97.00225110041985,28.08335740031638]},"properties":{"substrate":"Solid Reef","lease_number":null,"poll_year":2025}},{"type":"Feature","id":"501433f3-0d30-467c-975d-bf8364912db9","geometry":{"type":"Point","coordinates":[-97.00139439959128,28.086257300199694]},"properties":{"substrate":"Solid Reef","lease_number":null,"poll_year":2025}},{"type":"Feature","id":"5068900b-f168-48bb-ad8c-9bb9f1e6acd8","geometry":{"type":"Point","coordinates":[-96.98769050291399,28.07787279525071]},"properties":{"substrate":"Solid Reef","lease_number":null,"poll_year":2025}},{"type":"Feature","id":"525cb61c-5318-4a16-bb02-9f748b532cf4","geometry":{"type":"Point","coordinates":[-96.99027755211756,28.079582699286036]},"properties":{"substrate":"Mud","lease_number":null,"poll_year":2025}},{"type":"Feature","id":"552fa3ae-a56a-4fb4-b698-053d17482ce6","geometry":{"type":"Point","coordinates":[-97.00230539998553,28.083191399606374]},"properties":{"substrate":"Solid Reef","lease_number":null,"poll_year":2025}},{"type":"Feature","id":"57155354-4912-4949-b08e-f37d41297431","geometry":{"type":"Point","coordinates":[-97.00601609967572,28.08317600031719]},"properties":{"substrate":"Buried Shell","lease_number":null,"poll_year":2025}},{"type":"Feature","id":"588b68ad-ed6b-4219-947d-6e5d98cd6de3","geometry":{"type":"Point","coordinates":[-97.00152739966066,28.08582899975488]},"properties":{"substrate":"Solid Reef","lease_number":null,"poll_year":2025}},{"type":"Feature","id":"5a4acca7-6ad3-47da-8339-dda1a8b84290","geometry":{"type":"Point","coordinates":[-96.98789165277408,28.078811745635125]},"properties":{"substrate":"Solid Reef","lease_number":null,"poll_year":2025}},{"type":"Feature","id":"5c7b8604-4937-4d82-aa61-0c8e022b60d8","geometry":{"type":"Point","coordinates":[-96.98778695053447,28.07699623552769]},"properties":{"substrate":"Solid Reef","lease_number":null,"poll_year":2025}},{"type":"Feature","id":"5cdbf1de-f9c6-4670-8880-1d5608994076","geometry":{"type":"Point","coordinates":[-96.98880513611178,28.077114900043394]},"properties":{"substrate":"Mud","lease_number":null,"poll_year":2025}},{"type":"Feature","id":"5d5aa91c-5e8a-44c6-a1e9-4285d44b4d8b","geometry":{"type":"Point","coordinates":[-96.98941453164096,28.078095954673383]},"properties":{"substrate":"Solid Reef","lease_number":null,"poll_year":2025}},{"type":"Feature","id":"5e13c086-ba2f-4f55-a2c5-0726ec35ae88","geometry":{"type":"Point","coordinates":[-97.00134060038722,28.086443799667144]},"properties":{"substrate":"Solid Reef","lease_number":null,"poll_year":2025}},{"type":"Feature","id":"5eb84eaa-b9b6-4f40-bf64-e01975d6d165","geometry":{"type":"Point","coordinates":[-96.98849203011613,28.07707869896261]},"properties":{"substrate":"Mud","lease_number":null,"poll_year":2025}},{"type":"Feature","id":"610c5af7-6eec-4659-b501-93c9d5764cc1","geometry":{"type":"Point","coordinates":[-97.00359529988515,28.08224630000429]},"properties":{"substrate":"Solid Reef","lease_number":null,"poll_year":2025}},{"type":"Feature","id":"643b0872-50cb-415a-a955-d96a937c536d","geometry":{"type":"Point","coordinates":[-96.98922842317197,28.07851248434704]},"properties":{"substrate":"Solid Reef","lease_number":null,"poll_year":2025}},{"type":"Feature","id":"64e49067-b651-4d47-ab0d-66833b1b1a8b","geometry":{"type":"Point","coordinates":[-97.00175170000395,28.08506720038259]},"properties":{"substrate":"Buried Shell","lease_number":null,"poll_year":2025}},{"type":"Feature","id":"6923c310-505f-4557-9108-023e6ffa3c2d","geometry":{"type":"Point","coordinates":[-96.98911193323919,28.079016579383183]},"properties":{"substrate":"Solid Reef","lease_number":null,"poll_year":2025}},{"type":"Feature","id":"6e291bf2-1d6e-4777-8e30-cd3aec684e74","geometry":{"type":"Point","coordinates":[-96.98991780559237,28.078157135450994]},"properties":{"substrate":"Solid Reef","lease_number":null,"poll_year":2025}},{"type":"Feature","id":"6e2fcfb1-cdd5-42c3-bef2-76a606ca31dc","geometry":{"type":"Point","coordinates":[-96.98906743788655,28.079465607597125]},"properties":{"substrate":"Solid Reef","lease_number":null,"poll_year":2025}},{"type":"Feature","id":"6f042f87-7250-467a-9174-07b3927883a3","geometry":{"type":"Point","coordinates":[-97.00656199958568,28.0844437998382]},"properties":{"substrate":"Buried Shell","lease_number":null,"poll_year":2025}},{"type":"Feature","id":"71648564-1c20-4db5-ae1b-a1d06d45923b","geometry":{"type":"Point","coordinates":[-97.00266949974659,28.082082900344798]},"properties":{"substrate":"Solid Reef","lease_number":null,"poll_year":2025}},{"type":"Feature","id":"73a204cc-c17a-47d3-b0b3-f874dfef607e","geometry":{"type":"Point","coordinates":[-96.98811816476962,28.07740076006926]},"properties":{"substrate":"Solid Reef","lease_number":null,"poll_year":2025}},{"type":"Feature","id":"740b6f1a-05ff-4e96-ae63-1eed8c99446f","geometry":{"type":"Point","coordinates":[-96.98932208601508,28.079040948135834]},"properties":{"substrate":"Solid Reef","lease_number":null,"poll_year":2025}},{"type":"Feature","id":"75d05848-6538-41c8-95be-a0762a18f814","geometry":{"type":"Point","coordinates":[-97.00166210024089,28.085360899614766]},"properties":{"substrate":"Buried Shell","lease_number":null,"poll_year":2025}},{"type":"Feature","id":"7762147f-939a-42fe-87de-acc424e816a3","geometry":{"type":"Point","coordinates":[-96.9877027999519,28.078367085808946]},"properties":{"substrate":"Solid Reef","lease_number":null,"poll_year":2025}},{"type":"Feature","id":"77f07b63-b314-4112-a2dc-47f3b453e724","geometry":{"type":"Point","coordinates":[-96.99048169965577,28.079194648054646]},"properties":{"substrate":"Mud","lease_number":null,"poll_year":2025}},{"type":"Feature","id":"818314ce-d9e2-4513-a027-3d5465bf62cb","geometry":{"type":"Point","coordinates":[-97.00249829971804,28.082532200266016]},"properties":{"substrate":"Solid Reef","lease_number":null,"poll_year":2025}},{"type":"Feature","id":"8272202e-1aaf-492f-a4af-3a6f68b1aa45","geometry":{"type":"Point","coordinates":[-96.98976897630935,28.07909973160617]},"properties":{"substrate":"Solid Reef","lease_number":null,"poll_year":2025}},{"type":"Feature","id":"834db5d7-8801-42d4-8792-b914bcf3381b","geometry":{"type":"Point","coordinates":[-96.99064579131547,28.07957940295087]},"properties":{"substrate":"Mud","lease_number":null,"poll_year":2025}},{"type":"Feature","id":"8481c804-19c6-480f-8b6c-d5fe930b15d0","geometry":{"type":"Point","coordinates":[-96.98737295295261,28.076184117667495]},"properties":{"substrate":"Mud","lease_number":null,"poll_year":2025}},{"type":"Feature","id":"866f83f8-d50c-46ef-ab5c-9aff8258d12d","geometry":{"type":"Point","coordinates":[-96.9892522635613,28.079495800121588]},"properties":{"substrate":"Solid Reef","lease_number":null,"poll_year":2025}},{"type":"Feature","id":"89827a7e-ca43-44cc-886a-4c57b6ee2318","geometry":{"type":"Point","coordinates":[-97.0065774003029,28.084546300154603]},"properties":{"substrate":"Buried Shell","lease_number":null,"poll_year":2025}},{"type":"Feature","id":"8a741ce4-2698-4007-911a-9608695393ce","geometry":{"type":"Point","coordinates":[-97.00260760043362,28.082164099704162]},"properties":{"substrate":"Buried Shell","lease_number":null,"poll_year":2025}},{"type":"Feature","id":"8c019510-0c29-422a-b410-3301fbf55cce","geometry":{"type":"Point","coordinates":[-97.00222240014484,28.083453799825985]},"properties":{"substrate":"Solid Reef","lease_number":null,"poll_year":2025}},{"type":"Feature","id":"8d6d5726-519a-438c-86f4-fc7fe827d2f7","geometry":{"type":"Point","coordinates":[-96.99053919902047,28.07824425366045]},"properties":{"substrate":"Mud","lease_number":null,"poll_year":2025}},{"type":"Feature","id":"8df04bd9-77ed-4089-8b59-2e2cd3dd9754","geometry":{"type":"Point","coordinates":[-96.99078015323083,28.07860866707428]},"properties":{"substrate":"Mud","lease_number":null,"poll_year":2025}},{"type":"Feature","id":"8e90ec6c-75ba-45aa-8c2b-ffcf03de0721","geometry":{"type":"Point","coordinates":[-97.001874199666,28.084623500071576]},"properties":{"substrate":"Buried Shell","lease_number":null,"poll_year":2025}},{"type":"Feature","id":"8ecff836-2330-4b04-8ae2-0003ca7fdc5d","geometry":{"type":"Point","coordinates":[-97.00528780044058,28.086632899883462]},"properties":{"substrate":"Solid Reef","lease_number":null,"poll_year":2025}},{"type":"Feature","id":"8eefa678-cb97-4f8c-aa54-5e8724f466f0","geometry":{"type":"Point","coordinates":[-97.00205340009045,28.084011599965653]},"properties":{"substrate":"Buried Shell","lease_number":null,"poll_year":2025}},{"type":"Feature","id":"8fc8d18e-c189-4c72-b330-4b99de591e4f","geometry":{"type":"Point","coordinates":[-97.00145300029051,28.086067100081497]},"properties":{"substrate":"Solid Reef","lease_number":null,"poll_year":2025}},{"type":"Feature","id":"9321bd87-9a2f-4460-b1f4-9f207121acd9","geometry":{"type":"Point","coordinates":[-97.00307190007811,28.08207560007144]},"properties":{"substrate":"Solid Reef","lease_number":null,"poll_year":2025}},{"type":"Feature","id":"93496ae7-4503-4477-9a64-cd2c0bffab9a","geometry":{"type":"Point","coordinates":[-96.99076780229399,28.07923426048497]},"properties":{"substrate":"Mud","lease_number":null,"poll_year":2025}},{"type":"Feature","id":"94d9b3ea-638d-404e-b68b-095d3ffe05a2","geometry":{"type":"Point","coordinates":[-97.00462859961712,28.08255259988883]},"properties":{"substrate":"Solid Reef","lease_number":null,"poll_year":2025}},{"type":"Feature","id":"960876bf-3b51-4ca5-bbf6-5d08ac22922c","geometry":{"type":"Point","coordinates":[-96.98749019926687,28.077848282773928]},"properties":{"substrate":"Solid Reef","lease_number":null,"poll_year":2025}},{"type":"Feature","id":"963e63b9-8be1-4a9f-af8d-41a558ae057e","geometry":{"type":"Point","coordinates":[-96.98987538894127,28.079550266165164]},"properties":{"substrate":"Mud","lease_number":null,"poll_year":2025}},{"type":"Feature","id":"9833965c-7e5b-4d69-b848-833f76cc5db5","geometry":{"type":"Point","coordinates":[-97.00645199998081,28.085515399666384]},"properties":{"substrate":"Solid Reef","lease_number":null,"poll_year":2025}},{"type":"Feature","id":"99064c00-92b7-490f-84f4-c8c3f321bd06","geometry":{"type":"Point","coordinates":[-96.98977868170769,28.078537713963]},"properties":{"substrate":"Solid Reef","lease_number":null,"poll_year":2025}},{"type":"Feature","id":"997fcba2-8a77-4d5d-a9ab-288565890b68","geometry":{"type":"Point","coordinates":[-96.98828117306107,28.078881712590924]},"properties":{"substrate":"Solid Reef","lease_number":null,"poll_year":2025}},{"type":"Feature","id":"9b390e24-843a-4dc1-a624-5910af8b18ce","geometry":{"type":"Point","coordinates":[-96.98866616583899,28.077999868183035]},"properties":{"substrate":"Solid Reef","lease_number":null,"poll_year":2025}},{"type":"Feature","id":"9d553f4e-e492-4bcd-95aa-97c7848e7895","geometry":{"type":"Point","coordinates":[-97.00620180030957,28.08356150021166]},"properties":{"substrate":"Buried Shell","lease_number":null,"poll_year":2025}},{"type":"Feature","id":"9ebee27a-c478-45a1-a13c-653443a4ff92","geometry":{"type":"Point","coordinates":[-96.9884771243706,28.07844220962682]},"properties":{"substrate":"Solid Reef","lease_number":null,"poll_year":2025}},{"type":"Feature","id":"9ffdae69-7bd7-41b0-8947-105cdcf588f6","geometry":{"type":"Point","coordinates":[-97.00371109991178,28.082279799887743]},"properties":{"substrate":"Solid Reef","lease_number":null,"poll_year":2025}},{"type":"Feature","id":"a0db9df0-06ab-4b79-800e-706008eed96d","geometry":{"type":"Point","coordinates":[-96.98882238376522,28.077467010676656]},"properties":{"substrate":"Mud","lease_number":null,"poll_year":2025}},{"type":"Feature","id":"a107306b-9dba-4fc1-9e6b-0fb293162b28","geometry":{"type":"Point","coordinates":[-97.00170690012243,28.0852142002849]},"properties":{"substrate":"Buried Shell","lease_number":null,"poll_year":2025}},{"type":"Feature","id":"a1b950c2-22a4-4cdf-8344-f063fe4aa7ea","geometry":{"type":"Point","coordinates":[-96.98905334331972,28.078047626502798]},"properties":{"substrate":"Solid Reef","lease_number":null,"poll_year":2025}},{"type":"Feature","id":"a26e718e-f8fb-461c-b1f3-a4dbc8ff4528","geometry":{"type":"Point","coordinates":[-96.98901930435697,28.078499523176422]},"properties":{"substrate":"Solid Reef","lease_number":null,"poll_year":2025}},{"type":"Feature","id":"a4f39e48-1f18-4f68-91c5-c958f54907ff","geometry":{"type":"Point","coordinates":[-96.9900052520937,28.078554184701485]},"properties":{"substrate":"Solid Reef","lease_number":null,"poll_year":2025}},{"type":"Feature","id":"a6e9fcd1-b48e-4284-bd8b-2dca01dd758c","geometry":{"type":"Point","coordinates":[-96.99098654116735,28.07925923075733]},"properties":{"substrate":"Mud","lease_number":null,"poll_year":2025}},{"type":"Feature","id":"a75f5c55-5ca5-4267-98cb-c7f9f797d1b2","geometry":{"type":"Point","coordinates":[-96.98792252517546,28.077901043996796]},"properties":{"substrate":"Solid Reef","lease_number":null,"poll_year":2025}},{"type":"Feature","id":"a90f9de1-0829-4433-800e-d2546b3e87ae","geometry":{"type":"Point","coordinates":[-96.98872590021215,28.07895532776267]},"properties":{"substrate":"Solid Reef","lease_number":null,"poll_year":2025}},{"type":"Feature","id":"a9e1add1-c098-483c-83fa-1ae2f6da40e5","geometry":{"type":"Point","coordinates":[-97.00255470044317,28.082334599771617]},"properties":{"substrate":"Buried Shell","lease_number":null,"poll_year":2025}},{"type":"Feature","id":"aa5227e3-bccb-4704-b2d7-7eae2d5c5167","geometry":{"type":"Point","coordinates":[-96.98888450765702,28.07803288828886]},"properties":{"substrate":"Solid Reef","lease_number":null,"poll_year":2025}},{"type":"Feature","id":"aa5cbd53-1231-4d43-a278-7eb9238d6b00","geometry":{"type":"Point","coordinates":[-96.98832351784692,28.07794578893014]},"properties":{"substrate":"Solid Reef","lease_number":null,"poll_year":2025}},{"type":"Feature","id":"aaa99f71-12d1-4051-8c6e-1b552bab0155","geometry":{"type":"Point","coordinates":[-96.98810145071543,28.078851600737426]},"properties":{"substrate":"Solid Reef","lease_number":null,"poll_year":2025}},{"type":"Feature","id":"aab3a823-94f4-42b3-b027-69676f2ad070","geometry":{"type":"Point","coordinates":[-97.00149799959806,28.085924699617415]},"properties":{"substrate":"Solid Reef","lease_number":null,"poll_year":2025}},{"type":"Feature","id":"aafe3396-d725-46f1-91cf-1582a8c2cc57","geometry":{"type":"Point","coordinates":[-97.00197080000007,28.084305500221184]},"properties":{"substrate":"Buried Shell","lease_number":null,"poll_year":2025}},{"type":"Feature","id":"ac237c87-423d-40a6-bb2c-b681b577a7d7","geometry":{"type":"Point","coordinates":[-96.98731615427384,28.078334806083024]},"properties":{"substrate":"Solid Reef","lease_number":null,"poll_year":2025}},{"type":"Feature","id":"ac823aab-aff3-4c9c-a78b-ecdfe35e4d3a","geometry":{"type":"Point","coordinates":[-96.98731931185206,28.078708821360014]},"properties":{"substrate":"Mud","lease_number":null,"poll_year":2025}},{"type":"Feature","id":"b055ce21-42b6-49f4-b88d-cecb2d78a4b6","geometry":{"type":"Point","coordinates":[-97.00331839958871,28.08216190035091]},"properties":{"substrate":"Solid Reef","lease_number":null,"poll_year":2025}},{"type":"Feature","id":"b0f8f70f-8611-4173-b509-26861f40ab91","geometry":{"type":"Point","coordinates":[-97.00655200043826,28.084340899981953]},"properties":{"substrate":"Buried Shell","lease_number":null,"poll_year":2025}},{"type":"Feature","id":"b39da812-5925-482a-8e6e-a562ffaad6ed","geometry":{"type":"Point","coordinates":[-97.00565739968782,28.082855100185466]},"properties":{"substrate":"Buried Shell","lease_number":null,"poll_year":2025}},{"type":"Feature","id":"b3bf7481-fa4b-4a5d-85aa-700454ec4ca3","geometry":{"type":"Point","coordinates":[-97.00124370001583,28.086770499872575]},"properties":{"substrate":"Solid Reef","lease_number":null,"poll_year":2025}},{"type":"Feature","id":"b3f28cd0-eca0-47d5-8598-eccea04ba76a","geometry":{"type":"Point","coordinates":[-96.98805234790369,28.079313237224056]},"properties":{"substrate":"Mud","lease_number":null,"poll_year":2025}},{"type":"Feature","id":"b49cf85c-f4dc-4cb0-901b-6a4b2700238b","geometry":{"type":"Point","coordinates":[-97.00213980005447,28.083713499984952]},"properties":{"substrate":"Solid Reef","lease_number":null,"poll_year":2025}},{"type":"Feature","id":"b4a93ede-c9ab-4c7e-9f2b-bacd87db19c1","geometry":{"type":"Point","coordinates":[-96.98947161239073,28.079520246438282]},"properties":{"substrate":"Solid Reef","lease_number":null,"poll_year":2025}},{"type":"Feature","id":"b53799df-1c91-48e3-95f8-9cd3f0332b13","geometry":{"type":"Point","coordinates":[-97.00190440012754,28.084524499695743]},"properties":{"substrate":"Buried Shell","lease_number":null,"poll_year":2025}},{"type":"Feature","id":"b6992857-2350-4d74-9e69-a8ac1121f60b","geometry":{"type":"Point","coordinates":[-96.9892184743302,28.078068271095223]},"properties":{"substrate":"Solid Reef","lease_number":null,"poll_year":2025}},{"type":"Feature","id":"b69c7c8d-ba1b-4e57-abb2-df6cce717a23","geometry":{"type":"Point","coordinates":[-97.00656569974635,28.085075700355475]},"properties":{"substrate":"Solid Reef","lease_number":null,"poll_year":2025}},{"type":"Feature","id":"b6dd9359-63e5-4c74-b14e-8c017ff0aff9","geometry":{"type":"Point","coordinates":[-97.00160200025344,28.08555989970413]},"properties":{"substrate":"Buried Shell","lease_number":null,"poll_year":2025}},{"type":"Feature","id":"b7200363-3ad3-471e-bc0f-5e07e0645e92","geometry":{"type":"Point","coordinates":[-97.00218559976092,28.08357099970846]},"properties":{"substrate":"Solid Reef","lease_number":null,"poll_year":2025}},{"type":"Feature","id":"b8826a9e-58a3-47bf-9ca8-15ade7ee7663","geometry":{"type":"Point","coordinates":[-96.98867261035286,28.079413310802178]},"properties":{"substrate":"Mud","lease_number":null,"poll_year":2025}},{"type":"Feature","id":"b9742240-5d36-4c6c-bbaf-5c64f171823d","geometry":{"type":"Point","coordinates":[-96.98754265189632,28.078747492378657]},"properties":{"substrate":"Mud","lease_number":null,"poll_year":2025}},{"type":"Feature","id":"ba92718c-aaa2-4e1a-841c-f19668af270b","geometry":{"type":"Point","coordinates":[-96.98827087028307,28.0793485498615]},"properties":{"substrate":"Mud","lease_number":null,"poll_year":2025}},{"type":"Feature","id":"bef3bf6a-4473-497a-a386-f299d6f5d707","geometry":{"type":"Point","coordinates":[-97.00642280024252,28.085611599897554]},"properties":{"substrate":"Solid Reef","lease_number":null,"poll_year":2025}},{"type":"Feature","id":"c08a01b4-f37e-45be-8a24-062ac42a1f9f","geometry":{"type":"Point","coordinates":[-97.00208490041419,28.083912800332502]},"properties":{"substrate":"Buried Shell","lease_number":null,"poll_year":2025}},{"type":"Feature","id":"c0b24d9f-7d84-4550-9e43-4485c86f009a","geometry":{"type":"Point","coordinates":[-96.98997526632952,28.079130880087515]},"properties":{"substrate":"Solid Reef","lease_number":null,"poll_year":2025}},{"type":"Feature","id":"c3c472fe-4538-4841-8480-806f261cf088","geometry":{"type":"Point","coordinates":[-96.99046871899992,28.079587648940358]},"properties":{"substrate":"Mud","lease_number":null,"poll_year":2025}},{"type":"Feature","id":"c4d8a610-9775-4351-b21e-34ebcf5ec486","geometry":{"type":"Point","coordinates":[-97.00638870019434,28.083915700261286]},"properties":{"substrate":"Solid Reef","lease_number":null,"poll_year":2025}},{"type":"Feature","id":"c5715cd7-8439-4374-84d3-d3f0549d5281","geometry":{"type":"Point","coordinates":[-96.98888509695185,28.079433628589143]},"properties":{"substrate":"Mud","lease_number":null,"poll_year":2025}},{"type":"Feature","id":"c63aa534-6252-4d42-aef4-363909d12fac","geometry":{"type":"Point","coordinates":[-96.99113568665734,28.079414074849314]},"properties":{"substrate":"Mud","lease_number":null,"poll_year":2025}},{"type":"Feature","id":"c64c9eed-6cd2-418e-93e1-9c8a008717e7","geometry":{"type":"Point","coordinates":[-96.99021816718908,28.07856906630201]},"properties":{"substrate":"Solid Reef","lease_number":null,"poll_year":2025}},{"type":"Feature","id":"c66178b1-ba3a-4618-87d9-15cddf49cfdf","geometry":{"type":"Point","coordinates":[-97.00241499984007,28.08282599995345]},"properties":{"substrate":"Solid Reef","lease_number":null,"poll_year":2025}},{"type":"Feature","id":"c78537bd-fc80-4850-bdd1-5e712677a73f","geometry":{"type":"Point","coordinates":[-96.98960431871105,28.07853373517877]},"properties":{"substrate":"Solid Reef","lease_number":null,"poll_year":2025}},{"type":"Feature","id":"c8632f73-bc77-4a36-8e3d-8e989c93907c","geometry":{"type":"Point","coordinates":[-96.99005501696381,28.079572793636068]},"properties":{"substrate":"Mud","lease_number":null,"poll_year":2025}},{"type":"Feature","id":"c915f276-b679-4416-b11f-184d23a88433","geometry":{"type":"Point","coordinates":[-97.00648799996583,28.08539310035279]},"properties":{"substrate":"Solid Reef","lease_number":null,"poll_year":2025}},{"type":"Feature","id":"cb633a15-03c1-47eb-8e5b-d5068dbc462a","geometry":{"type":"Point","coordinates":[-96.98832650384693,28.077435231600056]},"properties":{"substrate":"Mud","lease_number":null,"poll_year":2025}},{"type":"Feature","id":"cd38285a-f815-4194-b83c-7e22f735d2a3","geometry":{"type":"Point","coordinates":[-97.00632610019545,28.083800100116193]},"properties":{"substrate":"Solid Reef","lease_number":null,"poll_year":2025}},{"type":"Feature","id":"cd9fd452-13a5-4ec8-9758-5f63ad809b16","geometry":{"type":"Point","coordinates":[-96.98785265151771,28.07736885257263]},"properties":{"substrate":"Solid Reef","lease_number":null,"poll_year":2025}},{"type":"Feature","id":"cf3c8380-a4f7-44d4-8658-8fefb66d0359","geometry":{"type":"Point","coordinates":[-97.00623570003346,28.083633900368266]},"properties":{"substrate":"Solid Reef","lease_number":null,"poll_year":2025}},{"type":"Feature","id":"cf715ec2-97b9-4155-8007-19ec0ba21d7d","geometry":{"type":"Point","coordinates":[-97.00515469975988,28.086477500335697]},"properties":{"substrate":"Solid Reef","lease_number":null,"poll_year":2025}},{"type":"Feature","id":"d2165954-3dbd-4d0f-8a90-af7f22a538d2","geometry":{"type":"Point","coordinates":[-96.99097978673473,28.078306838819834]},"properties":{"substrate":"Mud","lease_number":null,"poll_year":2025}},{"type":"Feature","id":"d4af52b8-03d4-4da5-8822-de039de6b571","geometry":{"type":"Point","coordinates":[-97.00608200008497,28.083321000031773]},"properties":{"substrate":"Buried Shell","lease_number":null,"poll_year":2025}},{"type":"Feature","id":"d63e1c02-8c53-4ff6-9666-63136e5b49b3","geometry":{"type":"Point","coordinates":[-97.00652360020052,28.085272900329862]},"properties":{"substrate":"Firm/Hard Bottom","lease_number":null,"poll_year":2025}},{"type":"Feature","id":"d75fda40-af88-47cb-8570-4643a8c526be","geometry":{"type":"Point","coordinates":[-97.00244379982809,28.082727499608033]},"properties":{"substrate":"Solid Reef","lease_number":null,"poll_year":2025}},{"type":"Feature","id":"d86fcb31-0f92-4628-a231-51c76aa1eca0","geometry":{"type":"Point","coordinates":[-97.00659370023372,28.084772600021086]},"properties":{"substrate":"Buried Shell","lease_number":null,"poll_year":2025}},{"type":"Feature","id":"d8914076-9c98-44cd-b845-32beb6abc9ad","geometry":{"type":"Point","coordinates":[-97.00227079957573,28.0832851996963]},"properties":{"substrate":"Solid Reef","lease_number":null,"poll_year":2025}},{"type":"Feature","id":"dc22158d-f3cb-4b71-8199-50a9103746e9","geometry":{"type":"Point","coordinates":[-97.00238800007588,28.082924699932168]},"properties":{"substrate":"Solid Reef","lease_number":null,"poll_year":2025}},{"type":"Feature","id":"dc319305-0c7a-4e30-bb60-13bcb05e673e","geometry":{"type":"Point","coordinates":[-96.99096695519921,28.07861572505205]},"properties":{"substrate":"Mud","lease_number":null,"poll_year":2025}},{"type":"Feature","id":"dc8ad21e-2ac3-46d8-8193-5fa4400fca31","geometry":{"type":"Point","coordinates":[-96.9886853089377,28.078465690812344]},"properties":{"substrate":"Solid Reef","lease_number":null,"poll_year":2025}},{"type":"Feature","id":"e07ddc78-5666-428c-8cd5-e35cb840d501","geometry":{"type":"Point","coordinates":[-97.00233380022323,28.08309200004863]},"properties":{"substrate":"Solid Reef","lease_number":null,"poll_year":2025}},{"type":"Feature","id":"e25e746d-64fc-4bb8-b812-ddde8a98c88e","geometry":{"type":"Point","coordinates":[-97.00247180031549,28.08262890010269]},"properties":{"substrate":"Solid Reef","lease_number":null,"poll_year":2025}},{"type":"Feature","id":"e28afa4c-64a0-4bf1-94e7-9bf78e758d82","geometry":{"type":"Point","coordinates":[-97.0014243000155,28.08616300024195]},"properties":{"substrate":"Solid Reef","lease_number":null,"poll_year":2025}},{"type":"Feature","id":"e300f122-210b-4f57-b90b-eae4b69b0dcc","geometry":{"type":"Point","coordinates":[-96.98769821584901,28.079259845007734]},"properties":{"substrate":"Mud","lease_number":null,"poll_year":2025}},{"type":"Feature","id":"e4c113aa-d811-4b6e-97cb-5f09c587f25c","geometry":{"type":"Point","coordinates":[-97.0040427004225,28.082378500368506]},"properties":{"substrate":"Solid Reef","lease_number":null,"poll_year":2025}},{"type":"Feature","id":"e4d1b1c6-f8ba-43fd-8c44-109cc9ad7325","geometry":{"type":"Point","coordinates":[-96.9873910360393,28.076951502880316]},"properties":{"substrate":"Solid Reef","lease_number":null,"poll_year":2025}},{"type":"Feature","id":"e4da4258-8657-4d9e-9f90-58e6d55f79ae","geometry":{"type":"Point","coordinates":[-97.00211250025299,28.083813200135452]},"properties":{"substrate":"Buried Shell","lease_number":null,"poll_year":2025}},{"type":"Feature","id":"e5e0e42f-cbf6-411d-bdde-4b7a330208e3","geometry":{"type":"Point","coordinates":[-96.99022523962532,28.079159604844435]},"properties":{"substrate":"Solid Reef","lease_number":null,"poll_year":2025}},{"type":"Feature","id":"e954e6b6-4574-4e77-8f3a-46d342e4e75b","geometry":{"type":"Point","coordinates":[-97.00155970038335,28.085706500287504]},"properties":{"substrate":"Solid Reef","lease_number":null,"poll_year":2025}},{"type":"Feature","id":"ee3cfdaf-7278-4afe-8fce-e1a8cc4d0d79","geometry":{"type":"Point","coordinates":[-96.98964676231158,28.078127418103897]},"properties":{"substrate":"Solid Reef","lease_number":null,"poll_year":2025}},{"type":"Feature","id":"f22312a4-479e-4b77-884f-e9c64f55bb47","geometry":{"type":"Point","coordinates":[-96.98884938083447,28.078473307573326]},"properties":{"substrate":"Solid Reef","lease_number":null,"poll_year":2025}},{"type":"Feature","id":"f22e7ae7-7903-4216-8cd5-ff91f247ec34","geometry":{"type":"Point","coordinates":[-97.00554589989645,28.082820499622763]},"properties":{"substrate":"Buried Shell","lease_number":null,"poll_year":2025}},{"type":"Feature","id":"f622e430-be51-48b0-b21a-c93384acb5f4","geometry":{"type":"Point","coordinates":[-96.98939723278353,28.078519463072446]},"properties":{"substrate":"Solid Reef","lease_number":null,"poll_year":2025}},{"type":"Feature","id":"f7674d0a-aa53-41a6-aa60-3d4858dd6289","geometry":{"type":"Point","coordinates":[-97.00658289978908,28.08492320004055]},"properties":{"substrate":"Solid Reef","lease_number":null,"poll_year":2025}},{"type":"Feature","id":"f95e27dc-9d2a-4904-8cd7-7c5fb8b8edec","geometry":{"type":"Point","coordinates":[-96.9880748938207,28.078407638553205]},"properties":{"substrate":"Solid Reef","lease_number":null,"poll_year":2025}},{"type":"Feature","id":"faa3f5da-d832-4c84-a1ed-4686affde82b","geometry":{"type":"Point","coordinates":[-97.00456159966997,28.085687699804385]},"properties":{"substrate":"Solid Reef","lease_number":null,"poll_year":2025}},{"type":"Feature","id":"fb283c0c-0338-46b1-9542-5abb1beef7eb","geometry":{"type":"Point","coordinates":[-97.00544669983793,28.08681819960762]},"properties":{"substrate":"Solid Reef","lease_number":null,"poll_year":2025}},{"type":"Feature","id":"fcbd3ff7-d5f0-4b1f-91ba-7340acd12e94","geometry":{"type":"Point","coordinates":[-96.98744315539376,28.079231379451752]},"properties":{"substrate":"Mud","lease_number":null,"poll_year":2025}},{"type":"Feature","id":"fcf73204-3b0f-4d4d-b548-85d4d98b05f8","geometry":{"type":"Point","coordinates":[-96.98856750476966,28.077465768681243]},"properties":{"substrate":"Mud","lease_number":null,"poll_year":2025}},{"type":"Feature","id":"fd58bd1e-08b9-4721-92a5-a76a9aa7c781","geometry":{"type":"Point","coordinates":[-96.99059726612043,28.078603734019136]},"properties":{"substrate":"Mud","lease_number":null,"poll_year":2025}},{"type":"Feature","id":"ff9cb66a-da2a-496f-99d8-b407e96d9b34","geometry":{"type":"Point","coordinates":[-97.00346099995353,28.0822029002509]},"properties":{"substrate":"Solid Reef","lease_number":null,"poll_year":2025}}]}