{"type":"FeatureCollection","features":[{"type":"Feature","id":"04ed931b-4f07-4214-92d7-8e16241bc3ab","geometry":{"type":"Point","coordinates":[-96.96598006404315,28.06423216772596]},"properties":{"substrate":"Mud","lease_number":null,"poll_year":2025}},{"type":"Feature","id":"082bf62b-1e03-4fe6-b068-328746b2d6e9","geometry":{"type":"Point","coordinates":[-96.96631424092212,28.06534864883279]},"properties":{"substrate":"Mud","lease_number":null,"poll_year":2025}},{"type":"Feature","id":"232ebc13-9e00-4495-b58b-3a10df32e159","geometry":{"type":"Point","coordinates":[-96.96538227654406,28.060366723398218]},"properties":{"substrate":"Mud","lease_number":null,"poll_year":2025}},{"type":"Feature","id":"40d9485c-0b5f-41b6-a854-35fed107b99b","geometry":{"type":"Point","coordinates":[-96.96643616296741,28.062381791401535]},"properties":{"substrate":"Mud","lease_number":null,"poll_year":2025}},{"type":"Feature","id":"59075aed-711d-4e4e-8f49-e92960d99b0f","geometry":{"type":"Point","coordinates":[-96.96539505418068,28.063801139777734]},"properties":{"substrate":"Mud","lease_number":null,"poll_year":2025}},{"type":"Feature","id":"592d4002-5a35-4565-a3ee-368325adfb62","geometry":{"type":"Point","coordinates":[-96.96541891343462,28.06298497055712]},"properties":{"substrate":"Mud","lease_number":null,"poll_year":2025}},{"type":"Feature","id":"60b708ab-da39-42d2-846d-8b7771d39a79","geometry":{"type":"Point","coordinates":[-96.96543605418856,28.064543485971992]},"properties":{"substrate":"Mud","lease_number":null,"poll_year":2025}},{"type":"Feature","id":"645c4238-c23a-4d58-a4fb-903e09370b88","geometry":{"type":"Point","coordinates":[-96.96667958664648,28.065767646401245]},"properties":{"substrate":"Mud","lease_number":null,"poll_year":2025}},{"type":"Feature","id":"669f8466-779d-473b-be6a-62579620f0c5","geometry":{"type":"Point","coordinates":[-96.96579434903624,28.064814488810956]},"properties":{"substrate":"Mud","lease_number":null,"poll_year":2025}},{"type":"Feature","id":"671fea47-71bd-4ead-9395-0ff512dbf438","geometry":{"type":"Point","coordinates":[-96.96576831765596,28.061591715395164]},"properties":{"substrate":"Mud","lease_number":null,"poll_year":2025}},{"type":"Feature","id":"6a793629-29f7-484e-9504-1148db7be93a","geometry":{"type":"Point","coordinates":[-96.96570718999581,28.060613902891003]},"properties":{"substrate":"Mud","lease_number":null,"poll_year":2025}},{"type":"Feature","id":"7350d795-e0cd-4099-a1d1-d8e6980c404a","geometry":{"type":"Point","coordinates":[-96.9662317683925,28.063713026120272]},"properties":{"substrate":"Mud","lease_number":null,"poll_year":2025}},{"type":"Feature","id":"74c1e2fe-b35e-4f7e-a53e-ccb36b57e6d4","geometry":{"type":"Point","coordinates":[-96.9660132801491,28.062484248561578]},"properties":{"substrate":"Mud","lease_number":null,"poll_year":2025}},{"type":"Feature","id":"7890309c-0a4a-4756-a930-27647b6a5cb8","geometry":{"type":"Point","coordinates":[-96.96641217435605,28.064135932492377]},"properties":{"substrate":"Mud","lease_number":null,"poll_year":2025}},{"type":"Feature","id":"867ce0f1-ac0c-40e7-91e5-67431bf2fb75","geometry":{"type":"Point","coordinates":[-96.96647358678214,28.06552560820998]},"properties":{"substrate":"Mud","lease_number":null,"poll_year":2025}},{"type":"Feature","id":"8c7a61aa-507e-4990-b6e6-7013e3c22b52","geometry":{"type":"Point","coordinates":[-96.96624578570419,28.0609946989211]},"properties":{"substrate":"Mud","lease_number":null,"poll_year":2025}},{"type":"Feature","id":"8d94b85d-d531-4998-8fe6-4d03d297ae48","geometry":{"type":"Point","coordinates":[-96.96621912550319,28.06426549645716]},"properties":{"substrate":"Mud","lease_number":null,"poll_year":2025}},{"type":"Feature","id":"91a1f706-440f-45dc-882c-aefe044afc63","geometry":{"type":"Point","coordinates":[-96.96612159810773,28.061915396454996]},"properties":{"substrate":"Mud","lease_number":null,"poll_year":2025}},{"type":"Feature","id":"9262bcc4-9aa0-4b1f-bf72-2af7208606b4","geometry":{"type":"Point","coordinates":[-96.96596516907742,28.06496975878682]},"properties":{"substrate":"Mud","lease_number":null,"poll_year":2025}},{"type":"Feature","id":"9aba45cd-efe2-4836-a65b-b17694c9bf7a","geometry":{"type":"Point","coordinates":[-96.96547126545275,28.062081801824224]},"properties":{"substrate":"Mud","lease_number":null,"poll_year":2025}},{"type":"Feature","id":"9da9d130-c996-485e-a26b-625d48d0619a","geometry":{"type":"Point","coordinates":[-96.96600443264185,28.06349919778497]},"properties":{"substrate":"Mud","lease_number":null,"poll_year":2025}},{"type":"Feature","id":"9fb5e6ae-5f01-481c-9ecc-3d7fdde3da37","geometry":{"type":"Point","coordinates":[-96.96643341232601,28.06393125189787]},"properties":{"substrate":"Mud","lease_number":null,"poll_year":2025}},{"type":"Feature","id":"a809e666-b04c-43fd-87f4-398503ced3bd","geometry":{"type":"Point","coordinates":[-96.96631581656712,28.06251793058843]},"properties":{"substrate":"Mud","lease_number":null,"poll_year":2025}},{"type":"Feature","id":"aac3355e-bacd-4cfe-9492-9e25e0dcd57e","geometry":{"type":"Point","coordinates":[-96.96581928896347,28.063330999147865]},"properties":{"substrate":"Mud","lease_number":null,"poll_year":2025}},{"type":"Feature","id":"b0860a22-8109-4b8c-bf39-06fcee2154b7","geometry":{"type":"Point","coordinates":[-96.9656535462003,28.062222645313696]},"properties":{"substrate":"Mud","lease_number":null,"poll_year":2025}},{"type":"Feature","id":"b758e5f8-2037-49ab-9eda-115186fc4eeb","geometry":{"type":"Point","coordinates":[-96.96539252632145,28.061259974630797]},"properties":{"substrate":"Mud","lease_number":null,"poll_year":2025}},{"type":"Feature","id":"cd1ae74f-beff-4581-a451-e7f00b575bca","geometry":{"type":"Point","coordinates":[-96.96564367281701,28.06399686635165]},"properties":{"substrate":"Mud","lease_number":null,"poll_year":2025}},{"type":"Feature","id":"db06d04b-aacf-490d-bc67-7cf7e8c6e777","geometry":{"type":"Point","coordinates":[-96.96598787399623,28.060795013598245]},"properties":{"substrate":"Mud","lease_number":null,"poll_year":2025}},{"type":"Feature","id":"db869094-17a2-49da-a45b-14e9454f93a9","geometry":{"type":"Point","coordinates":[-96.96558107551307,28.061423905372898]},"properties":{"substrate":"Mud","lease_number":null,"poll_year":2025}},{"type":"Feature","id":"e11bb803-eb5d-4b39-b676-b3a74653ca89","geometry":{"type":"Point","coordinates":[-96.96615104578105,28.06516820452042]},"properties":{"substrate":"Mud","lease_number":null,"poll_year":2025}},{"type":"Feature","id":"e1cd3035-3951-4e82-9603-fb7fb6bece6b","geometry":{"type":"Point","coordinates":[-96.96595355296247,28.06175623778589]},"properties":{"substrate":"Mud","lease_number":null,"poll_year":2025}},{"type":"Feature","id":"e8f03f78-28bd-4afa-bb28-8c8c1ab56347","geometry":{"type":"Point","coordinates":[-96.9655723250239,28.0631162227757]},"properties":{"substrate":"Mud","lease_number":null,"poll_year":2025}},{"type":"Feature","id":"f4acbb3f-dbec-470b-ba7c-bf0a54b53751","geometry":{"type":"Point","coordinates":[-96.96625921282273,28.062046497779807]},"properties":{"substrate":"Mud","lease_number":null,"poll_year":2025}},{"type":"Feature","id":"fc80cb4f-8705-4424-b2a5-7def01c54f92","geometry":{"type":"Point","coordinates":[-96.96641844729169,28.06220638451681]},"properties":{"substrate":"Mud","lease_number":null,"poll_year":2025}}]}