{"type":"FeatureCollection","features":[{"type":"Feature","id":"2c6ec72e-c4dc-44d8-b3ff-4203eca5e392","geometry":{"type":"Point","coordinates":[-96.97292824350828,28.09373471184988]},"properties":{"substrate":"Buried Shell","lease_number":null,"poll_year":2025}},{"type":"Feature","id":"47795799-9d64-4897-8b58-f5b232f11b57","geometry":{"type":"Point","coordinates":[-96.972797112833,28.093425065538913]},"properties":{"substrate":"Buried Shell","lease_number":null,"poll_year":2025}},{"type":"Feature","id":"66811115-81f9-4a43-aeb6-77034688b425","geometry":{"type":"Point","coordinates":[-96.97315808286363,28.094280862357575]},"properties":{"substrate":"Buried Shell","lease_number":null,"poll_year":2025}},{"type":"Feature","id":"7b26b934-37a9-4644-832d-f3858886115d","geometry":{"type":"Point","coordinates":[-96.97269365296343,28.093184874331303]},"properties":{"substrate":"Buried Shell","lease_number":null,"poll_year":2025}},{"type":"Feature","id":"bc64dcba-7058-420e-a019-2f396e501414","geometry":{"type":"Point","coordinates":[-96.97306256949105,28.094052126662984]},"properties":{"substrate":"Buried Shell","lease_number":null,"poll_year":2025}},{"type":"Feature","id":"db9a1113-4b6e-4a08-8674-5baa0ae6e745","geometry":{"type":"Point","coordinates":[-96.9732871087862,28.094589818337415]},"properties":{"substrate":"Buried Shell","lease_number":null,"poll_year":2025}}]}