{"type":"FeatureCollection","features":[{"type":"Feature","id":"00f7f61d-e2b1-4cbe-bcd5-b098bd8dfb5c","geometry":{"type":"Point","coordinates":[-96.95544095367138,28.073650849791672]},"properties":{"substrate":"Buried Shell","lease_number":null,"poll_year":2025}},{"type":"Feature","id":"01b9e0ea-dea5-4581-a80a-e9f3f8624aa2","geometry":{"type":"Point","coordinates":[-96.95374839292879,28.07379444912223]},"properties":{"substrate":"Solid Reef","lease_number":null,"poll_year":2025}},{"type":"Feature","id":"026525af-1113-43af-9938-7a209aabbe0f","geometry":{"type":"Point","coordinates":[-96.95546408169669,28.072401495018326]},"properties":{"substrate":"Mud","lease_number":null,"poll_year":2025}},{"type":"Feature","id":"0325ee45-b735-47ed-ac54-1423e2355959","geometry":{"type":"Point","coordinates":[-96.95870274814611,28.072933820435996]},"properties":{"substrate":"Buried Shell","lease_number":null,"poll_year":2025}},{"type":"Feature","id":"032d5993-7ff7-4eb6-aa64-c45bcf411931","geometry":{"type":"Point","coordinates":[-96.95764499357715,28.07240055892021]},"properties":{"substrate":"Mud","lease_number":null,"poll_year":2025}},{"type":"Feature","id":"0465553d-a380-44a3-bd91-c746ef8eb54b","geometry":{"type":"Point","coordinates":[-96.95431519394047,28.07372058628583]},"properties":{"substrate":"Firm/Hard Bottom","lease_number":null,"poll_year":2025}},{"type":"Feature","id":"04d6df20-7817-438c-b4a4-8a7b790dbc47","geometry":{"type":"Point","coordinates":[-96.9587746987088,28.074877419044387]},"properties":{"substrate":"Solid Reef","lease_number":null,"poll_year":2025}},{"type":"Feature","id":"05971e1c-0cd9-40a8-a95c-7e2d2d5b24f8","geometry":{"type":"Point","coordinates":[-96.95685125656514,28.073900959166824]},"properties":{"substrate":"Buried Shell","lease_number":null,"poll_year":2025}},{"type":"Feature","id":"06054c91-1c7c-4294-8b6d-175a4bab9a26","geometry":{"type":"Point","coordinates":[-96.95639091399948,28.072548609750783]},"properties":{"substrate":"Mud","lease_number":null,"poll_year":2025}},{"type":"Feature","id":"0697024c-9be2-4f07-ba80-63ff835d7799","geometry":{"type":"Point","coordinates":[-96.95218811450171,28.072075038033688]},"properties":{"substrate":"Buried Shell","lease_number":null,"poll_year":2025}},{"type":"Feature","id":"07757498-7b81-43ba-b6ab-1992e4b31112","geometry":{"type":"Point","coordinates":[-96.95512362739052,28.074429823722937]},"properties":{"substrate":"Solid Reef","lease_number":null,"poll_year":2025}},{"type":"Feature","id":"085bc6a4-2737-4fe9-bc1d-17a29d5b268b","geometry":{"type":"Point","coordinates":[-96.9514145302948,28.072309824737886]},"properties":{"substrate":"Scattered Shell","lease_number":null,"poll_year":2025}},{"type":"Feature","id":"09be691e-1cde-4d28-b59d-05936e5b93ef","geometry":{"type":"Point","coordinates":[-96.95386341321779,28.072143351980728]},"properties":{"substrate":"Buried Shell","lease_number":null,"poll_year":2025}},{"type":"Feature","id":"09e86746-a301-463d-ad0b-3f21e47a02c1","geometry":{"type":"Point","coordinates":[-96.95215607788371,28.07267051152411]},"properties":{"substrate":"Scattered Shell","lease_number":null,"poll_year":2025}},{"type":"Feature","id":"0a83b9dc-fb7d-45f2-ae93-4e502c4d89fe","geometry":{"type":"Point","coordinates":[-96.95350906017754,28.07274698679582]},"properties":{"substrate":"Firm/Hard Bottom","lease_number":null,"poll_year":2025}},{"type":"Feature","id":"0a96bc73-2453-461a-82f7-0d80e817a9a4","geometry":{"type":"Point","coordinates":[-96.956240416545,28.074244806987593]},"properties":{"substrate":"Solid Reef","lease_number":null,"poll_year":2025}},{"type":"Feature","id":"0aac15a4-db88-487c-9fbc-039b35aca4b2","geometry":{"type":"Point","coordinates":[-96.95560173503924,28.078397521966583]},"properties":{"substrate":"Solid Reef","lease_number":null,"poll_year":2025}},{"type":"Feature","id":"0b36d8f7-1979-4f99-a1e3-25cd25d38b26","geometry":{"type":"Point","coordinates":[-96.95722039946823,28.072216569112953]},"properties":{"substrate":"Mud","lease_number":null,"poll_year":2025}},{"type":"Feature","id":"0cc14ddd-5b8c-4ddd-aa8a-98b1cbe95557","geometry":{"type":"Point","coordinates":[-96.95590517606074,28.073108147690256]},"properties":{"substrate":"Buried Shell","lease_number":null,"poll_year":2025}},{"type":"Feature","id":"0db6b90f-e6e3-4486-906c-34635028a34c","geometry":{"type":"Point","coordinates":[-96.95756830619798,28.0726780478478]},"properties":{"substrate":"Mud","lease_number":null,"poll_year":2025}},{"type":"Feature","id":"0e8d8768-8050-47d1-9939-1e99ae1de26e","geometry":{"type":"Point","coordinates":[-96.9588236649766,28.072022452291936]},"properties":{"substrate":"Mud","lease_number":null,"poll_year":2025}},{"type":"Feature","id":"0eb63d75-8c93-4b08-996d-1a4af7f8f701","geometry":{"type":"Point","coordinates":[-96.95959956863359,28.073378264967243]},"properties":{"substrate":"Mud","lease_number":null,"poll_year":2025}},{"type":"Feature","id":"0ee3d652-11a7-45e9-b171-ea4ae1fd6c31","geometry":{"type":"Point","coordinates":[-96.96003239849705,28.072783575346765]},"properties":{"substrate":"Mud","lease_number":null,"poll_year":2025}},{"type":"Feature","id":"109483df-a51f-47ef-ad20-b5ad1ffc0035","geometry":{"type":"Point","coordinates":[-96.95463155722733,28.073269616693818]},"properties":{"substrate":"Buried Shell","lease_number":null,"poll_year":2025}},{"type":"Feature","id":"11108c64-1ff3-4f9d-843f-b7799a9fe236","geometry":{"type":"Point","coordinates":[-96.95512059288149,28.073722307860862]},"properties":{"substrate":"Firm/Hard Bottom","lease_number":null,"poll_year":2025}},{"type":"Feature","id":"112cdaa0-3ff0-42e6-bc94-5409762a2f10","geometry":{"type":"Point","coordinates":[-96.95773850011338,28.07475858085211]},"properties":{"substrate":"Buried Shell","lease_number":null,"poll_year":2025}},{"type":"Feature","id":"112fd60d-1de3-45ba-a2e9-12971652318c","geometry":{"type":"Point","coordinates":[-96.95678173864026,28.074913651778974]},"properties":{"substrate":"Firm/Hard Bottom","lease_number":null,"poll_year":2025}},{"type":"Feature","id":"120c07da-83ad-4fc5-85d3-183758f64ad9","geometry":{"type":"Point","coordinates":[-96.95888854400138,28.073026719548693]},"properties":{"substrate":"Buried Shell","lease_number":null,"poll_year":2025}},{"type":"Feature","id":"1222bb71-024e-44f1-8727-66291b0c668d","geometry":{"type":"Point","coordinates":[-96.95738703246185,28.074771007459525]},"properties":{"substrate":"Mud","lease_number":null,"poll_year":2025}},{"type":"Feature","id":"128caf59-9475-46e7-bff3-aa73bd1da102","geometry":{"type":"Point","coordinates":[-96.9571367564338,28.072485258725166]},"properties":{"substrate":"Mud","lease_number":null,"poll_year":2025}},{"type":"Feature","id":"134c04f9-3820-4e9e-adfd-3e587ec4a296","geometry":{"type":"Point","coordinates":[-96.95492652444076,28.073633474711457]},"properties":{"substrate":"Scattered Shell","lease_number":null,"poll_year":2025}},{"type":"Feature","id":"13adff78-9091-4c46-af4e-5235c3652b35","geometry":{"type":"Point","coordinates":[-96.95311433864507,28.073137383716542]},"properties":{"substrate":"Solid Reef","lease_number":null,"poll_year":2025}},{"type":"Feature","id":"14cbd7b7-e303-4a01-b2ab-50d3fd939c74","geometry":{"type":"Point","coordinates":[-96.95644627717046,28.074332130487722]},"properties":{"substrate":"Solid Reef","lease_number":null,"poll_year":2025}},{"type":"Feature","id":"152fbd8d-52a4-4040-8640-60b825fd7b6a","geometry":{"type":"Point","coordinates":[-96.9527784028648,28.073341570407116]},"properties":{"substrate":"Solid Reef","lease_number":null,"poll_year":2025}},{"type":"Feature","id":"15d7b17b-002a-440a-a993-38bec7ff03ba","geometry":{"type":"Point","coordinates":[-96.95951979104984,28.073795707805154]},"properties":{"substrate":"Mud","lease_number":null,"poll_year":2025}},{"type":"Feature","id":"1646ada5-4df9-4283-a97e-3febe138b020","geometry":{"type":"Point","coordinates":[-96.95406666513564,28.07224363198245]},"properties":{"substrate":"Mud","lease_number":null,"poll_year":2025}},{"type":"Feature","id":"1837bec3-eedd-4c79-95ee-cb432961d3cb","geometry":{"type":"Point","coordinates":[-96.95698853710688,28.07213565630017]},"properties":{"substrate":"Mud","lease_number":null,"poll_year":2025}},{"type":"Feature","id":"18af716a-6ad9-4899-8dbd-9b5b6c7eeed3","geometry":{"type":"Point","coordinates":[-96.95780285272541,28.07278350480278]},"properties":{"substrate":"Mud","lease_number":null,"poll_year":2025}},{"type":"Feature","id":"19938c44-23b0-4fb2-82f2-ed1e904f8e23","geometry":{"type":"Point","coordinates":[-96.95244030034804,28.073188594499154]},"properties":{"substrate":"Solid Reef","lease_number":null,"poll_year":2025}},{"type":"Feature","id":"1a7f3ca5-df01-4e1b-af68-ab8df3e65290","geometry":{"type":"Point","coordinates":[-96.95454958416103,28.07285842406452]},"properties":{"substrate":"Buried Shell","lease_number":null,"poll_year":2025}},{"type":"Feature","id":"1beef19b-c618-41f7-91c8-db62cd3c9c25","geometry":{"type":"Point","coordinates":[-96.95891313807724,28.072962026886465]},"properties":{"substrate":"Mud","lease_number":null,"poll_year":2025}},{"type":"Feature","id":"1c2e2281-e858-4ea6-a234-9a65d8367715","geometry":{"type":"Point","coordinates":[-96.95572274170127,28.07221584623155]},"properties":{"substrate":"Mud","lease_number":null,"poll_year":2025}},{"type":"Feature","id":"1c5a43b4-d4a0-4c77-9226-733ec3c6674b","geometry":{"type":"Point","coordinates":[-96.95719425220526,28.072933034941805]},"properties":{"substrate":"Mud","lease_number":null,"poll_year":2025}},{"type":"Feature","id":"1ca01ca0-cfe5-4d5b-bf8c-3d84b66561e0","geometry":{"type":"Point","coordinates":[-96.95612727193833,28.072036736358413]},"properties":{"substrate":"Mud","lease_number":null,"poll_year":2025}},{"type":"Feature","id":"1edbc055-02f9-4dcb-a639-29e1f9babba3","geometry":{"type":"Point","coordinates":[-96.95734220742747,28.074123451529996]},"properties":{"substrate":"Mud","lease_number":null,"poll_year":2025}},{"type":"Feature","id":"1f32ed02-eb49-4dd4-a554-f5de1633cfcb","geometry":{"type":"Point","coordinates":[-96.95734170347261,28.07517495781222]},"properties":{"substrate":"Firm/Hard Bottom","lease_number":null,"poll_year":2025}},{"type":"Feature","id":"2023d5c3-c64b-4fd1-9f92-7c3b28213068","geometry":{"type":"Point","coordinates":[-96.9560703061729,28.074163244962456]},"properties":{"substrate":"Solid Reef","lease_number":null,"poll_year":2025}},{"type":"Feature","id":"2052ef92-20ec-4989-a1f0-f1052d6334bc","geometry":{"type":"Point","coordinates":[-96.95868526333741,28.073465958534502]},"properties":{"substrate":"Scattered Shell","lease_number":null,"poll_year":2025}},{"type":"Feature","id":"20b28800-b542-4a8b-adf5-61541b772015","geometry":{"type":"Point","coordinates":[-96.95890569373847,28.07489211171975]},"properties":{"substrate":"Solid Reef","lease_number":null,"poll_year":2025}},{"type":"Feature","id":"2308d31e-e43b-4444-9c83-9ea790354b5d","geometry":{"type":"Point","coordinates":[-96.95287962233607,28.07302770399161]},"properties":{"substrate":"Firm/Hard Bottom","lease_number":null,"poll_year":2025}},{"type":"Feature","id":"26ba7df3-ccab-4b58-aaee-5bd0d02e90e0","geometry":{"type":"Point","coordinates":[-96.95897469423376,28.072721561625507]},"properties":{"substrate":"Mud","lease_number":null,"poll_year":2025}},{"type":"Feature","id":"27acdabb-1037-436d-8b46-1345060280c2","geometry":{"type":"Point","coordinates":[-96.96019331820547,28.07256183003705]},"properties":{"substrate":"Mud","lease_number":null,"poll_year":2025}},{"type":"Feature","id":"27ebdd96-b0e7-4981-984d-3a7bb95655b7","geometry":{"type":"Point","coordinates":[-96.95802323282078,28.075638253969913]},"properties":{"substrate":"Solid Reef","lease_number":null,"poll_year":2025}},{"type":"Feature","id":"286da0b3-fe1d-479a-96c3-5385263a1563","geometry":{"type":"Point","coordinates":[-96.95261275172976,28.073261945665337]},"properties":{"substrate":"Solid Reef","lease_number":null,"poll_year":2025}},{"type":"Feature","id":"28860dd6-1f3e-43b2-a908-cef75b894db4","geometry":{"type":"Point","coordinates":[-96.95913234856613,28.074635794511725]},"properties":{"substrate":"Mud","lease_number":null,"poll_year":2025}},{"type":"Feature","id":"2a218b88-79b3-441e-b9d2-959f7f39e711","geometry":{"type":"Point","coordinates":[-96.95489996754603,28.07400182802974]},"properties":{"substrate":"Firm/Hard Bottom","lease_number":null,"poll_year":2025}},{"type":"Feature","id":"2a3ec18d-429f-495e-9faa-fa40e38fde60","geometry":{"type":"Point","coordinates":[-96.9517819187881,28.072493840542233]},"properties":{"substrate":"Scattered Shell","lease_number":null,"poll_year":2025}},{"type":"Feature","id":"2afb21dc-0b52-4105-a4be-03d0b6ad5fb3","geometry":{"type":"Point","coordinates":[-96.95823888059127,28.074429835612182]},"properties":{"substrate":"Solid Reef","lease_number":null,"poll_year":2025}},{"type":"Feature","id":"2b52fed1-0c1d-4c0c-a24b-80c4d8f03559","geometry":{"type":"Point","coordinates":[-96.95170732089029,28.072846894491317]},"properties":{"substrate":"Buried Shell","lease_number":null,"poll_year":2025}},{"type":"Feature","id":"2c67d78e-7b02-411a-8097-4b555f36aad6","geometry":{"type":"Point","coordinates":[-96.95842507260359,28.0728055898208]},"properties":{"substrate":"Buried Shell","lease_number":null,"poll_year":2025}},{"type":"Feature","id":"2c7aa880-775e-4603-bd11-b86d73ec739c","geometry":{"type":"Point","coordinates":[-96.95817977863209,28.073421527992085]},"properties":{"substrate":"Mud","lease_number":null,"poll_year":2025}},{"type":"Feature","id":"2e9a29af-b243-4d84-a7ad-1625b9d75f52","geometry":{"type":"Point","coordinates":[-96.95081496502975,28.072024092252835]},"properties":{"substrate":"Firm/Hard Bottom","lease_number":null,"poll_year":2025}},{"type":"Feature","id":"30543bbc-a71f-470b-b93b-e9ec23247984","geometry":{"type":"Point","coordinates":[-96.95925831752177,28.072385799322994]},"properties":{"substrate":"Mud","lease_number":null,"poll_year":2025}},{"type":"Feature","id":"30686678-68cc-4723-93f5-cde6aaaf8b71","geometry":{"type":"Point","coordinates":[-96.95877828298677,28.074053700237616]},"properties":{"substrate":"Mud","lease_number":null,"poll_year":2025}},{"type":"Feature","id":"3073c35b-f4e8-4636-930f-c7fed0b1028f","geometry":{"type":"Point","coordinates":[-96.95299755855645,28.072736615242054]},"properties":{"substrate":"Scattered Shell","lease_number":null,"poll_year":2025}},{"type":"Feature","id":"31a0d02d-f714-4374-89c8-4e9c6d80a45f","geometry":{"type":"Point","coordinates":[-96.95618984139449,28.074630008420076]},"properties":{"substrate":"Firm/Hard Bottom","lease_number":null,"poll_year":2025}},{"type":"Feature","id":"33f859d9-df83-491f-b425-fe27a0936af2","geometry":{"type":"Point","coordinates":[-96.95686754302126,28.074333421661656]},"properties":{"substrate":"Buried Shell","lease_number":null,"poll_year":2025}},{"type":"Feature","id":"34382b65-239b-44e9-8cda-778194ae88cf","geometry":{"type":"Point","coordinates":[-96.96021289429214,28.072954655449244]},"properties":{"substrate":"Mud","lease_number":null,"poll_year":2025}},{"type":"Feature","id":"353d0e4c-153a-421b-9acc-4598370d0c20","geometry":{"type":"Point","coordinates":[-96.95757263158607,28.07421701541337]},"properties":{"substrate":"Mud","lease_number":null,"poll_year":2025}},{"type":"Feature","id":"37c6af4e-e564-4af6-a120-233cc004340f","geometry":{"type":"Point","coordinates":[-96.95073751138763,28.07240407186416]},"properties":{"substrate":"Solid Reef","lease_number":null,"poll_year":2025}},{"type":"Feature","id":"380e8276-21b5-48d8-be48-5caa602bf218","geometry":{"type":"Point","coordinates":[-96.9593859061399,28.074424368141365]},"properties":{"substrate":"Mud","lease_number":null,"poll_year":2025}},{"type":"Feature","id":"39740acd-183f-43b3-ae06-f5bde07972bd","geometry":{"type":"Point","coordinates":[-96.95201677164103,28.07199073580799]},"properties":{"substrate":"Buried Shell","lease_number":null,"poll_year":2025}},{"type":"Feature","id":"3c344404-4ce1-495d-b899-51890cd4b893","geometry":{"type":"Point","coordinates":[-96.95501679344872,28.07269747757844]},"properties":{"substrate":"Mud","lease_number":null,"poll_year":2025}},{"type":"Feature","id":"3f200c98-145d-4e95-bdc3-55eec47b5bf6","geometry":{"type":"Point","coordinates":[-96.95400015746527,28.07319953987042]},"properties":{"substrate":"Buried Shell","lease_number":null,"poll_year":2025}},{"type":"Feature","id":"3f7f3457-a581-426b-91d7-20997f53487b","geometry":{"type":"Point","coordinates":[-96.95813070636308,28.075427531031995]},"properties":{"substrate":"Solid Reef","lease_number":null,"poll_year":2025}},{"type":"Feature","id":"40bc0dbe-76d3-4e54-be32-17bdec24b764","geometry":{"type":"Point","coordinates":[-96.95809960668794,28.074141754687727]},"properties":{"substrate":"Buried Shell","lease_number":null,"poll_year":2025}},{"type":"Feature","id":"416968ea-7d32-4962-9637-4b5b507e68b1","geometry":{"type":"Point","coordinates":[-96.9582128752621,28.072662704120514]},"properties":{"substrate":"Mud","lease_number":null,"poll_year":2025}},{"type":"Feature","id":"43690a8c-ed73-4a1c-9cf1-2db551ff8bc1","geometry":{"type":"Point","coordinates":[-96.9592037646312,28.073047243041554]},"properties":{"substrate":"Buried Shell","lease_number":null,"poll_year":2025}},{"type":"Feature","id":"46c769e0-ef80-4852-af63-2bc2c4cd8672","geometry":{"type":"Point","coordinates":[-96.95019459478276,28.072153263864298]},"properties":{"substrate":"Mud","lease_number":null,"poll_year":2025}},{"type":"Feature","id":"4742694f-f59d-478d-97a8-5e333dbe913c","geometry":{"type":"Point","coordinates":[-96.95815524204842,28.072675967987372]},"properties":{"substrate":"Buried Shell","lease_number":null,"poll_year":2025}},{"type":"Feature","id":"49487aab-dadb-465e-9121-1e6518841265","geometry":{"type":"Point","coordinates":[-96.95637177629068,28.075011231141715]},"properties":{"substrate":"Mud","lease_number":null,"poll_year":2025}},{"type":"Feature","id":"49646163-e60d-427a-b8eb-8dee70560a09","geometry":{"type":"Point","coordinates":[-96.9554059319517,28.07287639294868]},"properties":{"substrate":"Firm/Hard Bottom","lease_number":null,"poll_year":2025}},{"type":"Feature","id":"4af2cee9-874b-4073-8aaa-71c999a07309","geometry":{"type":"Point","coordinates":[-96.95580234501186,28.07344700372467]},"properties":{"substrate":"Buried Shell","lease_number":null,"poll_year":2025}},{"type":"Feature","id":"4bf1e263-5c5c-45eb-a85e-91010761542b","geometry":{"type":"Point","coordinates":[-96.95413846837461,28.07363181733743]},"properties":{"substrate":"Firm/Hard Bottom","lease_number":null,"poll_year":2025}},{"type":"Feature","id":"4d419aaa-4806-40a4-89e2-220e31dd5247","geometry":{"type":"Point","coordinates":[-96.95866089204377,28.072125804655155]},"properties":{"substrate":"Mud","lease_number":null,"poll_year":2025}},{"type":"Feature","id":"4d64a5aa-01f0-4f59-b2c2-60e5444d8f94","geometry":{"type":"Point","coordinates":[-96.95603284732387,28.073548142505754]},"properties":{"substrate":"Mud","lease_number":null,"poll_year":2025}},{"type":"Feature","id":"4f174667-61ee-47a0-af76-14454faac7a7","geometry":{"type":"Point","coordinates":[-96.95546310882122,28.073293494530077]},"properties":{"substrate":"Buried Shell","lease_number":null,"poll_year":2025}},{"type":"Feature","id":"4f5a02fd-3202-45c8-8323-e42003cb8c64","geometry":{"type":"Point","coordinates":[-96.95319447375832,28.072821255334897]},"properties":{"substrate":"Scattered Shell","lease_number":null,"poll_year":2025}},{"type":"Feature","id":"4fad1a01-4b3c-487c-b206-946859c861ed","geometry":{"type":"Point","coordinates":[-96.95928883958018,28.073522232439466]},"properties":{"substrate":"Mud","lease_number":null,"poll_year":2025}},{"type":"Feature","id":"5171331b-435c-4343-8a04-31a154ea2b1d","geometry":{"type":"Point","coordinates":[-96.95305604516965,28.072137594289607]},"properties":{"substrate":"Buried Shell","lease_number":null,"poll_year":2025}},{"type":"Feature","id":"51bc7478-0dd0-470f-a996-4dd72727696f","geometry":{"type":"Point","coordinates":[-96.95904498111652,28.072287434454395]},"properties":{"substrate":"Mud","lease_number":null,"poll_year":2025}},{"type":"Feature","id":"51dc9372-9273-47f5-9970-9485dd4747a4","geometry":{"type":"Point","coordinates":[-96.95392861743267,28.07294444798948]},"properties":{"substrate":"Buried Shell","lease_number":null,"poll_year":2025}},{"type":"Feature","id":"52028ca0-a46e-47b8-8f42-b31918ed0f50","geometry":{"type":"Point","coordinates":[-96.95580664704376,28.074748915712032]},"properties":{"substrate":"Mud","lease_number":null,"poll_year":2025}},{"type":"Feature","id":"53a676c0-6db6-4425-9ff5-9883419bfba5","geometry":{"type":"Point","coordinates":[-96.9546946728592,28.073518226520278]},"properties":{"substrate":"Buried Shell","lease_number":null,"poll_year":2025}},{"type":"Feature","id":"54998fe8-1859-424b-a50e-4252723d40c1","geometry":{"type":"Point","coordinates":[-96.95843654588639,28.073086466181437]},"properties":{"substrate":"Mud","lease_number":null,"poll_year":2025}},{"type":"Feature","id":"55de8e92-6e34-4bee-91ed-2111f616c9d0","geometry":{"type":"Point","coordinates":[-96.95700080989029,28.07530503634425]},"properties":{"substrate":"Mud","lease_number":null,"poll_year":2025}},{"type":"Feature","id":"58187575-358a-4a7a-b2ab-3c8f78286717","geometry":{"type":"Point","coordinates":[-96.95334155851303,28.072660789919436]},"properties":{"substrate":"Solid Reef","lease_number":null,"poll_year":2025}},{"type":"Feature","id":"58231a76-d1c3-4b8e-8640-a87cf59ae994","geometry":{"type":"Point","coordinates":[-96.95870058769785,28.072858839401803]},"properties":{"substrate":"Mud","lease_number":null,"poll_year":2025}},{"type":"Feature","id":"584215a3-86a0-4806-b6c9-ec9eaca57390","geometry":{"type":"Point","coordinates":[-96.95375006469354,28.07344812132457]},"properties":{"substrate":"Mud","lease_number":null,"poll_year":2025}},{"type":"Feature","id":"5868336c-813d-400c-a1a8-5b0da6ac04e7","geometry":{"type":"Point","coordinates":[-96.95882485075278,28.07219862786063]},"properties":{"substrate":"Mud","lease_number":null,"poll_year":2025}},{"type":"Feature","id":"58b1ef28-73eb-4c87-98df-38399978edd1","geometry":{"type":"Point","coordinates":[-96.95440855225468,28.07316970225784]},"properties":{"substrate":"Buried Shell","lease_number":null,"poll_year":2025}},{"type":"Feature","id":"597f2725-6610-487f-8550-da81d712e346","geometry":{"type":"Point","coordinates":[-96.9567887230416,28.073526617232577]},"properties":{"substrate":"Buried Shell","lease_number":null,"poll_year":2025}},{"type":"Feature","id":"59b493bb-f503-4d2b-9e4d-3a3b6453ba5f","geometry":{"type":"Point","coordinates":[-96.9538916975728,28.07386136934083]},"properties":{"substrate":"Mud","lease_number":null,"poll_year":2025}},{"type":"Feature","id":"5c05ca56-7560-4ecc-8979-924764cf367e","geometry":{"type":"Point","coordinates":[-96.95938160231138,28.07200452131144]},"properties":{"substrate":"Solid Reef","lease_number":null,"poll_year":2025}},{"type":"Feature","id":"5c442a75-18dd-4ff4-95a4-7ca35567d2e8","geometry":{"type":"Point","coordinates":[-96.95446495836968,28.072431761657953]},"properties":{"substrate":"Mud","lease_number":null,"poll_year":2025}},{"type":"Feature","id":"5c88f4e7-489a-49ef-99c5-cbfb668bc386","geometry":{"type":"Point","coordinates":[-96.95852951163684,28.072538255615743]},"properties":{"substrate":"Buried Shell","lease_number":null,"poll_year":2025}},{"type":"Feature","id":"5d57b6ad-37ad-4f88-a059-642a1caf455c","geometry":{"type":"Point","coordinates":[-96.95699951092638,28.072844759150176]},"properties":{"substrate":"Mud","lease_number":null,"poll_year":2025}},{"type":"Feature","id":"5e1377a5-930d-468f-adff-a2daeb949b36","geometry":{"type":"Point","coordinates":[-96.95666638327967,28.07423817118813]},"properties":{"substrate":"Buried Shell","lease_number":null,"poll_year":2025}},{"type":"Feature","id":"5e1c91bb-c0ca-46f9-99af-2ddd84ab79d2","geometry":{"type":"Point","coordinates":[-96.95369807739142,28.07206236301989]},"properties":{"substrate":"Buried Shell","lease_number":null,"poll_year":2025}},{"type":"Feature","id":"5ee3c0da-cdef-4f67-8134-26e40f58b390","geometry":{"type":"Point","coordinates":[-96.9520160287343,28.07225419381569]},"properties":{"substrate":"Solid Reef","lease_number":null,"poll_year":2025}},{"type":"Feature","id":"5f172800-6605-4082-ad5c-ff23a8bbcc58","geometry":{"type":"Point","coordinates":[-96.9566477594072,28.074423506566855]},"properties":{"substrate":"Solid Reef","lease_number":null,"poll_year":2025}},{"type":"Feature","id":"5fc9c72e-62ec-4772-866f-53e90f9af717","geometry":{"type":"Point","coordinates":[-96.95840669307287,28.072025312117404]},"properties":{"substrate":"Mud","lease_number":null,"poll_year":2025}},{"type":"Feature","id":"60e97a1c-4b10-4ab3-947a-ca4fd3f5844a","geometry":{"type":"Point","coordinates":[-96.95931360343762,28.07214988803775]},"properties":{"substrate":"Solid Reef","lease_number":null,"poll_year":2025}},{"type":"Feature","id":"6313f164-ac94-4a79-863c-43c0ecf7d017","geometry":{"type":"Point","coordinates":[-96.95902221601061,28.072746275807425]},"properties":{"substrate":"Mud","lease_number":null,"poll_year":2025}},{"type":"Feature","id":"64030b41-1b64-4091-a609-00724a1984a7","geometry":{"type":"Point","coordinates":[-96.95946570528321,28.072918762883937]},"properties":{"substrate":"Mud","lease_number":null,"poll_year":2025}},{"type":"Feature","id":"641232dd-df68-4aa4-a121-f54298780c7a","geometry":{"type":"Point","coordinates":[-96.9576870491055,28.073184227130056]},"properties":{"substrate":"Buried Shell","lease_number":null,"poll_year":2025}},{"type":"Feature","id":"64eefa72-e496-40fd-8049-508ff9cbd3d2","geometry":{"type":"Point","coordinates":[-96.95814035606585,28.07371821000494]},"properties":{"substrate":"Buried Shell","lease_number":null,"poll_year":2025}},{"type":"Feature","id":"652b81cf-820c-47c9-a218-afa835d29a60","geometry":{"type":"Point","coordinates":[-96.95669194843435,28.072692230370485]},"properties":{"substrate":"Mud","lease_number":null,"poll_year":2025}},{"type":"Feature","id":"6614703c-2dd5-496b-9404-d5887ecb7bff","geometry":{"type":"Point","coordinates":[-96.95636328092304,28.074717360141165]},"properties":{"substrate":"Firm/Hard Bottom","lease_number":null,"poll_year":2025}},{"type":"Feature","id":"66f2fc52-5e46-4e3b-8ef2-de19d235dded","geometry":{"type":"Point","coordinates":[-96.9579969786583,28.074890768240042]},"properties":{"substrate":"Mud","lease_number":null,"poll_year":2025}},{"type":"Feature","id":"6808c508-e3ce-4cd0-9d07-8bb0e6f2a0a1","geometry":{"type":"Point","coordinates":[-96.9582003320858,28.07481803642494]},"properties":{"substrate":"Solid Reef","lease_number":null,"poll_year":2025}},{"type":"Feature","id":"698dfc43-6650-4abe-ac12-3989f64f0207","geometry":{"type":"Point","coordinates":[-96.95971471109345,28.0723769020298]},"properties":{"substrate":"Mud","lease_number":null,"poll_year":2025}},{"type":"Feature","id":"69f5f5e1-82c0-42a1-8389-fbd2ea19afd1","geometry":{"type":"Point","coordinates":[-96.95533929402562,28.072027739164348]},"properties":{"substrate":"Buried Shell","lease_number":null,"poll_year":2025}},{"type":"Feature","id":"6b5dc478-16f0-4b5a-84fe-2da01390eac0","geometry":{"type":"Point","coordinates":[-96.95755309233033,28.07485159569361]},"properties":{"substrate":"Mud","lease_number":null,"poll_year":2025}},{"type":"Feature","id":"6bd13a06-3a46-4e13-9b68-7d38c4b0935c","geometry":{"type":"Point","coordinates":[-96.95510074730022,28.07222466268954]},"properties":{"substrate":"Buried Shell","lease_number":null,"poll_year":2025}},{"type":"Feature","id":"6e21fa30-be52-4d4b-be15-18c80c180bbf","geometry":{"type":"Point","coordinates":[-96.95862626198955,28.073586992137336]},"properties":{"substrate":"Scattered Shell","lease_number":null,"poll_year":2025}},{"type":"Feature","id":"6e248ebb-1a04-4233-8585-4f2149a81913","geometry":{"type":"Point","coordinates":[-96.95589161599152,28.072611849770823]},"properties":{"substrate":"Mud","lease_number":null,"poll_year":2025}},{"type":"Feature","id":"6e9045a1-66c4-45ef-960b-3c93875d38b2","geometry":{"type":"Point","coordinates":[-96.95236772096467,28.07242801013282]},"properties":{"substrate":"Buried Shell","lease_number":null,"poll_year":2025}},{"type":"Feature","id":"6f219272-4e4b-446d-abc3-67561f29bfb1","geometry":{"type":"Point","coordinates":[-96.95102730879663,28.07212786867353]},"properties":{"substrate":"Firm/Hard Bottom","lease_number":null,"poll_year":2025}},{"type":"Feature","id":"707d9449-84d5-4096-8b61-41c6229f7c63","geometry":{"type":"Point","coordinates":[-96.95099344320872,28.07252411428953]},"properties":{"substrate":"Buried Shell","lease_number":null,"poll_year":2025}},{"type":"Feature","id":"71fe86e1-dfe2-4976-93c5-1edc1f1c13ae","geometry":{"type":"Point","coordinates":[-96.95774840044615,28.075646990093603]},"properties":{"substrate":"Solid Reef","lease_number":null,"poll_year":2025}},{"type":"Feature","id":"72649ae9-7ce0-4fd4-91e7-ecc830f78353","geometry":{"type":"Point","coordinates":[-96.95750744533748,28.074643418677848]},"properties":{"substrate":"Mud","lease_number":null,"poll_year":2025}},{"type":"Feature","id":"72f439fa-a079-4956-af62-85adadbbffd6","geometry":{"type":"Point","coordinates":[-96.95733929508934,28.072031120543144]},"properties":{"substrate":"Mud","lease_number":null,"poll_year":2025}},{"type":"Feature","id":"73b67710-16c4-4a53-8bd7-98275c22a32e","geometry":{"type":"Point","coordinates":[-96.95755829447414,28.07389607107485]},"properties":{"substrate":"Buried Shell","lease_number":null,"poll_year":2025}},{"type":"Feature","id":"75a01053-99ca-46d2-82b6-b32971934bdc","geometry":{"type":"Point","coordinates":[-96.95601382819267,28.07455043219024]},"properties":{"substrate":"Firm/Hard Bottom","lease_number":null,"poll_year":2025}},{"type":"Feature","id":"75d0627d-f4b4-4c74-8635-f3de5ee6b2ae","geometry":{"type":"Point","coordinates":[-96.95526667781131,28.074177635747777]},"properties":{"substrate":"Firm/Hard Bottom","lease_number":null,"poll_year":2025}},{"type":"Feature","id":"75faabe5-4583-427e-bb07-73f21bcd3f26","geometry":{"type":"Point","coordinates":[-96.9537138571977,28.0724537611441]},"properties":{"substrate":"Buried Shell","lease_number":null,"poll_year":2025}},{"type":"Feature","id":"7883abc1-6b79-4c40-a7c5-9ca4d24a31c1","geometry":{"type":"Point","coordinates":[-96.9585013746055,28.07433989576129]},"properties":{"substrate":"Buried Shell","lease_number":null,"poll_year":2025}},{"type":"Feature","id":"78ad9160-58e0-4ed2-82aa-a33d5e7082a7","geometry":{"type":"Point","coordinates":[-96.9587667360421,28.072629588040865]},"properties":{"substrate":"Mud","lease_number":null,"poll_year":2025}},{"type":"Feature","id":"7a19fd52-efd0-4f74-9362-a3444926d803","geometry":{"type":"Point","coordinates":[-96.95739506699375,28.073343779452504]},"properties":{"substrate":"Buried Shell","lease_number":null,"poll_year":2025}},{"type":"Feature","id":"7a5a055e-c128-4d5f-bba3-8ee928f42ee6","geometry":{"type":"Point","coordinates":[-96.95679016034605,28.072018832329864]},"properties":{"substrate":"Mud","lease_number":null,"poll_year":2025}},{"type":"Feature","id":"7a7cebb7-5bad-4b71-ad0a-c370fb3e4088","geometry":{"type":"Point","coordinates":[-96.95565556927758,28.0729913667867]},"properties":{"substrate":"Buried Shell","lease_number":null,"poll_year":2025}},{"type":"Feature","id":"7afe9cbd-0bef-4151-8f55-c4cc616a566c","geometry":{"type":"Point","coordinates":[-96.95481797292015,28.073354502080413]},"properties":{"substrate":"Buried Shell","lease_number":null,"poll_year":2025}},{"type":"Feature","id":"7bf01642-1c3b-4463-b626-87650fbf2ab2","geometry":{"type":"Point","coordinates":[-96.95500437693487,28.07308216142566]},"properties":{"substrate":"Buried Shell","lease_number":null,"poll_year":2025}},{"type":"Feature","id":"7d9f8e8f-2b8d-4606-bd7b-c6885ede9e03","geometry":{"type":"Point","coordinates":[-96.95583878606966,28.07445670294041]},"properties":{"substrate":"Firm/Hard Bottom","lease_number":null,"poll_year":2025}},{"type":"Feature","id":"7e53e15b-eb8b-4bb9-8cf3-14ab79d2885c","geometry":{"type":"Point","coordinates":[-96.95352915010055,28.071981296319795]},"properties":{"substrate":"Buried Shell","lease_number":null,"poll_year":2025}},{"type":"Feature","id":"7ee31931-610f-403d-87ca-166a16027ffe","geometry":{"type":"Point","coordinates":[-96.95465115756852,28.07252156518864]},"properties":{"substrate":"Mud","lease_number":null,"poll_year":2025}},{"type":"Feature","id":"800c37fc-5569-4566-b74d-92e2316d7d01","geometry":{"type":"Point","coordinates":[-96.95777162638782,28.075373581264575]},"properties":{"substrate":"Firm/Hard Bottom","lease_number":null,"poll_year":2025}},{"type":"Feature","id":"81f73f6b-ab37-4cdf-898b-a168635d5559","geometry":{"type":"Point","coordinates":[-96.95842489743211,28.075102642310732]},"properties":{"substrate":"Solid Reef","lease_number":null,"poll_year":2025}},{"type":"Feature","id":"825cb84b-9994-4893-80f6-5eacad4cc37d","geometry":{"type":"Point","coordinates":[-96.95427839625148,28.07234526332843]},"properties":{"substrate":"Mud","lease_number":null,"poll_year":2025}},{"type":"Feature","id":"826bd42b-a090-48cc-acf1-15c789622c4d","geometry":{"type":"Point","coordinates":[-96.95456052114962,28.07383895877254]},"properties":{"substrate":"Firm/Hard Bottom","lease_number":null,"poll_year":2025}},{"type":"Feature","id":"82e1ca1c-d967-43f3-9400-a76f23bf9b86","geometry":{"type":"Point","coordinates":[-96.95631089387061,28.07329782543401]},"properties":{"substrate":"Buried Shell","lease_number":null,"poll_year":2025}},{"type":"Feature","id":"82f4bf7e-dec1-422e-a122-87553930645f","geometry":{"type":"Point","coordinates":[-96.95607446357604,28.072699817420933]},"properties":{"substrate":"Mud","lease_number":null,"poll_year":2025}},{"type":"Feature","id":"831ed83d-413d-4428-85b9-9643d8b88b69","geometry":{"type":"Point","coordinates":[-96.95917561861674,28.07426600952137]},"properties":{"substrate":"Mud","lease_number":null,"poll_year":2025}},{"type":"Feature","id":"83b65b72-23cf-42d7-854e-0981511b7778","geometry":{"type":"Point","coordinates":[-96.95500539921765,28.07343985742601]},"properties":{"substrate":"Buried Shell","lease_number":null,"poll_year":2025}},{"type":"Feature","id":"846fb5eb-8f6c-47c3-9fed-4b1dd60e91ac","geometry":{"type":"Point","coordinates":[-96.95392628899947,28.073531911164547]},"properties":{"substrate":"Firm/Hard Bottom","lease_number":null,"poll_year":2025}},{"type":"Feature","id":"85b46b85-88d1-4ced-a085-df3c4b66b4b9","geometry":{"type":"Point","coordinates":[-96.95383466623036,28.073118852903903]},"properties":{"substrate":"Buried Shell","lease_number":null,"poll_year":2025}},{"type":"Feature","id":"86374d7f-71ad-42f4-b031-b505a26f0565","geometry":{"type":"Point","coordinates":[-96.95297374242163,28.072475269987002]},"properties":{"substrate":"Solid Reef","lease_number":null,"poll_year":2025}},{"type":"Feature","id":"86cbd109-d4d1-4ccd-a02b-176dd57c22ad","geometry":{"type":"Point","coordinates":[-96.95705966032116,28.07504085503011]},"properties":{"substrate":"Mud","lease_number":null,"poll_year":2025}},{"type":"Feature","id":"873b5364-2245-434f-a601-15e61af54759","geometry":{"type":"Point","coordinates":[-96.95120421222887,28.07221326066223]},"properties":{"substrate":"Firm/Hard Bottom","lease_number":null,"poll_year":2025}},{"type":"Feature","id":"876a44f2-4a6e-4bf1-b656-340f1ef606da","geometry":{"type":"Point","coordinates":[-96.95390847091579,28.072545626288857]},"properties":{"substrate":"Buried Shell","lease_number":null,"poll_year":2025}},{"type":"Feature","id":"87eb33c2-1591-404a-848a-0617747a886c","geometry":{"type":"Point","coordinates":[-96.95646661682511,28.074143515886952]},"properties":{"substrate":"Buried Shell","lease_number":null,"poll_year":2025}},{"type":"Feature","id":"8af4edf4-b644-4c53-b66f-f22f9a0329c9","geometry":{"type":"Point","coordinates":[-96.95478745804827,28.07297619431175]},"properties":{"substrate":"Buried Shell","lease_number":null,"poll_year":2025}},{"type":"Feature","id":"8b33a193-7825-4464-bdc8-3b31e9540d83","geometry":{"type":"Point","coordinates":[-96.9579942989838,28.072549350067845]},"properties":{"substrate":"Mud","lease_number":null,"poll_year":2025}},{"type":"Feature","id":"8bed74cb-57eb-4c0d-ae82-bfb7d84fd443","geometry":{"type":"Point","coordinates":[-96.95716848403131,28.073708986261774]},"properties":{"substrate":"Buried Shell","lease_number":null,"poll_year":2025}},{"type":"Feature","id":"8c81bb3d-2694-4af4-b7ee-0be00906ad48","geometry":{"type":"Point","coordinates":[-96.9562333054812,28.07403482162294]},"properties":{"substrate":"Buried Shell","lease_number":null,"poll_year":2025}},{"type":"Feature","id":"8d1f263d-47a1-4e5e-bd1b-4c481dd06ca5","geometry":{"type":"Point","coordinates":[-96.9542271338898,28.07308363412615]},"properties":{"substrate":"Buried Shell","lease_number":null,"poll_year":2025}},{"type":"Feature","id":"8d845ab3-d759-4ab2-8f73-bbb273a27fc4","geometry":{"type":"Point","coordinates":[-96.95657432482767,28.07481522977896]},"properties":{"substrate":"Firm/Hard Bottom","lease_number":null,"poll_year":2025}},{"type":"Feature","id":"8dc2f362-ce3f-4c2d-89ca-db9824a50741","geometry":{"type":"Point","coordinates":[-96.9590752300871,28.073410839453693]},"properties":{"substrate":"Mud","lease_number":null,"poll_year":2025}},{"type":"Feature","id":"9003f7eb-675f-4c0d-b496-a0e5ef023feb","geometry":{"type":"Point","coordinates":[-96.95224762519432,28.073097941037677]},"properties":{"substrate":"Solid Reef","lease_number":null,"poll_year":2025}},{"type":"Feature","id":"9076a077-c521-4213-8fca-572727599ead","geometry":{"type":"Point","coordinates":[-96.95633082119856,28.072819710501626]},"properties":{"substrate":"Mud","lease_number":null,"poll_year":2025}},{"type":"Feature","id":"909defac-69da-484f-a6c8-eb5c571e3f2b","geometry":{"type":"Point","coordinates":[-96.95817255527889,28.075228790372968]},"properties":{"substrate":"Solid Reef","lease_number":null,"poll_year":2025}},{"type":"Feature","id":"90d26060-d0c8-4f3f-bed2-b445ff1192b0","geometry":{"type":"Point","coordinates":[-96.95828184341804,28.075210368508795]},"properties":{"substrate":"Solid Reef","lease_number":null,"poll_year":2025}},{"type":"Feature","id":"91efc455-1d84-48b3-a02e-14773937fa34","geometry":{"type":"Point","coordinates":[-96.95845983650676,28.073882909606745]},"properties":{"substrate":"Buried Shell","lease_number":null,"poll_year":2025}},{"type":"Feature","id":"91f8fc7e-4b14-441c-a10b-ebdaba48c04e","geometry":{"type":"Point","coordinates":[-96.95182061910886,28.07215908972105]},"properties":{"substrate":"Buried Shell","lease_number":null,"poll_year":2025}},{"type":"Feature","id":"9279cb33-0e18-4fb9-b97f-2706643077b1","geometry":{"type":"Point","coordinates":[-96.95734081773374,28.07378982734626]},"properties":{"substrate":"Buried Shell","lease_number":null,"poll_year":2025}},{"type":"Feature","id":"931e744b-4e7a-4bc4-bbe0-3c1b39327185","geometry":{"type":"Point","coordinates":[-96.96075928019066,28.0723564283447]},"properties":{"substrate":"Mud","lease_number":null,"poll_year":2025}},{"type":"Feature","id":"9392c68e-66af-4e7b-92ec-17c3879293db","geometry":{"type":"Point","coordinates":[-96.95878209633516,28.07371945759205]},"properties":{"substrate":"Buried Shell","lease_number":null,"poll_year":2025}},{"type":"Feature","id":"94bbdc32-154b-4858-a9d4-12726a97576c","geometry":{"type":"Point","coordinates":[-96.95548667702103,28.073894202867788]},"properties":{"substrate":"Firm/Hard Bottom","lease_number":null,"poll_year":2025}},{"type":"Feature","id":"956c837a-b55d-4b5c-9f2f-88255ce397da","geometry":{"type":"Point","coordinates":[-96.95679288044474,28.073046228478972]},"properties":{"substrate":"Mud","lease_number":null,"poll_year":2025}},{"type":"Feature","id":"96b378db-fbb3-4271-a6e7-d828d4aabde9","geometry":{"type":"Point","coordinates":[-96.95277844418729,28.072629015761933]},"properties":{"substrate":"Buried Shell","lease_number":null,"poll_year":2025}},{"type":"Feature","id":"976ceaef-a1ef-463f-9887-00cb41d2a147","geometry":{"type":"Point","coordinates":[-96.95332248907617,28.073239446990577]},"properties":{"substrate":"Mud","lease_number":null,"poll_year":2025}},{"type":"Feature","id":"991691d5-a1db-4c86-94b6-372f3947a07a","geometry":{"type":"Point","coordinates":[-96.9515963448167,28.072048619533486]},"properties":{"substrate":"Buried Shell","lease_number":null,"poll_year":2025}},{"type":"Feature","id":"9abdec7f-2709-4f97-bd2a-836a1fe5517b","geometry":{"type":"Point","coordinates":[-96.95351365326358,28.072355898866444]},"properties":{"substrate":"Buried Shell","lease_number":null,"poll_year":2025}},{"type":"Feature","id":"9b4b9ad2-621b-4dff-91d5-8b468adc97e3","geometry":{"type":"Point","coordinates":[-96.95483412103569,28.072610415110116]},"properties":{"substrate":"Mud","lease_number":null,"poll_year":2025}},{"type":"Feature","id":"9c33eaa8-4545-4309-b2f3-86546e89d97a","geometry":{"type":"Point","coordinates":[-96.95412840814176,28.072655321565964]},"properties":{"substrate":"Buried Shell","lease_number":null,"poll_year":2025}},{"type":"Feature","id":"9ee81649-5870-4965-81c8-b7bec9510113","geometry":{"type":"Point","coordinates":[-96.95519259913972,28.07316958653442]},"properties":{"substrate":"Buried Shell","lease_number":null,"poll_year":2025}},{"type":"Feature","id":"9fe3bcd0-73ae-4b4e-8732-8a8d3cbc69ab","geometry":{"type":"Point","coordinates":[-96.95546752943075,28.074587618551725]},"properties":{"substrate":"Mud","lease_number":null,"poll_year":2025}},{"type":"Feature","id":"a09c4da9-2c72-4169-afc8-5f1987f17969","geometry":{"type":"Point","coordinates":[-96.95260457436574,28.07228904587646]},"properties":{"substrate":"Firm/Hard Bottom","lease_number":null,"poll_year":2025}},{"type":"Feature","id":"a14272f2-7770-4d21-934f-9b607e0899db","geometry":{"type":"Point","coordinates":[-96.9434322480038,28.090457538056068]},"properties":{"substrate":"Scattered Shell","lease_number":null,"poll_year":2025}},{"type":"Feature","id":"a1a66aa1-5514-4118-bf7d-8be73aa5287b","geometry":{"type":"Point","coordinates":[-96.95563880671438,28.074666961725192]},"properties":{"substrate":"Mud","lease_number":null,"poll_year":2025}},{"type":"Feature","id":"a3d754de-08c0-4243-b7df-da295dca2768","geometry":{"type":"Point","coordinates":[-96.96084935246758,28.072594924736592]},"properties":{"substrate":"Mud","lease_number":null,"poll_year":2025}},{"type":"Feature","id":"a3db8f78-2449-4fb1-9294-849992ba5d23","geometry":{"type":"Point","coordinates":[-96.95252445542218,28.072507079858376]},"properties":{"substrate":"Buried Shell","lease_number":null,"poll_year":2025}},{"type":"Feature","id":"a414995d-8040-4982-ad52-aa27333ee7fd","geometry":{"type":"Point","coordinates":[-96.95840353459633,28.07274493943455]},"properties":{"substrate":"Mud","lease_number":null,"poll_year":2025}},{"type":"Feature","id":"a45dbcf6-b5fd-4de5-9e84-4e4f4734be10","geometry":{"type":"Point","coordinates":[-96.95977786894613,28.072641471942987]},"properties":{"substrate":"Mud","lease_number":null,"poll_year":2025}},{"type":"Feature","id":"a557ec41-ebad-4b3a-9296-68e4a960a42b","geometry":{"type":"Point","coordinates":[-96.95568203364586,28.072509878638353]},"properties":{"substrate":"Mud","lease_number":null,"poll_year":2025}},{"type":"Feature","id":"a5a29511-2434-4602-8b39-9a52b467c9f7","geometry":{"type":"Point","coordinates":[-96.95612401285048,28.073211135986337]},"properties":{"substrate":"Buried Shell","lease_number":null,"poll_year":2025}},{"type":"Feature","id":"a5b00964-363e-4e90-a5c4-c38d0ccd0278","geometry":{"type":"Point","coordinates":[-96.95926162062709,28.07219877053461]},"properties":{"substrate":"Mud","lease_number":null,"poll_year":2025}},{"type":"Feature","id":"a5d39578-3cf3-4fbd-aa4e-cd611d91dee9","geometry":{"type":"Point","coordinates":[-96.96002385911197,28.073128964439302]},"properties":{"substrate":"Mud","lease_number":null,"poll_year":2025}},{"type":"Feature","id":"a5f075e0-c907-41df-be6a-412d16ed8ad5","geometry":{"type":"Point","coordinates":[-96.95544684931458,28.074261169003094]},"properties":{"substrate":"Firm/Hard Bottom","lease_number":null,"poll_year":2025}},{"type":"Feature","id":"a77de85a-43bb-4003-8f9e-4a41d29f507e","geometry":{"type":"Point","coordinates":[-96.95845717479858,28.075334620521122]},"properties":{"substrate":"Firm/Hard Bottom","lease_number":null,"poll_year":2025}},{"type":"Feature","id":"a7fc9b99-6a04-4be6-b7b6-fe6b8a0a7bff","geometry":{"type":"Point","coordinates":[-96.9585396715827,28.07378116161483]},"properties":{"substrate":"Scattered Shell","lease_number":null,"poll_year":2025}},{"type":"Feature","id":"a8af30c6-7f07-4c1a-a75a-c2c5fc63c90e","geometry":{"type":"Point","coordinates":[-96.95830009898125,28.07428597794494]},"properties":{"substrate":"Solid Reef","lease_number":null,"poll_year":2025}},{"type":"Feature","id":"a943ac9c-2a86-4945-aa63-9de6721e73c4","geometry":{"type":"Point","coordinates":[-96.95440356840149,28.073390200307134]},"properties":{"substrate":"Buried Shell","lease_number":null,"poll_year":2025}},{"type":"Feature","id":"a9da91cb-7448-461d-a9d5-575284116fb8","geometry":{"type":"Point","coordinates":[-96.95970983863135,28.073011948940724]},"properties":{"substrate":"Mud","lease_number":null,"poll_year":2025}},{"type":"Feature","id":"a9eeae1d-e82b-4739-bbfc-cd7e7ac246a6","geometry":{"type":"Point","coordinates":[-96.95586180809376,28.074064357799863]},"properties":{"substrate":"Firm/Hard Bottom","lease_number":null,"poll_year":2025}},{"type":"Feature","id":"ab15455d-346b-4d43-a907-994ea4aa1888","geometry":{"type":"Point","coordinates":[-96.9593915017458,28.073267494835733]},"properties":{"substrate":"Mud","lease_number":null,"poll_year":2025}},{"type":"Feature","id":"ab1d2596-d206-4566-a807-1592744ba640","geometry":{"type":"Point","coordinates":[-96.95528173088053,28.072314601140864]},"properties":{"substrate":"Mud","lease_number":null,"poll_year":2025}},{"type":"Feature","id":"abe71184-41ab-4b7c-9f7c-eb6bc81b2d1f","geometry":{"type":"Point","coordinates":[-96.95195243789365,28.072576534125954]},"properties":{"substrate":"Scattered Shell","lease_number":null,"poll_year":2025}},{"type":"Feature","id":"abed6047-dc6f-4779-b2d4-3524a6724ce5","geometry":{"type":"Point","coordinates":[-96.9559491539838,28.072324627147676]},"properties":{"substrate":"Mud","lease_number":null,"poll_year":2025}},{"type":"Feature","id":"ac1dabe6-64ac-4b5f-be2b-a648e89d99ed","geometry":{"type":"Point","coordinates":[-96.95600824695981,28.07392165449132]},"properties":{"substrate":"Buried Shell","lease_number":null,"poll_year":2025}},{"type":"Feature","id":"acb58753-871b-4300-9400-8f13ede83de7","geometry":{"type":"Point","coordinates":[-96.96017403047802,28.072099837176168]},"properties":{"substrate":"Mud","lease_number":null,"poll_year":2025}},{"type":"Feature","id":"ae1bf6dd-4a85-45e9-834e-f8a55d622770","geometry":{"type":"Point","coordinates":[-96.95562577305793,28.074350190276373]},"properties":{"substrate":"Firm/Hard Bottom","lease_number":null,"poll_year":2025}},{"type":"Feature","id":"ae8675a4-6c58-4f05-8489-e82b339de89f","geometry":{"type":"Point","coordinates":[-96.95777497351055,28.07400069537584]},"properties":{"substrate":"Buried Shell","lease_number":null,"poll_year":2025}},{"type":"Feature","id":"b08b2e6e-5d69-432c-9b1e-510d262111cd","geometry":{"type":"Point","coordinates":[-96.9595343410625,28.07251864355119]},"properties":{"substrate":"Mud","lease_number":null,"poll_year":2025}},{"type":"Feature","id":"b22ea94e-eeeb-4136-8503-9f3d71971047","geometry":{"type":"Point","coordinates":[-96.95738325594439,28.07303084041718]},"properties":{"substrate":"Mud","lease_number":null,"poll_year":2025}},{"type":"Feature","id":"b3f9206c-f587-43d4-9665-10734b6f57a9","geometry":{"type":"Point","coordinates":[-96.95698028338605,28.074578768997828]},"properties":{"substrate":"Scattered Shell","lease_number":null,"poll_year":2025}},{"type":"Feature","id":"b49d2c92-e6a3-49e1-b984-41291e3cd704","geometry":{"type":"Point","coordinates":[-96.95799356775517,28.072873966713555]},"properties":{"substrate":"Mud","lease_number":null,"poll_year":2025}},{"type":"Feature","id":"b5d6ea29-cce0-4450-9c71-31741d515ec7","geometry":{"type":"Point","coordinates":[-96.95914200815037,28.07315669922595]},"properties":{"substrate":"Buried Shell","lease_number":null,"poll_year":2025}},{"type":"Feature","id":"b6114b56-aae5-425c-be73-9310b18c4e78","geometry":{"type":"Point","coordinates":[-96.95821421914178,28.075001404331406]},"properties":{"substrate":"Buried Shell","lease_number":null,"poll_year":2025}},{"type":"Feature","id":"b6926d07-e1b4-4cd9-aa77-b7fe4847ad65","geometry":{"type":"Point","coordinates":[-96.95353719092066,28.07334353294618]},"properties":{"substrate":"Mud","lease_number":null,"poll_year":2025}},{"type":"Feature","id":"b725c758-60b7-4014-9ce1-bde57a900b5e","geometry":{"type":"Point","coordinates":[-96.95620488368392,28.074931216879275]},"properties":{"substrate":"Solid Reef","lease_number":null,"poll_year":2025}},{"type":"Feature","id":"b732a507-0e52-4c08-a574-9fc4e0722509","geometry":{"type":"Point","coordinates":[-96.95335999014603,28.0729048784193]},"properties":{"substrate":"Scattered Shell","lease_number":null,"poll_year":2025}},{"type":"Feature","id":"b9b52f12-5807-43cd-8a23-b749eacc2107","geometry":{"type":"Point","coordinates":[-96.95785129886868,28.07356857553994]},"properties":{"substrate":"Buried Shell","lease_number":null,"poll_year":2025}},{"type":"Feature","id":"bc43aa7c-1f4b-4d43-aa2b-b9ab893e402d","geometry":{"type":"Point","coordinates":[-96.95681433940022,28.07450464355211]},"properties":{"substrate":"Scattered Shell","lease_number":null,"poll_year":2025}},{"type":"Feature","id":"bce9f9ca-536c-4454-8e43-0a748cada3b5","geometry":{"type":"Point","coordinates":[-96.95717260819679,28.075383833672284]},"properties":{"substrate":"Mud","lease_number":null,"poll_year":2025}},{"type":"Feature","id":"bd496e92-305b-43de-a78b-ae87a4ce13b7","geometry":{"type":"Point","coordinates":[-96.9552322947938,28.072795342715434]},"properties":{"substrate":"Mud","lease_number":null,"poll_year":2025}},{"type":"Feature","id":"bdf82798-74dd-48e9-9ee5-1f46794dcc7e","geometry":{"type":"Point","coordinates":[-96.95820936105271,28.07458236430259]},"properties":{"substrate":"Solid Reef","lease_number":null,"poll_year":2025}},{"type":"Feature","id":"bf17cf8d-cf62-4f0b-a7c6-e1e5395c0f30","geometry":{"type":"Point","coordinates":[-96.95277391757658,28.07237133696075]},"properties":{"substrate":"Solid Reef","lease_number":null,"poll_year":2025}},{"type":"Feature","id":"bf1b8876-7c77-4ade-abe1-98b2acfcdcb3","geometry":{"type":"Point","coordinates":[-96.95522677105312,28.073549260104627]},"properties":{"substrate":"Buried Shell","lease_number":null,"poll_year":2025}},{"type":"Feature","id":"bfbf26a9-7ba5-43c6-9f65-9bec4515fd53","geometry":{"type":"Point","coordinates":[-96.95826363277062,28.0742214746842]},"properties":{"substrate":"Buried Shell","lease_number":null,"poll_year":2025}},{"type":"Feature","id":"c08c9183-6a00-40bb-8333-fa15ae91b350","geometry":{"type":"Point","coordinates":[-96.95721960176425,28.074690110045164]},"properties":{"substrate":"Scattered Shell","lease_number":null,"poll_year":2025}},{"type":"Feature","id":"c128bd37-76fb-47b0-9c09-1ef73ba61582","geometry":{"type":"Point","coordinates":[-96.95420286680071,28.073292556854494]},"properties":{"substrate":"Buried Shell","lease_number":null,"poll_year":2025}},{"type":"Feature","id":"c1ffb64b-94fd-46fc-b62f-2d6f398150f6","geometry":{"type":"Point","coordinates":[-96.95582563473391,28.073833968429618]},"properties":{"substrate":"Buried Shell","lease_number":null,"poll_year":2025}},{"type":"Feature","id":"c55f320a-8702-4b7e-9b06-9f75b295a510","geometry":{"type":"Point","coordinates":[-96.95916513258241,28.072456887282208]},"properties":{"substrate":"Mud","lease_number":null,"poll_year":2025}},{"type":"Feature","id":"c61e01cd-ca82-4f96-a5ff-130f4b1a16ae","geometry":{"type":"Point","coordinates":[-96.9591785794639,28.073914782470933]},"properties":{"substrate":"Mud","lease_number":null,"poll_year":2025}},{"type":"Feature","id":"c9116b4d-abc1-4d17-9d51-250483aa5c66","geometry":{"type":"Point","coordinates":[-96.95508213869913,28.074088298869025]},"properties":{"substrate":"Firm/Hard Bottom","lease_number":null,"poll_year":2025}},{"type":"Feature","id":"ca97cc97-3730-4d30-8d67-66ce443d601c","geometry":{"type":"Point","coordinates":[-96.95161726298642,28.07240770845854]},"properties":{"substrate":"Scattered Shell","lease_number":null,"poll_year":2025}},{"type":"Feature","id":"caaae272-6aa9-46eb-9843-ab672e3bf728","geometry":{"type":"Point","coordinates":[-96.95329677120792,28.072252044988016]},"properties":{"substrate":"Buried Shell","lease_number":null,"poll_year":2025}},{"type":"Feature","id":"cb5aade7-21e6-4e23-9293-12463e30108e","geometry":{"type":"Point","coordinates":[-96.95731457794429,28.074544252163836]},"properties":{"substrate":"Buried Shell","lease_number":null,"poll_year":2025}},{"type":"Feature","id":"cc726074-d28b-4039-aa32-1b0435e57b5a","geometry":{"type":"Point","coordinates":[-96.95531705982403,28.07381501526996]},"properties":{"substrate":"Firm/Hard Bottom","lease_number":null,"poll_year":2025}},{"type":"Feature","id":"ccd59e43-0a00-4f9f-9094-d19cf77c62ca","geometry":{"type":"Point","coordinates":[-96.95759777902414,28.072138370278005]},"properties":{"substrate":"Mud","lease_number":null,"poll_year":2025}},{"type":"Feature","id":"cdb810a3-0052-4f12-be79-49be9e808469","geometry":{"type":"Point","coordinates":[-96.95862564844022,28.074728109580885]},"properties":{"substrate":"Buried Shell","lease_number":null,"poll_year":2025}},{"type":"Feature","id":"ce6394af-f50c-4025-8e42-6d0bbddbf741","geometry":{"type":"Point","coordinates":[-96.95473340462098,28.073922499424796]},"properties":{"substrate":"Firm/Hard Bottom","lease_number":null,"poll_year":2025}},{"type":"Feature","id":"cf03deb2-d281-4c8d-afac-278b0c2fa26b","geometry":{"type":"Point","coordinates":[-96.95644375020954,28.073729846488607]},"properties":{"substrate":"Buried Shell","lease_number":null,"poll_year":2025}},{"type":"Feature","id":"d1382e73-f7df-4cf6-a5ba-5773d695e96a","geometry":{"type":"Point","coordinates":[-96.95271728239116,28.072942473553727]},"properties":{"substrate":"Scattered Shell","lease_number":null,"poll_year":2025}},{"type":"Feature","id":"d27312ee-a0e5-4223-9cef-6b85a0cbf63e","geometry":{"type":"Point","coordinates":[-96.95836005972983,28.074167402247777]},"properties":{"substrate":"Scattered Shell","lease_number":null,"poll_year":2025}},{"type":"Feature","id":"d4181384-67a7-4085-92f2-45656ddd5855","geometry":{"type":"Point","coordinates":[-96.95657352442876,28.072941065054174]},"properties":{"substrate":"Buried Shell","lease_number":null,"poll_year":2025}},{"type":"Feature","id":"d4e01211-c85e-4fc1-b792-2d77f293a3c4","geometry":{"type":"Point","coordinates":[-96.95867267165208,28.074428470726044]},"properties":{"substrate":"Mud","lease_number":null,"poll_year":2025}},{"type":"Feature","id":"d548ff8d-a663-4d54-9b48-36346d68cdae","geometry":{"type":"Point","coordinates":[-96.95794722636461,28.075455054391096]},"properties":{"substrate":"Solid Reef","lease_number":null,"poll_year":2025}},{"type":"Feature","id":"d592277f-3f1d-48e6-9d45-83364f007ec8","geometry":{"type":"Point","coordinates":[-96.95992898533986,28.072000773734533]},"properties":{"substrate":"Buried Shell","lease_number":null,"poll_year":2025}},{"type":"Feature","id":"d6e9ee17-0688-48ce-ba95-c6fc5a58ecdc","geometry":{"type":"Point","coordinates":[-96.9584790820134,28.073901430776154]},"properties":{"substrate":"Scattered Shell","lease_number":null,"poll_year":2025}},{"type":"Feature","id":"d9cfd96c-0e85-4629-9909-0a59029f7c97","geometry":{"type":"Point","coordinates":[-96.95622574705641,28.073629315027567]},"properties":{"substrate":"Buried Shell","lease_number":null,"poll_year":2025}},{"type":"Feature","id":"da8744b3-5e20-4b8f-9fae-186ae94b6dfc","geometry":{"type":"Point","coordinates":[-96.95430340894225,28.072742710561137]},"properties":{"substrate":"Buried Shell","lease_number":null,"poll_year":2025}},{"type":"Feature","id":"dab848d5-c919-4a80-a8a3-e0501f2a08ac","geometry":{"type":"Point","coordinates":[-96.95815666857308,28.074493774404967]},"properties":{"substrate":"Mud","lease_number":null,"poll_year":2025}},{"type":"Feature","id":"dacdf6b9-f70a-48e9-85d1-4f1449efdac7","geometry":{"type":"Point","coordinates":[-96.95703366038191,28.072127290050872]},"properties":{"substrate":"Mud","lease_number":null,"poll_year":2025}},{"type":"Feature","id":"db1ea8f0-5d27-4b3a-aa1e-df8e9c4c459f","geometry":{"type":"Point","coordinates":[-96.95529433514228,28.074507901204843]},"properties":{"substrate":"Mud","lease_number":null,"poll_year":2025}},{"type":"Feature","id":"db988fe6-4cc4-4c4d-bd69-2ed45b4ced19","geometry":{"type":"Point","coordinates":[-96.95936681783843,28.074586187880524]},"properties":{"substrate":"Mud","lease_number":null,"poll_year":2025}},{"type":"Feature","id":"dba42b3d-1407-403c-829a-c753535675a5","geometry":{"type":"Point","coordinates":[-96.95694157228552,28.072398725562916]},"properties":{"substrate":"Mud","lease_number":null,"poll_year":2025}},{"type":"Feature","id":"dbae7cb5-46e9-44b1-bfe5-e7b42897d1b2","geometry":{"type":"Point","coordinates":[-96.95406624562241,28.073940846210892]},"properties":{"substrate":"Mud","lease_number":null,"poll_year":2025}},{"type":"Feature","id":"dc8eee57-0a47-445a-8d0d-1e32c471e3df","geometry":{"type":"Point","coordinates":[-96.9566629813597,28.07382383397455]},"properties":{"substrate":"Buried Shell","lease_number":null,"poll_year":2025}},{"type":"Feature","id":"dddb793b-681d-47b2-ae7e-cb2acdf83046","geometry":{"type":"Point","coordinates":[-96.95736887032344,28.072313205315183]},"properties":{"substrate":"Mud","lease_number":null,"poll_year":2025}},{"type":"Feature","id":"de28bf1e-fdda-481d-bead-bf93a40e46dc","geometry":{"type":"Point","coordinates":[-96.95785017777119,28.07224289879698]},"properties":{"substrate":"Mud","lease_number":null,"poll_year":2025}},{"type":"Feature","id":"dfda31bd-af62-4216-a4ee-9a570df4a630","geometry":{"type":"Point","coordinates":[-96.95737101639864,28.072591990419035]},"properties":{"substrate":"Mud","lease_number":null,"poll_year":2025}},{"type":"Feature","id":"e0a87219-1198-4ed4-a338-42534ae5a544","geometry":{"type":"Point","coordinates":[-96.95822347807741,28.07557858960248]},"properties":{"substrate":"Firm/Hard Bottom","lease_number":null,"poll_year":2025}},{"type":"Feature","id":"e134b979-c4cd-4988-947f-806071c0ad76","geometry":{"type":"Point","coordinates":[-96.95716640353312,28.073232880880052]},"properties":{"substrate":"Buried Shell","lease_number":null,"poll_year":2025}},{"type":"Feature","id":"e179934a-213c-4edb-a5ee-7062f8800f37","geometry":{"type":"Point","coordinates":[-96.94347299109351,28.090757325556694]},"properties":{"substrate":"Mud","lease_number":null,"poll_year":2025}},{"type":"Feature","id":"e24ccd84-260e-4c0c-a2b3-b10a3743d354","geometry":{"type":"Point","coordinates":[-96.95649412054416,28.073389686686497]},"properties":{"substrate":"Buried Shell","lease_number":null,"poll_year":2025}},{"type":"Feature","id":"e390c79c-f4ab-4e8c-bd1f-cce1a110b958","geometry":{"type":"Point","coordinates":[-96.95741801266104,28.07230329582428]},"properties":{"substrate":"Mud","lease_number":null,"poll_year":2025}},{"type":"Feature","id":"e57d927b-9d90-43aa-90a5-c846f283c921","geometry":{"type":"Point","coordinates":[-96.9559764906162,28.074828062990704]},"properties":{"substrate":"Buried Shell","lease_number":null,"poll_year":2025}},{"type":"Feature","id":"e604726c-e127-4f3d-930e-29b31962e2de","geometry":{"type":"Point","coordinates":[-96.95764564395742,28.07244342760832]},"properties":{"substrate":"Buried Shell","lease_number":null,"poll_year":2025}},{"type":"Feature","id":"e743c451-aec3-44db-9f8d-aed71da13d1c","geometry":{"type":"Point","coordinates":[-96.95899955600756,28.074179706067692]},"properties":{"substrate":"Mud","lease_number":null,"poll_year":2025}},{"type":"Feature","id":"e781ba8b-e012-40d8-a594-3a685e1b3dbc","geometry":{"type":"Point","coordinates":[-96.95672853052767,28.072006815988836]},"properties":{"substrate":"Buried Shell","lease_number":null,"poll_year":2025}},{"type":"Feature","id":"e7e15962-f168-45ad-ae12-cccbaea6ea0c","geometry":{"type":"Point","coordinates":[-96.95734565066998,28.075464483270135]},"properties":{"substrate":"Mud","lease_number":null,"poll_year":2025}},{"type":"Feature","id":"e82af244-d04d-40ee-9ed0-1041e7ed9ded","geometry":{"type":"Point","coordinates":[-96.95220646259136,28.07234894589744]},"properties":{"substrate":"Buried Shell","lease_number":null,"poll_year":2025}},{"type":"Feature","id":"ea4d5a37-3b36-444a-9af1-2cdc6b981d48","geometry":{"type":"Point","coordinates":[-96.95793782100357,28.074389783885312]},"properties":{"substrate":"Mud","lease_number":null,"poll_year":2025}},{"type":"Feature","id":"ec2b47bd-a215-4110-b4d6-6895a7d006dc","geometry":{"type":"Point","coordinates":[-96.95821255995345,28.07239611621906]},"properties":{"substrate":"Buried Shell","lease_number":null,"poll_year":2025}},{"type":"Feature","id":"ec9b8b5a-d17d-4cc5-88c6-4c8852481174","geometry":{"type":"Point","coordinates":[-96.95481910120414,28.072087957177295]},"properties":{"substrate":"Buried Shell","lease_number":null,"poll_year":2025}},{"type":"Feature","id":"ecac9b5c-c946-4a76-9d0c-75d878e4933b","geometry":{"type":"Point","coordinates":[-96.95355023805185,28.073700192119013]},"properties":{"substrate":"Solid Reef","lease_number":null,"poll_year":2025}},{"type":"Feature","id":"ed3ac8e5-4c2a-40ff-8fd2-c63e8b239165","geometry":{"type":"Point","coordinates":[-96.95236245414216,28.07216589368727]},"properties":{"substrate":"Firm/Hard Bottom","lease_number":null,"poll_year":2025}},{"type":"Feature","id":"ed833233-a5be-4e27-9493-b5e969394241","geometry":{"type":"Point","coordinates":[-96.95775238896599,28.074307235953817]},"properties":{"substrate":"Mud","lease_number":null,"poll_year":2025}},{"type":"Feature","id":"eed77628-d7f8-4e63-b033-24093e6396fd","geometry":{"type":"Point","coordinates":[-96.95795648080868,28.073306797950327]},"properties":{"substrate":"Buried Shell","lease_number":null,"poll_year":2025}},{"type":"Feature","id":"eeea1cc5-0011-45a8-9d3b-c3613254d13f","geometry":{"type":"Point","coordinates":[-96.9556162985266,28.073734312120653]},"properties":{"substrate":"Buried Shell","lease_number":null,"poll_year":2025}},{"type":"Feature","id":"f279494d-9df2-4cb6-a748-9ad4fe83a4ac","geometry":{"type":"Point","coordinates":[-96.95235744693277,28.07276513562542]},"properties":{"substrate":"Scattered Shell","lease_number":null,"poll_year":2025}},{"type":"Feature","id":"f3559b8c-78f6-4d8f-9051-22a8bc61822e","geometry":{"type":"Point","coordinates":[-96.95657086900879,28.075104338500022]},"properties":{"substrate":"Mud","lease_number":null,"poll_year":2025}},{"type":"Feature","id":"f3d90502-1e96-4287-9a82-c73a013f7f93","geometry":{"type":"Point","coordinates":[-96.9537500152862,28.07286262103178]},"properties":{"substrate":"Firm/Hard Bottom","lease_number":null,"poll_year":2025}},{"type":"Feature","id":"f4bd6ce1-b963-4814-a33b-91153127332e","geometry":{"type":"Point","coordinates":[-96.9536284633468,28.073026536451817]},"properties":{"substrate":"Scattered Shell","lease_number":null,"poll_year":2025}},{"type":"Feature","id":"f4d3d5ec-7da4-430b-98ee-4bfec747f96c","geometry":{"type":"Point","coordinates":[-96.9569632486333,28.073611347854623]},"properties":{"substrate":"Buried Shell","lease_number":null,"poll_year":2025}},{"type":"Feature","id":"f53282af-addf-4f68-8f8f-ab38caa7db93","geometry":{"type":"Point","coordinates":[-96.95706586947642,28.07443435273521]},"properties":{"substrate":"Buried Shell","lease_number":null,"poll_year":2025}},{"type":"Feature","id":"f666ea44-5cc4-41f1-87cf-51d1e2b685e8","geometry":{"type":"Point","coordinates":[-96.95922869198202,28.072822508480826]},"properties":{"substrate":"Mud","lease_number":null,"poll_year":2025}},{"type":"Feature","id":"f6670cb1-a06c-4052-9705-b55a4405e8fc","geometry":{"type":"Point","coordinates":[-96.95251946078919,28.072845122966676]},"properties":{"substrate":"Scattered Shell","lease_number":null,"poll_year":2025}},{"type":"Feature","id":"f6e3bb42-f370-487d-882d-e15c05abbc25","geometry":{"type":"Point","coordinates":[-96.95775586544615,28.074951819269568]},"properties":{"substrate":"Mud","lease_number":null,"poll_year":2025}},{"type":"Feature","id":"f729764a-65c5-4596-a161-a2912b3b9774","geometry":{"type":"Point","coordinates":[-96.95674223163239,28.075184678396745]},"properties":{"substrate":"Mud","lease_number":null,"poll_year":2025}},{"type":"Feature","id":"f7dea876-471f-4801-8ccb-bd47ea6ba37c","geometry":{"type":"Point","coordinates":[-96.95317440719148,28.072576976413746]},"properties":{"substrate":"Solid Reef","lease_number":null,"poll_year":2025}},{"type":"Feature","id":"fa32a3ed-b3a3-40f1-93ab-305e141b49e9","geometry":{"type":"Point","coordinates":[-96.95837222291878,28.074607601975224]},"properties":{"substrate":"Buried Shell","lease_number":null,"poll_year":2025}},{"type":"Feature","id":"fb1eb99d-59f7-42cd-84eb-915f9463b71b","geometry":{"type":"Point","coordinates":[-96.95861791933551,28.07317155700287]},"properties":{"substrate":"Mud","lease_number":null,"poll_year":2025}},{"type":"Feature","id":"fc04e99e-e647-4295-85a6-2f410a31cbf8","geometry":{"type":"Point","coordinates":[-96.95715034345248,28.074040023585997]},"properties":{"substrate":"Buried Shell","lease_number":null,"poll_year":2025}},{"type":"Feature","id":"fc9d8a5c-e717-4253-bb44-5f914e09cb52","geometry":{"type":"Point","coordinates":[-96.95894517110194,28.072914806877783]},"properties":{"substrate":"Solid Reef","lease_number":null,"poll_year":2025}},{"type":"Feature","id":"fcac5fd8-ad2a-4399-aa9c-152098ec9c54","geometry":{"type":"Point","coordinates":[-96.95755610977137,28.07527288489364]},"properties":{"substrate":"Firm/Hard Bottom","lease_number":null,"poll_year":2025}},{"type":"Feature","id":"fcd6129a-560d-40a0-b8f8-0dc3dbbec311","geometry":{"type":"Point","coordinates":[-96.95631282794342,28.072118477548074]},"properties":{"substrate":"Mud","lease_number":null,"poll_year":2025}},{"type":"Feature","id":"fcf25658-ecc3-49f6-b44f-c595b6ba7555","geometry":{"type":"Point","coordinates":[-96.95565657089914,28.07397360124417]},"properties":{"substrate":"Firm/Hard Bottom","lease_number":null,"poll_year":2025}},{"type":"Feature","id":"fd38da74-a34a-4e10-858f-1964ea1945bd","geometry":{"type":"Point","coordinates":[-96.95761942123596,28.073449828636736]},"properties":{"substrate":"Buried Shell","lease_number":null,"poll_year":2025}},{"type":"Feature","id":"fde446e9-9fc3-4ca7-83c8-3678304e714e","geometry":{"type":"Point","coordinates":[-96.95116498908862,28.07260063722327]},"properties":{"substrate":"Buried Shell","lease_number":null,"poll_year":2025}},{"type":"Feature","id":"fe0d3b46-ce8b-4a7c-a824-2c01ed7a2e6e","geometry":{"type":"Point","coordinates":[-96.95799202714446,28.07506417130329]},"properties":{"substrate":"Mud","lease_number":null,"poll_year":2025}},{"type":"Feature","id":"fe8c2509-bacc-4ff4-9f1e-b2f09c7ff7e9","geometry":{"type":"Point","coordinates":[-96.95924531171309,28.072292207687813]},"properties":{"substrate":"Mud","lease_number":null,"poll_year":2025}}]}