{"type":"FeatureCollection","features":[{"type":"Feature","id":"074faaa1-272e-4820-9f95-6195c2d72d63","geometry":{"type":"Point","coordinates":[-96.95346890009444,28.104836399957573]},"properties":{"substrate":"Solid Reef","lease_number":null,"poll_year":2025}},{"type":"Feature","id":"1a43e07d-85f8-4bbb-b228-97aac3f87b83","geometry":{"type":"Point","coordinates":[-96.95417220011355,28.105266400301133]},"properties":{"substrate":"Solid Reef","lease_number":null,"poll_year":2025}},{"type":"Feature","id":"1f8ab23b-156a-4ff5-835e-7ec530fc8f84","geometry":{"type":"Point","coordinates":[-96.9544645002289,28.105451099714287]},"properties":{"substrate":"Solid Reef","lease_number":null,"poll_year":2025}},{"type":"Feature","id":"34e137c3-643a-43a7-99ea-b9c9678cbe0c","geometry":{"type":"Point","coordinates":[-96.95461739977846,28.105546499991924]},"properties":{"substrate":"Solid Reef","lease_number":null,"poll_year":2025}},{"type":"Feature","id":"593bcb14-4f8f-4469-bfc9-e75271ce27c0","geometry":{"type":"Point","coordinates":[-96.95426589978756,28.10532870029532]},"properties":{"substrate":"Buried Shell","lease_number":null,"poll_year":2025}},{"type":"Feature","id":"712a763a-6a4e-42fe-83fb-d4124606fd96","geometry":{"type":"Point","coordinates":[-96.95495539988725,28.10575059969304]},"properties":{"substrate":"Solid Reef","lease_number":null,"poll_year":2025}},{"type":"Feature","id":"fc0e3101-e0e4-4a15-8aad-5aa0e735b408","geometry":{"type":"Point","coordinates":[-96.95366820032338,28.1049617999321]},"properties":{"substrate":"Solid Reef","lease_number":null,"poll_year":2025}}]}