{"type":"FeatureCollection","features":[{"type":"Feature","id":"016a9783-210f-48e9-a1f1-cabfb480301e","geometry":{"type":"Point","coordinates":[-96.94238910004138,28.067952899820227]},"properties":{"substrate":"Solid Reef","lease_number":null,"poll_year":2025}},{"type":"Feature","id":"036b9f07-d39a-4072-8d1f-e9b1e46ed464","geometry":{"type":"Point","coordinates":[-96.94153900003349,28.06617869970601]},"properties":{"substrate":"Firm/Hard Bottom","lease_number":null,"poll_year":2025}},{"type":"Feature","id":"0554919c-ed6d-4913-a61b-a9e5892eddb2","geometry":{"type":"Point","coordinates":[-96.94314919963755,28.062528800154357]},"properties":{"substrate":"Firm/Hard Bottom","lease_number":null,"poll_year":2025}},{"type":"Feature","id":"0b8d7805-2eeb-4310-8219-8ca0b21d22b2","geometry":{"type":"Point","coordinates":[-96.9407518000618,28.066970099837388]},"properties":{"substrate":"Scattered Shell","lease_number":null,"poll_year":2025}},{"type":"Feature","id":"110e40fa-86cd-4b81-8c24-2ef0eb29b82d","geometry":{"type":"Point","coordinates":[-96.94280940020325,28.067994200015097]},"properties":{"substrate":"Solid Reef","lease_number":null,"poll_year":2025}},{"type":"Feature","id":"1863d751-c280-44d3-91a7-819031e7222a","geometry":{"type":"Point","coordinates":[-96.94249800010832,28.07000440001609]},"properties":{"substrate":"Firm/Hard Bottom","lease_number":null,"poll_year":2025}},{"type":"Feature","id":"1a4937cb-0746-493a-a366-315bba1aef2e","geometry":{"type":"Point","coordinates":[-96.94295970002838,28.06800550023645]},"properties":{"substrate":"Solid Reef","lease_number":null,"poll_year":2025}},{"type":"Feature","id":"1b97d03f-9461-4609-93cf-d3e8a34589da","geometry":{"type":"Point","coordinates":[-96.94065130014108,28.06707070015069]},"properties":{"substrate":"Solid Reef","lease_number":null,"poll_year":2025}},{"type":"Feature","id":"1d76729c-68d0-46c8-9194-721010b109a0","geometry":{"type":"Point","coordinates":[-96.94147929979634,28.06623900026491]},"properties":{"substrate":"Firm/Hard Bottom","lease_number":null,"poll_year":2025}},{"type":"Feature","id":"1f254a1e-1c1c-4230-8de1-572bb897b6fb","geometry":{"type":"Point","coordinates":[-96.94153849967188,28.070449000135245]},"properties":{"substrate":"Buried Shell","lease_number":null,"poll_year":2025}},{"type":"Feature","id":"2720f839-9686-4bc7-8df0-b7e2f2c30423","geometry":{"type":"Point","coordinates":[-96.9402162999479,28.071061900147317]},"properties":{"substrate":"Buried Shell","lease_number":null,"poll_year":2025}},{"type":"Feature","id":"2d02f4eb-aa14-4756-b3a1-af84faeabf2b","geometry":{"type":"Point","coordinates":[-96.941771999662,28.070340999662548]},"properties":{"substrate":"Buried Shell","lease_number":null,"poll_year":2025}},{"type":"Feature","id":"393ba276-9b1b-47ef-8e78-8f5ee3c811c5","geometry":{"type":"Point","coordinates":[-96.94293449958971,28.065388199783403]},"properties":{"substrate":"Solid Reef","lease_number":null,"poll_year":2025}},{"type":"Feature","id":"3ada7104-34dd-48d1-942a-88234de41ddf","geometry":{"type":"Point","coordinates":[-96.94328809984174,28.062383999879533]},"properties":{"substrate":"Firm/Hard Bottom","lease_number":null,"poll_year":2025}},{"type":"Feature","id":"3cfcebd3-2375-4132-bf50-256b48c7a070","geometry":{"type":"Point","coordinates":[-96.94226760020423,28.067943100107545]},"properties":{"substrate":"Solid Reef","lease_number":null,"poll_year":2025}},{"type":"Feature","id":"3d524b83-9a98-4030-bd30-4ba84a40ceb4","geometry":{"type":"Point","coordinates":[-96.94241709963046,28.065553799958987]},"properties":{"substrate":"Solid Reef","lease_number":null,"poll_year":2025}},{"type":"Feature","id":"40c01455-bc4a-45da-91a7-28973277fb57","geometry":{"type":"Point","coordinates":[-96.94264290016027,28.06993849991334]},"properties":{"substrate":"Solid Reef","lease_number":null,"poll_year":2025}},{"type":"Feature","id":"414b4fc5-d35b-4549-98ff-71e85827b51b","geometry":{"type":"Point","coordinates":[-96.94303260011031,28.062652199614906]},"properties":{"substrate":"Firm/Hard Bottom","lease_number":null,"poll_year":2025}},{"type":"Feature","id":"45daa5aa-cd74-4c8f-942d-11e418630543","geometry":{"type":"Point","coordinates":[-96.94304380030528,28.065398499912344]},"properties":{"substrate":"Solid Reef","lease_number":null,"poll_year":2025}},{"type":"Feature","id":"488c1ada-f79b-498b-9c7d-f8052b314d49","geometry":{"type":"Point","coordinates":[-96.94157539976881,28.06786429969991]},"properties":{"substrate":"Scattered Shell","lease_number":null,"poll_year":2025}},{"type":"Feature","id":"48d8cd62-9c8c-47a8-8135-006a07cae2d2","geometry":{"type":"Point","coordinates":[-96.94270409968564,28.065463800360504]},"properties":{"substrate":"Solid Reef","lease_number":null,"poll_year":2025}},{"type":"Feature","id":"49f8aafc-230a-4b4b-9777-3f6208f8cde5","geometry":{"type":"Point","coordinates":[-96.94308010032759,28.068015899990186]},"properties":{"substrate":"Solid Reef","lease_number":null,"poll_year":2025}},{"type":"Feature","id":"4c324554-381b-479c-a287-5add50f79dfa","geometry":{"type":"Point","coordinates":[-96.94257090019025,28.06796970034476]},"properties":{"substrate":"Solid Reef","lease_number":null,"poll_year":2025}},{"type":"Feature","id":"4d69fcab-c872-417f-9e68-b6e82fed3e14","geometry":{"type":"Point","coordinates":[-96.9408563001805,28.067783899634847]},"properties":{"substrate":"Scattered Shell","lease_number":null,"poll_year":2025}},{"type":"Feature","id":"4fdf14a3-fb27-483e-acff-e3601f370043","geometry":{"type":"Point","coordinates":[-96.94208709991757,28.067924000058294]},"properties":{"substrate":"Solid Reef","lease_number":null,"poll_year":2025}},{"type":"Feature","id":"50bda88c-66d1-4c32-9c58-522b7fd02226","geometry":{"type":"Point","coordinates":[-96.9429341995524,28.062754600235248]},"properties":{"substrate":"Firm/Hard Bottom","lease_number":null,"poll_year":2025}},{"type":"Feature","id":"519ea4a2-ea3b-422b-b7f3-cf81fedf22f5","geometry":{"type":"Point","coordinates":[-96.94228200019825,28.070104100210145]},"properties":{"substrate":"Buried Shell","lease_number":null,"poll_year":2025}},{"type":"Feature","id":"54ef1775-f585-44ac-a5c7-81cf0a27cf31","geometry":{"type":"Point","coordinates":[-96.94124739970574,28.067826800286348]},"properties":{"substrate":"Scattered Shell","lease_number":null,"poll_year":2025}},{"type":"Feature","id":"5880a480-f0b4-46fc-b7f5-0cbcf6de2c6a","geometry":{"type":"Point","coordinates":[-96.9430388002824,28.063554799946854]},"properties":{"substrate":"Firm/Hard Bottom","lease_number":null,"poll_year":2025}},{"type":"Feature","id":"5a6a82f5-79a1-40ef-8cb5-1c9f623c1feb","geometry":{"type":"Point","coordinates":[-96.94162009993735,28.06609670034034]},"properties":{"substrate":"Firm/Hard Bottom","lease_number":null,"poll_year":2025}},{"type":"Feature","id":"5b66a19c-122d-4edf-b514-5da724a9d805","geometry":{"type":"Point","coordinates":[-96.94326679988804,28.065458899994418]},"properties":{"substrate":"Solid Reef","lease_number":null,"poll_year":2025}},{"type":"Feature","id":"5d0df602-08d8-42e5-95b9-c5e0f29f9702","geometry":{"type":"Point","coordinates":[-96.9429412998364,28.069807899660084]},"properties":{"substrate":"Scattered Shell","lease_number":null,"poll_year":2025}},{"type":"Feature","id":"5e266d1b-76c7-4ca5-8f3d-56132700a1ac","geometry":{"type":"Point","coordinates":[-96.9412425002942,28.070583400342926]},"properties":{"substrate":"Buried Shell","lease_number":null,"poll_year":2025}},{"type":"Feature","id":"5f61659a-cfc9-4983-a9d7-eda9f9e119e0","geometry":{"type":"Point","coordinates":[-96.94105209967478,28.066663500276196]},"properties":{"substrate":"Firm/Hard Bottom","lease_number":null,"poll_year":2025}},{"type":"Feature","id":"626ea326-7ae1-4a23-ad52-5683c0d77eb7","geometry":{"type":"Point","coordinates":[-96.94278970014906,28.065433199623758]},"properties":{"substrate":"Solid Reef","lease_number":null,"poll_year":2025}},{"type":"Feature","id":"639694d9-2f6f-408f-a01a-30131d789226","geometry":{"type":"Point","coordinates":[-96.94278039989094,28.06292370028357]},"properties":{"substrate":"Firm/Hard Bottom","lease_number":null,"poll_year":2025}},{"type":"Feature","id":"6d84d8f8-9f33-4880-9f45-364e7c12673a","geometry":{"type":"Point","coordinates":[-96.94170020001629,28.067879900143303]},"properties":{"substrate":"Solid Reef","lease_number":null,"poll_year":2025}},{"type":"Feature","id":"7aae1692-ac13-4b96-a12d-32d9e7717031","geometry":{"type":"Point","coordinates":[-96.94258729983407,28.06549939974566]},"properties":{"substrate":"Solid Reef","lease_number":null,"poll_year":2025}},{"type":"Feature","id":"7b1894b8-d8ec-4b0f-9477-53d95ed7b1d9","geometry":{"type":"Point","coordinates":[-96.94062780021325,28.07087079962479]},"properties":{"substrate":"Buried Shell","lease_number":null,"poll_year":2025}},{"type":"Feature","id":"80dc4ad0-6256-479a-9db1-8e6ada5e0242","geometry":{"type":"Point","coordinates":[-96.94095249986596,28.07072089962115]},"properties":{"substrate":"Buried Shell","lease_number":null,"poll_year":2025}},{"type":"Feature","id":"813c4b79-f38b-4308-a38f-f3f6ea986f1e","geometry":{"type":"Point","coordinates":[-96.9409343997113,28.066783800392887]},"properties":{"substrate":"Solid Reef","lease_number":null,"poll_year":2025}},{"type":"Feature","id":"8155da3a-4819-4928-b3cd-df2f35d9eeb2","geometry":{"type":"Point","coordinates":[-96.94285630034591,28.062837700043797]},"properties":{"substrate":"Firm/Hard Bottom","lease_number":null,"poll_year":2025}},{"type":"Feature","id":"81c7b552-4c3f-421a-9cfe-6c4a4d285e5f","geometry":{"type":"Point","coordinates":[-96.94076629976881,28.067775599630625]},"properties":{"substrate":"Firm/Hard Bottom","lease_number":null,"poll_year":2025}},{"type":"Feature","id":"8584ad1d-2039-4d12-a0fb-d8a3c51d4de1","geometry":{"type":"Point","coordinates":[-96.93958770023458,28.07179469960659]},"properties":{"substrate":"Scattered Shell","lease_number":null,"poll_year":2025}},{"type":"Feature","id":"879505f5-e007-4a33-b07b-f9f9a33f5681","geometry":{"type":"Point","coordinates":[-96.94276599989692,28.069884999992663]},"properties":{"substrate":"Solid Reef","lease_number":null,"poll_year":2025}},{"type":"Feature","id":"97168b1f-21b1-4d95-9ff1-06286859fcf3","geometry":{"type":"Point","coordinates":[-96.94262489971862,28.063246900126952]},"properties":{"substrate":"Firm/Hard Bottom","lease_number":null,"poll_year":2025}},{"type":"Feature","id":"9941d3f8-369f-40bc-912f-b2eb6450fe23","geometry":{"type":"Point","coordinates":[-96.94107049986674,28.070665699867494]},"properties":{"substrate":"Buried Shell","lease_number":null,"poll_year":2025}},{"type":"Feature","id":"a88a6609-2a31-4c2f-bf25-2a0d1273f3db","geometry":{"type":"Point","coordinates":[-96.9399487996226,28.07118710020045]},"properties":{"substrate":"Buried Shell","lease_number":null,"poll_year":2025}},{"type":"Feature","id":"ab84e07f-5a03-4b8d-9a57-1586f66a339f","geometry":{"type":"Point","coordinates":[-96.9423277001917,28.065580900177395]},"properties":{"substrate":"Firm/Hard Bottom","lease_number":null,"poll_year":2025}},{"type":"Feature","id":"ac554c6a-f51d-47fa-a7f9-1da4972fe323","geometry":{"type":"Point","coordinates":[-96.94190379958216,28.06581299961811]},"properties":{"substrate":"Firm/Hard Bottom","lease_number":null,"poll_year":2025}},{"type":"Feature","id":"ac7b8fb5-c22b-45f7-83fb-dc7a4788a050","geometry":{"type":"Point","coordinates":[-96.94145190028186,28.070488400191156]},"properties":{"substrate":"Buried Shell","lease_number":null,"poll_year":2025}},{"type":"Feature","id":"acfb28aa-e3d1-4fb1-aa85-3a94c9f9676d","geometry":{"type":"Point","coordinates":[-96.94136610039244,28.06784420008561]},"properties":{"substrate":"Scattered Shell","lease_number":null,"poll_year":2025}},{"type":"Feature","id":"b0d882fa-db5d-4944-a544-75056790d43c","geometry":{"type":"Point","coordinates":[-96.94125660025088,28.066462500132552]},"properties":{"substrate":"Firm/Hard Bottom","lease_number":null,"poll_year":2025}},{"type":"Feature","id":"b845e0eb-017a-46a9-8d1a-7eaa3bd19713","geometry":{"type":"Point","coordinates":[-96.94191580017606,28.070273199790304]},"properties":{"substrate":"Buried Shell","lease_number":null,"poll_year":2025}},{"type":"Feature","id":"b96a1548-6737-4d9f-89d6-37eef8ae0a98","geometry":{"type":"Point","coordinates":[-96.93980340010735,28.07125639996388]},"properties":{"substrate":"Buried Shell","lease_number":null,"poll_year":2025}},{"type":"Feature","id":"bc88db82-8401-4214-b22c-0f338852b3b8","geometry":{"type":"Point","coordinates":[-96.94117550034704,28.066543200024803]},"properties":{"substrate":"Firm/Hard Bottom","lease_number":null,"poll_year":2025}},{"type":"Feature","id":"c6efeb2c-d4f8-41c7-9be4-398ef93e0c02","geometry":{"type":"Point","coordinates":[-96.9421875998383,28.065630900173392]},"properties":{"substrate":"Firm/Hard Bottom","lease_number":null,"poll_year":2025}},{"type":"Feature","id":"c87e00c2-0bd1-4311-a137-a2327e95ae74","geometry":{"type":"Point","coordinates":[-96.9395545002983,28.07139680023288]},"properties":{"substrate":"Scattered Shell","lease_number":null,"poll_year":2025}},{"type":"Feature","id":"cb21c568-0976-4306-bbf3-46fb5697a524","geometry":{"type":"Point","coordinates":[-96.94271270015616,28.063315999702453]},"properties":{"substrate":"Firm/Hard Bottom","lease_number":null,"poll_year":2025}},{"type":"Feature","id":"cec6b373-57b4-4557-9054-3939e6b154cb","geometry":{"type":"Point","coordinates":[-96.94325860006613,28.069659899745627]},"properties":{"substrate":"Scattered Shell","lease_number":null,"poll_year":2025}},{"type":"Feature","id":"d004ca64-d93b-4386-8291-93c1446ab12a","geometry":{"type":"Point","coordinates":[-96.9403646001232,28.067387600073623]},"properties":{"substrate":"Firm/Hard Bottom","lease_number":null,"poll_year":2025}},{"type":"Feature","id":"d1523b1b-1e7a-4aab-80d4-28b7e574eaf3","geometry":{"type":"Point","coordinates":[-96.94317739955095,28.06365950011176]},"properties":{"substrate":"Solid Reef","lease_number":null,"poll_year":2025}},{"type":"Feature","id":"d2ab7bb3-1884-4ca6-9a82-5e4360c7bc75","geometry":{"type":"Point","coordinates":[-96.94215710023778,28.070157799769078]},"properties":{"substrate":"Buried Shell","lease_number":null,"poll_year":2025}},{"type":"Feature","id":"d913e7de-bc8f-46ee-a300-01de978140e7","geometry":{"type":"Point","coordinates":[-96.94181690015485,28.067889300358566]},"properties":{"substrate":"Solid Reef","lease_number":null,"poll_year":2025}},{"type":"Feature","id":"d9d3e33b-b922-4ef2-85f5-efd209d4f5ff","geometry":{"type":"Point","coordinates":[-96.94180169976192,28.065911899924192]},"properties":{"substrate":"Firm/Hard Bottom","lease_number":null,"poll_year":2025}},{"type":"Feature","id":"dcef44e0-901d-4cae-9cfe-354089b9a63b","geometry":{"type":"Point","coordinates":[-96.94028790016763,28.067720300073134]},"properties":{"substrate":"Firm/Hard Bottom","lease_number":null,"poll_year":2025}},{"type":"Feature","id":"dd67a6f3-9202-4a99-8571-7a2d3b5d162a","geometry":{"type":"Point","coordinates":[-96.94020509975294,28.067602999664842]},"properties":{"substrate":"Firm/Hard Bottom","lease_number":null,"poll_year":2025}},{"type":"Feature","id":"e0eafda4-b5d8-4b3b-ab37-b2ef3646d9fb","geometry":{"type":"Point","coordinates":[-96.94170350042663,28.066016899803305]},"properties":{"substrate":"Firm/Hard Bottom","lease_number":null,"poll_year":2025}},{"type":"Feature","id":"e16fc71b-a26d-4daa-9d1a-c0635688d501","geometry":{"type":"Point","coordinates":[-96.94267019996177,28.063053899870404]},"properties":{"substrate":"Firm/Hard Bottom","lease_number":null,"poll_year":2025}},{"type":"Feature","id":"e6c89a6f-0630-411a-9673-f363e9b5f2ab","geometry":{"type":"Point","coordinates":[-96.94049760019261,28.067741900227624]},"properties":{"substrate":"Firm/Hard Bottom","lease_number":null,"poll_year":2025}},{"type":"Feature","id":"e9582179-ce11-4e31-9f0e-dfe929e1f7ec","geometry":{"type":"Point","coordinates":[-96.94320489967674,28.06246399970513]},"properties":{"substrate":"Firm/Hard Bottom","lease_number":null,"poll_year":2025}},{"type":"Feature","id":"ed11ecec-b8a2-4d83-acb8-a61eeb8777d3","geometry":{"type":"Point","coordinates":[-96.94202790004204,28.065695700298473]},"properties":{"substrate":"Firm/Hard Bottom","lease_number":null,"poll_year":2025}},{"type":"Feature","id":"f19fdf66-77cf-45bd-b0c4-9663836152ea","geometry":{"type":"Point","coordinates":[-96.94311170036434,28.06972570014516]},"properties":{"substrate":"Scattered Shell","lease_number":null,"poll_year":2025}}]}