{"type":"FeatureCollection","features":[{"type":"Feature","id":"50f11c20-0754-42f9-9153-063721f44284","geometry":{"type":"Point","coordinates":[-96.89829488199365,28.120139645746846]},"properties":{"substrate":"Solid Reef","lease_number":null,"poll_year":2023}},{"type":"Feature","id":"847f8781-bb17-425c-a508-9f60c55f0320","geometry":{"type":"Point","coordinates":[-96.8985778243587,28.12051743235939]},"properties":{"substrate":"Solid Reef","lease_number":null,"poll_year":2023}},{"type":"Feature","id":"9a104c05-27ec-4b99-9fd7-bf70f5bf4520","geometry":{"type":"Point","coordinates":[-96.89791337557732,28.120550788778488]},"properties":{"substrate":"Solid Reef","lease_number":null,"poll_year":2023}},{"type":"Feature","id":"ab71258c-cd07-4cf5-87db-b04723bac010","geometry":{"type":"Point","coordinates":[-96.8985778243587,28.12051743235939]},"properties":{"substrate":"Solid Reef","lease_number":null,"poll_year":2023}}]}