{"type":"FeatureCollection","features":[{"type":"Feature","id":"001a2122-6ab2-4d2f-847d-1bb1a382429c","geometry":{"type":"Point","coordinates":[-96.76334540016484,28.377527399754406]},"properties":{"substrate":"Mud","lease_number":null,"poll_year":2025}},{"type":"Feature","id":"0292cee8-38b6-4703-8c09-bb7b16374c78","geometry":{"type":"Point","coordinates":[-96.76201879959429,28.376222100022677]},"properties":{"substrate":"Mud","lease_number":null,"poll_year":2025}},{"type":"Feature","id":"05cb35b4-4a40-4df6-82f8-1e7736b7f321","geometry":{"type":"Point","coordinates":[-96.74848129965369,28.378904300248447]},"properties":{"substrate":"Mud","lease_number":null,"poll_year":2025}},{"type":"Feature","id":"05d7832d-d13e-4f2a-b145-341c96eeadfe","geometry":{"type":"Point","coordinates":[-96.7521704002512,28.378196400186788]},"properties":{"substrate":"Mud","lease_number":null,"poll_year":2025}},{"type":"Feature","id":"06e4b102-b63f-44b9-913a-c0e9c9de06bc","geometry":{"type":"Point","coordinates":[-96.76320569956174,28.37961799994293]},"properties":{"substrate":"Mud","lease_number":null,"poll_year":2025}},{"type":"Feature","id":"06e66ab4-8667-42d5-a3da-0039090d2e0e","geometry":{"type":"Point","coordinates":[-96.76002369973874,28.37662550000497]},"properties":{"substrate":"Scattered Shell","lease_number":null,"poll_year":2025}},{"type":"Feature","id":"0c72c25c-97cd-4552-a7dc-e0411ef1131f","geometry":{"type":"Point","coordinates":[-96.76070819981557,28.37648419965145]},"properties":{"substrate":"Scattered Shell","lease_number":null,"poll_year":2025}},{"type":"Feature","id":"0cc8f0c7-8b8f-489a-9f2f-8ac17c00608f","geometry":{"type":"Point","coordinates":[-96.76263599968664,28.381590899640386]},"properties":{"substrate":"Scattered Shell","lease_number":null,"poll_year":2025}},{"type":"Feature","id":"0cc95b2f-e466-4d2f-b6db-4d77164d1ec3","geometry":{"type":"Point","coordinates":[-96.75417969977644,28.377796700355663]},"properties":{"substrate":"Mud","lease_number":null,"poll_year":2025}},{"type":"Feature","id":"0cf56845-8972-42df-b70f-941a394f8f8f","geometry":{"type":"Point","coordinates":[-96.76224400004948,28.37617240018889]},"properties":{"substrate":"Mud","lease_number":null,"poll_year":2025}},{"type":"Feature","id":"0dce06c8-266c-4b9e-8366-70b6ddec5b99","geometry":{"type":"Point","coordinates":[-96.76331329976647,28.37925460022233]},"properties":{"substrate":"Mud","lease_number":null,"poll_year":2025}},{"type":"Feature","id":"11484c82-e738-44be-b73d-339ce977c96a","geometry":{"type":"Point","coordinates":[-96.75094500028729,28.37843430036226]},"properties":{"substrate":"Solid Reef","lease_number":null,"poll_year":2025}},{"type":"Feature","id":"164ed298-6012-483c-b29a-472931caac26","geometry":{"type":"Point","coordinates":[-96.75778440005973,28.377074299839144]},"properties":{"substrate":"Mud","lease_number":null,"poll_year":2025}},{"type":"Feature","id":"16561943-34eb-4dd5-a04d-ce792fa16bb8","geometry":{"type":"Point","coordinates":[-96.75322890042185,28.377986099847455]},"properties":{"substrate":"Mud","lease_number":null,"poll_year":2025}},{"type":"Feature","id":"174d60a9-480f-4f58-8a24-cad604fbd647","geometry":{"type":"Point","coordinates":[-96.75190479986271,28.378247599973268]},"properties":{"substrate":"Mud","lease_number":null,"poll_year":2025}},{"type":"Feature","id":"192c1a42-3904-4267-832d-5e636c13978b","geometry":{"type":"Point","coordinates":[-96.76275839963569,28.38117580014217]},"properties":{"substrate":"Scattered Shell","lease_number":null,"poll_year":2025}},{"type":"Feature","id":"19f75cbe-c408-436a-96ac-09590b3429b7","geometry":{"type":"Point","coordinates":[-96.7629986998725,28.38031480034633]},"properties":{"substrate":"Mud","lease_number":null,"poll_year":2025}},{"type":"Feature","id":"1ccbb97f-c2d5-43ca-8413-d2e05283d7ad","geometry":{"type":"Point","coordinates":[-96.74907819961727,28.378788600319215]},"properties":{"substrate":"Mud","lease_number":null,"poll_year":2025}},{"type":"Feature","id":"210874dd-d793-4925-9098-2c367ac50744","geometry":{"type":"Point","coordinates":[-96.76296880034658,28.376581099833608]},"properties":{"substrate":"Mud","lease_number":null,"poll_year":2025}},{"type":"Feature","id":"26306b1d-b56f-497c-89ba-89e53de2e889","geometry":{"type":"Point","coordinates":[-96.7625829999832,28.37619239994669]},"properties":{"substrate":"Mud","lease_number":null,"poll_year":2025}},{"type":"Feature","id":"26e8918b-4f3e-4504-85a7-862ac4ffdfdf","geometry":{"type":"Point","coordinates":[-96.76027130327881,28.365107680930368]},"properties":{"substrate":"Solid Reef","lease_number":null,"poll_year":2025}},{"type":"Feature","id":"29f8b223-27ef-4fe1-9336-227375a885c1","geometry":{"type":"Point","coordinates":[-96.74992120023946,28.37863210025373]},"properties":{"substrate":"Mud","lease_number":null,"poll_year":2025}},{"type":"Feature","id":"2a798392-04b7-4570-a972-c6dfaec6d3c5","geometry":{"type":"Point","coordinates":[-96.76112967856709,28.365368377285375]},"properties":{"substrate":"Solid Reef","lease_number":null,"poll_year":2025}},{"type":"Feature","id":"2b356b2b-e3ec-4b06-89b9-b0b5b4e990a1","geometry":{"type":"Point","coordinates":[-96.76136350015409,28.37634999986633]},"properties":{"substrate":"Scattered Shell","lease_number":null,"poll_year":2025}},{"type":"Feature","id":"2d5a438c-1fc6-4ea2-91e3-03b831554be3","geometry":{"type":"Point","coordinates":[-96.75147879989038,28.37833079996877]},"properties":{"substrate":"Mud","lease_number":null,"poll_year":2025}},{"type":"Feature","id":"2dd8a291-0314-4b61-bfb4-b96ba7c976d1","geometry":{"type":"Point","coordinates":[-96.75919850013221,28.37678590036946]},"properties":{"substrate":"Solid Reef","lease_number":null,"poll_year":2025}},{"type":"Feature","id":"2e0ce908-efa7-4223-8a74-926971d1da0d","geometry":{"type":"Point","coordinates":[-96.7605113960048,28.365202258062475]},"properties":{"substrate":"Solid Reef","lease_number":null,"poll_year":2025}},{"type":"Feature","id":"2e4b46ef-af31-402f-ba3f-edc8a6aa0fa2","geometry":{"type":"Point","coordinates":[-96.75533860015479,28.377566300142362]},"properties":{"substrate":"Solid Reef","lease_number":null,"poll_year":2025}},{"type":"Feature","id":"3087ed1f-4f77-400f-93a5-e424367ca011","geometry":{"type":"Point","coordinates":[-96.76044760034827,28.376537900225802]},"properties":{"substrate":"Scattered Shell","lease_number":null,"poll_year":2025}},{"type":"Feature","id":"33fadd0d-ef40-42b3-9fd4-362f60cce791","geometry":{"type":"Point","coordinates":[-96.757492700019,28.377130100133805]},"properties":{"substrate":"Mud","lease_number":null,"poll_year":2025}},{"type":"Feature","id":"34479299-c8c7-401e-83e0-22d632fc5d8a","geometry":{"type":"Point","coordinates":[-96.7464247002355,28.379299299609844]},"properties":{"substrate":"Mud","lease_number":null,"poll_year":2025}},{"type":"Feature","id":"3451586e-2d23-4bc1-ad46-0d6f6aa3b19c","geometry":{"type":"Point","coordinates":[-96.74812770029997,28.378969199768896]},"properties":{"substrate":"Mud","lease_number":null,"poll_year":2025}},{"type":"Feature","id":"3467845c-a6eb-4d52-a7ff-ecf339b76fa6","geometry":{"type":"Point","coordinates":[-96.7631751002482,28.37703290011148]},"properties":{"substrate":"Mud","lease_number":null,"poll_year":2025}},{"type":"Feature","id":"3700f64c-ccde-43f5-841a-3d236b533219","geometry":{"type":"Point","coordinates":[-96.76278410043597,28.381064100245567]},"properties":{"substrate":"Firm/Hard Bottom","lease_number":null,"poll_year":2025}},{"type":"Feature","id":"39ed6e1c-5295-4855-b0f4-8bc864d8f578","geometry":{"type":"Point","coordinates":[-96.75726549991397,28.37717969993202]},"properties":{"substrate":"Mud","lease_number":null,"poll_year":2025}},{"type":"Feature","id":"3cecc7c9-c108-4ded-8f97-722711a3da3e","geometry":{"type":"Point","coordinates":[-96.76348199978356,28.37864180035438]},"properties":{"substrate":"Mud","lease_number":null,"poll_year":2025}},{"type":"Feature","id":"3d52dcc5-073b-4f4e-9eef-d35698959623","geometry":{"type":"Point","coordinates":[-96.74676430024381,28.379230400296752]},"properties":{"substrate":"Mud","lease_number":null,"poll_year":2025}},{"type":"Feature","id":"3fcc67c3-9262-4e77-940b-2e9cb6f37e76","geometry":{"type":"Point","coordinates":[-96.76087349970932,28.376452499994322]},"properties":{"substrate":"Scattered Shell","lease_number":null,"poll_year":2025}},{"type":"Feature","id":"41e10c10-1545-4c47-9190-c8e2574ce31b","geometry":{"type":"Point","coordinates":[-96.75716800036628,28.377198699679646]},"properties":{"substrate":"Scattered Shell","lease_number":null,"poll_year":2025}},{"type":"Feature","id":"42474aba-ea23-433e-8f14-3ccefc0b0236","geometry":{"type":"Point","coordinates":[-96.75609070025338,28.377416800162287]},"properties":{"substrate":"Solid Reef","lease_number":null,"poll_year":2025}},{"type":"Feature","id":"4384cc42-56fd-4f11-9a67-8e00115b8859","geometry":{"type":"Point","coordinates":[-96.76314010008811,28.37983959987171]},"properties":{"substrate":"Mud","lease_number":null,"poll_year":2025}},{"type":"Feature","id":"46f089f9-794d-4412-a666-9eb681d0bf06","geometry":{"type":"Point","coordinates":[-96.76279279972117,28.376362099763224]},"properties":{"substrate":"Mud","lease_number":null,"poll_year":2025}},{"type":"Feature","id":"4a92919b-eb2c-4525-955d-30a6349df6c3","geometry":{"type":"Point","coordinates":[-96.75648269989054,28.377336399733252]},"properties":{"substrate":"Scattered Shell","lease_number":null,"poll_year":2025}},{"type":"Feature","id":"4d1a3be7-cf6b-4d59-ac68-806815042372","geometry":{"type":"Point","coordinates":[-96.75170789993221,28.3782853003251]},"properties":{"substrate":"Mud","lease_number":null,"poll_year":2025}},{"type":"Feature","id":"4ddbc50f-dbe3-43de-92d7-f1363e06aa4d","geometry":{"type":"Point","coordinates":[-96.76172280021659,28.376278499872637]},"properties":{"substrate":"Mud","lease_number":null,"poll_year":2025}},{"type":"Feature","id":"53e6e31c-057b-42b5-aeb8-1a59cb10a76e","geometry":{"type":"Point","coordinates":[-96.75556080023696,28.37752699982756]},"properties":{"substrate":"Solid Reef","lease_number":null,"poll_year":2025}},{"type":"Feature","id":"555c30b6-9308-43dd-94d5-e84478aa79ca","geometry":{"type":"Point","coordinates":[-96.7526972001816,28.378090800351508]},"properties":{"substrate":"Mud","lease_number":null,"poll_year":2025}},{"type":"Feature","id":"558dfd4c-b201-416e-b451-ba95fd27e9fc","geometry":{"type":"Point","coordinates":[-96.7628715999379,28.37646010026205]},"properties":{"substrate":"Mud","lease_number":null,"poll_year":2025}},{"type":"Feature","id":"59617866-2b03-4816-81a1-974827e8164c","geometry":{"type":"Point","coordinates":[-96.7554513000954,28.37754729967021]},"properties":{"substrate":"Solid Reef","lease_number":null,"poll_year":2025}},{"type":"Feature","id":"5c0e920c-932b-4b02-9049-6f49590317e9","geometry":{"type":"Point","coordinates":[-96.762596000402,28.381727100252704]},"properties":{"substrate":"Firm/Hard Bottom","lease_number":null,"poll_year":2025}},{"type":"Feature","id":"5cab5ac8-736d-417c-a9f2-c552935d84b4","geometry":{"type":"Point","coordinates":[-96.76156060040888,28.37631140016645]},"properties":{"substrate":"Mud","lease_number":null,"poll_year":2025}},{"type":"Feature","id":"5d108652-0b29-4b2f-bf06-c04df4b9dfcf","geometry":{"type":"Point","coordinates":[-96.76326939999684,28.379393699697204]},"properties":{"substrate":"Mud","lease_number":null,"poll_year":2025}},{"type":"Feature","id":"622915ed-e682-4ad7-af8e-d652970120a3","geometry":{"type":"Point","coordinates":[-96.7596261997171,28.3767051999099]},"properties":{"substrate":"Solid Reef","lease_number":null,"poll_year":2025}},{"type":"Feature","id":"6354fb71-6f31-4355-92cf-b7c3e1793827","geometry":{"type":"Point","coordinates":[-96.76349319997853,28.37852990019845]},"properties":{"substrate":"Mud","lease_number":null,"poll_year":2025}},{"type":"Feature","id":"6745c784-09a0-4e8f-863a-656962d99945","geometry":{"type":"Point","coordinates":[-96.75967667245965,28.365778765073102]},"properties":{"substrate":"Solid Reef","lease_number":null,"poll_year":2025}},{"type":"Feature","id":"6b114b8d-ac97-4245-8143-51d0a1c3e873","geometry":{"type":"Point","coordinates":[-96.76327599991924,28.377333899790685]},"properties":{"substrate":"Mud","lease_number":null,"poll_year":2025}},{"type":"Feature","id":"6c5636e1-c63d-4199-9396-23550065aa75","geometry":{"type":"Point","coordinates":[-96.76294530041875,28.380511400145224]},"properties":{"substrate":"Mud","lease_number":null,"poll_year":2025}},{"type":"Feature","id":"6c97e50b-2c3b-4a67-98df-6ca1a3594ce1","geometry":{"type":"Point","coordinates":[-96.75460539971148,28.377711599896752]},"properties":{"substrate":"Scattered Shell","lease_number":null,"poll_year":2025}},{"type":"Feature","id":"6f5edf09-cdcb-4f7a-b4f8-b3a7842a0440","geometry":{"type":"Point","coordinates":[-96.76320439969953,28.377113200393268]},"properties":{"substrate":"Mud","lease_number":null,"poll_year":2025}},{"type":"Feature","id":"70bc1ea7-ce18-49ba-802e-98f56ade4c1b","geometry":{"type":"Point","coordinates":[-96.75336149984261,28.377960499894183]},"properties":{"substrate":"Mud","lease_number":null,"poll_year":2025}},{"type":"Feature","id":"734d6043-1605-41b4-bf8b-e7008f726696","geometry":{"type":"Point","coordinates":[-96.76286960028807,28.38078790032582]},"properties":{"substrate":"Firm/Hard Bottom","lease_number":null,"poll_year":2025}},{"type":"Feature","id":"7477f71a-a4bc-4ae0-b73b-11f7ce1ea686","geometry":{"type":"Point","coordinates":[-96.74960829995801,28.37868919987208]},"properties":{"substrate":"Mud","lease_number":null,"poll_year":2025}},{"type":"Feature","id":"75cbddb5-fafc-4b06-864e-08f6736d9069","geometry":{"type":"Point","coordinates":[-96.75868839988297,28.376891800265273]},"properties":{"substrate":"Solid Reef","lease_number":null,"poll_year":2025}},{"type":"Feature","id":"7802bbdc-f20e-45c4-bbe9-e0522096bb4d","geometry":{"type":"Point","coordinates":[-96.75503250012005,28.377624499737166]},"properties":{"substrate":"Solid Reef","lease_number":null,"poll_year":2025}},{"type":"Feature","id":"795709e3-05b1-4009-9fb1-50aee7566cb1","geometry":{"type":"Point","coordinates":[-96.75824000041902,28.376982799938304]},"properties":{"substrate":"Solid Reef","lease_number":null,"poll_year":2025}},{"type":"Feature","id":"7a569f4c-46f5-467b-9cc3-5ade96191463","geometry":{"type":"Point","coordinates":[-96.76281700033493,28.380953099685538]},"properties":{"substrate":"Firm/Hard Bottom","lease_number":null,"poll_year":2025}},{"type":"Feature","id":"7afb280c-6be8-43f8-9381-cfa0407516b3","geometry":{"type":"Point","coordinates":[-96.75115419995066,28.378393700222233]},"properties":{"substrate":"Solid Reef","lease_number":null,"poll_year":2025}},{"type":"Feature","id":"7d0b927b-84c3-464b-bd6d-07efd71d80cc","geometry":{"type":"Point","coordinates":[-96.75292859991056,28.378044800303584]},"properties":{"substrate":"Mud","lease_number":null,"poll_year":2025}},{"type":"Feature","id":"843be4c6-6a48-4308-a3b3-86e300ab04e6","geometry":{"type":"Point","coordinates":[-96.74614969987589,28.37935009973427]},"properties":{"substrate":"Mud","lease_number":null,"poll_year":2025}},{"type":"Feature","id":"8752571a-2def-49e0-8a48-389c720a63ec","geometry":{"type":"Point","coordinates":[-96.75621949980051,28.377388500166653]},"properties":{"substrate":"Solid Reef","lease_number":null,"poll_year":2025}},{"type":"Feature","id":"89afbd8b-0fa1-4ae3-b6e1-36972b713f56","geometry":{"type":"Point","coordinates":[-96.75991106807011,28.366159851520525]},"properties":{"substrate":"Solid Reef","lease_number":null,"poll_year":2025}},{"type":"Feature","id":"89f443db-18ad-4527-8878-3bdc3791d60c","geometry":{"type":"Point","coordinates":[-96.75037899967455,28.378543199615716]},"properties":{"substrate":"Mud","lease_number":null,"poll_year":2025}},{"type":"Feature","id":"8ac53861-9680-4b7b-8ca9-64012d96d6b2","geometry":{"type":"Point","coordinates":[-96.76113380003761,28.376396100236878]},"properties":{"substrate":"Buried Shell","lease_number":null,"poll_year":2025}},{"type":"Feature","id":"8cbba5f4-b706-4d03-8320-5c9e0a65e7be","geometry":{"type":"Point","coordinates":[-96.75137730014474,28.378349100038818]},"properties":{"substrate":"Solid Reef","lease_number":null,"poll_year":2025}},{"type":"Feature","id":"91178534-4c90-44fa-9252-1a078f6ea48b","geometry":{"type":"Point","coordinates":[-96.76350130008744,28.378381100257407]},"properties":{"substrate":"Mud","lease_number":null,"poll_year":2025}},{"type":"Feature","id":"92c3b561-091d-4d94-99fb-3b512d057a04","geometry":{"type":"Point","coordinates":[-96.75596120002035,28.37744300013755]},"properties":{"substrate":"Solid Reef","lease_number":null,"poll_year":2025}},{"type":"Feature","id":"949eca56-8c9e-4864-b247-eb6d7d744611","geometry":{"type":"Point","coordinates":[-96.75476920031703,28.37767879962365]},"properties":{"substrate":"Scattered Shell","lease_number":null,"poll_year":2025}},{"type":"Feature","id":"959d856b-6935-4cd6-9364-8cf81a850c7c","geometry":{"type":"Point","coordinates":[-96.76350429956219,28.378267699715966]},"properties":{"substrate":"Mud","lease_number":null,"poll_year":2025}},{"type":"Feature","id":"9743431c-36c1-4e14-9e29-85e74d6fad22","geometry":{"type":"Point","coordinates":[-96.76348849999296,28.37815469976818]},"properties":{"substrate":"Mud","lease_number":null,"poll_year":2025}},{"type":"Feature","id":"99395624-98cf-42b7-9414-eb8b26dc019d","geometry":{"type":"Point","coordinates":[-96.74795659998445,28.379006600318437]},"properties":{"substrate":"Mud","lease_number":null,"poll_year":2025}},{"type":"Feature","id":"9f9a9d10-144f-42f3-a338-631f8a5c5da3","geometry":{"type":"Point","coordinates":[-96.76267000002184,28.381479899631753]},"properties":{"substrate":"Scattered Shell","lease_number":null,"poll_year":2025}},{"type":"Feature","id":"a0486ae5-7c8a-4e56-85bb-b7f052938620","geometry":{"type":"Point","coordinates":[-96.74628809971844,28.37932390023011]},"properties":{"substrate":"Mud","lease_number":null,"poll_year":2025}},{"type":"Feature","id":"a0ea9625-99a3-4d0e-b7d5-266981321547","geometry":{"type":"Point","coordinates":[-96.76344569976123,28.378776200362342]},"properties":{"substrate":"Mud","lease_number":null,"poll_year":2025}},{"type":"Feature","id":"a12a1a7b-91cc-4789-854c-c3b2c326daa9","geometry":{"type":"Point","coordinates":[-96.76291489963292,28.380621199841325]},"properties":{"substrate":"Firm/Hard Bottom","lease_number":null,"poll_year":2025}},{"type":"Feature","id":"a174c923-5350-4f9d-bb04-ade8fc0ca8d6","geometry":{"type":"Point","coordinates":[-96.75811010043566,28.37700820016315]},"properties":{"substrate":"Scattered Shell","lease_number":null,"poll_year":2025}},{"type":"Feature","id":"a2031cf0-484d-4904-8c53-f7e32d86a745","geometry":{"type":"Point","coordinates":[-96.76147920046773,28.366575273790925]},"properties":{"substrate":"Solid Reef","lease_number":null,"poll_year":2025}},{"type":"Feature","id":"a4dc8642-c57b-464e-aa74-afaf2136657e","geometry":{"type":"Point","coordinates":[-96.75972353127982,28.36599358097873]},"properties":{"substrate":"Solid Reef","lease_number":null,"poll_year":2025}},{"type":"Feature","id":"a5ce9fd1-75a2-4f29-b391-fb9c4696fd02","geometry":{"type":"Point","coordinates":[-96.76057869958252,28.37651139968378]},"properties":{"substrate":"Scattered Shell","lease_number":null,"poll_year":2025}},{"type":"Feature","id":"aa72ba07-95f8-44c3-9f3c-30b4cbf448db","geometry":{"type":"Point","coordinates":[-96.75700479983537,28.377231500101246]},"properties":{"substrate":"Scattered Shell","lease_number":null,"poll_year":2025}},{"type":"Feature","id":"aae817bf-7151-4576-b800-973a6cff430d","geometry":{"type":"Point","coordinates":[-96.746968000421,28.37919270028087]},"properties":{"substrate":"Mud","lease_number":null,"poll_year":2025}},{"type":"Feature","id":"aaee610c-d0dc-4839-9cd2-561f04bdf176","geometry":{"type":"Point","coordinates":[-96.75398300017025,28.37783579981733]},"properties":{"substrate":"Mud","lease_number":null,"poll_year":2025}},{"type":"Feature","id":"aec04024-4b0a-492e-b8a5-96aa725ed98f","geometry":{"type":"Point","coordinates":[-96.7627173996278,28.37627349993759]},"properties":{"substrate":"Mud","lease_number":null,"poll_year":2025}},{"type":"Feature","id":"afea503e-14a2-4442-baff-cb306af27a52","geometry":{"type":"Point","coordinates":[-96.75051840024032,28.378519000318192]},"properties":{"substrate":"Mud","lease_number":null,"poll_year":2025}},{"type":"Feature","id":"b0303348-3ef3-43d1-ac6b-57dc123d9c26","geometry":{"type":"Point","coordinates":[-96.75798049959131,28.37703569961246]},"properties":{"substrate":"Mud","lease_number":null,"poll_year":2025}},{"type":"Feature","id":"b1cd4faf-ee0e-41fc-ab9e-bf3c348a0c4b","geometry":{"type":"Point","coordinates":[-96.75677509971891,28.377276400305277]},"properties":{"substrate":"Scattered Shell","lease_number":null,"poll_year":2025}},{"type":"Feature","id":"b4b5dabe-45bb-460e-b505-43e09ea814ed","geometry":{"type":"Point","coordinates":[-96.76021660036957,28.376585299893357]},"properties":{"substrate":"Scattered Shell","lease_number":null,"poll_year":2025}},{"type":"Feature","id":"b79d6a36-a853-4693-9be9-03f5b5bf7c5f","geometry":{"type":"Point","coordinates":[-96.76142516051517,28.366887005815855]},"properties":{"substrate":"Mud","lease_number":null,"poll_year":2025}},{"type":"Feature","id":"bc99883f-f7be-4a7c-a76d-c13fbb6617a9","geometry":{"type":"Point","coordinates":[-96.7597597001481,28.376676800137098]},"properties":{"substrate":"Solid Reef","lease_number":null,"poll_year":2025}},{"type":"Feature","id":"bcc5dafa-2084-45f0-b248-98c17d96d0f2","geometry":{"type":"Point","coordinates":[-96.7543110999463,28.377769400276275]},"properties":{"substrate":"Scattered Shell","lease_number":null,"poll_year":2025}},{"type":"Feature","id":"bf64cda4-8b4e-4a91-a6f2-dad935951663","geometry":{"type":"Point","coordinates":[-96.75579729970181,28.3774747998756]},"properties":{"substrate":"Solid Reef","lease_number":null,"poll_year":2025}},{"type":"Feature","id":"c03d02c7-a334-455f-b02d-0ae7da8e47d5","geometry":{"type":"Point","coordinates":[-96.76125761752817,28.365697208079695]},"properties":{"substrate":"Solid Reef","lease_number":null,"poll_year":2025}},{"type":"Feature","id":"c1b82fc3-76c6-4a4e-a34e-e95b952b8426","geometry":{"type":"Point","coordinates":[-96.74723589959831,28.37914269992257]},"properties":{"substrate":"Mud","lease_number":null,"poll_year":2025}},{"type":"Feature","id":"c2f8fdf1-45b2-4bcf-aee7-0bc0e4470b44","geometry":{"type":"Point","coordinates":[-96.76346639964034,28.378009199867897]},"properties":{"substrate":"Mud","lease_number":null,"poll_year":2025}},{"type":"Feature","id":"c501873a-0eb3-4bab-8f95-a74e38ec0b64","geometry":{"type":"Point","coordinates":[-96.76341990014627,28.378861299967053]},"properties":{"substrate":"Mud","lease_number":null,"poll_year":2025}},{"type":"Feature","id":"c50f964d-840a-47a2-bf12-d19f7faf165a","geometry":{"type":"Point","coordinates":[-96.76297929985563,28.380399099674804]},"properties":{"substrate":"Mud","lease_number":null,"poll_year":2025}},{"type":"Feature","id":"c64c4f1e-6883-429b-ba2a-2f6984b28c72","geometry":{"type":"Point","coordinates":[-96.75907320042145,28.37680990009763]},"properties":{"substrate":"Solid Reef","lease_number":null,"poll_year":2025}},{"type":"Feature","id":"c81a3031-01dc-445e-a680-d92956315d0a","geometry":{"type":"Point","coordinates":[-96.75567410025215,28.377501100213443]},"properties":{"substrate":"Solid Reef","lease_number":null,"poll_year":2025}},{"type":"Feature","id":"c89b3e4c-ddca-442a-83d3-447460ec9414","geometry":{"type":"Point","coordinates":[-96.75243390037855,28.378146699697357]},"properties":{"substrate":"Mud","lease_number":null,"poll_year":2025}},{"type":"Feature","id":"cca94d5f-fb4f-452a-88b5-cc9044125db6","geometry":{"type":"Point","coordinates":[-96.74775020036981,28.379043299807304]},"properties":{"substrate":"Mud","lease_number":null,"poll_year":2025}},{"type":"Feature","id":"cdc9d056-071a-4126-a0fd-ac1f11b4dc35","geometry":{"type":"Point","coordinates":[-96.7624421001292,28.37614020012829]},"properties":{"substrate":"Mud","lease_number":null,"poll_year":2025}},{"type":"Feature","id":"ce985426-ecdf-464d-9d58-7b804a06ee9e","geometry":{"type":"Point","coordinates":[-96.76337029966788,28.37903060033449]},"properties":{"substrate":"Mud","lease_number":null,"poll_year":2025}},{"type":"Feature","id":"d267ff27-76d9-4db8-9265-0f7adedd1577","geometry":{"type":"Point","coordinates":[-96.7549033996373,28.377652900046602]},"properties":{"substrate":"Solid Reef","lease_number":null,"poll_year":2025}},{"type":"Feature","id":"d29e07bf-ee3d-47ea-975e-6c8917de54ff","geometry":{"type":"Point","coordinates":[-96.76139502742728,28.366166957701445]},"properties":{"substrate":"Solid Reef","lease_number":null,"poll_year":2025}},{"type":"Feature","id":"d3800012-ee3b-46a3-81ae-df69bfb262d4","geometry":{"type":"Point","coordinates":[-96.75855789982504,28.376917100134445]},"properties":{"substrate":"Solid Reef","lease_number":null,"poll_year":2025}},{"type":"Feature","id":"d444e37b-0874-4f5e-aa3d-ae2faf1692f1","geometry":{"type":"Point","coordinates":[-96.76313880022589,28.37692199966167]},"properties":{"substrate":"Mud","lease_number":null,"poll_year":2025}},{"type":"Feature","id":"d657d997-2611-4e03-987d-ad89c6efdaac","geometry":{"type":"Point","coordinates":[-96.76073409105868,28.36525240490295]},"properties":{"substrate":"Solid Reef","lease_number":null,"poll_year":2025}},{"type":"Feature","id":"d6ecffbf-f522-4e2a-adf7-0927ab7698a7","geometry":{"type":"Point","coordinates":[-96.74601389975774,28.379376899902145]},"properties":{"substrate":"Mud","lease_number":null,"poll_year":2025}},{"type":"Feature","id":"d91bf7f7-7c28-41f7-9fd9-ec6b6f133e78","geometry":{"type":"Point","coordinates":[-96.76338850043383,28.37763930017767]},"properties":{"substrate":"Mud","lease_number":null,"poll_year":2025}},{"type":"Feature","id":"d9c53808-0e7e-4e8b-8475-353aa7d259e0","geometry":{"type":"Point","coordinates":[-96.76303460014451,28.380204199709166]},"properties":{"substrate":"Mud","lease_number":null,"poll_year":2025}},{"type":"Feature","id":"d9cb190a-5feb-4108-91e8-ca4ec3dedbb2","geometry":{"type":"Point","coordinates":[-96.75940980005673,28.376745200011175]},"properties":{"substrate":"Solid Reef","lease_number":null,"poll_year":2025}},{"type":"Feature","id":"da538407-dd79-4546-8e61-e4701e67da2c","geometry":{"type":"Point","coordinates":[-96.75989050024336,28.376651999728125]},"properties":{"substrate":"Solid Reef","lease_number":null,"poll_year":2025}},{"type":"Feature","id":"de3cf195-4244-4b7e-9d80-3d6fcff68d59","geometry":{"type":"Point","coordinates":[-96.75664530034686,28.377306300041585]},"properties":{"substrate":"Scattered Shell","lease_number":null,"poll_year":2025}},{"type":"Feature","id":"df124636-ae1e-4e58-84ea-fb6f6a05201a","geometry":{"type":"Point","coordinates":[-96.76309949983053,28.376812200087763]},"properties":{"substrate":"Mud","lease_number":null,"poll_year":2025}},{"type":"Feature","id":"e03e760f-b216-4f70-9f69-074c01a407d4","geometry":{"type":"Point","coordinates":[-96.76307039980523,28.38009169974518]},"properties":{"substrate":"Mud","lease_number":null,"poll_year":2025}},{"type":"Feature","id":"e0deac06-ec15-402f-b3b5-7122c8c96a7c","geometry":{"type":"Point","coordinates":[-96.75843149967803,28.376943100268612]},"properties":{"substrate":"Solid Reef","lease_number":null,"poll_year":2025}},{"type":"Feature","id":"e1b7e5dd-c5eb-4172-a32b-7d87d500d789","geometry":{"type":"Point","coordinates":[-96.76343390039,28.377777299998872]},"properties":{"substrate":"Mud","lease_number":null,"poll_year":2025}},{"type":"Feature","id":"e4d6205f-daeb-4782-a4b6-9906aad86af8","geometry":{"type":"Point","coordinates":[-96.75891770024914,28.376844199979654]},"properties":{"substrate":"Solid Reef","lease_number":null,"poll_year":2025}},{"type":"Feature","id":"e5c7d428-1be8-45a4-8c1d-86bab559dec1","geometry":{"type":"Point","coordinates":[-96.75690740000067,28.377252500269435]},"properties":{"substrate":"Scattered Shell","lease_number":null,"poll_year":2025}},{"type":"Feature","id":"e688733a-95c8-4e69-99dc-2938ac583635","geometry":{"type":"Point","coordinates":[-96.75365530014449,28.377899700177988]},"properties":{"substrate":"Mud","lease_number":null,"poll_year":2025}},{"type":"Feature","id":"e79bdcc8-5cfc-4fa6-83e0-3a7ddd2387ef","geometry":{"type":"Point","coordinates":[-96.7597082491402,28.36551424469631]},"properties":{"substrate":"Solid Reef","lease_number":null,"poll_year":2025}},{"type":"Feature","id":"e8157851-eb17-4c67-abd8-78ce0577ede2","geometry":{"type":"Point","coordinates":[-96.76100239986773,28.37642370022284]},"properties":{"substrate":"Scattered Shell","lease_number":null,"poll_year":2025}},{"type":"Feature","id":"e8158650-4741-4cf3-b8eb-9a8ecaa253c5","geometry":{"type":"Point","coordinates":[-96.76305169957594,28.37670539987488]},"properties":{"substrate":"Mud","lease_number":null,"poll_year":2025}},{"type":"Feature","id":"ea6611f6-e200-4f2b-b3cf-d8ff4911a29a","geometry":{"type":"Point","coordinates":[-96.76270630004416,28.381342000259497]},"properties":{"substrate":"Firm/Hard Bottom","lease_number":null,"poll_year":2025}},{"type":"Feature","id":"ed025dba-3e5c-4b46-b786-3dfc1e9cad2f","geometry":{"type":"Point","coordinates":[-96.76031680025302,28.376565900105355]},"properties":{"substrate":"Scattered Shell","lease_number":null,"poll_year":2025}},{"type":"Feature","id":"ef9abd91-34fc-4c6a-89f2-ed6be2cd5926","geometry":{"type":"Point","coordinates":[-96.7576554999013,28.37709790036397]},"properties":{"substrate":"Mud","lease_number":null,"poll_year":2025}},{"type":"Feature","id":"f2c7c853-a91a-479f-95ef-bab213a46269","geometry":{"type":"Point","coordinates":[-96.76345139957174,28.377892899864385]},"properties":{"substrate":"Mud","lease_number":null,"poll_year":2025}},{"type":"Feature","id":"f751b288-f85c-4fc2-89f3-eef24d8f5c5c","geometry":{"type":"Point","coordinates":[-96.75635240015691,28.377363499960353]},"properties":{"substrate":"Scattered Shell","lease_number":null,"poll_year":2025}},{"type":"Feature","id":"f8a733f6-f38f-4409-8dc5-9ca746bf09c5","geometry":{"type":"Point","coordinates":[-96.75518879979298,28.37759329993393]},"properties":{"substrate":"Solid Reef","lease_number":null,"poll_year":2025}},{"type":"Feature","id":"f9009b99-92a4-4e92-ac74-fddc8384bc82","geometry":{"type":"Point","coordinates":[-96.75447410015292,28.377738199725247]},"properties":{"substrate":"Scattered Shell","lease_number":null,"poll_year":2025}},{"type":"Feature","id":"fe58c7f9-26fc-48dc-9120-9acbc5f469c2","geometry":{"type":"Point","coordinates":[-96.76324249994568,28.377223600337967]},"properties":{"substrate":"Mud","lease_number":null,"poll_year":2025}},{"type":"Feature","id":"ff61565e-bb0a-4afe-85df-df28dad52281","geometry":{"type":"Point","coordinates":[-96.76333399964557,28.379170899865155]},"properties":{"substrate":"Mud","lease_number":null,"poll_year":2025}}]}