{"type":"FeatureCollection","features":[{"type":"Feature","id":"017dfaa9-df66-4af0-ab05-352102fa8605","geometry":{"type":"Point","coordinates":[-96.76195429965856,28.383945700386995]},"properties":{"substrate":"Scattered Shell","lease_number":null,"poll_year":2025}},{"type":"Feature","id":"042bf7e7-5cf5-413e-9609-65e3b76b4ac2","geometry":{"type":"Point","coordinates":[-96.76222330017039,28.38301880023209]},"properties":{"substrate":"Scattered Shell","lease_number":null,"poll_year":2025}},{"type":"Feature","id":"0c54b655-3ee3-46e0-822d-1c5801f63288","geometry":{"type":"Point","coordinates":[-96.76105270013377,28.386980800313232]},"properties":{"substrate":"Buried Shell","lease_number":null,"poll_year":2025}},{"type":"Feature","id":"1f1c706a-85cf-4684-a91a-807a1c1d4ff2","geometry":{"type":"Point","coordinates":[-96.76204550021947,28.38363169967965]},"properties":{"substrate":"Firm/Hard Bottom","lease_number":null,"poll_year":2025}},{"type":"Feature","id":"312b12ed-864c-4202-bb9b-5903de9df0a5","geometry":{"type":"Point","coordinates":[-96.76137500038635,28.38590980011623]},"properties":{"substrate":"Solid Reef","lease_number":null,"poll_year":2025}},{"type":"Feature","id":"34ef6536-10a7-4c22-8d1d-438fc3be8ac5","geometry":{"type":"Point","coordinates":[-96.76161899988551,28.385070799978987]},"properties":{"substrate":"Solid Reef","lease_number":null,"poll_year":2025}},{"type":"Feature","id":"377ae36c-ad97-4b31-ab06-6a497e8a7ad8","geometry":{"type":"Point","coordinates":[-96.76120079998476,28.38646439962797]},"properties":{"substrate":"Scattered Shell","lease_number":null,"poll_year":2025}},{"type":"Feature","id":"3db48b1e-4a63-4be9-91b7-77cb3ce48111","geometry":{"type":"Point","coordinates":[-96.7623799995936,28.382468799820625]},"properties":{"substrate":"Scattered Shell","lease_number":null,"poll_year":2025}},{"type":"Feature","id":"43bb616a-a258-43c8-891f-ce839cde413a","geometry":{"type":"Point","coordinates":[-96.76200330006236,28.38377719976938]},"properties":{"substrate":"Scattered Shell","lease_number":null,"poll_year":2025}},{"type":"Feature","id":"43cffb5b-7eaa-41fa-b787-ddecbaa09340","geometry":{"type":"Point","coordinates":[-96.76211519960405,28.383376699822996]},"properties":{"substrate":"Firm/Hard Bottom","lease_number":null,"poll_year":2025}},{"type":"Feature","id":"48a1143c-6986-4e2a-bb22-e328edae6211","geometry":{"type":"Point","coordinates":[-96.76254280037423,28.38192219974569]},"properties":{"substrate":"Scattered Shell","lease_number":null,"poll_year":2025}},{"type":"Feature","id":"4d6eb55d-9f9d-44c4-aa7f-e3e80c6223f6","geometry":{"type":"Point","coordinates":[-96.76140290026245,28.385822299681507]},"properties":{"substrate":"Solid Reef","lease_number":null,"poll_year":2025}},{"type":"Feature","id":"5e862502-a29f-40ba-916e-ad582c6e12da","geometry":{"type":"Point","coordinates":[-96.76156410024524,28.385274600182683]},"properties":{"substrate":"Solid Reef","lease_number":null,"poll_year":2025}},{"type":"Feature","id":"5fedf618-60d5-4ec5-b8bd-428fabb7471e","geometry":{"type":"Point","coordinates":[-96.76125300018761,28.38630290036365]},"properties":{"substrate":"Scattered Shell","lease_number":null,"poll_year":2025}},{"type":"Feature","id":"60a0e03b-894f-46b6-9661-278f9dbbcfdd","geometry":{"type":"Point","coordinates":[-96.76191120028786,28.38409559975922]},"properties":{"substrate":"Scattered Shell","lease_number":null,"poll_year":2025}},{"type":"Feature","id":"6a82490e-5075-41d2-a50b-a4d489212b6e","geometry":{"type":"Point","coordinates":[-96.76183300014576,28.384361900230296]},"properties":{"substrate":"Firm/Hard Bottom","lease_number":null,"poll_year":2025}},{"type":"Feature","id":"7390fb98-344c-449b-9a3e-d36382a92367","geometry":{"type":"Point","coordinates":[-96.76230000012599,28.382744699778932]},"properties":{"substrate":"Scattered Shell","lease_number":null,"poll_year":2025}},{"type":"Feature","id":"759e29c3-cf0e-4045-9e7c-134d9a429df1","geometry":{"type":"Point","coordinates":[-96.76234959970608,28.38257859986109]},"properties":{"substrate":"Firm/Hard Bottom","lease_number":null,"poll_year":2025}},{"type":"Feature","id":"7baaa0a3-1153-424a-81c6-77231caeb76f","geometry":{"type":"Point","coordinates":[-96.76151699977824,28.38545510007206]},"properties":{"substrate":"Solid Reef","lease_number":null,"poll_year":2025}},{"type":"Feature","id":"80b29e34-05c2-4c74-a0c1-15be3d2fe79d","geometry":{"type":"Point","coordinates":[-96.76214919993923,28.383266499913386]},"properties":{"substrate":"Scattered Shell","lease_number":null,"poll_year":2025}},{"type":"Feature","id":"80db22bc-0402-4a46-9685-b850b1979a41","geometry":{"type":"Point","coordinates":[-96.76149370017474,28.385521900229932]},"properties":{"substrate":"Solid Reef","lease_number":null,"poll_year":2025}},{"type":"Feature","id":"811cb973-2948-4d56-960b-5a45d4250d6c","geometry":{"type":"Point","coordinates":[-96.7624981999187,28.382057899650107]},"properties":{"substrate":"Scattered Shell","lease_number":null,"poll_year":2025}},{"type":"Feature","id":"81bccafb-1127-48d4-a12b-1d79e3be45a3","geometry":{"type":"Point","coordinates":[-96.76110699969944,28.3867914002894]},"properties":{"substrate":"Buried Shell","lease_number":null,"poll_year":2025}},{"type":"Feature","id":"8f3274ac-7ae5-4fd6-a3b1-40db169cf8cf","geometry":{"type":"Point","coordinates":[-96.76100410037857,28.387143099906744]},"properties":{"substrate":"Buried Shell","lease_number":null,"poll_year":2025}},{"type":"Feature","id":"91bd99dd-1eae-4bf3-afbc-a41530e7ea6f","geometry":{"type":"Point","coordinates":[-96.76145279987985,28.38567119990063]},"properties":{"substrate":"Solid Reef","lease_number":null,"poll_year":2025}},{"type":"Feature","id":"9269c3f6-24a8-44c0-88ca-a9e8282118a6","geometry":{"type":"Point","coordinates":[-96.76147499994545,28.3855959000623]},"properties":{"substrate":"Solid Reef","lease_number":null,"poll_year":2025}},{"type":"Feature","id":"9582a33b-9781-4565-999d-053a66ad4895","geometry":{"type":"Point","coordinates":[-96.76225469988283,28.382909799670216]},"properties":{"substrate":"Scattered Shell","lease_number":null,"poll_year":2025}},{"type":"Feature","id":"9c4a1024-f28a-40a3-aef6-5ab3e2e0fc99","geometry":{"type":"Point","coordinates":[-96.76246289972129,28.38219629995383]},"properties":{"substrate":"Scattered Shell","lease_number":null,"poll_year":2025}},{"type":"Feature","id":"a001ce7b-36ca-4849-b5ec-f28f63c577d5","geometry":{"type":"Point","coordinates":[-96.76134780029787,28.386009000170425]},"properties":{"substrate":"Solid Reef","lease_number":null,"poll_year":2025}},{"type":"Feature","id":"b09c7c03-f152-4cb5-82d5-cd47a06d266a","geometry":{"type":"Point","coordinates":[-96.76186699958261,28.384245999981914]},"properties":{"substrate":"Scattered Shell","lease_number":null,"poll_year":2025}},{"type":"Feature","id":"c29a4b17-b15e-4f89-a703-599c6e43e540","geometry":{"type":"Point","coordinates":[-96.76129590013232,28.386175599719532]},"properties":{"substrate":"Mud","lease_number":null,"poll_year":2025}},{"type":"Feature","id":"c43bedce-3aea-42b7-8748-5c67ea2d1b86","geometry":{"type":"Point","coordinates":[-96.76132460040733,28.386074199610537]},"properties":{"substrate":"Scattered Shell","lease_number":null,"poll_year":2025}},{"type":"Feature","id":"cac060da-3190-4813-9fb1-de55eec8120c","geometry":{"type":"Point","coordinates":[-96.76142629957897,28.385741700144774]},"properties":{"substrate":"Solid Reef","lease_number":null,"poll_year":2025}},{"type":"Feature","id":"cafc7a6d-eebc-490b-b94e-e52d944c6d9c","geometry":{"type":"Point","coordinates":[-96.76218130033759,28.383157599977682]},"properties":{"substrate":"Scattered Shell","lease_number":null,"poll_year":2025}},{"type":"Feature","id":"cfffab9d-80f7-4a02-8b15-342b28a705de","geometry":{"type":"Point","coordinates":[-96.76176010006381,28.3846120001266]},"properties":{"substrate":"Scattered Shell","lease_number":null,"poll_year":2025}},{"type":"Feature","id":"d1a867bd-6aaf-4ce0-a399-6c3a1f15ac7c","geometry":{"type":"Point","coordinates":[-96.76168859955709,28.384843300217632]},"properties":{"substrate":"Scattered Shell","lease_number":null,"poll_year":2025}},{"type":"Feature","id":"d8145a33-83a4-406e-9c83-a81c808925dc","geometry":{"type":"Point","coordinates":[-96.76113569997443,28.386682199707952]},"properties":{"substrate":"Scattered Shell","lease_number":null,"poll_year":2025}},{"type":"Feature","id":"dfd346ea-868e-4a8f-b451-fa44a5b75b1e","geometry":{"type":"Point","coordinates":[-96.76158600027354,28.385196399617218]},"properties":{"substrate":"Solid Reef","lease_number":null,"poll_year":2025}},{"type":"Feature","id":"fa77f1be-0fb7-40ea-944f-a3e08c15abbb","geometry":{"type":"Point","coordinates":[-96.7624126003536,28.38236040013704]},"properties":{"substrate":"Scattered Shell","lease_number":null,"poll_year":2025}},{"type":"Feature","id":"fffadea4-acfa-4eab-8fcd-a44ff58feff5","geometry":{"type":"Point","coordinates":[-96.76152989958574,28.385385699749893]},"properties":{"substrate":"Solid Reef","lease_number":null,"poll_year":2025}}]}