{"type":"FeatureCollection","features":[{"type":"Feature","id":"00dc448d-04fb-46b8-b073-e356186d1026","geometry":{"type":"Point","coordinates":[-96.73845909965932,28.380378899961812]},"properties":{"substrate":"Scattered Shell","lease_number":null,"poll_year":2025}},{"type":"Feature","id":"00e50ecd-7632-4048-8a69-9167d2a853fa","geometry":{"type":"Point","coordinates":[-96.73825929996711,28.37299970038098]},"properties":{"substrate":"Mud","lease_number":null,"poll_year":2025}},{"type":"Feature","id":"01093747-d12e-4bbc-be8a-c7a0adb8966a","geometry":{"type":"Point","coordinates":[-96.73680979998421,28.37334509961255]},"properties":{"substrate":"Solid Reef","lease_number":null,"poll_year":2025}},{"type":"Feature","id":"03d86758-44c0-4a19-ba25-ebc610c82ba8","geometry":{"type":"Point","coordinates":[-96.7375972999932,28.380283100253397]},"properties":{"substrate":"Scattered Shell","lease_number":null,"poll_year":2025}},{"type":"Feature","id":"056eac11-9fc5-44d0-a066-fc0845c5be2b","geometry":{"type":"Point","coordinates":[-96.73759280033195,28.373065000296297]},"properties":{"substrate":"Buried Shell","lease_number":null,"poll_year":2025}},{"type":"Feature","id":"09229f74-44b8-4199-9273-e1f9ab3fe2b6","geometry":{"type":"Point","coordinates":[-96.73735970009213,28.380100199960903]},"properties":{"substrate":"Mud","lease_number":null,"poll_year":2025}},{"type":"Feature","id":"09eb6066-549e-465a-94b2-c77a33841d83","geometry":{"type":"Point","coordinates":[-96.74060749971305,28.380337600317585]},"properties":{"substrate":"Solid Reef","lease_number":null,"poll_year":2025}},{"type":"Feature","id":"0a751f36-efce-4efa-ac20-2d9fefaea465","geometry":{"type":"Point","coordinates":[-96.73767909968464,28.377398100004037]},"properties":{"substrate":"Solid Reef","lease_number":null,"poll_year":2025}},{"type":"Feature","id":"1128a103-4797-4905-8b1b-490ba52f2eb3","geometry":{"type":"Point","coordinates":[-96.73801489981933,28.37551150028563]},"properties":{"substrate":"Scattered Shell","lease_number":null,"poll_year":2025}},{"type":"Feature","id":"11e44e5f-d35d-4b9f-88a9-7518acc9f207","geometry":{"type":"Point","coordinates":[-96.74007449961057,28.380361499658203]},"properties":{"substrate":"Mud","lease_number":null,"poll_year":2025}},{"type":"Feature","id":"1824750f-980f-41a5-80aa-b97b95f5249b","geometry":{"type":"Point","coordinates":[-96.7378004000958,28.376724100155258]},"properties":{"substrate":"Mud","lease_number":null,"poll_year":2025}},{"type":"Feature","id":"19ffb065-bff7-4184-83b8-2689dd7e8389","geometry":{"type":"Point","coordinates":[-96.73708110018318,28.373252500208554]},"properties":{"substrate":"Solid Reef","lease_number":null,"poll_year":2025}},{"type":"Feature","id":"1c6f7bc4-39bc-4c4c-9b57-467a3cd0a256","geometry":{"type":"Point","coordinates":[-96.73802239985363,28.380372499723293]},"properties":{"substrate":"Scattered Shell","lease_number":null,"poll_year":2025}},{"type":"Feature","id":"1e01a130-fd94-4b9f-8029-3fcf4c8208c0","geometry":{"type":"Point","coordinates":[-96.73826200030284,28.373883199706096]},"properties":{"substrate":"Mud","lease_number":null,"poll_year":2025}},{"type":"Feature","id":"1e386139-0159-4056-8c1b-8e890cbf3c7b","geometry":{"type":"Point","coordinates":[-96.73791889955987,28.372949700264943]},"properties":{"substrate":"Mud","lease_number":null,"poll_year":2025}},{"type":"Feature","id":"1fca942f-12a5-479f-bfce-50287593b99c","geometry":{"type":"Point","coordinates":[-96.73799399961594,28.375638899883093]},"properties":{"substrate":"Scattered Shell","lease_number":null,"poll_year":2025}},{"type":"Feature","id":"203e2af8-4caa-4d71-9a7b-ec637bc1495a","geometry":{"type":"Point","coordinates":[-96.73723239983323,28.379941200369007]},"properties":{"substrate":"Mud","lease_number":null,"poll_year":2025}},{"type":"Feature","id":"2332eab7-a257-4581-a219-8e34843b4112","geometry":{"type":"Point","coordinates":[-96.73760260005338,28.37779529982485]},"properties":{"substrate":"Solid Reef","lease_number":null,"poll_year":2025}},{"type":"Feature","id":"280fa0aa-eee3-4749-9ae2-ced309263fa9","geometry":{"type":"Point","coordinates":[-96.74505340039471,28.37956350029929]},"properties":{"substrate":"Mud","lease_number":null,"poll_year":2025}},{"type":"Feature","id":"29dc3fa9-376a-4c9d-a0a5-b4a19b57e2a0","geometry":{"type":"Point","coordinates":[-96.73945550019269,28.380394400266194]},"properties":{"substrate":"Solid Reef","lease_number":null,"poll_year":2025}},{"type":"Feature","id":"30e04ef7-fb7e-4708-addd-6c1379398619","geometry":{"type":"Point","coordinates":[-96.73755620027232,28.378061100008424]},"properties":{"substrate":"Solid Reef","lease_number":null,"poll_year":2025}},{"type":"Feature","id":"33cd915a-180f-4729-b195-b00ef3daeb80","geometry":{"type":"Point","coordinates":[-96.74191769974145,28.38015909999575]},"properties":{"substrate":"Mud","lease_number":null,"poll_year":2025}},{"type":"Feature","id":"3465bf96-c92f-473e-b421-802c95f84251","geometry":{"type":"Point","coordinates":[-96.74030829963799,28.38035099988242]},"properties":{"substrate":"Mud","lease_number":null,"poll_year":2025}},{"type":"Feature","id":"34a97bce-7c94-4466-b22f-577973a16267","geometry":{"type":"Point","coordinates":[-96.73758780030907,28.37786670000026]},"properties":{"substrate":"Solid Reef","lease_number":null,"poll_year":2025}},{"type":"Feature","id":"3598a5b6-3253-4937-b5f2-9bf08afa19ce","geometry":{"type":"Point","coordinates":[-96.74119779975425,28.380297200073997]},"properties":{"substrate":"Solid Reef","lease_number":null,"poll_year":2025}},{"type":"Feature","id":"35c9802c-766f-44a1-808c-8cbe72899049","geometry":{"type":"Point","coordinates":[-96.73753800040467,28.378160700216064]},"properties":{"substrate":"Solid Reef","lease_number":null,"poll_year":2025}},{"type":"Feature","id":"3855c758-f3f3-46ae-88d8-0c50214cedd0","geometry":{"type":"Point","coordinates":[-96.73766920025022,28.373034399858035]},"properties":{"substrate":"Scattered Shell","lease_number":null,"poll_year":2025}},{"type":"Feature","id":"388afde0-2640-4ec4-b3dd-4f618e2f5823","geometry":{"type":"Point","coordinates":[-96.73777220018239,28.380368200229682]},"properties":{"substrate":"Solid Reef","lease_number":null,"poll_year":2025}},{"type":"Feature","id":"3bfc57fa-f8b2-4006-a4f5-e9276757c7ce","geometry":{"type":"Point","coordinates":[-96.73794699976027,28.375915099775337]},"properties":{"substrate":"Firm/Hard Bottom","lease_number":null,"poll_year":2025}},{"type":"Feature","id":"3e037286-29f1-45ee-94f8-e45103d88393","geometry":{"type":"Point","coordinates":[-96.73813340018171,28.37480169961443]},"properties":{"substrate":"Scattered Shell","lease_number":null,"poll_year":2025}},{"type":"Feature","id":"40481d9e-82d3-4a97-be42-98e611e3fa55","geometry":{"type":"Point","coordinates":[-96.73793229972895,28.375988799643636]},"properties":{"substrate":"Mud","lease_number":null,"poll_year":2025}},{"type":"Feature","id":"40ac829a-0ebc-4099-a96d-f91aa084c2f7","geometry":{"type":"Point","coordinates":[-96.7377031996871,28.377274999767593]},"properties":{"substrate":"Solid Reef","lease_number":null,"poll_year":2025}},{"type":"Feature","id":"4578ab5e-681c-430c-8e12-de1701daee44","geometry":{"type":"Point","coordinates":[-96.73793810015074,28.380374900010374]},"properties":{"substrate":"Solid Reef","lease_number":null,"poll_year":2025}},{"type":"Feature","id":"45c77d5a-dbaa-4147-847d-bb96c43c6c04","geometry":{"type":"Point","coordinates":[-96.73775960041222,28.376948399723663]},"properties":{"substrate":"Mud","lease_number":null,"poll_year":2025}},{"type":"Feature","id":"46c2c7e2-1283-430a-9d86-eb244c239d33","geometry":{"type":"Point","coordinates":[-96.73620190014998,28.373560199760743]},"properties":{"substrate":"Mud","lease_number":null,"poll_year":2025}},{"type":"Feature","id":"4724e6d3-8337-43d1-90dd-2a2ba78f7db4","geometry":{"type":"Point","coordinates":[-96.74168490043728,28.38020339987564]},"properties":{"substrate":"Buried Shell","lease_number":null,"poll_year":2025}},{"type":"Feature","id":"4ad877fb-5782-40e9-b3d5-6dea0c27db93","geometry":{"type":"Point","coordinates":[-96.7376595999548,28.37751720003839]},"properties":{"substrate":"Solid Reef","lease_number":null,"poll_year":2025}},{"type":"Feature","id":"4b16a424-ff98-43bc-9f87-8c4674d1a7bc","geometry":{"type":"Point","coordinates":[-96.7373804996842,28.379038199627118]},"properties":{"substrate":"Mud","lease_number":null,"poll_year":2025}},{"type":"Feature","id":"5375500e-92b1-4555-b3ef-09fbbaaa98ae","geometry":{"type":"Point","coordinates":[-96.73808529988983,28.37508119997373]},"properties":{"substrate":"Scattered Shell","lease_number":null,"poll_year":2025}},{"type":"Feature","id":"55df7a9c-fdad-4e3b-b52f-70115b5f9f93","geometry":{"type":"Point","coordinates":[-96.73778030029129,28.376822700213886]},"properties":{"substrate":"Mud","lease_number":null,"poll_year":2025}},{"type":"Feature","id":"5666b71d-e078-4c57-8b34-57aacfff76f3","geometry":{"type":"Point","coordinates":[-96.73788730042142,28.376241699839404]},"properties":{"substrate":"Firm/Hard Bottom","lease_number":null,"poll_year":2025}},{"type":"Feature","id":"5bde9325-0376-40e1-897c-565b1466a7cd","geometry":{"type":"Point","coordinates":[-96.74097070026053,28.380324000002545]},"properties":{"substrate":"Solid Reef","lease_number":null,"poll_year":2025}},{"type":"Feature","id":"5ecead4a-dccb-4fd2-9217-9dfb11ef93d9","geometry":{"type":"Point","coordinates":[-96.74286819995706,28.379978999703063]},"properties":{"substrate":"Mud","lease_number":null,"poll_year":2025}},{"type":"Feature","id":"5f00b463-73f9-4750-9c72-8670c6e61cff","geometry":{"type":"Point","coordinates":[-96.74352260018367,28.379850799949956]},"properties":{"substrate":"Mud","lease_number":null,"poll_year":2025}},{"type":"Feature","id":"626e054e-7c26-4dba-b596-39d9a4bff562","geometry":{"type":"Point","coordinates":[-96.73872180028609,28.380382399622825]},"properties":{"substrate":"Solid Reef","lease_number":null,"poll_year":2025}},{"type":"Feature","id":"68bba99b-25bf-4a89-975b-6c32194321fc","geometry":{"type":"Point","coordinates":[-96.73733919963902,28.37926329967493]},"properties":{"substrate":"Mud","lease_number":null,"poll_year":2025}},{"type":"Feature","id":"6925dd9b-7fe9-47ff-9435-7960992297fc","geometry":{"type":"Point","coordinates":[-96.74267079966495,28.380012100388463]},"properties":{"substrate":"Mud","lease_number":null,"poll_year":2025}},{"type":"Feature","id":"6b1da830-2a36-43aa-a660-851ce7b4f0d9","geometry":{"type":"Point","coordinates":[-96.73776460043509,28.373002699960388]},"properties":{"substrate":"Mud","lease_number":null,"poll_year":2025}},{"type":"Feature","id":"6ce40b64-0c06-47e2-b58a-b2e9ad6245fa","geometry":{"type":"Point","coordinates":[-96.73729270014499,28.37951639992634]},"properties":{"substrate":"Mud","lease_number":null,"poll_year":2025}},{"type":"Feature","id":"715e7e9b-3973-4716-8235-46026829fd0e","geometry":{"type":"Point","coordinates":[-96.73762489983199,28.3776811003853]},"properties":{"substrate":"Solid Reef","lease_number":null,"poll_year":2025}},{"type":"Feature","id":"74642ce2-3147-4947-ab2c-c05ed768646d","geometry":{"type":"Point","coordinates":[-96.74325590025728,28.37990440002588]},"properties":{"substrate":"Mud","lease_number":null,"poll_year":2025}},{"type":"Feature","id":"74eceb02-5de0-4380-aac1-fb22cb40aa92","geometry":{"type":"Point","coordinates":[-96.74235209986004,28.38007450014344]},"properties":{"substrate":"Mud","lease_number":null,"poll_year":2025}},{"type":"Feature","id":"79a673ab-3678-47f0-a783-19645f4fdc8f","geometry":{"type":"Point","coordinates":[-96.74392450015357,28.379775400345846]},"properties":{"substrate":"Mud","lease_number":null,"poll_year":2025}},{"type":"Feature","id":"8054645b-7fa1-4f86-821b-7ffa9a174eac","geometry":{"type":"Point","coordinates":[-96.74426649956202,28.379712100202866]},"properties":{"substrate":"Mud","lease_number":null,"poll_year":2025}},{"type":"Feature","id":"80b36fd5-759d-43f8-bbb0-152cc9b7c3ce","geometry":{"type":"Point","coordinates":[-96.73806390022312,28.37520800018458]},"properties":{"substrate":"Scattered Shell","lease_number":null,"poll_year":2025}},{"type":"Feature","id":"83812ddd-f813-4a92-9111-cd131736d978","geometry":{"type":"Point","coordinates":[-96.73995730000873,28.38036559998438]},"properties":{"substrate":"Firm/Hard Bottom","lease_number":null,"poll_year":2025}},{"type":"Feature","id":"83a82b77-6ca0-45af-be7c-48abf2cf7be7","geometry":{"type":"Point","coordinates":[-96.74244490032046,28.380056699872576]},"properties":{"substrate":"Mud","lease_number":null,"poll_year":2025}},{"type":"Feature","id":"83d4c045-ca2a-493e-95d7-597a3f8c3078","geometry":{"type":"Point","coordinates":[-96.73827819962237,28.373729099953955]},"properties":{"substrate":"Scattered Shell","lease_number":null,"poll_year":2025}},{"type":"Feature","id":"84712796-64df-4ca1-b2b5-4b1e222ca734","geometry":{"type":"Point","coordinates":[-96.7397801998454,28.38037560025874]},"properties":{"substrate":"Firm/Hard Bottom","lease_number":null,"poll_year":2025}},{"type":"Feature","id":"859bffb6-b5f6-42bf-9c4a-b747ddf60de6","geometry":{"type":"Point","coordinates":[-96.73809360032305,28.37288949996434]},"properties":{"substrate":"Mud","lease_number":null,"poll_year":2025}},{"type":"Feature","id":"85dc4558-eda2-4bea-ad57-067b8c488fd6","geometry":{"type":"Point","coordinates":[-96.73763989990061,28.3776097996714]},"properties":{"substrate":"Solid Reef","lease_number":null,"poll_year":2025}},{"type":"Feature","id":"8684be40-e7bb-4560-a9a9-0843e476df62","geometry":{"type":"Point","coordinates":[-96.7374704003829,28.378559300072865]},"properties":{"substrate":"Mud","lease_number":null,"poll_year":2025}},{"type":"Feature","id":"87e0ac42-9b1f-45bb-a231-10a2a189f961","geometry":{"type":"Point","coordinates":[-96.74151600009587,28.38023799978321]},"properties":{"substrate":"Mud","lease_number":null,"poll_year":2025}},{"type":"Feature","id":"882441b6-0914-4faa-8c9f-534f3efe300f","geometry":{"type":"Point","coordinates":[-96.73790509964049,28.37614020012829]},"properties":{"substrate":"Mud","lease_number":null,"poll_year":2025}},{"type":"Feature","id":"8b7fdcb8-34c0-4d35-88da-c6f17e13a202","geometry":{"type":"Point","coordinates":[-96.73810659984355,28.374979899910784]},"properties":{"substrate":"Scattered Shell","lease_number":null,"poll_year":2025}},{"type":"Feature","id":"8db5bbbb-4da8-4b86-ac3b-54653b977fce","geometry":{"type":"Point","coordinates":[-96.73732439989472,28.379339900193536]},"properties":{"substrate":"Mud","lease_number":null,"poll_year":2025}},{"type":"Feature","id":"928af2a3-ccc1-4a8b-82eb-35ff31bda610","geometry":{"type":"Point","coordinates":[-96.73772189991637,28.377174799626314]},"properties":{"substrate":"Solid Reef","lease_number":null,"poll_year":2025}},{"type":"Feature","id":"93139dc5-a4d7-41ad-a03e-0162b5178b79","geometry":{"type":"Point","coordinates":[-96.73774250008248,28.377051400369766]},"properties":{"substrate":"Solid Reef","lease_number":null,"poll_year":2025}},{"type":"Feature","id":"931d98f7-a29e-4514-9a63-1744efc74aee","geometry":{"type":"Point","coordinates":[-96.7456019000291,28.379457500324893]},"properties":{"substrate":"Mud","lease_number":null,"poll_year":2025}},{"type":"Feature","id":"95b20137-39fc-4d15-97be-a813b66e177b","geometry":{"type":"Point","coordinates":[-96.73821239982445,28.374314400393153]},"properties":{"substrate":"Mud","lease_number":null,"poll_year":2025}},{"type":"Feature","id":"961617c5-d90b-4123-8080-3371301a0523","geometry":{"type":"Point","coordinates":[-96.7372592998844,28.37969160002484]},"properties":{"substrate":"Mud","lease_number":null,"poll_year":2025}},{"type":"Feature","id":"98a42ba1-0a91-408c-8040-47299818cdea","geometry":{"type":"Point","coordinates":[-96.73817299971608,28.374544799766127]},"properties":{"substrate":"Mud","lease_number":null,"poll_year":2025}},{"type":"Feature","id":"9b2a2879-d0ea-470d-b7d9-579048bf9858","geometry":{"type":"Point","coordinates":[-96.73734699971064,28.373149400234983]},"properties":{"substrate":"Buried Shell","lease_number":null,"poll_year":2025}},{"type":"Feature","id":"9e346055-056a-4b39-8528-03029649d55d","geometry":{"type":"Point","coordinates":[-96.73748330019039,28.38020430008352]},"properties":{"substrate":"Scattered Shell","lease_number":null,"poll_year":2025}},{"type":"Feature","id":"9f60dab6-0787-4d44-a289-fdb56e06f27b","geometry":{"type":"Point","coordinates":[-96.73721619961537,28.373200899648612]},"properties":{"substrate":"Solid Reef","lease_number":null,"poll_year":2025}},{"type":"Feature","id":"a1e77e97-2231-4935-a7f9-16600e478d6c","geometry":{"type":"Point","coordinates":[-96.73910069979146,28.38039339968575]},"properties":{"substrate":"Solid Reef","lease_number":null,"poll_year":2025}},{"type":"Feature","id":"a3512a89-4ff6-473f-8b3d-1d3b543fac69","geometry":{"type":"Point","coordinates":[-96.73784880042498,28.37644489972607]},"properties":{"substrate":"Firm/Hard Bottom","lease_number":null,"poll_year":2025}},{"type":"Feature","id":"a49e4415-f0c4-451b-a8f8-a0203237d1b4","geometry":{"type":"Point","coordinates":[-96.7413416002683,28.380271300346017]},"properties":{"substrate":"Mud","lease_number":null,"poll_year":2025}},{"type":"Feature","id":"a50e5d7c-e5fe-46d7-8f4b-cc63443f263e","geometry":{"type":"Point","coordinates":[-96.74045779996253,28.3803429003934]},"properties":{"substrate":"Scattered Shell","lease_number":null,"poll_year":2025}},{"type":"Feature","id":"a6605883-60ff-4381-81aa-c38f6f8331b9","geometry":{"type":"Point","coordinates":[-96.74075119961579,28.38033230024151]},"properties":{"substrate":"Solid Reef","lease_number":null,"poll_year":2025}},{"type":"Feature","id":"a71f54db-3f7d-4584-abb5-5179530863d0","geometry":{"type":"Point","coordinates":[-96.73735759983099,28.379164099633023]},"properties":{"substrate":"Mud","lease_number":null,"poll_year":2025}},{"type":"Feature","id":"a77d79cb-acaf-4ee0-b599-e51e4d6a8844","geometry":{"type":"Point","coordinates":[-96.73782260016141,28.376597900071545]},"properties":{"substrate":"Mud","lease_number":null,"poll_year":2025}},{"type":"Feature","id":"ac2cdd0c-03b1-40c4-9348-a0757c5b3d2a","geometry":{"type":"Point","coordinates":[-96.73827839994667,28.37306919970485]},"properties":{"substrate":"Mud","lease_number":null,"poll_year":2025}},{"type":"Feature","id":"acb1884b-de08-4573-b0d1-864e562b0f25","geometry":{"type":"Point","coordinates":[-96.738293099978,28.373601400082563]},"properties":{"substrate":"Mud","lease_number":null,"poll_year":2025}},{"type":"Feature","id":"ad87319d-9776-40e8-99ee-46ebd8dd6f4b","geometry":{"type":"Point","coordinates":[-96.74223800034422,28.380099499710685]},"properties":{"substrate":"Mud","lease_number":null,"poll_year":2025}},{"type":"Feature","id":"af6a18fc-61c8-4406-b7c3-d49e30329e17","geometry":{"type":"Point","coordinates":[-96.73694729971486,28.37329960020145]},"properties":{"substrate":"Solid Reef","lease_number":null,"poll_year":2025}},{"type":"Feature","id":"b2701c87-8db9-4a88-9ea3-c5034acacfc5","geometry":{"type":"Point","coordinates":[-96.74522560024815,28.379530899768202]},"properties":{"substrate":"Mud","lease_number":null,"poll_year":2025}},{"type":"Feature","id":"b5e8bd0b-2609-41c1-aad2-6267e34992e9","geometry":{"type":"Point","coordinates":[-96.73646029964316,28.373471700346773]},"properties":{"substrate":"Mud","lease_number":null,"poll_year":2025}},{"type":"Feature","id":"b83e48fa-146b-4e03-aef1-65ba24a3a905","geometry":{"type":"Point","coordinates":[-96.73585559960794,28.373677999947734]},"properties":{"substrate":"Mud","lease_number":null,"poll_year":2025}},{"type":"Feature","id":"b848d904-d083-4f2c-8157-45797f1915a0","geometry":{"type":"Point","coordinates":[-96.73963300010632,28.380383800119482]},"properties":{"substrate":"Solid Reef","lease_number":null,"poll_year":2025}},{"type":"Feature","id":"b8f8794a-d795-42dc-b9ab-37f5a72f62b5","geometry":{"type":"Point","coordinates":[-96.73863399984852,28.380380700374612]},"properties":{"substrate":"Scattered Shell","lease_number":null,"poll_year":2025}},{"type":"Feature","id":"b9d46f19-4cd6-4a7e-a1ff-450b10743fec","geometry":{"type":"Point","coordinates":[-96.73797810033372,28.375739400239897]},"properties":{"substrate":"Firm/Hard Bottom","lease_number":null,"poll_year":2025}},{"type":"Feature","id":"c18f1fa7-99fb-4dd1-93bb-db80ae837ebc","geometry":{"type":"Point","coordinates":[-96.73918609993058,28.380399400006986]},"properties":{"substrate":"Solid Reef","lease_number":null,"poll_year":2025}},{"type":"Feature","id":"c21db459-5cbe-41ca-9035-81f552d5813f","geometry":{"type":"Point","coordinates":[-96.73894009988327,28.380388599902712]},"properties":{"substrate":"Solid Reef","lease_number":null,"poll_year":2025}},{"type":"Feature","id":"c386c1a6-a2bb-481d-bc32-1820f8d2e436","geometry":{"type":"Point","coordinates":[-96.73832159992868,28.373237499974827]},"properties":{"substrate":"Scattered Shell","lease_number":null,"poll_year":2025}},{"type":"Feature","id":"c425aaa0-c9bf-455e-960d-519161ca98cb","geometry":{"type":"Point","coordinates":[-96.7383153997566,28.373403299942627]},"properties":{"substrate":"Mud","lease_number":null,"poll_year":2025}},{"type":"Feature","id":"c44128b7-873a-4eed-9997-8fe0aa0cf26b","geometry":{"type":"Point","coordinates":[-96.73749689978548,28.3784113000201]},"properties":{"substrate":"Scattered Shell","lease_number":null,"poll_year":2025}},{"type":"Feature","id":"cbbbd1fa-f1ea-4ad0-96f6-626430353fe3","geometry":{"type":"Point","coordinates":[-96.74549999963484,28.379480000145637]},"properties":{"substrate":"Mud","lease_number":null,"poll_year":2025}},{"type":"Feature","id":"cc535dd8-69db-4b72-9f05-ba7b66a7d2d1","geometry":{"type":"Point","coordinates":[-96.74365449981684,28.37982770033061]},"properties":{"substrate":"Mud","lease_number":null,"poll_year":2025}},{"type":"Feature","id":"cd0acbd5-f4ea-4473-8463-978eaaae7ec8","geometry":{"type":"Point","coordinates":[-96.73814870028764,28.374699299851624]},"properties":{"substrate":"Mud","lease_number":null,"poll_year":2025}},{"type":"Feature","id":"cd489c09-1da5-42f1-951a-c79e8ee6a1c0","geometry":{"type":"Point","coordinates":[-96.73654009968477,28.37344470029651]},"properties":{"substrate":"Scattered Shell","lease_number":null,"poll_year":2025}},{"type":"Feature","id":"cd940432-7e87-40b3-a6d2-d7b2587c834e","geometry":{"type":"Point","coordinates":[-96.73804469963225,28.37533540014655]},"properties":{"substrate":"Scattered Shell","lease_number":null,"poll_year":2025}},{"type":"Feature","id":"d0fc4762-a12d-487a-90a9-f34db5da22da","geometry":{"type":"Point","coordinates":[-96.73818660020947,28.37446730027027]},"properties":{"substrate":"Mud","lease_number":null,"poll_year":2025}},{"type":"Feature","id":"d39013c0-33d9-4552-b249-d269cc5d1ace","geometry":{"type":"Point","coordinates":[-96.74484959960621,28.37960049992989]},"properties":{"substrate":"Mud","lease_number":null,"poll_year":2025}},{"type":"Feature","id":"dfce8c60-74aa-4ed3-a4cc-70519070d218","geometry":{"type":"Point","coordinates":[-96.7366958001814,28.373390399823325]},"properties":{"substrate":"Scattered Shell","lease_number":null,"poll_year":2025}},{"type":"Feature","id":"e0479da4-7596-419a-abba-2033a337d0f4","geometry":{"type":"Point","coordinates":[-96.73831280003218,28.380376499674828]},"properties":{"substrate":"Mud","lease_number":null,"poll_year":2025}},{"type":"Feature","id":"e0daafa7-2c9e-48ed-aa3b-96029f136c73","geometry":{"type":"Point","coordinates":[-96.74085939989513,28.380328300288312]},"properties":{"substrate":"Solid Reef","lease_number":null,"poll_year":2025}},{"type":"Feature","id":"e8b46789-8c81-4880-b9cd-2e5a030297ab","geometry":{"type":"Point","coordinates":[-96.73739989970109,28.378935900377947]},"properties":{"substrate":"Mud","lease_number":null,"poll_year":2025}},{"type":"Feature","id":"e995e3f7-72ef-44dc-8716-3eb5c8879100","geometry":{"type":"Point","coordinates":[-96.7421241999674,28.38012109997702]},"properties":{"substrate":"Mud","lease_number":null,"poll_year":2025}},{"type":"Feature","id":"ec52f523-2d66-40cd-a146-d5f56d23784f","geometry":{"type":"Point","coordinates":[-96.73573430009515,28.37371440013877]},"properties":{"substrate":"Mud","lease_number":null,"poll_year":2025}},{"type":"Feature","id":"ecd56295-18a8-46d5-b427-da922019367a","geometry":{"type":"Point","coordinates":[-96.73743799994723,28.378733500365914]},"properties":{"substrate":"Mud","lease_number":null,"poll_year":2025}},{"type":"Feature","id":"ee4d427f-2701-4213-850e-88c82ac7d177","geometry":{"type":"Point","coordinates":[-96.74309139986414,28.379935000062964]},"properties":{"substrate":"Mud","lease_number":null,"poll_year":2025}},{"type":"Feature","id":"f098d17e-1fb4-40ac-ad12-4aa8920464b2","geometry":{"type":"Point","coordinates":[-96.74108050043938,28.380312200099716]},"properties":{"substrate":"Solid Reef","lease_number":null,"poll_year":2025}},{"type":"Feature","id":"f0d7f6d1-3a52-4c93-87c1-574645934e76","geometry":{"type":"Point","coordinates":[-96.73886099962925,28.380388700276924]},"properties":{"substrate":"Solid Reef","lease_number":null,"poll_year":2025}},{"type":"Feature","id":"f10baec6-14c1-4d80-a7ee-611b253e6087","geometry":{"type":"Point","coordinates":[-96.73752180018684,28.37826090021634]},"properties":{"substrate":"Solid Reef","lease_number":null,"poll_year":2025}},{"type":"Feature","id":"f51a5b08-dc33-4334-91bb-ff76b3f7b5eb","geometry":{"type":"Point","coordinates":[-96.73822910040388,28.374163899932878]},"properties":{"substrate":"Mud","lease_number":null,"poll_year":2025}},{"type":"Feature","id":"f5cb0fa3-0700-4c44-a9a6-5343754c895f","geometry":{"type":"Point","coordinates":[-96.73930470000596,28.38040149996128]},"properties":{"substrate":"Solid Reef","lease_number":null,"poll_year":2025}},{"type":"Feature","id":"f63dd4a1-fc30-4ef5-8202-49d5b02e1cec","geometry":{"type":"Point","coordinates":[-96.73751669955264,28.373090799822062]},"properties":{"substrate":"Buried Shell","lease_number":null,"poll_year":2025}},{"type":"Feature","id":"fc785b01-7f68-4c2f-904f-8d762322c333","geometry":{"type":"Point","coordinates":[-96.74179969974068,28.380179099792176]},"properties":{"substrate":"Buried Shell","lease_number":null,"poll_year":2025}},{"type":"Feature","id":"fdddc489-150c-4b4d-a8f9-ef487ea40bc9","geometry":{"type":"Point","coordinates":[-96.73816579971907,28.38037079968456]},"properties":{"substrate":"Scattered Shell","lease_number":null,"poll_year":2025}}]}