{"type":"FeatureCollection","features":[{"type":"Feature","id":"0035730b-f842-479c-8c73-a8916c43f7c6","geometry":{"type":"Point","coordinates":[-96.72517409997543,28.28496700017619]},"properties":{"substrate":"Mud","lease_number":null,"poll_year":2025}},{"type":"Feature","id":"0060d8ee-4ee7-42ac-a2de-7bec112e7aea","geometry":{"type":"Point","coordinates":[-96.72543500037835,28.28440029976326]},"properties":{"substrate":"Mud","lease_number":null,"poll_year":2025}},{"type":"Feature","id":"022f4c96-3de3-4044-9a8c-f37f673415d4","geometry":{"type":"Point","coordinates":[-96.72486359999242,28.282259899708365]},"properties":{"substrate":"Firm/Hard Bottom","lease_number":null,"poll_year":2025}},{"type":"Feature","id":"065fb761-36f4-45ba-8baf-f6c13e69e427","geometry":{"type":"Point","coordinates":[-96.72529399991303,28.283215199740987]},"properties":{"substrate":"Firm/Hard Bottom","lease_number":null,"poll_year":2025}},{"type":"Feature","id":"06d7cedc-a10e-4bfe-a31d-51dca72172cc","geometry":{"type":"Point","coordinates":[-96.72483839955378,28.284546600285854]},"properties":{"substrate":"Buried Shell","lease_number":null,"poll_year":2025}},{"type":"Feature","id":"07cb43c4-ccea-4344-b997-7db83425eea0","geometry":{"type":"Point","coordinates":[-96.7253888000233,28.284953700117597]},"properties":{"substrate":"Mud","lease_number":null,"poll_year":2025}},{"type":"Feature","id":"08960aa8-387c-479e-9d0e-47274e50ead1","geometry":{"type":"Point","coordinates":[-96.72473150003496,28.283628199701326]},"properties":{"substrate":"Buried Shell","lease_number":null,"poll_year":2025}},{"type":"Feature","id":"09aca230-deb5-458a-891d-bc5318802814","geometry":{"type":"Point","coordinates":[-96.72519460042854,28.283624299736395]},"properties":{"substrate":"Mud","lease_number":null,"poll_year":2025}},{"type":"Feature","id":"09be8acc-66b6-426a-9844-c18a60ea0325","geometry":{"type":"Point","coordinates":[-96.72550779984898,28.284619300358287]},"properties":{"substrate":"Mud","lease_number":null,"poll_year":2025}},{"type":"Feature","id":"0a5a18c6-ce16-4064-952d-8b0a507f0df3","geometry":{"type":"Point","coordinates":[-96.72509010030986,28.284690800343046]},"properties":{"substrate":"Mud","lease_number":null,"poll_year":2025}},{"type":"Feature","id":"0c2780bf-1f64-466b-a7cf-1b848ad8a190","geometry":{"type":"Point","coordinates":[-96.72414729955455,28.28306980000235]},"properties":{"substrate":"Solid Reef","lease_number":null,"poll_year":2025}},{"type":"Feature","id":"0d2455d0-e9bd-4b0f-9c89-cd0e6dfbcd7f","geometry":{"type":"Point","coordinates":[-96.72372730032828,28.284511000157178]},"properties":{"substrate":"Solid Reef","lease_number":null,"poll_year":2025}},{"type":"Feature","id":"0dff77a5-8682-464a-948d-532a01294215","geometry":{"type":"Point","coordinates":[-96.72510580016606,28.28400170018425]},"properties":{"substrate":"Mud","lease_number":null,"poll_year":2025}},{"type":"Feature","id":"0ed9ca87-4412-483f-82aa-d1c09a87980a","geometry":{"type":"Point","coordinates":[-96.72689420036968,28.28494420030071]},"properties":{"substrate":"Mud","lease_number":null,"poll_year":2025}},{"type":"Feature","id":"0fa53758-2422-4e56-9d7f-d1bdabcf06cb","geometry":{"type":"Point","coordinates":[-96.72367220036372,28.27683390005928]},"properties":{"substrate":"Solid Reef","lease_number":null,"poll_year":2025}},{"type":"Feature","id":"109f7f45-bfa8-45ab-9eee-86f1808ff8d6","geometry":{"type":"Point","coordinates":[-96.72428939955776,28.283531399839788]},"properties":{"substrate":"Solid Reef","lease_number":null,"poll_year":2025}},{"type":"Feature","id":"1128cd3b-afdd-4308-ae16-47c124f2cb55","geometry":{"type":"Point","coordinates":[-96.7246363998874,28.282482599823616]},"properties":{"substrate":"Mud","lease_number":null,"poll_year":2025}},{"type":"Feature","id":"11a17669-03c3-4340-9a87-812b0b7d3526","geometry":{"type":"Point","coordinates":[-96.72505859998611,28.284579899997677]},"properties":{"substrate":"Mud","lease_number":null,"poll_year":2025}},{"type":"Feature","id":"1332fd6a-b75c-4d17-87ab-c9dee93ca5e3","geometry":{"type":"Point","coordinates":[-96.72365299977282,28.284913899605165]},"properties":{"substrate":"Scattered Shell","lease_number":null,"poll_year":2025}},{"type":"Feature","id":"164f44f3-ace4-4398-ab2b-be7366e23b36","geometry":{"type":"Point","coordinates":[-96.72491129963569,28.28331920021135]},"properties":{"substrate":"Mud","lease_number":null,"poll_year":2025}},{"type":"Feature","id":"18a70a03-1e3b-4684-8f92-2564531c432a","geometry":{"type":"Point","coordinates":[-96.72508790033572,28.283260100129922]},"properties":{"substrate":"Mud","lease_number":null,"poll_year":2025}},{"type":"Feature","id":"19636cc4-e00c-4f39-9b20-af0d3462de43","geometry":{"type":"Point","coordinates":[-96.72366230003097,28.283398099943636]},"properties":{"substrate":"Solid Reef","lease_number":null,"poll_year":2025}},{"type":"Feature","id":"1ce0167d-7d75-4a6a-8754-77f047c7522a","geometry":{"type":"Point","coordinates":[-96.72496469998775,28.28350249972513]},"properties":{"substrate":"Mud","lease_number":null,"poll_year":2025}},{"type":"Feature","id":"1eca7586-c31f-40d2-b9e0-ae8b5aaaa8d4","geometry":{"type":"Point","coordinates":[-96.72520340032506,28.282890200385186]},"properties":{"substrate":"Mud","lease_number":null,"poll_year":2025}},{"type":"Feature","id":"245f2a5c-b119-49f0-a1d6-22e469040ec8","geometry":{"type":"Point","coordinates":[-96.72405299980592,28.284676699697098]},"properties":{"substrate":"Solid Reef","lease_number":null,"poll_year":2025}},{"type":"Feature","id":"290dc828-77aa-4418-8589-82d061daf34f","geometry":{"type":"Point","coordinates":[-96.7245296000816,28.28363789977577]},"properties":{"substrate":"Mud","lease_number":null,"poll_year":2025}},{"type":"Feature","id":"2d179272-64a2-4826-997a-05ac0c443fcb","geometry":{"type":"Point","coordinates":[-96.7237283998662,28.27686639998902]},"properties":{"substrate":"Solid Reef","lease_number":null,"poll_year":2025}},{"type":"Feature","id":"2e829479-d89c-4631-a454-ccdc04159e3c","geometry":{"type":"Point","coordinates":[-96.72464750036936,28.28335600000049]},"properties":{"substrate":"Mud","lease_number":null,"poll_year":2025}},{"type":"Feature","id":"2fc0a8c7-594c-4f5f-89fc-b86351cb1cfa","geometry":{"type":"Point","coordinates":[-96.72525980015186,28.284529200104465]},"properties":{"substrate":"Mud","lease_number":null,"poll_year":2025}},{"type":"Feature","id":"320d16c9-56d1-41f1-9780-313a1f3f3c39","geometry":{"type":"Point","coordinates":[-96.72410980028133,28.28290669980192]},"properties":{"substrate":"Solid Reef","lease_number":null,"poll_year":2025}},{"type":"Feature","id":"3568c326-2090-49ec-8dad-c3184e74cdf8","geometry":{"type":"Point","coordinates":[-96.72500690014488,28.283014299953468]},"properties":{"substrate":"Mud","lease_number":null,"poll_year":2025}},{"type":"Feature","id":"358a1b54-dbb5-49d9-8031-102fbd75d3b6","geometry":{"type":"Point","coordinates":[-96.72486369970544,28.282576100270646]},"properties":{"substrate":"Firm/Hard Bottom","lease_number":null,"poll_year":2025}},{"type":"Feature","id":"37501560-416c-442a-9779-3d0f85644922","geometry":{"type":"Point","coordinates":[-96.72412849961229,28.277390000250964]},"properties":{"substrate":"Mud","lease_number":null,"poll_year":2025}},{"type":"Feature","id":"387827b0-7d07-495d-9831-c674dbbc2f0f","geometry":{"type":"Point","coordinates":[-96.72474849975339,28.284974399732242]},"properties":{"substrate":"Scattered Shell","lease_number":null,"poll_year":2025}},{"type":"Feature","id":"3bd673cd-5378-4fbd-9bc2-246eb8fb58cf","geometry":{"type":"Point","coordinates":[-96.72499419976337,28.28439220007722]},"properties":{"substrate":"Mud","lease_number":null,"poll_year":2025}},{"type":"Feature","id":"4081c592-9cc1-4324-9c40-d477fa453f8e","geometry":{"type":"Point","coordinates":[-96.72469879956198,28.28352010021468]},"properties":{"substrate":"Mud","lease_number":null,"poll_year":2025}},{"type":"Feature","id":"44cfa353-7fa1-4918-b199-f2dde32d773e","geometry":{"type":"Point","coordinates":[-96.7247618999225,28.282788999898372]},"properties":{"substrate":"Mud","lease_number":null,"poll_year":2025}},{"type":"Feature","id":"46acba33-91ac-420f-bcfc-5b0517f0346b","geometry":{"type":"Point","coordinates":[-96.72635690003193,28.283295999701416]},"properties":{"substrate":"Mud","lease_number":null,"poll_year":2025}},{"type":"Feature","id":"47509a58-21ee-4d0f-a547-afd4b7894a61","geometry":{"type":"Point","coordinates":[-96.72465530044099,28.284698400056485]},"properties":{"substrate":"Scattered Shell","lease_number":null,"poll_year":2025}},{"type":"Feature","id":"49acac53-6b1e-48bf-afb3-b625e7455482","geometry":{"type":"Point","coordinates":[-96.72540570002873,28.283589799675248]},"properties":{"substrate":"Mud","lease_number":null,"poll_year":2025}},{"type":"Feature","id":"4abf761d-0fb2-41c2-9184-46bae45156cf","geometry":{"type":"Point","coordinates":[-96.72502479997522,28.28371129977214]},"properties":{"substrate":"Mud","lease_number":null,"poll_year":2025}},{"type":"Feature","id":"4bfbecc9-a060-4b26-8506-9456d8f1ddb5","geometry":{"type":"Point","coordinates":[-96.72384560036639,28.284846499828443]},"properties":{"substrate":"Solid Reef","lease_number":null,"poll_year":2025}},{"type":"Feature","id":"5129ccb0-21bd-401c-b665-0410cd73329f","geometry":{"type":"Point","coordinates":[-96.7249966997748,28.283605599679408]},"properties":{"substrate":"Mud","lease_number":null,"poll_year":2025}},{"type":"Feature","id":"51f65080-f3a9-4be1-bf6d-b3b098a139b2","geometry":{"type":"Point","coordinates":[-96.72421710044875,28.283298500274906]},"properties":{"substrate":"Solid Reef","lease_number":null,"poll_year":2025}},{"type":"Feature","id":"529f25db-7c77-4cfa-bfd3-d24c15f3e76c","geometry":{"type":"Point","coordinates":[-96.72369779965436,28.283513800143158]},"properties":{"substrate":"Solid Reef","lease_number":null,"poll_year":2025}},{"type":"Feature","id":"5632da76-1552-4b48-b47d-1b12e9828aee","geometry":{"type":"Point","coordinates":[-96.72680869961926,28.284707199807254]},"properties":{"substrate":"Mud","lease_number":null,"poll_year":2025}},{"type":"Feature","id":"565ee534-d075-472e-81ba-ea7a700d9202","geometry":{"type":"Point","coordinates":[-96.72450659961706,28.28425990037153]},"properties":{"substrate":"Scattered Shell","lease_number":null,"poll_year":2025}},{"type":"Feature","id":"567bd5ce-a387-4d96-af52-ab0db6f3a5d8","geometry":{"type":"Point","coordinates":[-96.72477379990505,28.283736799823696]},"properties":{"substrate":"Buried Shell","lease_number":null,"poll_year":2025}},{"type":"Feature","id":"57761016-2c2e-4506-9d94-be9cfaf5b998","geometry":{"type":"Point","coordinates":[-96.72383269966058,28.277686400290534]},"properties":{"substrate":"Mud","lease_number":null,"poll_year":2025}},{"type":"Feature","id":"58037b9d-65a7-4cb0-8aa0-a8795cf49c47","geometry":{"type":"Point","coordinates":[-96.726031199656,28.282273499922002]},"properties":{"substrate":"Mud","lease_number":null,"poll_year":2025}},{"type":"Feature","id":"59172b43-ba51-43d0-9e34-957552155c72","geometry":{"type":"Point","coordinates":[-96.72410969967002,28.277472299835953]},"properties":{"substrate":"Mud","lease_number":null,"poll_year":2025}},{"type":"Feature","id":"5af96337-994f-4fb1-98e9-1eec00870fbc","geometry":{"type":"Point","coordinates":[-96.72596419970886,28.28209770009789]},"properties":{"substrate":"Mud","lease_number":null,"poll_year":2025}},{"type":"Feature","id":"5c510aa4-4193-4c5d-a970-23a63f31d242","geometry":{"type":"Point","coordinates":[-96.72552430010413,28.283989300237327]},"properties":{"substrate":"Mud","lease_number":null,"poll_year":2025}},{"type":"Feature","id":"606629f3-a75c-4a49-8705-64ed3790976f","geometry":{"type":"Point","coordinates":[-96.72512520018296,28.284800600209568]},"properties":{"substrate":"Mud","lease_number":null,"poll_year":2025}},{"type":"Feature","id":"617d423f-dccd-4ce3-a1cb-de71b22c25aa","geometry":{"type":"Point","coordinates":[-96.7241139999053,28.277209300106644]},"properties":{"substrate":"Mud","lease_number":null,"poll_year":2025}},{"type":"Feature","id":"626e5891-4b31-483f-a508-bf10566ec1cc","geometry":{"type":"Point","coordinates":[-96.72502940024779,28.284499800309774]},"properties":{"substrate":"Mud","lease_number":null,"poll_year":2025}},{"type":"Feature","id":"6635b799-af99-485f-bcb0-5fc357bb42d3","geometry":{"type":"Point","coordinates":[-96.72433490012521,28.283132500356313]},"properties":{"substrate":"Solid Reef","lease_number":null,"poll_year":2025}},{"type":"Feature","id":"664161cc-e676-4e30-a332-86312a4c3f1c","geometry":{"type":"Point","coordinates":[-96.72508689961249,28.28392060015433]},"properties":{"substrate":"Mud","lease_number":null,"poll_year":2025}},{"type":"Feature","id":"6b202229-7f16-499a-aa81-64324857898e","geometry":{"type":"Point","coordinates":[-96.7262692999187,28.283002300174285]},"properties":{"substrate":"Mud","lease_number":null,"poll_year":2025}},{"type":"Feature","id":"6b3dc9c9-d70b-4cf5-8776-b3dea721cf9e","geometry":{"type":"Point","coordinates":[-96.72447929981557,28.282815000129542]},"properties":{"substrate":"Mud","lease_number":null,"poll_year":2025}},{"type":"Feature","id":"6eb609ec-5d0d-4394-9434-f3a79ba441a6","geometry":{"type":"Point","coordinates":[-96.72515439992125,28.284158599930294]},"properties":{"substrate":"Mud","lease_number":null,"poll_year":2025}},{"type":"Feature","id":"6eb724f2-b7d2-485e-83c2-81a6880b31b9","geometry":{"type":"Point","coordinates":[-96.72399650026613,28.27703649974931]},"properties":{"substrate":"Mud","lease_number":null,"poll_year":2025}},{"type":"Feature","id":"6f6e8419-41a8-4f94-993f-596008918b6a","geometry":{"type":"Point","coordinates":[-96.72504959976528,28.283151199705294]},"properties":{"substrate":"Firm/Hard Bottom","lease_number":null,"poll_year":2025}},{"type":"Feature","id":"70045bf4-d91c-4807-94dd-31a5f3f6b470","geometry":{"type":"Point","coordinates":[-96.725290800114,28.284634600259505]},"properties":{"substrate":"Mud","lease_number":null,"poll_year":2025}},{"type":"Feature","id":"70973324-16fd-4cae-b03c-00ff6b9ef3cf","geometry":{"type":"Point","coordinates":[-96.72439900031064,28.283934099690505]},"properties":{"substrate":"Scattered Shell","lease_number":null,"poll_year":2025}},{"type":"Feature","id":"71c21571-f915-4670-9ed1-a63b277bc0df","geometry":{"type":"Point","coordinates":[-96.72526630036127,28.283876600277086]},"properties":{"substrate":"Mud","lease_number":null,"poll_year":2025}},{"type":"Feature","id":"75f90283-1bc4-4379-8c6f-a16ff40953aa","geometry":{"type":"Point","coordinates":[-96.72645610009045,28.283587000084818]},"properties":{"substrate":"Mud","lease_number":null,"poll_year":2025}},{"type":"Feature","id":"76355d34-21ab-433b-98c9-cfebf009d22f","geometry":{"type":"Point","coordinates":[-96.72525579995391,28.28308050004267]},"properties":{"substrate":"Firm/Hard Bottom","lease_number":null,"poll_year":2025}},{"type":"Feature","id":"767716fe-011e-4374-ba5f-6ff05bcf025c","geometry":{"type":"Point","coordinates":[-96.72530749979514,28.28401249980513]},"properties":{"substrate":"Mud","lease_number":null,"poll_year":2025}},{"type":"Feature","id":"779156d2-c407-44ef-8748-cf75b8db5d25","geometry":{"type":"Point","coordinates":[-96.72509909963236,28.282459800207267]},"properties":{"substrate":"Firm/Hard Bottom","lease_number":null,"poll_year":2025}},{"type":"Feature","id":"77937d72-622e-49f6-ae5b-04d983ac12f1","geometry":{"type":"Point","coordinates":[-96.72459629999143,28.28384539983532]},"properties":{"substrate":"Mud","lease_number":null,"poll_year":2025}},{"type":"Feature","id":"78bd8b8e-2d1d-4228-a226-5a62f3a01e0b","geometry":{"type":"Point","coordinates":[-96.72677350003316,28.284587499719006]},"properties":{"substrate":"Mud","lease_number":null,"poll_year":2025}},{"type":"Feature","id":"791c419e-1ba3-4f77-95f0-10e915fbf6ad","geometry":{"type":"Point","coordinates":[-96.72379699971289,28.27690959977807]},"properties":{"substrate":"Mud","lease_number":null,"poll_year":2025}},{"type":"Feature","id":"79a063a8-469b-41a0-9847-4195fac3702f","geometry":{"type":"Point","coordinates":[-96.72407510015853,28.284744100372375]},"properties":{"substrate":"Solid Reef","lease_number":null,"poll_year":2025}},{"type":"Feature","id":"7cc1498b-8105-49a9-bbd8-5d888b94dbd2","geometry":{"type":"Point","coordinates":[-96.72513050024313,28.282589100017457]},"properties":{"substrate":"Buried Shell","lease_number":null,"poll_year":2025}},{"type":"Feature","id":"7e7f8259-c2ea-4b42-bd7c-a7858f43d05c","geometry":{"type":"Point","coordinates":[-96.724445899555,28.282620399711774]},"properties":{"substrate":"Mud","lease_number":null,"poll_year":2025}},{"type":"Feature","id":"7edab6a0-d4f4-4883-9c02-d7686330e3f3","geometry":{"type":"Point","coordinates":[-96.72506339968467,28.282333000045146]},"properties":{"substrate":"Firm/Hard Bottom","lease_number":null,"poll_year":2025}},{"type":"Feature","id":"7f913be7-6f91-4d97-8306-e50bf104e23e","geometry":{"type":"Point","coordinates":[-96.72522720029019,28.283735599774857]},"properties":{"substrate":"Mud","lease_number":null,"poll_year":2025}},{"type":"Feature","id":"83b53aa3-607f-4225-bbdc-a1f002164266","geometry":{"type":"Point","coordinates":[-96.7256010997727,28.2842626002703]},"properties":{"substrate":"Mud","lease_number":null,"poll_year":2025}},{"type":"Feature","id":"8947db69-3743-41ab-b028-64ca4ed5404b","geometry":{"type":"Point","coordinates":[-96.72418590016231,28.283193200054434]},"properties":{"substrate":"Solid Reef","lease_number":null,"poll_year":2025}},{"type":"Feature","id":"8e1551da-46bd-4cc8-9b16-c93b77066f95","geometry":{"type":"Point","coordinates":[-96.72409660043654,28.27714469996009]},"properties":{"substrate":"Mud","lease_number":null,"poll_year":2025}},{"type":"Feature","id":"90302838-f5cf-4ef4-a235-bd12c8170ebf","geometry":{"type":"Point","coordinates":[-96.72469070035139,28.284100700359478]},"properties":{"substrate":"Mud","lease_number":null,"poll_year":2025}},{"type":"Feature","id":"92485d26-2013-46d0-ad52-3cc6eb19e024","geometry":{"type":"Point","coordinates":[-96.72385869959986,28.284034099834642]},"properties":{"substrate":"Solid Reef","lease_number":null,"poll_year":2025}},{"type":"Feature","id":"92d219ce-f82a-448d-bdd6-86bb8618f627","geometry":{"type":"Point","coordinates":[-96.72493740018629,28.284227200185757]},"properties":{"substrate":"Buried Shell","lease_number":null,"poll_year":2025}},{"type":"Feature","id":"98d95ff2-1a2e-467c-b17d-52bb77170777","geometry":{"type":"Point","coordinates":[-96.72556079955243,28.284125300086714]},"properties":{"substrate":"Mud","lease_number":null,"poll_year":2025}},{"type":"Feature","id":"99070a74-0427-4e66-a884-ff3e821c47f4","geometry":{"type":"Point","coordinates":[-96.7253680004312,28.283456100362272]},"properties":{"substrate":"Firm/Hard Bottom","lease_number":null,"poll_year":2025}},{"type":"Feature","id":"99849a2c-6704-42ab-b78b-a9b3a356c93f","geometry":{"type":"Point","coordinates":[-96.72523609989973,28.284450900044074]},"properties":{"substrate":"Mud","lease_number":null,"poll_year":2025}},{"type":"Feature","id":"9a2cee93-b3e5-4da5-adcf-764fc028bfb8","geometry":{"type":"Point","coordinates":[-96.72512800023168,28.28340140028609]},"properties":{"substrate":"Mud","lease_number":null,"poll_year":2025}},{"type":"Feature","id":"9d617f33-ba81-4e81-9322-450efbf59cf0","geometry":{"type":"Point","coordinates":[-96.72377810005761,28.277704599821963]},"properties":{"substrate":"Mud","lease_number":null,"poll_year":2025}},{"type":"Feature","id":"9f63b20f-a2af-4c12-9d1e-47ddfb718389","geometry":{"type":"Point","coordinates":[-96.72537090019294,28.284206199821654]},"properties":{"substrate":"Firm/Hard Bottom","lease_number":null,"poll_year":2025}},{"type":"Feature","id":"a1662e32-7569-436c-99a7-41f4959d8a07","geometry":{"type":"Point","coordinates":[-96.72520459957597,28.28434560017214]},"properties":{"substrate":"Mud","lease_number":null,"poll_year":2025}},{"type":"Feature","id":"a5e84c69-bed1-4f01-9a91-aba70674986e","geometry":{"type":"Point","coordinates":[-96.72523299981367,28.283000499693085]},"properties":{"substrate":"Mud","lease_number":null,"poll_year":2025}},{"type":"Feature","id":"a6e094f6-3ca4-43e2-bad9-73adb5388937","geometry":{"type":"Point","coordinates":[-96.72480039991892,28.2829524997709]},"properties":{"substrate":"Mud","lease_number":null,"poll_year":2025}},{"type":"Feature","id":"a6f5a095-d619-453e-8d47-e64ae18859e8","geometry":{"type":"Point","coordinates":[-96.7247411003304,28.28270850016164]},"properties":{"substrate":"Mud","lease_number":null,"poll_year":2025}},{"type":"Feature","id":"a886e332-37c0-486e-b800-bb1c5a82ccfd","geometry":{"type":"Point","coordinates":[-96.72554819978225,28.284728400210657]},"properties":{"substrate":"Mud","lease_number":null,"poll_year":2025}},{"type":"Feature","id":"a8a880ff-439f-4b99-8c8d-9c009203c204","geometry":{"type":"Point","coordinates":[-96.72460739957508,28.284563199910703]},"properties":{"substrate":"Scattered Shell","lease_number":null,"poll_year":2025}},{"type":"Feature","id":"a95e7683-2167-479e-8a32-98a9abbfc886","geometry":{"type":"Point","coordinates":[-96.72535710027354,28.284845999879227]},"properties":{"substrate":"Mud","lease_number":null,"poll_year":2025}},{"type":"Feature","id":"aa6ea7e1-2dcd-4a7d-a8da-c794729e5424","geometry":{"type":"Point","coordinates":[-96.72496460027476,28.28287660025032]},"properties":{"substrate":"Mud","lease_number":null,"poll_year":2025}},{"type":"Feature","id":"aab1c263-3a56-4410-bf07-eed96261c1a5","geometry":{"type":"Point","coordinates":[-96.72424630018708,28.283383900242764]},"properties":{"substrate":"Solid Reef","lease_number":null,"poll_year":2025}},{"type":"Feature","id":"aacbe848-123c-4373-b9c1-125f2304c936","geometry":{"type":"Point","coordinates":[-96.72486749957908,28.283190299987517]},"properties":{"substrate":"Mud","lease_number":null,"poll_year":2025}},{"type":"Feature","id":"abba5c67-63fd-41a5-b9d5-087adaee9134","geometry":{"type":"Point","coordinates":[-96.72414020016886,28.284962200036272]},"properties":{"substrate":"Solid Reef","lease_number":null,"poll_year":2025}},{"type":"Feature","id":"ad5df52e-36c7-4d44-bd60-2c1bdd57dbb8","geometry":{"type":"Point","coordinates":[-96.72446269984745,28.28410719974451]},"properties":{"substrate":"Scattered Shell","lease_number":null,"poll_year":2025}},{"type":"Feature","id":"b0198b37-bc4f-4f72-8d63-f5a421939330","geometry":{"type":"Point","coordinates":[-96.72517729977449,28.28423910015291]},"properties":{"substrate":"Mud","lease_number":null,"poll_year":2025}},{"type":"Feature","id":"b02f072c-313c-4ec9-81e2-6331a84fcf3f","geometry":{"type":"Point","coordinates":[-96.72368290019706,28.284381399703808]},"properties":{"substrate":"Solid Reef","lease_number":null,"poll_year":2025}},{"type":"Feature","id":"b0daf16c-128b-4bd5-a944-914b83942515","geometry":{"type":"Point","coordinates":[-96.72469369982612,28.282558499625036]},"properties":{"substrate":"Mud","lease_number":null,"poll_year":2025}},{"type":"Feature","id":"b18e9671-3854-4284-9ed7-537f852cdc94","geometry":{"type":"Point","coordinates":[-96.72390189958186,28.284164899963663]},"properties":{"substrate":"Solid Reef","lease_number":null,"poll_year":2025}},{"type":"Feature","id":"b4620889-b567-4db9-8b4f-cebb43baf4bf","geometry":{"type":"Point","coordinates":[-96.72376529996313,28.28372029974449]},"properties":{"substrate":"Solid Reef","lease_number":null,"poll_year":2025}},{"type":"Feature","id":"b56c9e2a-b2d4-4676-ac82-589dfc484650","geometry":{"type":"Point","coordinates":[-96.72406730008692,28.277557100065632]},"properties":{"substrate":"Mud","lease_number":null,"poll_year":2025}},{"type":"Feature","id":"b5a4dc85-6304-4efd-b9b9-9033bb3dc596","geometry":{"type":"Point","coordinates":[-96.72365229998522,28.28427969989129]},"properties":{"substrate":"Solid Reef","lease_number":null,"poll_year":2025}},{"type":"Feature","id":"b75df2e5-9b02-4ba4-a51b-fa125597b2e2","geometry":{"type":"Point","coordinates":[-96.72483070009346,28.283903199870643]},"properties":{"substrate":"Buried Shell","lease_number":null,"poll_year":2025}},{"type":"Feature","id":"b7d6d87a-e2b9-4b9c-881c-cf8db87f406f","geometry":{"type":"Point","coordinates":[-96.72447070024336,28.283447200042293]},"properties":{"substrate":"Solid Reef","lease_number":null,"poll_year":2025}},{"type":"Feature","id":"b8be78e1-7c1d-4036-9f26-aadfe9a7fd39","geometry":{"type":"Point","coordinates":[-96.7237348003626,28.283629000262064]},"properties":{"substrate":"Solid Reef","lease_number":null,"poll_year":2025}},{"type":"Feature","id":"ca3597f2-ac50-425a-82a7-8167b01c7564","geometry":{"type":"Point","coordinates":[-96.72532490016219,28.2833234996779]},"properties":{"substrate":"Firm/Hard Bottom","lease_number":null,"poll_year":2025}},{"type":"Feature","id":"cbd9630d-83eb-489c-bc3c-ad68b32b7147","geometry":{"type":"Point","coordinates":[-96.72379180026401,28.283809199843763]},"properties":{"substrate":"Solid Reef","lease_number":null,"poll_year":2025}},{"type":"Feature","id":"cc63e64d-8102-4346-8f02-f14fecbab4f4","geometry":{"type":"Point","coordinates":[-96.72558710042732,28.284839600212727]},"properties":{"substrate":"Mud","lease_number":null,"poll_year":2025}},{"type":"Feature","id":"ceb0cabf-dd0a-409e-ac3a-82532687b97c","geometry":{"type":"Point","coordinates":[-96.72516109955666,28.28272510007303]},"properties":{"substrate":"Mud","lease_number":null,"poll_year":2025}},{"type":"Feature","id":"cf975794-43bc-4808-a3d6-e5ce445dddb2","geometry":{"type":"Point","coordinates":[-96.72414150003107,28.277326200030995]},"properties":{"substrate":"Mud","lease_number":null,"poll_year":2025}},{"type":"Feature","id":"d139ba1f-7059-40e0-8d03-99f13a10436c","geometry":{"type":"Point","coordinates":[-96.7237712998109,28.284641700026786]},"properties":{"substrate":"Solid Reef","lease_number":null,"poll_year":2025}},{"type":"Feature","id":"d49745c5-60a7-4981-8ea7-43200a2390ad","geometry":{"type":"Point","coordinates":[-96.72455409983434,28.28439879990935]},"properties":{"substrate":"Scattered Shell","lease_number":null,"poll_year":2025}},{"type":"Feature","id":"d4d02300-a91c-4a6e-ba15-44ff6021f802","geometry":{"type":"Point","coordinates":[-96.72532319965136,28.284740199657264]},"properties":{"substrate":"Mud","lease_number":null,"poll_year":2025}},{"type":"Feature","id":"d7a9db04-0ce4-464b-93c4-bc22ffdbe0d4","geometry":{"type":"Point","coordinates":[-96.72493289962671,28.284835500154237]},"properties":{"substrate":"Buried Shell","lease_number":null,"poll_year":2025}},{"type":"Feature","id":"dccd30bb-02a6-42dd-9153-0aba6ad77952","geometry":{"type":"Point","coordinates":[-96.72399509979259,28.2844732000742]},"properties":{"substrate":"Solid Reef","lease_number":null,"poll_year":2025}},{"type":"Feature","id":"dd045056-cbf0-4be1-a6da-1afc50defd18","geometry":{"type":"Point","coordinates":[-96.7248194998985,28.282379300221667]},"properties":{"substrate":"Firm/Hard Bottom","lease_number":null,"poll_year":2025}},{"type":"Feature","id":"dd71de02-7fe0-44f8-9b9b-dad0040d3065","geometry":{"type":"Point","coordinates":[-96.72470290037126,28.28483589963902]},"properties":{"substrate":"Scattered Shell","lease_number":null,"poll_year":2025}},{"type":"Feature","id":"de2c49af-b121-469e-98e8-87d6dbcc1e37","geometry":{"type":"Point","coordinates":[-96.7246220996064,28.283276600280455]},"properties":{"substrate":"Mud","lease_number":null,"poll_year":2025}},{"type":"Feature","id":"de9b1f48-a616-4e10-895d-a07019d0c8a1","geometry":{"type":"Point","coordinates":[-96.72474529995435,28.284256399916686]},"properties":{"substrate":"Mud","lease_number":null,"poll_year":2025}},{"type":"Feature","id":"e00e8978-5852-4ba8-a735-0c369987b5d0","geometry":{"type":"Point","coordinates":[-96.72395460014633,28.284341099816942]},"properties":{"substrate":"Solid Reef","lease_number":null,"poll_year":2025}},{"type":"Feature","id":"e3fb6e15-9031-450d-a3fa-2b3f0b54f629","geometry":{"type":"Point","coordinates":[-96.723882399852,28.284972699748767]},"properties":{"substrate":"Solid Reef","lease_number":null,"poll_year":2025}},{"type":"Feature","id":"e49ffe4e-39ed-44c2-8485-9c92272964a9","geometry":{"type":"Point","coordinates":[-96.72457000001485,28.283115300084983]},"properties":{"substrate":"Mud","lease_number":null,"poll_year":2025}},{"type":"Feature","id":"e6a858b5-7d9d-4169-8525-6ba24c3340e8","geometry":{"type":"Point","coordinates":[-96.72497449970919,28.282229500155257]},"properties":{"substrate":"Firm/Hard Bottom","lease_number":null,"poll_year":2025}},{"type":"Feature","id":"e895673f-be6a-41e8-a3d8-95db99def1d4","geometry":{"type":"Point","coordinates":[-96.7258683997737,28.281833499854155]},"properties":{"substrate":"Firm/Hard Bottom","lease_number":null,"poll_year":2025}},{"type":"Feature","id":"e8ac8a60-9411-4b9d-a9bf-3252dc3a9cc3","geometry":{"type":"Point","coordinates":[-96.72631559998675,28.283149899974877]},"properties":{"substrate":"Mud","lease_number":null,"poll_year":2025}},{"type":"Feature","id":"f089e541-f960-4d47-8001-9ad487c018ad","geometry":{"type":"Point","coordinates":[-96.72650330027042,28.28373699996367]},"properties":{"substrate":"Mud","lease_number":null,"poll_year":2025}},{"type":"Feature","id":"f117c9f4-f75c-48f0-beac-4973c5e9e4e5","geometry":{"type":"Point","coordinates":[-96.72483769976616,28.283084800309933]},"properties":{"substrate":"Mud","lease_number":null,"poll_year":2025}},{"type":"Feature","id":"f37aa1ec-3563-4cfe-957c-8b26f43d7a27","geometry":{"type":"Point","coordinates":[-96.72641480004526,28.28347220020145]},"properties":{"substrate":"Mud","lease_number":null,"poll_year":2025}},{"type":"Feature","id":"f539600b-2b77-48a0-9d45-67f0efa30b13","geometry":{"type":"Point","coordinates":[-96.72505640001197,28.283815499897806]},"properties":{"substrate":"Mud","lease_number":null,"poll_year":2025}},{"type":"Feature","id":"f61fbf19-ba15-445d-b03c-7dc8cdd77f64","geometry":{"type":"Point","coordinates":[-96.72445489977582,28.28270460016301]},"properties":{"substrate":"Mud","lease_number":null,"poll_year":2025}},{"type":"Feature","id":"f6eab508-5d4d-4392-96f6-6db32eb62e33","geometry":{"type":"Point","coordinates":[-96.72435610036592,28.28378280036661]},"properties":{"substrate":"Scattered Shell","lease_number":null,"poll_year":2025}},{"type":"Feature","id":"f7c336ac-e964-4836-90e2-669421886f5f","geometry":{"type":"Point","coordinates":[-96.7245296000816,28.282469300245776]},"properties":{"substrate":"Mud","lease_number":null,"poll_year":2025}},{"type":"Feature","id":"f9552d77-7ce4-41f4-8b4d-9d2102a608c0","geometry":{"type":"Point","coordinates":[-96.72453089994382,28.282978799778732]},"properties":{"substrate":"Mud","lease_number":null,"poll_year":2025}},{"type":"Feature","id":"fde800f6-9c39-4357-9b88-772a631e9a00","geometry":{"type":"Point","coordinates":[-96.72480449982989,28.284438000198335]},"properties":{"substrate":"Mud","lease_number":null,"poll_year":2025}}]}