{"type":"FeatureCollection","features":[{"type":"Feature","id":"0431a9d1-76ac-40ec-8761-f89162f88915","geometry":{"type":"Point","coordinates":[-96.72353770010781,28.286442100291257]},"properties":{"substrate":"Solid Reef","lease_number":null,"poll_year":2025}},{"type":"Feature","id":"084fe444-09fd-4eac-af7c-07dd05eef2d1","geometry":{"type":"Point","coordinates":[-96.72316360030099,28.286084499766844]},"properties":{"substrate":"Mud","lease_number":null,"poll_year":2025}},{"type":"Feature","id":"0bd38139-b34d-4485-9867-c2fe9e267460","geometry":{"type":"Point","coordinates":[-96.72357710021618,28.287271600037645]},"properties":{"substrate":"Scattered Shell","lease_number":null,"poll_year":2025}},{"type":"Feature","id":"12565548-a5a6-4493-8439-6b4d1c0a513f","geometry":{"type":"Point","coordinates":[-96.72355360028833,28.28524569982062]},"properties":{"substrate":"Solid Reef","lease_number":null,"poll_year":2025}},{"type":"Feature","id":"17a1f04a-865a-4525-9d96-d5fa91dca1e2","geometry":{"type":"Point","coordinates":[-96.72356240018485,28.28594659994296]},"properties":{"substrate":"Mud","lease_number":null,"poll_year":2025}},{"type":"Feature","id":"1a44f6a8-6102-4850-9f5b-76502a905a7a","geometry":{"type":"Point","coordinates":[-96.72361710039914,28.285440599996555]},"properties":{"substrate":"Solid Reef","lease_number":null,"poll_year":2025}},{"type":"Feature","id":"1dd5165e-0d9e-446c-ba81-beed5218c3da","geometry":{"type":"Point","coordinates":[-96.72301770042412,28.286141499626925]},"properties":{"substrate":"Mud","lease_number":null,"poll_year":2025}},{"type":"Feature","id":"204a815b-d3f1-4c8a-a9f7-e42f3063d53a","geometry":{"type":"Point","coordinates":[-96.72325070005262,28.28635890030653]},"properties":{"substrate":"Mud","lease_number":null,"poll_year":2025}},{"type":"Feature","id":"2282890c-149c-4424-b511-1c9fc0f5d80a","geometry":{"type":"Point","coordinates":[-96.72357819975406,28.285327699853276]},"properties":{"substrate":"Solid Reef","lease_number":null,"poll_year":2025}},{"type":"Feature","id":"22cf2b84-37e3-4834-8098-2c82744d8fc4","geometry":{"type":"Point","coordinates":[-96.72288510010503,28.285218200340577]},"properties":{"substrate":"Mud","lease_number":null,"poll_year":2025}},{"type":"Feature","id":"2971f952-b8cb-4a53-931b-30d1b3a04b38","geometry":{"type":"Point","coordinates":[-96.72327959975362,28.285637100115924]},"properties":{"substrate":"Mud","lease_number":null,"poll_year":2025}},{"type":"Feature","id":"37d9083d-fb50-4c89-9f10-62f45819d8e5","geometry":{"type":"Point","coordinates":[-96.72321250009348,28.286747099897873]},"properties":{"substrate":"Mud","lease_number":null,"poll_year":2025}},{"type":"Feature","id":"396a51b2-baf6-4f38-aa50-f63df004df50","geometry":{"type":"Point","coordinates":[-96.72358150016441,28.28791900014367]},"properties":{"substrate":"Mud","lease_number":null,"poll_year":2025}},{"type":"Feature","id":"3c00ea70-08da-4fff-a7fc-3ed9fc5dea41","geometry":{"type":"Point","coordinates":[-96.72352050006505,28.28581420012299]},"properties":{"substrate":"Mud","lease_number":null,"poll_year":2025}},{"type":"Feature","id":"3db2c68b-4b99-4cbb-ad56-93c468609dd7","geometry":{"type":"Point","coordinates":[-96.72312659959275,28.285141800113962]},"properties":{"substrate":"Mud","lease_number":null,"poll_year":2025}},{"type":"Feature","id":"407e3efa-6f5a-487f-ac59-640f4fa51315","geometry":{"type":"Point","coordinates":[-96.72339939997823,28.28736039987385]},"properties":{"substrate":"Mud","lease_number":null,"poll_year":2025}},{"type":"Feature","id":"43182bb6-add7-44c7-a2d4-f3e34d872dea","geometry":{"type":"Point","coordinates":[-96.72359870020718,28.286054599667022]},"properties":{"substrate":"Mud","lease_number":null,"poll_year":2025}},{"type":"Feature","id":"432ff077-64e9-482a-b698-5678c366ae15","geometry":{"type":"Point","coordinates":[-96.72347139994827,28.28565280014365]},"properties":{"substrate":"Solid Reef","lease_number":null,"poll_year":2025}},{"type":"Feature","id":"459c8a88-c7c9-4b45-aa97-1e7b66445a1d","geometry":{"type":"Point","coordinates":[-96.7233552998843,28.285250599620785]},"properties":{"substrate":"Mud","lease_number":null,"poll_year":2025}},{"type":"Feature","id":"49baf229-072f-440e-a0a1-322da27b9c83","geometry":{"type":"Point","coordinates":[-96.72292659957621,28.28547429970222]},"properties":{"substrate":"Mud","lease_number":null,"poll_year":2025}},{"type":"Feature","id":"4b99eee7-bfe6-4e37-bd76-cf8de9820057","geometry":{"type":"Point","coordinates":[-96.72349940043566,28.2863341001692]},"properties":{"substrate":"Buried Shell","lease_number":null,"poll_year":2025}},{"type":"Feature","id":"4e83bf09-dd33-4bb3-a336-29137f095f6d","geometry":{"type":"Point","coordinates":[-96.72304310028878,28.285709800234887]},"properties":{"substrate":"Mud","lease_number":null,"poll_year":2025}},{"type":"Feature","id":"50ae4959-7bc3-4434-9c4f-d3467bd50d7b","geometry":{"type":"Point","coordinates":[-96.72322139970301,28.285443200192514]},"properties":{"substrate":"Mud","lease_number":null,"poll_year":2025}},{"type":"Feature","id":"50d24b02-62f9-403c-80fa-07d162abeeff","geometry":{"type":"Point","coordinates":[-96.72320419966026,28.286222799682694]},"properties":{"substrate":"Mud","lease_number":null,"poll_year":2025}},{"type":"Feature","id":"50e728d3-953c-46d7-9bb3-a0e50bc812ee","geometry":{"type":"Point","coordinates":[-96.72330820031564,28.28508939971561]},"properties":{"substrate":"Mud","lease_number":null,"poll_year":2025}},{"type":"Feature","id":"51077d1b-9211-4a95-9ea7-3bb70c4feddb","geometry":{"type":"Point","coordinates":[-96.72332499970977,28.285780400061288]},"properties":{"substrate":"Mud","lease_number":null,"poll_year":2025}},{"type":"Feature","id":"51832380-a0f3-4a39-970d-fd699ce8e38b","geometry":{"type":"Point","coordinates":[-96.7234319998399,28.286871199717293]},"properties":{"substrate":"Scattered Shell","lease_number":null,"poll_year":2025}},{"type":"Feature","id":"538aa47c-a0cb-4b12-8c44-177fc1b4c3d0","geometry":{"type":"Point","coordinates":[-96.72353559984666,28.28716479997616]},"properties":{"substrate":"Scattered Shell","lease_number":null,"poll_year":2025}},{"type":"Feature","id":"5591ae9d-f601-48fc-9f2f-d27c7216ff93","geometry":{"type":"Point","coordinates":[-96.72338439990962,28.286734799942334]},"properties":{"substrate":"Scattered Shell","lease_number":null,"poll_year":2025}},{"type":"Feature","id":"5c01c7d7-0bf3-4802-b11d-20b72adb4cc6","geometry":{"type":"Point","coordinates":[-96.72346989976172,28.28697800007327]},"properties":{"substrate":"Scattered Shell","lease_number":null,"poll_year":2025}},{"type":"Feature","id":"5c9e8ec9-797b-4183-8e2a-11b6e10e8b1f","geometry":{"type":"Point","coordinates":[-96.72349910039836,28.285085400130992]},"properties":{"substrate":"Solid Reef","lease_number":null,"poll_year":2025}},{"type":"Feature","id":"70c7220d-52e1-43da-a3fb-44a115b9bbb4","geometry":{"type":"Point","coordinates":[-96.72339449966834,28.28538499992835]},"properties":{"substrate":"Mud","lease_number":null,"poll_year":2025}},{"type":"Feature","id":"72f0a6de-d177-4e98-b5fe-30f3a497d58c","geometry":{"type":"Point","coordinates":[-96.72311420014687,28.28644480013469]},"properties":{"substrate":"Mud","lease_number":null,"poll_year":2025}},{"type":"Feature","id":"7388873e-b264-4d06-923f-59fda046b6e2","geometry":{"type":"Point","coordinates":[-96.7234316000896,28.28551899979298]},"properties":{"substrate":"Solid Reef","lease_number":null,"poll_year":2025}},{"type":"Feature","id":"7638ac89-c260-4908-9802-35a637b81af2","geometry":{"type":"Point","coordinates":[-96.72317430013433,28.28663729966553]},"properties":{"substrate":"Mud","lease_number":null,"poll_year":2025}},{"type":"Feature","id":"766ed86c-a605-4901-9abd-961c4feb4e6c","geometry":{"type":"Point","coordinates":[-96.72345590041634,28.286189899964395]},"properties":{"substrate":"Buried Shell","lease_number":null,"poll_year":2025}},{"type":"Feature","id":"77f10603-d497-4943-bd6c-e2dc91a9ca58","geometry":{"type":"Point","coordinates":[-96.72334189971521,28.287162800222863]},"properties":{"substrate":"Mud","lease_number":null,"poll_year":2025}},{"type":"Feature","id":"7889adb9-5640-4480-bccf-f8affaa3e8d5","geometry":{"type":"Point","coordinates":[-96.72354580021671,28.287807500390624]},"properties":{"substrate":"Mud","lease_number":null,"poll_year":2025}},{"type":"Feature","id":"7af4e1b1-aa83-4f11-a2ab-23025d1db972","geometry":{"type":"Point","coordinates":[-96.72360919971622,28.28737989980393]},"properties":{"substrate":"Mud","lease_number":null,"poll_year":2025}},{"type":"Feature","id":"8597dff8-2cb9-4963-9e17-0e74435e850f","geometry":{"type":"Point","coordinates":[-96.72298719992529,28.285103199705276]},"properties":{"substrate":"Mud","lease_number":null,"poll_year":2025}},{"type":"Feature","id":"87ba5d51-a371-4550-8a79-19fce84bebf1","geometry":{"type":"Point","coordinates":[-96.72316830028656,28.285278200347594]},"properties":{"substrate":"Mud","lease_number":null,"poll_year":2025}},{"type":"Feature","id":"96cc1264-03e6-48f6-8396-a99726efb004","geometry":{"type":"Point","coordinates":[-96.72331499966403,28.286546700387078]},"properties":{"substrate":"Mud","lease_number":null,"poll_year":2025}},{"type":"Feature","id":"afc095c2-221b-4ac1-88c4-948795d306bf","geometry":{"type":"Point","coordinates":[-96.72313580013788,28.286002100045554]},"properties":{"substrate":"Mud","lease_number":null,"poll_year":2025}},{"type":"Feature","id":"bea3456a-e40c-473d-93e1-f58f91b68b64","geometry":{"type":"Point","coordinates":[-96.72339930026524,28.286024099942825]},"properties":{"substrate":"Mud","lease_number":null,"poll_year":2025}},{"type":"Feature","id":"d4e44ff7-f83a-45db-8aef-b2cb23bbd977","geometry":{"type":"Point","coordinates":[-96.7229392002447,28.285699099667717]},"properties":{"substrate":"Mud","lease_number":null,"poll_year":2025}},{"type":"Feature","id":"d72daf11-e998-4884-a75b-6903eab2f819","geometry":{"type":"Point","coordinates":[-96.72348399971843,28.287611000321714]},"properties":{"substrate":"Mud","lease_number":null,"poll_year":2025}},{"type":"Feature","id":"db348910-5b80-4cdb-9eb2-96336e450d9e","geometry":{"type":"Point","coordinates":[-96.72295920033618,28.285920999957145]},"properties":{"substrate":"Mud","lease_number":null,"poll_year":2025}},{"type":"Feature","id":"e0408562-3913-4e89-beb8-d336f0203431","geometry":{"type":"Point","coordinates":[-96.72344620040789,28.287500299986693]},"properties":{"substrate":"Scattered Shell","lease_number":null,"poll_year":2025}},{"type":"Feature","id":"ea099bec-1ba1-40f2-af02-13b8f570d506","geometry":{"type":"Point","coordinates":[-96.723615099851,28.28802999984565]},"properties":{"substrate":"Mud","lease_number":null,"poll_year":2025}},{"type":"Feature","id":"ecd4b6ec-e985-4982-bed3-9705e47b1903","geometry":{"type":"Point","coordinates":[-96.72297800027846,28.285355600369957]},"properties":{"substrate":"Mud","lease_number":null,"poll_year":2025}},{"type":"Feature","id":"f8e67f24-34d5-4e65-8b6c-66c9177005cb","geometry":{"type":"Point","coordinates":[-96.72360389965603,28.286664499763887]},"properties":{"substrate":"Solid Reef","lease_number":null,"poll_year":2025}}]}