{"type":"FeatureCollection","features":[{"type":"Feature","id":"015c3e87-65b9-4c41-a24d-f3c249dd21d3","geometry":{"type":"Point","coordinates":[-96.716145900216,28.350904999880715]},"properties":{"substrate":"Firm/Hard Bottom","lease_number":null,"poll_year":2025}},{"type":"Feature","id":"015f9ab7-ea52-4b20-b7b0-03978e25a349","geometry":{"type":"Point","coordinates":[-96.7150893996952,28.348789400213796]},"properties":{"substrate":"Firm/Hard Bottom","lease_number":null,"poll_year":2025}},{"type":"Feature","id":"0161ad70-f59a-47c5-802d-a50c70b18e09","geometry":{"type":"Point","coordinates":[-96.71612729969974,28.351584099998536]},"properties":{"substrate":"Mud","lease_number":null,"poll_year":2025}},{"type":"Feature","id":"0221b238-9b15-4ce0-96fe-5551eaef08d3","geometry":{"type":"Point","coordinates":[-96.7162374996289,28.35096479997632]},"properties":{"substrate":"Firm/Hard Bottom","lease_number":null,"poll_year":2025}},{"type":"Feature","id":"0421d62d-8d1b-426f-84b3-d739ee7f2075","geometry":{"type":"Point","coordinates":[-96.71710330039132,28.35376079987413]},"properties":{"substrate":"Solid Reef","lease_number":null,"poll_year":2025}},{"type":"Feature","id":"052c44ac-35cf-40a4-89a4-8b51cb4aae40","geometry":{"type":"Point","coordinates":[-96.7154977001615,28.350004799694904]},"properties":{"substrate":"Firm/Hard Bottom","lease_number":null,"poll_year":2025}},{"type":"Feature","id":"05441796-4536-427c-b991-3ff9ab79f7e6","geometry":{"type":"Point","coordinates":[-96.71606559981277,28.35142620003889]},"properties":{"substrate":"Mud","lease_number":null,"poll_year":2025}},{"type":"Feature","id":"080fad27-a546-4677-a82d-b9228e69cefc","geometry":{"type":"Point","coordinates":[-96.71585119980222,28.350791199989175]},"properties":{"substrate":"Firm/Hard Bottom","lease_number":null,"poll_year":2025}},{"type":"Feature","id":"0af42fed-0293-4bdd-8343-af91a0557da4","geometry":{"type":"Point","coordinates":[-96.71498710044895,28.348274099914875]},"properties":{"substrate":"Firm/Hard Bottom","lease_number":null,"poll_year":2025}},{"type":"Feature","id":"0b56ad3e-dff3-444a-b39f-182be65b6690","geometry":{"type":"Point","coordinates":[-96.7142510002439,28.344520600078642]},"properties":{"substrate":"Scattered Shell","lease_number":null,"poll_year":2025}},{"type":"Feature","id":"0b616f57-1923-4581-8e9a-403344e534e4","geometry":{"type":"Point","coordinates":[-96.71629029990636,28.356077899818978]},"properties":{"substrate":"Firm/Hard Bottom","lease_number":null,"poll_year":2025}},{"type":"Feature","id":"0f672acb-9d4e-49f8-91be-3671afddbb40","geometry":{"type":"Point","coordinates":[-96.71661160033403,28.35567020027608]},"properties":{"substrate":"Firm/Hard Bottom","lease_number":null,"poll_year":2025}},{"type":"Feature","id":"100d9482-2c5a-494f-ae3b-19fcb2f58595","geometry":{"type":"Point","coordinates":[-96.71414449957706,28.35261500037564]},"properties":{"substrate":"Firm/Hard Bottom","lease_number":null,"poll_year":2025}},{"type":"Feature","id":"143b4b76-faa9-4098-bd83-3b6b05c80592","geometry":{"type":"Point","coordinates":[-96.71355640040832,28.351476499641954]},"properties":{"substrate":"Firm/Hard Bottom","lease_number":null,"poll_year":2025}},{"type":"Feature","id":"151a3a1e-8cc5-4f07-b70c-206bb7258d75","geometry":{"type":"Point","coordinates":[-96.71350159958274,28.35159440023709]},"properties":{"substrate":"Firm/Hard Bottom","lease_number":null,"poll_year":2025}},{"type":"Feature","id":"1566a894-6a8f-49c3-b1ae-e9477be1b93b","geometry":{"type":"Point","coordinates":[-96.71436449968509,28.34507669989254]},"properties":{"substrate":"Mud","lease_number":null,"poll_year":2025}},{"type":"Feature","id":"18ae829a-4106-4d05-869d-9a272ed5de22","geometry":{"type":"Point","coordinates":[-96.71494139955719,28.356316999806197]},"properties":{"substrate":"Firm/Hard Bottom","lease_number":null,"poll_year":2025}},{"type":"Feature","id":"1c254eaa-57a2-4494-ad02-dcf02045f5fc","geometry":{"type":"Point","coordinates":[-96.71432029987818,28.344843199803393]},"properties":{"substrate":"Mud","lease_number":null,"poll_year":2025}},{"type":"Feature","id":"1cf6ccaa-7607-4857-a926-d14011d70d7f","geometry":{"type":"Point","coordinates":[-96.7153640003045,28.356381600094547]},"properties":{"substrate":"Firm/Hard Bottom","lease_number":null,"poll_year":2025}},{"type":"Feature","id":"1d7ae88e-e9c3-439d-bc24-a2e803f33ac4","geometry":{"type":"Point","coordinates":[-96.71703800005668,28.35170459984081]},"properties":{"substrate":"Firm/Hard Bottom","lease_number":null,"poll_year":2025}},{"type":"Feature","id":"1e49e584-a5d7-4941-982f-6959049c3d75","geometry":{"type":"Point","coordinates":[-96.71655009987305,28.35575210015983]},"properties":{"substrate":"Firm/Hard Bottom","lease_number":null,"poll_year":2025}},{"type":"Feature","id":"22ca1b76-c9a4-4e35-9eb1-c7a8ff9a4ab1","geometry":{"type":"Point","coordinates":[-96.71385440033416,28.351032799795554]},"properties":{"substrate":"Firm/Hard Bottom","lease_number":null,"poll_year":2025}},{"type":"Feature","id":"23f0d78d-7078-4489-a180-fd574d1b1d0a","geometry":{"type":"Point","coordinates":[-96.71440239960693,28.350782299769495]},"properties":{"substrate":"Firm/Hard Bottom","lease_number":null,"poll_year":2025}},{"type":"Feature","id":"28ffbe38-995d-483f-b424-69dbade42781","geometry":{"type":"Point","coordinates":[-96.71617220019257,28.356216599632496]},"properties":{"substrate":"Firm/Hard Bottom","lease_number":null,"poll_year":2025}},{"type":"Feature","id":"2cefed0b-56ae-4867-a819-ad8386d9a483","geometry":{"type":"Point","coordinates":[-96.71429700027466,28.344705999949007]},"properties":{"substrate":"Firm/Hard Bottom","lease_number":null,"poll_year":2025}},{"type":"Feature","id":"30ff4978-6b75-4ac9-9ceb-c6048cc18161","geometry":{"type":"Point","coordinates":[-96.71715850006889,28.353235599924126]},"properties":{"substrate":"Firm/Hard Bottom","lease_number":null,"poll_year":2025}},{"type":"Feature","id":"310593f0-8ce0-4180-a67b-fbc84d6686da","geometry":{"type":"Point","coordinates":[-96.71457319988515,28.34611079976713]},"properties":{"substrate":"Mud","lease_number":null,"poll_year":2025}},{"type":"Feature","id":"3240d91c-cf0c-44af-8b35-4dcc7ed5b444","geometry":{"type":"Point","coordinates":[-96.71717780037277,28.35298430031294]},"properties":{"substrate":"Firm/Hard Bottom","lease_number":null,"poll_year":2025}},{"type":"Feature","id":"3381b71b-9225-412c-a3b5-fc35ca087465","geometry":{"type":"Point","coordinates":[-96.71446549996743,28.345600899757684]},"properties":{"substrate":"Firm/Hard Bottom","lease_number":null,"poll_year":2025}},{"type":"Feature","id":"359bc65f-13fa-494d-a885-880f24bcdd71","geometry":{"type":"Point","coordinates":[-96.7171309999431,28.35209029992487]},"properties":{"substrate":"Firm/Hard Bottom","lease_number":null,"poll_year":2025}},{"type":"Feature","id":"36646586-467d-4b1a-ba5f-e10abdc6d77d","geometry":{"type":"Point","coordinates":[-96.71711370018734,28.353661100079346]},"properties":{"substrate":"Solid Reef","lease_number":null,"poll_year":2025}},{"type":"Feature","id":"366765b4-2ab5-4176-ae6c-ea9c97451462","geometry":{"type":"Point","coordinates":[-96.71694489955894,28.355087299837066]},"properties":{"substrate":"Firm/Hard Bottom","lease_number":null,"poll_year":2025}},{"type":"Feature","id":"3a79bb2f-729c-42a6-932d-dbd81c7489c7","geometry":{"type":"Point","coordinates":[-96.71624019996464,28.35613419970245]},"properties":{"substrate":"Firm/Hard Bottom","lease_number":null,"poll_year":2025}},{"type":"Feature","id":"3d3ce2f0-16f2-4740-9921-4ab91d8bbb22","geometry":{"type":"Point","coordinates":[-96.71505110002305,28.352929799637696]},"properties":{"substrate":"Firm/Hard Bottom","lease_number":null,"poll_year":2025}},{"type":"Feature","id":"3e976356-08f8-4b3a-9800-d37e5ac0860f","geometry":{"type":"Point","coordinates":[-96.71343489967289,28.351858400330467]},"properties":{"substrate":"Firm/Hard Bottom","lease_number":null,"poll_year":2025}},{"type":"Feature","id":"4287f4d2-8e3f-4d59-8b3c-bd9af30c68ae","geometry":{"type":"Point","coordinates":[-96.71717739972415,28.35236390009698]},"properties":{"substrate":"Firm/Hard Bottom","lease_number":null,"poll_year":2025}},{"type":"Feature","id":"42a4bb0c-5bdf-4cb1-ae57-43cbf3b1db71","geometry":{"type":"Point","coordinates":[-96.71709349977156,28.353863899711737]},"properties":{"substrate":"Solid Reef","lease_number":null,"poll_year":2025}},{"type":"Feature","id":"439d3168-f1e1-49cc-901a-6c9914d13bdb","geometry":{"type":"Point","coordinates":[-96.71402829980012,28.34428160002664]},"properties":{"substrate":"Solid Reef","lease_number":null,"poll_year":2025}},{"type":"Feature","id":"43df5a9b-16a2-43f3-adca-f9e22c70da76","geometry":{"type":"Point","coordinates":[-96.7168770003982,28.355295500051266]},"properties":{"substrate":"Firm/Hard Bottom","lease_number":null,"poll_year":2025}},{"type":"Feature","id":"442d9848-6a81-4238-a7c3-c24b7215f76c","geometry":{"type":"Point","coordinates":[-96.71717899962368,28.3528853002188]},"properties":{"substrate":"Firm/Hard Bottom","lease_number":null,"poll_year":2025}},{"type":"Feature","id":"4700bfae-7a64-4372-9bfc-6da889b20699","geometry":{"type":"Point","coordinates":[-96.71678540008699,28.35135149964922]},"properties":{"substrate":"Firm/Hard Bottom","lease_number":null,"poll_year":2025}},{"type":"Feature","id":"496c047b-65e6-4bd0-a676-9a766e43be0a","geometry":{"type":"Point","coordinates":[-96.71525959989881,28.35075080035403]},"properties":{"substrate":"Firm/Hard Bottom","lease_number":null,"poll_year":2025}},{"type":"Feature","id":"4b0c2cd6-abf1-4c0e-aa17-39c9ddc4a435","geometry":{"type":"Point","coordinates":[-96.71634060017239,28.356018199838335]},"properties":{"substrate":"Firm/Hard Bottom","lease_number":null,"poll_year":2025}},{"type":"Feature","id":"4b39d378-b2b2-4124-a7ce-c9cbc0d934a2","geometry":{"type":"Point","coordinates":[-96.71668659977878,28.355565299777638]},"properties":{"substrate":"Firm/Hard Bottom","lease_number":null,"poll_year":2025}},{"type":"Feature","id":"520f3490-e1b5-4bad-b82c-f1116ceb0aae","geometry":{"type":"Point","coordinates":[-96.7170822995766,28.354167399989016]},"properties":{"substrate":"Scattered Shell","lease_number":null,"poll_year":2025}},{"type":"Feature","id":"540d49f1-9dbc-47f7-8adc-953fa577ecbb","geometry":{"type":"Point","coordinates":[-96.71639019975247,28.355957899811898]},"properties":{"substrate":"Firm/Hard Bottom","lease_number":null,"poll_year":2025}},{"type":"Feature","id":"55177da6-e643-42e2-8a32-292d973e759d","geometry":{"type":"Point","coordinates":[-96.71371140021903,28.35114999965151]},"properties":{"substrate":"Buried Shell","lease_number":null,"poll_year":2025}},{"type":"Feature","id":"55214801-ccdd-4d72-be3c-780ac55978a0","geometry":{"type":"Point","coordinates":[-96.71708860036,28.353929699959092]},"properties":{"substrate":"Solid Reef","lease_number":null,"poll_year":2025}},{"type":"Feature","id":"5643d728-03fe-48df-9227-9a7b62aed192","geometry":{"type":"Point","coordinates":[-96.7141753998262,28.344301000181922]},"properties":{"substrate":"Solid Reef","lease_number":null,"poll_year":2025}},{"type":"Feature","id":"564a1018-ae91-4eac-841c-db6276651311","geometry":{"type":"Point","coordinates":[-96.71712620024454,28.353511700020505]},"properties":{"substrate":"Solid Reef","lease_number":null,"poll_year":2025}},{"type":"Feature","id":"5996af08-2232-4fd2-9cb5-88cca325e69e","geometry":{"type":"Point","coordinates":[-96.71538570000851,28.349730900140273]},"properties":{"substrate":"Firm/Hard Bottom","lease_number":null,"poll_year":2025}},{"type":"Feature","id":"61a8c1b4-7185-46e2-9c28-e62650198e93","geometry":{"type":"Point","coordinates":[-96.71698810043927,28.354919000030755]},"properties":{"substrate":"Firm/Hard Bottom","lease_number":null,"poll_year":2025}},{"type":"Feature","id":"6377c1ba-f425-48d4-adbe-a294f86439fe","geometry":{"type":"Point","coordinates":[-96.71617509995433,28.35168700035656]},"properties":{"substrate":"Firm/Hard Bottom","lease_number":null,"poll_year":2025}},{"type":"Feature","id":"64690773-7590-4cf1-98eb-84d48febba4d","geometry":{"type":"Point","coordinates":[-96.71466890010733,28.350728099961305]},"properties":{"substrate":"Firm/Hard Bottom","lease_number":null,"poll_year":2025}},{"type":"Feature","id":"67491f38-c673-432c-9518-02617749a4ef","geometry":{"type":"Point","coordinates":[-96.71569390030439,28.350497300237855]},"properties":{"substrate":"Mud","lease_number":null,"poll_year":2025}},{"type":"Feature","id":"6772f9d6-1166-4674-80a3-dd2ff8f763c4","geometry":{"type":"Point","coordinates":[-96.71494389956862,28.348040999778163]},"properties":{"substrate":"Firm/Hard Bottom","lease_number":null,"poll_year":2025}},{"type":"Feature","id":"67fe6a1c-b4e5-488b-93e5-b58d97ce44b6","geometry":{"type":"Point","coordinates":[-96.715293600234,28.35292930000851]},"properties":{"substrate":"Solid Reef","lease_number":null,"poll_year":2025}},{"type":"Feature","id":"6801df34-25a9-42ee-8570-0fceaa583310","geometry":{"type":"Point","coordinates":[-96.71463769982088,28.3464573996731]},"properties":{"substrate":"Mud","lease_number":null,"poll_year":2025}},{"type":"Feature","id":"686abe06-aea4-40c2-8623-0f5a50bc5df6","geometry":{"type":"Point","coordinates":[-96.71365299984409,28.351264600000764]},"properties":{"substrate":"Firm/Hard Bottom","lease_number":null,"poll_year":2025}},{"type":"Feature","id":"69b26c97-ccf3-4257-841b-d91c072f8f6a","geometry":{"type":"Point","coordinates":[-96.71619889991946,28.35296779990838]},"properties":{"substrate":"Firm/Hard Bottom","lease_number":null,"poll_year":2025}},{"type":"Feature","id":"70797712-3061-4a22-9bcd-5aab4d3c9bfc","geometry":{"type":"Point","coordinates":[-96.71698700000304,28.351618699752063]},"properties":{"substrate":"Firm/Hard Bottom","lease_number":null,"poll_year":2025}},{"type":"Feature","id":"71458bfa-1a70-4a2f-9105-cf74ab599ec1","geometry":{"type":"Point","coordinates":[-96.71710859955317,28.353717900079385]},"properties":{"substrate":"Solid Reef","lease_number":null,"poll_year":2025}},{"type":"Feature","id":"71ba99b9-4bac-4e56-82f3-b30fa8aad7ad","geometry":{"type":"Point","coordinates":[-96.71706029983528,28.35458210000296]},"properties":{"substrate":"Firm/Hard Bottom","lease_number":null,"poll_year":2025}},{"type":"Feature","id":"724c1e86-9aec-459b-a6ed-e70e331b7564","geometry":{"type":"Point","coordinates":[-96.71707020016804,28.354459800202157]},"properties":{"substrate":"Firm/Hard Bottom","lease_number":null,"poll_year":2025}},{"type":"Feature","id":"76ef815b-0a4d-4813-b846-f894a9ccafa4","geometry":{"type":"Point","coordinates":[-96.7147666996923,28.347053400233307]},"properties":{"substrate":"Mud","lease_number":null,"poll_year":2025}},{"type":"Feature","id":"79217628-48d4-47b0-9593-b0cf0b2c2042","geometry":{"type":"Point","coordinates":[-96.71423929968732,28.35266619985711]},"properties":{"substrate":"Firm/Hard Bottom","lease_number":null,"poll_year":2025}},{"type":"Feature","id":"81f7ffec-f46e-4cab-8728-bffacf201980","geometry":{"type":"Point","coordinates":[-96.71717359985051,28.353079199724814]},"properties":{"substrate":"Firm/Hard Bottom","lease_number":null,"poll_year":2025}},{"type":"Feature","id":"869fb8e6-d918-40c5-a315-09051c4d7d60","geometry":{"type":"Point","coordinates":[-96.71711789981131,28.353606700151058]},"properties":{"substrate":"Solid Reef","lease_number":null,"poll_year":2025}},{"type":"Feature","id":"896227f2-345f-4c6d-8521-0a8a548f1747","geometry":{"type":"Point","coordinates":[-96.7168279002814,28.35538000029129]},"properties":{"substrate":"Firm/Hard Bottom","lease_number":null,"poll_year":2025}},{"type":"Feature","id":"90d4dcd2-ebcf-4dc4-af1d-c1164d059d95","geometry":{"type":"Point","coordinates":[-96.71473189985652,28.352882399680425]},"properties":{"substrate":"Firm/Hard Bottom","lease_number":null,"poll_year":2025}},{"type":"Feature","id":"912a8e84-1277-4c11-ae78-f743e91f2a6e","geometry":{"type":"Point","coordinates":[-96.71337210024802,28.35605870023803]},"properties":{"substrate":"Firm/Hard Bottom","lease_number":null,"poll_year":2025}},{"type":"Feature","id":"93302f30-cdb7-45f3-94c5-80fa8a74ff9e","geometry":{"type":"Point","coordinates":[-96.71407059967022,28.356189300324736]},"properties":{"substrate":"Firm/Hard Bottom","lease_number":null,"poll_year":2025}},{"type":"Feature","id":"937a427a-7c85-45e4-8b9e-0c4cae131386","geometry":{"type":"Point","coordinates":[-96.71448920021957,28.34571930021457]},"properties":{"substrate":"Mud","lease_number":null,"poll_year":2025}},{"type":"Feature","id":"97c84c4d-46f3-4d0a-b23a-260832d90e99","geometry":{"type":"Point","coordinates":[-96.71366350025146,28.356113299704248]},"properties":{"substrate":"Firm/Hard Bottom","lease_number":null,"poll_year":2025}},{"type":"Feature","id":"9cd5dca6-cc29-4290-b0e7-25313021c38c","geometry":{"type":"Point","coordinates":[-96.71373490014686,28.352258600262434]},"properties":{"substrate":"Firm/Hard Bottom","lease_number":null,"poll_year":2025}},{"type":"Feature","id":"9e95860a-e1b7-4b31-a33b-0d731e0e325b","geometry":{"type":"Point","coordinates":[-96.71633060012664,28.35102669978331]},"properties":{"substrate":"Firm/Hard Bottom","lease_number":null,"poll_year":2025}},{"type":"Feature","id":"a0bcf6d7-4d3d-458a-b3e6-40b1a54860ce","geometry":{"type":"Point","coordinates":[-96.71714150035045,28.35334380010615]},"properties":{"substrate":"Firm/Hard Bottom","lease_number":null,"poll_year":2025}},{"type":"Feature","id":"a0cc9243-6958-4444-9bb0-d3c84fed71bc","geometry":{"type":"Point","coordinates":[-96.71599519974228,28.351270999623424]},"properties":{"substrate":"Mud","lease_number":null,"poll_year":2025}},{"type":"Feature","id":"a10c672a-80df-4294-ac60-11f74b2e09fa","geometry":{"type":"Point","coordinates":[-96.71537400035025,28.35075470022945]},"properties":{"substrate":"Firm/Hard Bottom","lease_number":null,"poll_year":2025}},{"type":"Feature","id":"a2af6260-5c5c-4bf0-9e05-bf0090a31d0b","geometry":{"type":"Point","coordinates":[-96.71650050029294,28.352971499692675]},"properties":{"substrate":"Firm/Hard Bottom","lease_number":null,"poll_year":2025}},{"type":"Feature","id":"a51a1c4e-4fb5-4494-8267-437f784de5a9","geometry":{"type":"Point","coordinates":[-96.71348019991603,28.351952800324334]},"properties":{"substrate":"Firm/Hard Bottom","lease_number":null,"poll_year":2025}},{"type":"Feature","id":"a5686e33-4734-47f6-a388-c9a0de08762b","geometry":{"type":"Point","coordinates":[-96.71442899962082,28.35624409972732]},"properties":{"substrate":"Firm/Hard Bottom","lease_number":null,"poll_year":2025}},{"type":"Feature","id":"a6607ca6-95d6-4cd0-8da5-74139b6b2252","geometry":{"type":"Point","coordinates":[-96.71713699979088,28.353384800362566]},"properties":{"substrate":"Solid Reef","lease_number":null,"poll_year":2025}},{"type":"Feature","id":"a722804e-6f3b-413e-8772-9099fb4a3933","geometry":{"type":"Point","coordinates":[-96.71707969985216,28.35426619967097]},"properties":{"substrate":"Firm/Hard Bottom","lease_number":null,"poll_year":2025}},{"type":"Feature","id":"a808deda-3496-4892-99e6-65e6a985d7c6","geometry":{"type":"Point","coordinates":[-96.71467409955619,28.346607899894096]},"properties":{"substrate":"Mud","lease_number":null,"poll_year":2025}},{"type":"Feature","id":"a83a5f90-1fca-4b41-83f2-a1015e2ef379","geometry":{"type":"Point","coordinates":[-96.71708699956217,28.35404669977194]},"properties":{"substrate":"Solid Reef","lease_number":null,"poll_year":2025}},{"type":"Feature","id":"ac1b1201-879e-4bf2-bc21-59bda7eef5cb","geometry":{"type":"Point","coordinates":[-96.71655139973527,28.351179300385844]},"properties":{"substrate":"Firm/Hard Bottom","lease_number":null,"poll_year":2025}},{"type":"Feature","id":"ae3fb186-ae80-4ec0-b045-7aaa3060df9c","geometry":{"type":"Point","coordinates":[-96.71644209991801,28.351102799703483]},"properties":{"substrate":"Firm/Hard Bottom","lease_number":null,"poll_year":2025}},{"type":"Feature","id":"b3ff43a8-50bc-4c28-95c6-ea31be5c8ae9","geometry":{"type":"Point","coordinates":[-96.71343630014641,28.351736800201312]},"properties":{"substrate":"Firm/Hard Bottom","lease_number":null,"poll_year":2025}},{"type":"Feature","id":"b5a16160-8dde-403b-9677-6c2aad167737","geometry":{"type":"Point","coordinates":[-96.71512550029152,28.349019300014564]},"properties":{"substrate":"Firm/Hard Bottom","lease_number":null,"poll_year":2025}},{"type":"Feature","id":"b5fad8cd-3b62-4663-883b-287bbc0b20b2","geometry":{"type":"Point","coordinates":[-96.71709759968252,28.353803800050912]},"properties":{"substrate":"Solid Reef","lease_number":null,"poll_year":2025}},{"type":"Feature","id":"b8d2448b-ebd7-48e5-bab5-51c64cbd2925","geometry":{"type":"Point","coordinates":[-96.71687159972672,28.3514471001692]},"properties":{"substrate":"Firm/Hard Bottom","lease_number":null,"poll_year":2025}},{"type":"Feature","id":"b9ea78b5-e6f8-4b2a-9cbf-12e7f80582db","geometry":{"type":"Point","coordinates":[-96.71385369964824,28.352366700248833]},"properties":{"substrate":"Firm/Hard Bottom","lease_number":null,"poll_year":2025}},{"type":"Feature","id":"bdd9bfc4-61d4-45cc-a783-529686b9dea6","geometry":{"type":"Point","coordinates":[-96.71397900025732,28.356173799646122]},"properties":{"substrate":"Firm/Hard Bottom","lease_number":null,"poll_year":2025}},{"type":"Feature","id":"bef72a9c-a3e8-4d7f-a252-ffeddd3dc27c","geometry":{"type":"Point","coordinates":[-96.71480639983798,28.34728659978088]},"properties":{"substrate":"Mud","lease_number":null,"poll_year":2025}},{"type":"Feature","id":"bf999f19-d16f-40ef-ad67-b8bb30064c12","geometry":{"type":"Point","coordinates":[-96.71494930024011,28.350732199851507]},"properties":{"substrate":"Firm/Hard Bottom","lease_number":null,"poll_year":2025}},{"type":"Feature","id":"c02ccbbc-3b45-4bb2-a5c1-85b09d04320c","geometry":{"type":"Point","coordinates":[-96.71461380014274,28.346327200310032]},"properties":{"substrate":"Firm/Hard Bottom","lease_number":null,"poll_year":2025}},{"type":"Feature","id":"c089aedf-a8b8-4575-b48c-db82c6de26b8","geometry":{"type":"Point","coordinates":[-96.71703580008254,28.354749400311615]},"properties":{"substrate":"Firm/Hard Bottom","lease_number":null,"poll_year":2025}},{"type":"Feature","id":"c18784e8-2ca8-441b-a2d8-efb808d79b35","geometry":{"type":"Point","coordinates":[-96.71431749982943,28.352703400181287]},"properties":{"substrate":"Firm/Hard Bottom","lease_number":null,"poll_year":2025}},{"type":"Feature","id":"c4f50576-af81-46f0-9ac8-8a0516426cad","geometry":{"type":"Point","coordinates":[-96.71393420037579,28.352441900346307]},"properties":{"substrate":"Firm/Hard Bottom","lease_number":null,"poll_year":2025}},{"type":"Feature","id":"c694f65a-af4d-4982-8700-1f6d58eae72f","geometry":{"type":"Point","coordinates":[-96.71610069968585,28.356259799608637]},"properties":{"substrate":"Firm/Hard Bottom","lease_number":null,"poll_year":2025}},{"type":"Feature","id":"c75f3369-c001-4740-973b-36e63eb3c7b1","geometry":{"type":"Point","coordinates":[-96.71502829988283,28.356332600070328]},"properties":{"substrate":"Firm/Hard Bottom","lease_number":null,"poll_year":2025}},{"type":"Feature","id":"c875cd78-2aea-40d1-b02b-310acc85923c","geometry":{"type":"Point","coordinates":[-96.71551009960737,28.350760099813474]},"properties":{"substrate":"Firm/Hard Bottom","lease_number":null,"poll_year":2025}},{"type":"Feature","id":"cbe0c667-5fa4-46fe-a0da-a9a555fcd43c","geometry":{"type":"Point","coordinates":[-96.716442000205,28.355892300035265]},"properties":{"substrate":"Firm/Hard Bottom","lease_number":null,"poll_year":2025}},{"type":"Feature","id":"cfead343-bd82-4452-b456-b32d9058e9c0","geometry":{"type":"Point","coordinates":[-96.71364449998488,28.352161099971163]},"properties":{"substrate":"Firm/Hard Bottom","lease_number":null,"poll_year":2025}},{"type":"Feature","id":"d45cfc38-d98b-4654-b433-34c68027b421","geometry":{"type":"Point","coordinates":[-96.71525119975259,28.356363500191495]},"properties":{"substrate":"Firm/Hard Bottom","lease_number":null,"poll_year":2025}},{"type":"Feature","id":"d668e3fb-1e3f-42cd-b76f-01af29a844ba","geometry":{"type":"Point","coordinates":[-96.71629249988047,28.352971499692675]},"properties":{"substrate":"Solid Reef","lease_number":null,"poll_year":2025}},{"type":"Feature","id":"d7eacadc-302d-4263-8316-8e9d1a1c808c","geometry":{"type":"Point","coordinates":[-96.71469890024456,28.356282100392797]},"properties":{"substrate":"Firm/Hard Bottom","lease_number":null,"poll_year":2025}},{"type":"Feature","id":"d8bfc761-0fae-48a4-80a5-44c697e75c38","geometry":{"type":"Point","coordinates":[-96.71575030013118,28.356349499958625]},"properties":{"substrate":"Firm/Hard Bottom","lease_number":null,"poll_year":2025}},{"type":"Feature","id":"d8cb0851-f880-4899-a764-83b19754f010","geometry":{"type":"Point","coordinates":[-96.7170892004346,28.351865999988053]},"properties":{"substrate":"Firm/Hard Bottom","lease_number":null,"poll_year":2025}},{"type":"Feature","id":"db6f0eba-d4f3-4529-9e8e-5622740afa4e","geometry":{"type":"Point","coordinates":[-96.71718549983308,28.35269000028706]},"properties":{"substrate":"Firm/Hard Bottom","lease_number":null,"poll_year":2025}},{"type":"Feature","id":"dd248987-c9a3-479f-b914-36a2acea9b5e","geometry":{"type":"Point","coordinates":[-96.71434529999253,28.344957799843225]},"properties":{"substrate":"Mud","lease_number":null,"poll_year":2025}},{"type":"Feature","id":"ded53e7c-ff7c-40f6-89ca-e4bdca238202","geometry":{"type":"Point","coordinates":[-96.71691939998128,28.355180700094536]},"properties":{"substrate":"Firm/Hard Bottom","lease_number":null,"poll_year":2025}},{"type":"Feature","id":"dfd51440-f77f-491d-9d44-bcd2ccb26e68","geometry":{"type":"Point","coordinates":[-96.71551509963024,28.352949399803965]},"properties":{"substrate":"Solid Reef","lease_number":null,"poll_year":2025}},{"type":"Feature","id":"e017f9c7-388f-4551-97f4-d8bc8dd5984d","geometry":{"type":"Point","coordinates":[-96.71642969957382,28.35297040003457]},"properties":{"substrate":"Solid Reef","lease_number":null,"poll_year":2025}},{"type":"Feature","id":"e24cdb36-dcca-447b-b90c-33bc1ad51ef7","geometry":{"type":"Point","coordinates":[-96.71697329979666,28.35499139981903]},"properties":{"substrate":"Firm/Hard Bottom","lease_number":null,"poll_year":2025}},{"type":"Feature","id":"e3277be8-5967-4e58-b59d-cac576f55b40","geometry":{"type":"Point","coordinates":[-96.71715579973316,28.352237199868874]},"properties":{"substrate":"Firm/Hard Bottom","lease_number":null,"poll_year":2025}},{"type":"Feature","id":"e4e19c28-c6eb-43f4-b1b6-4119ec67fdf3","geometry":{"type":"Point","coordinates":[-96.71571659983331,28.35298669963852]},"properties":{"substrate":"Firm/Hard Bottom","lease_number":null,"poll_year":2025}},{"type":"Feature","id":"e580f0d1-4808-473a-b8a2-6336ab1a2ddc","geometry":{"type":"Point","coordinates":[-96.7152089995955,28.34929960035557]},"properties":{"substrate":"Firm/Hard Bottom","lease_number":null,"poll_year":2025}},{"type":"Feature","id":"e8112947-caf0-44c0-ad27-805a450626e6","geometry":{"type":"Point","coordinates":[-96.71515720004126,28.35292529981276]},"properties":{"substrate":"Solid Reef","lease_number":null,"poll_year":2025}},{"type":"Feature","id":"e8301a70-c45f-442c-809a-34647be06f2e","geometry":{"type":"Point","coordinates":[-96.71707349968007,28.354362700365318]},"properties":{"substrate":"Firm/Hard Bottom","lease_number":null,"poll_year":2025}},{"type":"Feature","id":"e94073c8-72a2-4a67-bc92-49121de8920e","geometry":{"type":"Point","coordinates":[-96.71429279975237,28.350809999704552]},"properties":{"substrate":"Firm/Hard Bottom","lease_number":null,"poll_year":2025}},{"type":"Feature","id":"eb472ea4-4d14-4830-afe2-d1d8f5f7af33","geometry":{"type":"Point","coordinates":[-96.71427100033537,28.35621830005825]},"properties":{"substrate":"Firm/Hard Bottom","lease_number":null,"poll_year":2025}},{"type":"Feature","id":"ebf9e8b1-8d9e-40ce-8f09-3c4b1d94e89c","geometry":{"type":"Point","coordinates":[-96.71355199956176,28.356094500137345]},"properties":{"substrate":"Firm/Hard Bottom","lease_number":null,"poll_year":2025}},{"type":"Feature","id":"ed00e0c9-6414-4805-94f3-2a60e98d7779","geometry":{"type":"Point","coordinates":[-96.71645029973992,28.352371099696718]},"properties":{"substrate":"Firm/Hard Bottom","lease_number":null,"poll_year":2025}},{"type":"Feature","id":"ed6a952d-df34-4b35-b5c4-58847f34a587","geometry":{"type":"Point","coordinates":[-96.71640089958582,28.35226630029216]},"properties":{"substrate":"Firm/Hard Bottom","lease_number":null,"poll_year":2025}},{"type":"Feature","id":"eddb5de1-ac20-4dec-9381-4cc3fd86a4e8","geometry":{"type":"Point","coordinates":[-96.71630900013564,28.352028399947347]},"properties":{"substrate":"Firm/Hard Bottom","lease_number":null,"poll_year":2025}},{"type":"Feature","id":"ef1d4d09-5642-4186-8267-8967628f8246","geometry":{"type":"Point","coordinates":[-96.71441799975017,28.352748600107144]},"properties":{"substrate":"Firm/Hard Bottom","lease_number":null,"poll_year":2025}},{"type":"Feature","id":"ef51a3ce-9f67-4d51-ac4c-07ea06482c12","geometry":{"type":"Point","coordinates":[-96.71718350018325,28.352787700102695]},"properties":{"substrate":"Firm/Hard Bottom","lease_number":null,"poll_year":2025}},{"type":"Feature","id":"f0acc0db-3e85-46ce-a15f-16fedd499533","geometry":{"type":"Point","coordinates":[-96.71652949970694,28.352579000083143]},"properties":{"substrate":"Firm/Hard Bottom","lease_number":null,"poll_year":2025}},{"type":"Feature","id":"f1571342-a8df-4ce6-a3cb-e62b1af52c85","geometry":{"type":"Point","coordinates":[-96.7156029000678,28.35028050025719]},"properties":{"substrate":"Mud","lease_number":null,"poll_year":2025}},{"type":"Feature","id":"f1ba6cbf-00df-44a3-b4dc-48a88877fd77","geometry":{"type":"Point","coordinates":[-96.71491539961792,28.352922800085636]},"properties":{"substrate":"Firm/Hard Bottom","lease_number":null,"poll_year":2025}},{"type":"Feature","id":"f5989388-cbdb-43f8-8909-c78a58e6a6e7","geometry":{"type":"Point","coordinates":[-96.71449599956797,28.352781200171155]},"properties":{"substrate":"Firm/Hard Bottom","lease_number":null,"poll_year":2025}},{"type":"Feature","id":"f727183b-b548-46f0-94fb-d232aa67c27c","geometry":{"type":"Point","coordinates":[-96.71711210028784,28.35199060014257]},"properties":{"substrate":"Firm/Hard Bottom","lease_number":null,"poll_year":2025}},{"type":"Feature","id":"f8358beb-dbf8-4b5a-8e08-fc9e34694acc","geometry":{"type":"Point","coordinates":[-96.71460859979555,28.356265100096774]},"properties":{"substrate":"Firm/Hard Bottom","lease_number":null,"poll_year":2025}},{"type":"Feature","id":"f8e5adc5-eef7-4706-a2d5-7de68874ed5e","geometry":{"type":"Point","coordinates":[-96.7151180002572,28.35074030001974]},"properties":{"substrate":"Firm/Hard Bottom","lease_number":null,"poll_year":2025}},{"type":"Feature","id":"f9ba0b5b-2ef4-4590-974e-b1db18286dde","geometry":{"type":"Point","coordinates":[-96.71398759982954,28.35094090033873]},"properties":{"substrate":"Firm/Hard Bottom","lease_number":null,"poll_year":2025}},{"type":"Feature","id":"fd4b7b3a-ce17-43f0-a0ba-02aeb818ba44","geometry":{"type":"Point","coordinates":[-96.71484959981998,28.34751669969265]},"properties":{"substrate":"Firm/Hard Bottom","lease_number":null,"poll_year":2025}},{"type":"Feature","id":"fff672f8-8316-4c59-a5a1-97859d0f86a8","geometry":{"type":"Point","coordinates":[-96.71478819997031,28.356297099861212]},"properties":{"substrate":"Firm/Hard Bottom","lease_number":null,"poll_year":2025}}]}