{"type":"FeatureCollection","features":[{"type":"Feature","id":"013cf872-a55e-4da0-b939-d84a2a4f5af8","geometry":{"type":"Point","coordinates":[-96.70118479962049,28.227137000361715]},"properties":{"substrate":"Firm/Hard Bottom","lease_number":null,"poll_year":2025}},{"type":"Feature","id":"01a8c4f0-f9ae-42e2-8095-ff21838c254e","geometry":{"type":"Point","coordinates":[-96.70118210018306,28.228955500357856]},"properties":{"substrate":"Firm/Hard Bottom","lease_number":null,"poll_year":2025}},{"type":"Feature","id":"0612786e-4144-4422-a0be-da5ab6147723","geometry":{"type":"Point","coordinates":[-96.70016210000887,28.227349500221024]},"properties":{"substrate":"Firm/Hard Bottom","lease_number":null,"poll_year":2025}},{"type":"Feature","id":"0659a1a5-25ec-44de-8928-a533f3d75fc8","geometry":{"type":"Point","coordinates":[-96.70138629982357,28.229524300145115]},"properties":{"substrate":"Firm/Hard Bottom","lease_number":null,"poll_year":2025}},{"type":"Feature","id":"08c5f125-6705-46ea-a512-1a4b9230f874","geometry":{"type":"Point","coordinates":[-96.70111040025034,28.22997159978585]},"properties":{"substrate":"Firm/Hard Bottom","lease_number":null,"poll_year":2025}},{"type":"Feature","id":"0978d4cd-5e46-4494-9e18-6568de5fe8ba","geometry":{"type":"Point","coordinates":[-96.70161449975349,28.228313500050344]},"properties":{"substrate":"Firm/Hard Bottom","lease_number":null,"poll_year":2025}},{"type":"Feature","id":"09ad2825-647b-4f97-afd9-b2ad56fd714c","geometry":{"type":"Point","coordinates":[-96.70142769958176,28.227340699691805]},"properties":{"substrate":"Mud","lease_number":null,"poll_year":2025}},{"type":"Feature","id":"0c86a544-6370-46e7-9134-44e1986345dc","geometry":{"type":"Point","coordinates":[-96.70106179959684,28.227434800177388]},"properties":{"substrate":"Buried Shell","lease_number":null,"poll_year":2025}},{"type":"Feature","id":"0efb1fa1-b15a-47a6-abdb-d01149425f06","geometry":{"type":"Point","coordinates":[-96.701580099668,28.22820350031286]},"properties":{"substrate":"Firm/Hard Bottom","lease_number":null,"poll_year":2025}},{"type":"Feature","id":"123f29fd-a920-4a1f-bad3-7e43344e3e4a","geometry":{"type":"Point","coordinates":[-96.70123680039734,28.2284005001222]},"properties":{"substrate":"Buried Shell","lease_number":null,"poll_year":2025}},{"type":"Feature","id":"12cac67f-4553-4ca1-ad7b-27392d50fc73","geometry":{"type":"Point","coordinates":[-96.70116719982744,28.227720199791918]},"properties":{"substrate":"Buried Shell","lease_number":null,"poll_year":2025}},{"type":"Feature","id":"13ae3858-d38c-42f7-904e-1d8802f46d63","geometry":{"type":"Point","coordinates":[-96.7012974995611,28.23050980019055]},"properties":{"substrate":"Firm/Hard Bottom","lease_number":null,"poll_year":2025}},{"type":"Feature","id":"17e16fe4-0549-43a7-ac44-b1914d1219e1","geometry":{"type":"Point","coordinates":[-96.70094450028199,28.22879429998985]},"properties":{"substrate":"Firm/Hard Bottom","lease_number":null,"poll_year":2025}},{"type":"Feature","id":"184a59ba-85f3-47be-9faa-070327eea2b4","geometry":{"type":"Point","coordinates":[-96.70097749989395,28.22838780006791]},"properties":{"substrate":"Firm/Hard Bottom","lease_number":null,"poll_year":2025}},{"type":"Feature","id":"1a215d30-6f9a-4d16-a613-fbff7f0e96d1","geometry":{"type":"Point","coordinates":[-96.70088290010801,28.229347899648747]},"properties":{"substrate":"Firm/Hard Bottom","lease_number":null,"poll_year":2025}},{"type":"Feature","id":"1a402627-48f1-4c17-bbfc-70002189a1ed","geometry":{"type":"Point","coordinates":[-96.70068899965224,28.228811200352606]},"properties":{"substrate":"Firm/Hard Bottom","lease_number":null,"poll_year":2025}},{"type":"Feature","id":"1de2fbb0-4611-4761-baff-1f930c87b6fa","geometry":{"type":"Point","coordinates":[-96.70028120044587,28.227677899771873]},"properties":{"substrate":"Firm/Hard Bottom","lease_number":null,"poll_year":2025}},{"type":"Feature","id":"1fbcb994-f5c7-4b70-a7d9-23a9a209fa9e","geometry":{"type":"Point","coordinates":[-96.70130959986797,28.229313799914436]},"properties":{"substrate":"Firm/Hard Bottom","lease_number":null,"poll_year":2025}},{"type":"Feature","id":"2026e6da-26fa-406f-83ff-e651502b00d5","geometry":{"type":"Point","coordinates":[-96.70137059996735,28.228818399607164]},"properties":{"substrate":"Firm/Hard Bottom","lease_number":null,"poll_year":2025}},{"type":"Feature","id":"202712e7-5867-4042-97a9-0f01caefe78b","geometry":{"type":"Point","coordinates":[-96.70128119963027,28.228540199828124]},"properties":{"substrate":"Firm/Hard Bottom","lease_number":null,"poll_year":2025}},{"type":"Feature","id":"21e28596-3ea5-49ac-b2f7-01a65bf0fb7a","geometry":{"type":"Point","coordinates":[-96.70157229959639,28.231282399845213]},"properties":{"substrate":"Firm/Hard Bottom","lease_number":null,"poll_year":2025}},{"type":"Feature","id":"251d6ea6-4af5-461e-9fb4-10d10437b549","geometry":{"type":"Point","coordinates":[-96.7013827999872,28.228322499951897]},"properties":{"substrate":"Buried Shell","lease_number":null,"poll_year":2025}},{"type":"Feature","id":"25ce25e2-2c2d-41e7-89cf-a2990046a368","geometry":{"type":"Point","coordinates":[-96.70078890039669,28.22719800026405]},"properties":{"substrate":"Firm/Hard Bottom","lease_number":null,"poll_year":2025}},{"type":"Feature","id":"27476c65-61c5-4850-835a-82c3cafc3914","geometry":{"type":"Point","coordinates":[-96.70086739967779,28.22856400032465]},"properties":{"substrate":"Firm/Hard Bottom","lease_number":null,"poll_year":2025}},{"type":"Feature","id":"2c5248b4-3410-4380-bbe0-130733df0b54","geometry":{"type":"Point","coordinates":[-96.70164840037569,28.23148789973799]},"properties":{"substrate":"Firm/Hard Bottom","lease_number":null,"poll_year":2025}},{"type":"Feature","id":"2e140164-ee2b-4a59-a5a2-26d893d34f64","geometry":{"type":"Point","coordinates":[-96.70063030013833,28.227891099806985]},"properties":{"substrate":"Firm/Hard Bottom","lease_number":null,"poll_year":2025}},{"type":"Feature","id":"2e27705a-43e0-4e0c-9e0d-e180bbffbdeb","geometry":{"type":"Point","coordinates":[-96.70154869995557,28.228783999734645]},"properties":{"substrate":"Buried Shell","lease_number":null,"poll_year":2025}},{"type":"Feature","id":"2e40e272-d526-4834-b5e3-99c3a531cb32","geometry":{"type":"Point","coordinates":[-96.70157800030519,28.229463599956524]},"properties":{"substrate":"Firm/Hard Bottom","lease_number":null,"poll_year":2025}},{"type":"Feature","id":"30a56fdb-bb07-4859-9eb1-cd2bfa194616","geometry":{"type":"Point","coordinates":[-96.70060259968822,28.22857210029623]},"properties":{"substrate":"Firm/Hard Bottom","lease_number":null,"poll_year":2025}},{"type":"Feature","id":"31a5b7fb-f191-4468-b502-b9583c596439","geometry":{"type":"Point","coordinates":[-96.70092649984032,28.229468499946933]},"properties":{"substrate":"Firm/Hard Bottom","lease_number":null,"poll_year":2025}},{"type":"Feature","id":"31c8626a-0dfd-4b09-8ea4-6ba367383b6b","geometry":{"type":"Point","coordinates":[-96.70163250019516,28.22773190028287]},"properties":{"substrate":"Firm/Hard Bottom","lease_number":null,"poll_year":2025}},{"type":"Feature","id":"33148a0c-3c84-4f7e-ab59-e1fb43d8f840","geometry":{"type":"Point","coordinates":[-96.70020729964071,28.226970400087524]},"properties":{"substrate":"Firm/Hard Bottom","lease_number":null,"poll_year":2025}},{"type":"Feature","id":"36c44c22-4cd4-4a7a-94f3-f8438e9c498c","geometry":{"type":"Point","coordinates":[-96.70152529974072,28.229295000100343]},"properties":{"substrate":"Firm/Hard Bottom","lease_number":null,"poll_year":2025}},{"type":"Feature","id":"37f1b447-a1fa-415c-8517-a2e8f3a91e4d","geometry":{"type":"Point","coordinates":[-96.70098999995113,28.227232399856245]},"properties":{"substrate":"Buried Shell","lease_number":null,"poll_year":2025}},{"type":"Feature","id":"38c8e97d-7565-4e7d-8c9d-1fd3ca8aa540","geometry":{"type":"Point","coordinates":[-96.70082879996833,28.228444100253455]},"properties":{"substrate":"Firm/Hard Bottom","lease_number":null,"poll_year":2025}},{"type":"Feature","id":"3a7595dc-2baa-45dd-9db4-58f921f4858c","geometry":{"type":"Point","coordinates":[-96.70091559968267,28.227494699745986]},"properties":{"substrate":"Firm/Hard Bottom","lease_number":null,"poll_year":2025}},{"type":"Feature","id":"3ba3c49a-d026-46ee-b6bc-69997d7d1afa","geometry":{"type":"Point","coordinates":[-96.70102949977249,28.228537700344322]},"properties":{"substrate":"Firm/Hard Bottom","lease_number":null,"poll_year":2025}},{"type":"Feature","id":"3d5588cd-c135-4771-93cd-cc4b01765ab6","geometry":{"type":"Point","coordinates":[-96.70122259982934,28.22961330006325]},"properties":{"substrate":"Firm/Hard Bottom","lease_number":null,"poll_year":2025}},{"type":"Feature","id":"3ea319a1-07d7-4992-8cce-560ad378f972","geometry":{"type":"Point","coordinates":[-96.70142560021893,28.23086810006914]},"properties":{"substrate":"Firm/Hard Bottom","lease_number":null,"poll_year":2025}},{"type":"Feature","id":"3f175941-0fc4-49e1-bb04-8066f6ec2aa7","geometry":{"type":"Point","coordinates":[-96.70131330002863,28.2298760001242]},"properties":{"substrate":"Firm/Hard Bottom","lease_number":null,"poll_year":2025}},{"type":"Feature","id":"404d46ed-b811-4295-adea-93b8fb2f1b4e","geometry":{"type":"Point","coordinates":[-96.70133890021759,28.23063049969138]},"properties":{"substrate":"Firm/Hard Bottom","lease_number":null,"poll_year":2025}},{"type":"Feature","id":"4095b5ea-a441-43a9-b14e-ce5132b4c83a","geometry":{"type":"Point","coordinates":[-96.70165299974994,28.229684400061014]},"properties":{"substrate":"Firm/Hard Bottom","lease_number":null,"poll_year":2025}},{"type":"Feature","id":"40d2c2bf-8b25-4cbb-b726-697285f21b8c","geometry":{"type":"Point","coordinates":[-96.70148639999397,28.228611299749325]},"properties":{"substrate":"Firm/Hard Bottom","lease_number":null,"poll_year":2025}},{"type":"Feature","id":"432247e2-b0e3-4e14-bccf-c7cd0b255dd3","geometry":{"type":"Point","coordinates":[-96.70053939961474,28.22721589973572]},"properties":{"substrate":"Buried Shell","lease_number":null,"poll_year":2025}},{"type":"Feature","id":"45bd863c-c8ef-43ec-af2c-0dd4c8c611f8","geometry":{"type":"Point","coordinates":[-96.70083819993947,28.22922890036153]},"properties":{"substrate":"Firm/Hard Bottom","lease_number":null,"poll_year":2025}},{"type":"Feature","id":"45f0bd68-660b-4a1f-bf2c-4f982fb14ba4","geometry":{"type":"Point","coordinates":[-96.7014372001642,28.227214199622416]},"properties":{"substrate":"Firm/Hard Bottom","lease_number":null,"poll_year":2025}},{"type":"Feature","id":"48294c33-bcf7-4ceb-91ce-6308fd40d1d5","geometry":{"type":"Point","coordinates":[-96.70117089998811,28.230148599973194]},"properties":{"substrate":"Firm/Hard Bottom","lease_number":null,"poll_year":2025}},{"type":"Feature","id":"4c7517b0-a6a9-4d2f-88a4-3a1d2191c40a","geometry":{"type":"Point","coordinates":[-96.70103599998188,28.229059299712784]},"properties":{"substrate":"Firm/Hard Bottom","lease_number":null,"poll_year":2025}},{"type":"Feature","id":"4ea73a04-6c04-467b-838a-18462693ffbc","geometry":{"type":"Point","coordinates":[-96.7004233004491,28.228065099776924]},"properties":{"substrate":"Firm/Hard Bottom","lease_number":null,"poll_year":2025}},{"type":"Feature","id":"4ffc695b-3cef-49b8-a1f6-bbb9d0425e50","geometry":{"type":"Point","coordinates":[-96.70083699979025,28.227305499942222]},"properties":{"substrate":"Firm/Hard Bottom","lease_number":null,"poll_year":2025}},{"type":"Feature","id":"66325f3f-0dba-421f-bc74-7d5a78d85a3f","geometry":{"type":"Point","coordinates":[-96.70048359986254,28.22706470035447]},"properties":{"substrate":"Buried Shell","lease_number":null,"poll_year":2025}},{"type":"Feature","id":"69c9975b-9184-483e-b440-5740db59f04a","geometry":{"type":"Point","coordinates":[-96.70107669995247,28.229175100058892]},"properties":{"substrate":"Firm/Hard Bottom","lease_number":null,"poll_year":2025}},{"type":"Feature","id":"6a271d14-3934-45fe-b2ce-7e22182e49bf","geometry":{"type":"Point","coordinates":[-96.70122150029142,28.229075900065368]},"properties":{"substrate":"Firm/Hard Bottom","lease_number":null,"poll_year":2025}},{"type":"Feature","id":"6b2b26d5-eb36-4072-a267-a05ef39ae73e","geometry":{"type":"Point","coordinates":[-96.70141579959918,28.227722900331514]},"properties":{"substrate":"Firm/Hard Bottom","lease_number":null,"poll_year":2025}},{"type":"Feature","id":"6b3c4bfe-8d69-4ea9-99db-0ccd8b0172bb","geometry":{"type":"Point","coordinates":[-96.70132730027234,28.22748249980222]},"properties":{"substrate":"Firm/Hard Bottom","lease_number":null,"poll_year":2025}},{"type":"Feature","id":"6be9fd67-dd7e-4690-981d-fca26c8026d2","geometry":{"type":"Point","coordinates":[-96.70153580014808,28.229944799945656]},"properties":{"substrate":"Firm/Hard Bottom","lease_number":null,"poll_year":2025}},{"type":"Feature","id":"6c078b61-5389-4766-a7a6-7607811553c3","geometry":{"type":"Point","coordinates":[-96.70078659981124,28.228328299905638]},"properties":{"substrate":"Firm/Hard Bottom","lease_number":null,"poll_year":2025}},{"type":"Feature","id":"6ca9fe74-2030-45b7-99b8-5b3bac34c368","geometry":{"type":"Point","coordinates":[-96.7010719999669,28.22865790027975]},"properties":{"substrate":"Firm/Hard Bottom","lease_number":null,"poll_year":2025}},{"type":"Feature","id":"6d4d21f4-0144-454c-b1ab-3ce813c212a3","geometry":{"type":"Point","coordinates":[-96.70074570041467,28.22821250022369]},"properties":{"substrate":"Firm/Hard Bottom","lease_number":null,"poll_year":2025}},{"type":"Feature","id":"6ec7ae41-423b-41f7-9dc3-3a089e4fe1b1","geometry":{"type":"Point","coordinates":[-96.70156210012468,28.2275386999468]},"properties":{"substrate":"Firm/Hard Bottom","lease_number":null,"poll_year":2025}},{"type":"Feature","id":"72e093f4-31b6-4c76-a334-79230fb16d64","geometry":{"type":"Point","coordinates":[-96.70150309967511,28.23043099981004]},"properties":{"substrate":"Firm/Hard Bottom","lease_number":null,"poll_year":2025}},{"type":"Feature","id":"73bb6b50-9163-436c-9aed-b2a29c66408d","geometry":{"type":"Point","coordinates":[-96.70132469964959,28.22815230029563]},"properties":{"substrate":"Buried Shell","lease_number":null,"poll_year":2025}},{"type":"Feature","id":"76317efd-61a2-44c9-87c6-9e4c3ec1dad6","geometry":{"type":"Point","coordinates":[-96.7015373003346,28.228066900394694]},"properties":{"substrate":"Firm/Hard Bottom","lease_number":null,"poll_year":2025}},{"type":"Feature","id":"7861f8a6-0b71-40c7-828b-d48ba5b22e86","geometry":{"type":"Point","coordinates":[-96.7005289001057,28.228363400383177]},"properties":{"substrate":"Firm/Hard Bottom","lease_number":null,"poll_year":2025}},{"type":"Feature","id":"7d3c2191-d623-4441-a815-dd511218e1f2","geometry":{"type":"Point","coordinates":[-96.70141470006126,28.228408999802454]},"properties":{"substrate":"Firm/Hard Bottom","lease_number":null,"poll_year":2025}},{"type":"Feature","id":"836854e6-e457-4f37-ad7c-533a6aa5d767","geometry":{"type":"Point","coordinates":[-96.70079620010668,28.22911160023324]},"properties":{"substrate":"Firm/Hard Bottom","lease_number":null,"poll_year":2025}},{"type":"Feature","id":"8652b101-4b39-45f4-aef5-0b5fe538f222","geometry":{"type":"Point","coordinates":[-96.70075420027389,28.228992200196977]},"properties":{"substrate":"Firm/Hard Bottom","lease_number":null,"poll_year":2025}},{"type":"Feature","id":"8f980e7c-1c3a-4b7d-8c1b-c1dfa9f51a0a","geometry":{"type":"Point","coordinates":[-96.70032130034183,28.227155799764425]},"properties":{"substrate":"Firm/Hard Bottom","lease_number":null,"poll_year":2025}},{"type":"Feature","id":"904bfc2a-7514-4a8d-989d-84aebd774a50","geometry":{"type":"Point","coordinates":[-96.70059430015331,28.22736619977523]},"properties":{"substrate":"Buried Shell","lease_number":null,"poll_year":2025}},{"type":"Feature","id":"9419df6a-f701-433e-9de7-ff511ce94b9d","geometry":{"type":"Point","coordinates":[-96.70135219977537,28.226995600285356]},"properties":{"substrate":"Firm/Hard Bottom","lease_number":null,"poll_year":2025}},{"type":"Feature","id":"96f730f8-4bc7-439f-9830-5d8a0e0bbdeb","geometry":{"type":"Point","coordinates":[-96.70114520008613,28.22812460008593]},"properties":{"substrate":"Firm/Hard Bottom","lease_number":null,"poll_year":2025}},{"type":"Feature","id":"97dbaccf-53cf-4ed6-8008-98af87363efc","geometry":{"type":"Point","coordinates":[-96.70157099973417,28.22705149992093]},"properties":{"substrate":"Mud","lease_number":null,"poll_year":2025}},{"type":"Feature","id":"985b7a7a-76b4-414e-ab78-590ffd2b440e","geometry":{"type":"Point","coordinates":[-96.70155580023957,28.230574900311396]},"properties":{"substrate":"Firm/Hard Bottom","lease_number":null,"poll_year":2025}},{"type":"Feature","id":"993e394d-cba3-45e1-ac14-042c68694c81","geometry":{"type":"Point","coordinates":[-96.70090769989807,28.228678100326736]},"properties":{"substrate":"Firm/Hard Bottom","lease_number":null,"poll_year":2025}},{"type":"Feature","id":"9992ffdd-0e29-446c-82d7-fe83b8eecac9","geometry":{"type":"Point","coordinates":[-96.70038140032929,28.22794680031178]},"properties":{"substrate":"Firm/Hard Bottom","lease_number":null,"poll_year":2025}},{"type":"Feature","id":"9b20805e-b947-4e13-9fdd-b03057399692","geometry":{"type":"Point","coordinates":[-96.70023579959141,28.22755830026068]},"properties":{"substrate":"Firm/Hard Bottom","lease_number":null,"poll_year":2025}},{"type":"Feature","id":"9d1eee99-7567-4dfe-82e2-ef6cd51d2745","geometry":{"type":"Point","coordinates":[-96.70150760023469,28.22740309961515]},"properties":{"substrate":"Firm/Hard Bottom","lease_number":null,"poll_year":2025}},{"type":"Feature","id":"9e358324-85dc-4682-9fb1-5009051874f3","geometry":{"type":"Point","coordinates":[-96.70164350006583,28.229041500275873]},"properties":{"substrate":"Firm/Hard Bottom","lease_number":null,"poll_year":2025}},{"type":"Feature","id":"9f2221a3-d3f9-4adc-8b75-b3daeae2e085","geometry":{"type":"Point","coordinates":[-96.70139300035727,28.230780699947047]},"properties":{"substrate":"Firm/Hard Bottom","lease_number":null,"poll_year":2025}},{"type":"Feature","id":"9f60bfd3-f565-4379-bcf5-459db3f35e7d","geometry":{"type":"Point","coordinates":[-96.70062490036514,28.227459100347335]},"properties":{"substrate":"Buried Shell","lease_number":null,"poll_year":2025}},{"type":"Feature","id":"9fc37837-02a3-4ad0-afe2-68d494af6f2c","geometry":{"type":"Point","coordinates":[-96.70165070006281,28.22842440037608]},"properties":{"substrate":"Firm/Hard Bottom","lease_number":null,"poll_year":2025}},{"type":"Feature","id":"a044f300-bff8-483d-9da4-b1a8fc7ba806","geometry":{"type":"Point","coordinates":[-96.70151800003073,28.231134699718698]},"properties":{"substrate":"Firm/Hard Bottom","lease_number":null,"poll_year":2025}},{"type":"Feature","id":"a34bff91-c421-43a1-a56c-33dab6171ad1","geometry":{"type":"Point","coordinates":[-96.70127119958451,28.229760199747112]},"properties":{"substrate":"Firm/Hard Bottom","lease_number":null,"poll_year":2025}},{"type":"Feature","id":"a437cb49-fd65-49ab-9952-646d6b3d9043","geometry":{"type":"Point","coordinates":[-96.7010660998321,28.22985070009015]},"properties":{"substrate":"Firm/Hard Bottom","lease_number":null,"poll_year":2025}},{"type":"Feature","id":"a63f1e3c-4b39-4728-843e-4d28b05df31f","geometry":{"type":"Point","coordinates":[-96.7003264000777,28.227797700185562]},"properties":{"substrate":"Firm/Hard Bottom","lease_number":null,"poll_year":2025}},{"type":"Feature","id":"a7a88dea-0fc8-4145-885a-5e5ba89efc8e","geometry":{"type":"Point","coordinates":[-96.70094960001785,28.227577400353074]},"properties":{"substrate":"Firm/Hard Bottom","lease_number":null,"poll_year":2025}},{"type":"Feature","id":"a9205e70-ea91-42a8-8d2e-4fea58519336","geometry":{"type":"Point","coordinates":[-96.7016285997102,28.230209899702228]},"properties":{"substrate":"Firm/Hard Bottom","lease_number":null,"poll_year":2025}},{"type":"Feature","id":"ac66d26e-5020-4eb3-900b-0021ffc1326d","geometry":{"type":"Point","coordinates":[-96.70111640009813,28.22877819980567]},"properties":{"substrate":"Firm/Hard Bottom","lease_number":null,"poll_year":2025}},{"type":"Feature","id":"adb74db4-1ef7-46c0-be8e-e03782cbf940","geometry":{"type":"Point","coordinates":[-96.70146329981645,28.227853699919248]},"properties":{"substrate":"Firm/Hard Bottom","lease_number":null,"poll_year":2025}},{"type":"Feature","id":"adcfbf5e-c650-413a-b201-b2e2578c46bc","geometry":{"type":"Point","coordinates":[-96.70064609970754,28.228688900013324]},"properties":{"substrate":"Firm/Hard Bottom","lease_number":null,"poll_year":2025}},{"type":"Feature","id":"af8a7b1d-d9a9-434b-81c6-70ca87aa47dd","geometry":{"type":"Point","coordinates":[-96.70128549986552,28.227377700059186]},"properties":{"substrate":"Firm/Hard Bottom","lease_number":null,"poll_year":2025}},{"type":"Feature","id":"b171126e-be9a-4ab7-b767-26b76de93288","geometry":{"type":"Point","coordinates":[-96.70146699997711,28.227297600120483]},"properties":{"substrate":"Firm/Hard Bottom","lease_number":null,"poll_year":2025}},{"type":"Feature","id":"b1d0e207-c737-4bc7-8c59-04c9fb8290f0","geometry":{"type":"Point","coordinates":[-96.70114469972454,28.22938020035952]},"properties":{"substrate":"Firm/Hard Bottom","lease_number":null,"poll_year":2025}},{"type":"Feature","id":"b30a393f-f68d-4feb-ba81-74921e886705","geometry":{"type":"Point","coordinates":[-96.70088119959718,28.22811820017935]},"properties":{"substrate":"Buried Shell","lease_number":null,"poll_year":2025}},{"type":"Feature","id":"b36b53e9-4790-41cc-bed8-3607a2e3de19","geometry":{"type":"Point","coordinates":[-96.7011914004412,28.228262999753223]},"properties":{"substrate":"Buried Shell","lease_number":null,"poll_year":2025}},{"type":"Feature","id":"b383b451-472a-4c3c-a14d-3c9e1510c473","geometry":{"type":"Point","coordinates":[-96.70148720039289,28.229184800340544]},"properties":{"substrate":"Firm/Hard Bottom","lease_number":null,"poll_year":2025}},{"type":"Feature","id":"b3a60d14-944f-4afd-b958-96ad6156e69c","geometry":{"type":"Point","coordinates":[-96.70006470017418,28.227080899733075]},"properties":{"substrate":"Firm/Hard Bottom","lease_number":null,"poll_year":2025}},{"type":"Feature","id":"b3b14dc3-b97b-4c2f-90ce-d0dd267daafb","geometry":{"type":"Point","coordinates":[-96.70073140013366,28.22773110009374]},"properties":{"substrate":"Buried Shell","lease_number":null,"poll_year":2025}},{"type":"Feature","id":"b8598d59-42b5-4d6e-95e8-93bc5dfc8d80","geometry":{"type":"Point","coordinates":[-96.70111350033639,28.22757619967191]},"properties":{"substrate":"Buried Shell","lease_number":null,"poll_year":2025}},{"type":"Feature","id":"b964cc83-f6be-4e24-9cff-6337a8dfd257","geometry":{"type":"Point","coordinates":[-96.70045639977404,28.22815479978845]},"properties":{"substrate":"Firm/Hard Bottom","lease_number":null,"poll_year":2025}},{"type":"Feature","id":"ba2d13ae-f23e-4cce-8d11-893f0e43a203","geometry":{"type":"Point","coordinates":[-96.70157599975705,28.227009800375384]},"properties":{"substrate":"Firm/Hard Bottom","lease_number":null,"poll_year":2025}},{"type":"Feature","id":"baa59467-fae0-4c28-97c7-10b914a585e7","geometry":{"type":"Point","coordinates":[-96.70149320024069,28.22982270035514]},"properties":{"substrate":"Firm/Hard Bottom","lease_number":null,"poll_year":2025}},{"type":"Feature","id":"be1cb045-4b33-41b8-875f-03c4cf868325","geometry":{"type":"Point","coordinates":[-96.70067790006861,28.226981599648518]},"properties":{"substrate":"Firm/Hard Bottom","lease_number":null,"poll_year":2025}},{"type":"Feature","id":"be986383-08ea-444a-9da9-13b42474da41","geometry":{"type":"Point","coordinates":[-96.70140740035127,28.22892990013694]},"properties":{"substrate":"Firm/Hard Bottom","lease_number":null,"poll_year":2025}},{"type":"Feature","id":"c0375184-b43a-42b4-a0fe-b5d4d70c2cf9","geometry":{"type":"Point","coordinates":[-96.70121930031729,28.227864199717647]},"properties":{"substrate":"Buried Shell","lease_number":null,"poll_year":2025}},{"type":"Feature","id":"c12228be-a02c-4118-a0b8-07a611a31680","geometry":{"type":"Point","coordinates":[-96.70143440011545,28.230230100246942]},"properties":{"substrate":"Firm/Hard Bottom","lease_number":null,"poll_year":2025}},{"type":"Feature","id":"c2e018f6-6aee-495a-87d1-f35a8dbe3d4f","geometry":{"type":"Point","coordinates":[-96.70068149961794,28.227609499771336]},"properties":{"substrate":"Buried Shell","lease_number":null,"poll_year":2025}},{"type":"Feature","id":"cc4018a0-69de-4c12-a708-9a2b05d7b2db","geometry":{"type":"Point","coordinates":[-96.70045660009835,28.227427999737973]},"properties":{"substrate":"Buried Shell","lease_number":null,"poll_year":2025}},{"type":"Feature","id":"cc8f8d76-9101-412b-9e19-ce5de6731f62","geometry":{"type":"Point","coordinates":[-96.70113409960416,28.227005200246104]},"properties":{"substrate":"Firm/Hard Bottom","lease_number":null,"poll_year":2025}},{"type":"Feature","id":"cd6c48c2-d182-48da-aee8-52bbec9423cf","geometry":{"type":"Point","coordinates":[-96.70161569990272,28.227105199983598]},"properties":{"substrate":"Firm/Hard Bottom","lease_number":null,"poll_year":2025}},{"type":"Feature","id":"ce762c6a-5758-40fe-b5e2-bde1f2407ec1","geometry":{"type":"Point","coordinates":[-96.70144000021293,28.22967299975064]},"properties":{"substrate":"Firm/Hard Bottom","lease_number":null,"poll_year":2025}},{"type":"Feature","id":"cf285189-5f00-4417-a989-97c6bdb2152d","geometry":{"type":"Point","coordinates":[-96.70096999985965,28.229587499758477]},"properties":{"substrate":"Firm/Hard Bottom","lease_number":null,"poll_year":2025}},{"type":"Feature","id":"d29cefc0-2a09-4e4e-922f-43fcf9a0d8cc","geometry":{"type":"Point","coordinates":[-96.70136599969477,28.227588599850378]},"properties":{"substrate":"Firm/Hard Bottom","lease_number":null,"poll_year":2025}},{"type":"Feature","id":"d59a4730-6e7a-44e0-a8e1-81a047735aa5","geometry":{"type":"Point","coordinates":[-96.70160229973364,28.227651600364688]},"properties":{"substrate":"Firm/Hard Bottom","lease_number":null,"poll_year":2025}},{"type":"Feature","id":"d6582c96-e9f5-4374-8bed-1ff08ad012d2","geometry":{"type":"Point","coordinates":[-96.70092279967967,28.228239700195818]},"properties":{"substrate":"Firm/Hard Bottom","lease_number":null,"poll_year":2025}},{"type":"Feature","id":"d76e8ec2-6103-45ca-8f66-e4d58ce0e55d","geometry":{"type":"Point","coordinates":[-96.70133670024346,28.22870850011595]},"properties":{"substrate":"Firm/Hard Bottom","lease_number":null,"poll_year":2025}},{"type":"Feature","id":"d96229e6-6bfd-4c57-9382-7af982247895","geometry":{"type":"Point","coordinates":[-96.70149839968954,28.227961199728483]},"properties":{"substrate":"Firm/Hard Bottom","lease_number":null,"poll_year":2025}},{"type":"Feature","id":"dd275334-8ecd-4007-881e-b83a81d5c05f","geometry":{"type":"Point","coordinates":[-96.70104829971476,28.22785089965625]},"properties":{"substrate":"Firm/Hard Bottom","lease_number":null,"poll_year":2025}},{"type":"Feature","id":"e0499394-d916-4d82-ba5a-15679a558c88","geometry":{"type":"Point","coordinates":[-96.7014516001582,28.2290710997825]},"properties":{"substrate":"Firm/Hard Bottom","lease_number":null,"poll_year":2025}},{"type":"Feature","id":"e1d151b2-4e07-4571-b678-1750aca32845","geometry":{"type":"Point","coordinates":[-96.70011829995225,28.227230899989294]},"properties":{"substrate":"Firm/Hard Bottom","lease_number":null,"poll_year":2025}},{"type":"Feature","id":"e411e576-b262-4ad0-93bf-f7e2ae98b3fc","geometry":{"type":"Point","coordinates":[-96.70121349989549,28.23027019977705]},"properties":{"substrate":"Firm/Hard Bottom","lease_number":null,"poll_year":2025}},{"type":"Feature","id":"e7a740a6-8ea4-4509-a474-52a2e38f7140","geometry":{"type":"Point","coordinates":[-96.70056680002752,28.227712899944954]},"properties":{"substrate":"Firm/Hard Bottom","lease_number":null,"poll_year":2025}},{"type":"Feature","id":"e7e4197c-6f81-45f3-a54d-b97e8e7da090","geometry":{"type":"Point","coordinates":[-96.70052440044444,28.22760010011037]},"properties":{"substrate":"Buried Shell","lease_number":null,"poll_year":2025}},{"type":"Feature","id":"e90efe7e-aba4-4b2a-b93a-fb0329a18b85","geometry":{"type":"Point","coordinates":[-96.70164639982755,28.230838099790798]},"properties":{"substrate":"Firm/Hard Bottom","lease_number":null,"poll_year":2025}},{"type":"Feature","id":"e92d1649-4adf-4e40-8f20-33d93e54ebb2","geometry":{"type":"Point","coordinates":[-96.70099849981034,28.227713400162184]},"properties":{"substrate":"Firm/Hard Bottom","lease_number":null,"poll_year":2025}},{"type":"Feature","id":"ed4a59ef-9443-4542-b22c-41805f4bbc6f","geometry":{"type":"Point","coordinates":[-96.70102460036094,28.2297358003761]},"properties":{"substrate":"Firm/Hard Bottom","lease_number":null,"poll_year":2025}},{"type":"Feature","id":"f1761bce-351e-4150-831c-5c0bc4d718cf","geometry":{"type":"Point","coordinates":[-96.7012560000899,28.230389899930962]},"properties":{"substrate":"Firm/Hard Bottom","lease_number":null,"poll_year":2025}},{"type":"Feature","id":"f4015d1d-b930-4c30-a915-571d5c318fda","geometry":{"type":"Point","coordinates":[-96.70122849996412,28.22724319968912]},"properties":{"substrate":"Firm/Hard Bottom","lease_number":null,"poll_year":2025}},{"type":"Feature","id":"f417729b-6f50-43cc-9ee2-61e433317b56","geometry":{"type":"Point","coordinates":[-96.70161690005193,28.229571899902467]},"properties":{"substrate":"Firm/Hard Bottom","lease_number":null,"poll_year":2025}},{"type":"Feature","id":"f45fcccc-b546-48d1-86f5-5e149f208a83","geometry":{"type":"Point","coordinates":[-96.70068399962939,28.22803540026474]},"properties":{"substrate":"Firm/Hard Bottom","lease_number":null,"poll_year":2025}},{"type":"Feature","id":"f51cee5b-0e54-4301-9c3a-355dba4b2397","geometry":{"type":"Point","coordinates":[-96.70093760032229,28.227089200063563]},"properties":{"substrate":"Buried Shell","lease_number":null,"poll_year":2025}},{"type":"Feature","id":"f527902a-80e1-4e7d-a123-a98b6e1b4111","geometry":{"type":"Point","coordinates":[-96.70118319972097,28.229496600291508]},"properties":{"substrate":"Firm/Hard Bottom","lease_number":null,"poll_year":2025}},{"type":"Feature","id":"f6306c00-ded1-4c89-939c-e6b2a92349f0","geometry":{"type":"Point","coordinates":[-96.70077930010125,28.22784990001458]},"properties":{"substrate":"Buried Shell","lease_number":null,"poll_year":2025}},{"type":"Feature","id":"f779ca3c-9382-4c5c-9f00-266444f5329c","geometry":{"type":"Point","coordinates":[-96.70126199993769,28.22797999977752]},"properties":{"substrate":"Buried Shell","lease_number":null,"poll_year":2025}},{"type":"Feature","id":"f950ba07-284d-4483-86fa-d76eb4ce49da","geometry":{"type":"Point","coordinates":[-96.70159080039967,28.228898400261727]},"properties":{"substrate":"Firm/Hard Bottom","lease_number":null,"poll_year":2025}},{"type":"Feature","id":"f977746e-4972-4d07-a14a-eebfb71f1d39","geometry":{"type":"Point","coordinates":[-96.70147760009746,28.23101549981046]},"properties":{"substrate":"Firm/Hard Bottom","lease_number":null,"poll_year":2025}},{"type":"Feature","id":"fd66c5f5-4bfc-4543-8781-f37036339eca","geometry":{"type":"Point","coordinates":[-96.70139199963403,28.230114499703266]},"properties":{"substrate":"Firm/Hard Bottom","lease_number":null,"poll_year":2025}}]}