{"type":"FeatureCollection","features":[{"type":"Feature","id":"02c59bb9-a785-4031-a69a-5fddf0035366","geometry":{"type":"Point","coordinates":[-96.70095719976517,28.22474010004845]},"properties":{"substrate":"Mud","lease_number":null,"poll_year":2025}},{"type":"Feature","id":"04121bb1-d8ae-46b2-ab40-c7ad51917d16","geometry":{"type":"Point","coordinates":[-96.70090029957674,28.223083399971095]},"properties":{"substrate":"Mud","lease_number":null,"poll_year":2025}},{"type":"Feature","id":"06fd8ab7-c150-4a82-b967-56f3c7778d47","geometry":{"type":"Point","coordinates":[-96.70105650043497,28.223994999978736]},"properties":{"substrate":"Firm/Hard Bottom","lease_number":null,"poll_year":2025}},{"type":"Feature","id":"07128275-aedc-423c-b198-e06612a7450f","geometry":{"type":"Point","coordinates":[-96.70115969979312,28.22552199963605]},"properties":{"substrate":"Buried Shell","lease_number":null,"poll_year":2025}},{"type":"Feature","id":"086b5f92-e5fb-41e0-91dc-d5defefd3789","geometry":{"type":"Point","coordinates":[-96.70093659959907,28.22525559967154]},"properties":{"substrate":"Buried Shell","lease_number":null,"poll_year":2025}},{"type":"Feature","id":"08c0c814-9657-4b55-a2ef-d0235f12ebcd","geometry":{"type":"Point","coordinates":[-96.70159750003506,28.222141499758333]},"properties":{"substrate":"Solid Reef","lease_number":null,"poll_year":2025}},{"type":"Feature","id":"0d45061f-47aa-4c5c-a40b-9aa84a1428b7","geometry":{"type":"Point","coordinates":[-96.70109369967089,28.225745300320547]},"properties":{"substrate":"Buried Shell","lease_number":null,"poll_year":2025}},{"type":"Feature","id":"0d8d1f64-b426-4a6a-a5d7-f27c769b8ed0","geometry":{"type":"Point","coordinates":[-96.70127230002073,28.22498350021941]},"properties":{"substrate":"Firm/Hard Bottom","lease_number":null,"poll_year":2025}},{"type":"Feature","id":"0faedb82-82ad-499b-b7f0-0dc015d9f015","geometry":{"type":"Point","coordinates":[-96.70122560020238,28.224289400325663]},"properties":{"substrate":"Buried Shell","lease_number":null,"poll_year":2025}},{"type":"Feature","id":"0ff5fa2c-534b-478d-bfa0-9da0e803ed5c","geometry":{"type":"Point","coordinates":[-96.70114050010056,28.22492560016271]},"properties":{"substrate":"Mud","lease_number":null,"poll_year":2025}},{"type":"Feature","id":"10b70fdd-e2ab-4db6-906f-7ed502e88f15","geometry":{"type":"Point","coordinates":[-96.70107429965401,28.2243015998429]},"properties":{"substrate":"Firm/Hard Bottom","lease_number":null,"poll_year":2025}},{"type":"Feature","id":"12676cd0-50fe-4e49-811e-a29d6a229f08","geometry":{"type":"Point","coordinates":[-96.70121099988407,28.22284230037119]},"properties":{"substrate":"Buried Shell","lease_number":null,"poll_year":2025}},{"type":"Feature","id":"139362c9-c66c-4ba3-9ab3-41c424e2d1f1","geometry":{"type":"Point","coordinates":[-96.70120840015964,28.225748300096143]},"properties":{"substrate":"Buried Shell","lease_number":null,"poll_year":2025}},{"type":"Feature","id":"13cfcaae-4519-42a2-87a7-544c9a5ec048","geometry":{"type":"Point","coordinates":[-96.70040719994424,28.226475899910504]},"properties":{"substrate":"Buried Shell","lease_number":null,"poll_year":2025}},{"type":"Feature","id":"1a8eea7b-dd48-4a32-87eb-f77aff005e6e","geometry":{"type":"Point","coordinates":[-96.70094179994625,28.22389720010327]},"properties":{"substrate":"Mud","lease_number":null,"poll_year":2025}},{"type":"Feature","id":"1c64db76-c928-428b-81ad-565b22ea46c0","geometry":{"type":"Point","coordinates":[-96.70147089956376,28.222374499708184]},"properties":{"substrate":"Buried Shell","lease_number":null,"poll_year":2025}},{"type":"Feature","id":"1d309f1b-0d03-4547-b6ed-ec653d4468a9","geometry":{"type":"Point","coordinates":[-96.6989746996798,28.22403269961789]},"properties":{"substrate":"Firm/Hard Bottom","lease_number":null,"poll_year":2025}},{"type":"Feature","id":"1ea6d601-bc7a-421f-adbc-049a0f634d70","geometry":{"type":"Point","coordinates":[-96.70087919994735,28.22411060002681]},"properties":{"substrate":"Mud","lease_number":null,"poll_year":2025}},{"type":"Feature","id":"1f92a1e7-1f53-4b78-bd38-40224d3af9b4","geometry":{"type":"Point","coordinates":[-96.70137729960273,28.223434300372794]},"properties":{"substrate":"Mud","lease_number":null,"poll_year":2025}},{"type":"Feature","id":"22484237-8627-4645-b1b4-5dafbf58e94f","geometry":{"type":"Point","coordinates":[-96.70086370041545,28.226889499647726]},"properties":{"substrate":"Buried Shell","lease_number":null,"poll_year":2025}},{"type":"Feature","id":"227e7047-36df-4b74-9514-38bc9719fb47","geometry":{"type":"Point","coordinates":[-96.70159219997488,28.225487999991334]},"properties":{"substrate":"Buried Shell","lease_number":null,"poll_year":2025}},{"type":"Feature","id":"22daf083-da5c-4836-9dd1-49d776c0f57c","geometry":{"type":"Point","coordinates":[-96.70081409993702,28.226742999672645]},"properties":{"substrate":"Buried Shell","lease_number":null,"poll_year":2025}},{"type":"Feature","id":"22e4625b-fcbd-4be2-b016-3f52cf46b769","geometry":{"type":"Point","coordinates":[-96.69959490014521,28.225768400173635]},"properties":{"substrate":"Firm/Hard Bottom","lease_number":null,"poll_year":2025}},{"type":"Feature","id":"23899c62-d8fa-4d21-8688-1a7c720d7293","geometry":{"type":"Point","coordinates":[-96.70146220027853,28.22572299987511]},"properties":{"substrate":"Buried Shell","lease_number":null,"poll_year":2025}},{"type":"Feature","id":"25bf5f91-2df7-4e50-bab1-dc37af74580a","geometry":{"type":"Point","coordinates":[-96.70010589960806,28.226441800050107]},"properties":{"substrate":"Firm/Hard Bottom","lease_number":null,"poll_year":2025}},{"type":"Feature","id":"269dcc7d-a1b9-4713-a955-92d34610a088","geometry":{"type":"Point","coordinates":[-96.70071670010236,28.223672599846086]},"properties":{"substrate":"Firm/Hard Bottom","lease_number":null,"poll_year":2025}},{"type":"Feature","id":"27570b5d-a58a-4248-8517-ea798f2f477f","geometry":{"type":"Point","coordinates":[-96.7016557000857,28.22404229984512]},"properties":{"substrate":"Buried Shell","lease_number":null,"poll_year":2025}},{"type":"Feature","id":"27aa2dc8-11c5-49a3-b554-b43f9dcac74b","geometry":{"type":"Point","coordinates":[-96.70102229977549,28.22373019980766]},"properties":{"substrate":"Mud","lease_number":null,"poll_year":2025}},{"type":"Feature","id":"29d10b48-5fe5-4cdb-bbb9-95e41aa7de72","geometry":{"type":"Point","coordinates":[-96.70133230029519,28.222631300177362]},"properties":{"substrate":"Buried Shell","lease_number":null,"poll_year":2025}},{"type":"Feature","id":"2d08e205-59cc-4c28-8f7b-94cf7ab3aca5","geometry":{"type":"Point","coordinates":[-96.70093330008703,28.22452340000935]},"properties":{"substrate":"Buried Shell","lease_number":null,"poll_year":2025}},{"type":"Feature","id":"2fb70fd8-b4a5-4c68-9ac7-99129ce0ada6","geometry":{"type":"Point","coordinates":[-96.70106040002163,28.22408199961303]},"properties":{"substrate":"Firm/Hard Bottom","lease_number":null,"poll_year":2025}},{"type":"Feature","id":"2fea51e6-f2ef-4d60-ab08-aef38b51ec60","geometry":{"type":"Point","coordinates":[-96.70129299989983,28.224909800166394]},"properties":{"substrate":"Mud","lease_number":null,"poll_year":2025}},{"type":"Feature","id":"30bfdd5e-5dc7-46f6-a13a-14c0b96ff9cd","geometry":{"type":"Point","coordinates":[-96.70096890032174,28.22567929969508]},"properties":{"substrate":"Buried Shell","lease_number":null,"poll_year":2025}},{"type":"Feature","id":"3258b01e-c598-4ca0-b4fb-ef08009cd96d","geometry":{"type":"Point","coordinates":[-96.69911399963428,28.224420699604522]},"properties":{"substrate":"Firm/Hard Bottom","lease_number":null,"poll_year":2025}},{"type":"Feature","id":"33c32fff-d8b4-4c82-b67f-b512f0ace7fc","geometry":{"type":"Point","coordinates":[-96.7010500999386,28.22430869967159]},"properties":{"substrate":"Buried Shell","lease_number":null,"poll_year":2025}},{"type":"Feature","id":"3417bc11-e7a4-4b4f-b510-5d7b21ecbc07","geometry":{"type":"Point","coordinates":[-96.69901710016123,28.224153499841634]},"properties":{"substrate":"Firm/Hard Bottom","lease_number":null,"poll_year":2025}},{"type":"Feature","id":"34eac82a-4cd2-47f5-935e-9f06b01bd589","geometry":{"type":"Point","coordinates":[-96.70140740035127,28.224272299786804]},"properties":{"substrate":"Buried Shell","lease_number":null,"poll_year":2025}},{"type":"Feature","id":"36677d83-28f3-4b0a-8f61-c4ae2e0d15d4","geometry":{"type":"Point","coordinates":[-96.6986289003977,28.22307560035958]},"properties":{"substrate":"Mud","lease_number":null,"poll_year":2025}},{"type":"Feature","id":"370b85af-d261-4c51-934d-c7406c8de55b","geometry":{"type":"Point","coordinates":[-96.70152629956564,28.224260100266225]},"properties":{"substrate":"Buried Shell","lease_number":null,"poll_year":2025}},{"type":"Feature","id":"3c1392da-7a71-401e-bcf0-f605b8469d85","geometry":{"type":"Point","coordinates":[-96.70086949993892,28.22633329984617]},"properties":{"substrate":"Firm/Hard Bottom","lease_number":null,"poll_year":2025}},{"type":"Feature","id":"3f43d794-d08e-4a42-b5e4-a7847898b20f","geometry":{"type":"Point","coordinates":[-96.700431599984,28.226573600069916]},"properties":{"substrate":"Buried Shell","lease_number":null,"poll_year":2025}},{"type":"Feature","id":"3f98697e-e938-4d99-b6a4-c27a49fb2671","geometry":{"type":"Point","coordinates":[-96.70155980043754,28.223661699921298]},"properties":{"substrate":"Firm/Hard Bottom","lease_number":null,"poll_year":2025}},{"type":"Feature","id":"41f4e93f-28af-4b80-99af-a06095f9b28f","geometry":{"type":"Point","coordinates":[-96.7009164000816,28.224339799606785]},"properties":{"substrate":"Mud","lease_number":null,"poll_year":2025}},{"type":"Feature","id":"428a7b0a-3187-414a-a7d7-d3f380adeba0","geometry":{"type":"Point","coordinates":[-96.70141780014731,28.222471700213642]},"properties":{"substrate":"Buried Shell","lease_number":null,"poll_year":2025}},{"type":"Feature","id":"43671ffb-8705-4d68-bc15-21a2af3e472e","geometry":{"type":"Point","coordinates":[-96.70156559996101,28.225294900071756]},"properties":{"substrate":"Buried Shell","lease_number":null,"poll_year":2025}},{"type":"Feature","id":"44b9dc29-81da-42f2-951e-0375498df6da","geometry":{"type":"Point","coordinates":[-96.70130079997143,28.22685640036195]},"properties":{"substrate":"Firm/Hard Bottom","lease_number":null,"poll_year":2025}},{"type":"Feature","id":"488697a7-0bb6-41cd-b7aa-d312fc7c031a","geometry":{"type":"Point","coordinates":[-96.70131330002863,28.22286019978174]},"properties":{"substrate":"Buried Shell","lease_number":null,"poll_year":2025}},{"type":"Feature","id":"4b6c3d68-1b18-4be3-b112-f8f5c468fd1c","geometry":{"type":"Point","coordinates":[-96.69857679990785,28.222928700182404]},"properties":{"substrate":"Firm/Hard Bottom","lease_number":null,"poll_year":2025}},{"type":"Feature","id":"4d103179-cad6-4a99-b7da-b73ff95a4c9a","geometry":{"type":"Point","coordinates":[-96.70156140033704,28.22300309972195]},"properties":{"substrate":"Firm/Hard Bottom","lease_number":null,"poll_year":2025}},{"type":"Feature","id":"4d108db2-4353-4b72-89a1-371a1ae266b2","geometry":{"type":"Point","coordinates":[-96.69813709972911,28.221679200308127]},"properties":{"substrate":"Firm/Hard Bottom","lease_number":null,"poll_year":2025}},{"type":"Feature","id":"4dd55a3a-d4fa-457c-a94c-8fcae5924ab0","geometry":{"type":"Point","coordinates":[-96.69981499996625,28.226393299761025]},"properties":{"substrate":"Firm/Hard Bottom","lease_number":null,"poll_year":2025}},{"type":"Feature","id":"4e463890-9612-4c3f-845a-7b207e1472d0","geometry":{"type":"Point","coordinates":[-96.70141599992348,28.225314200027377]},"properties":{"substrate":"Buried Shell","lease_number":null,"poll_year":2025}},{"type":"Feature","id":"4f3f95c2-a0f4-49d5-bd7e-69a49a0bcd63","geometry":{"type":"Point","coordinates":[-96.700966199986,28.22332380011831]},"properties":{"substrate":"Mud","lease_number":null,"poll_year":2025}},{"type":"Feature","id":"514d7130-a9b8-4aab-aa62-18b459e56ba0","geometry":{"type":"Point","coordinates":[-96.70001080035881,28.226933299851368]},"properties":{"substrate":"Firm/Hard Bottom","lease_number":null,"poll_year":2025}},{"type":"Feature","id":"5229d724-ea3f-44dd-88cd-16bf817021fc","geometry":{"type":"Point","coordinates":[-96.69922259966393,28.22472319983256]},"properties":{"substrate":"Mud","lease_number":null,"poll_year":2025}},{"type":"Feature","id":"539645a4-603a-411b-a3d8-721547bad549","geometry":{"type":"Point","coordinates":[-96.70155039956808,28.22646910020147]},"properties":{"substrate":"Firm/Hard Bottom","lease_number":null,"poll_year":2025}},{"type":"Feature","id":"55a2e854-f680-4b04-bcd1-586d5b775e74","geometry":{"type":"Point","coordinates":[-96.70158479965357,28.223413699618447]},"properties":{"substrate":"Firm/Hard Bottom","lease_number":null,"poll_year":2025}},{"type":"Feature","id":"55c7aa88-8ba8-4191-95d1-806aad365d08","geometry":{"type":"Point","coordinates":[-96.70102930034649,28.226308599715782]},"properties":{"substrate":"Firm/Hard Bottom","lease_number":null,"poll_year":2025}},{"type":"Feature","id":"58bcc759-190f-4084-9f5a-ff175f352a4c","geometry":{"type":"Point","coordinates":[-96.70100460026943,28.223386299746245]},"properties":{"substrate":"Firm/Hard Bottom","lease_number":null,"poll_year":2025}},{"type":"Feature","id":"5a3d4765-c1f7-4f60-a3eb-f2f31999061b","geometry":{"type":"Point","coordinates":[-96.7010785998893,28.225116399853455]},"properties":{"substrate":"Buried Shell","lease_number":null,"poll_year":2025}},{"type":"Feature","id":"5d7b42f3-ed5c-4f07-a072-08c0f229ca78","geometry":{"type":"Point","coordinates":[-96.70063720009803,28.22642349995341]},"properties":{"substrate":"Buried Shell","lease_number":null,"poll_year":2025}},{"type":"Feature","id":"5dfcb9da-f213-43fa-8899-0bb144d28d3c","geometry":{"type":"Point","coordinates":[-96.70105679957398,28.225557499951897]},"properties":{"substrate":"Buried Shell","lease_number":null,"poll_year":2025}},{"type":"Feature","id":"605b6f6a-f614-404a-911e-30a0118b165c","geometry":{"type":"Point","coordinates":[-96.70137330030309,28.22449350005199]},"properties":{"substrate":"Mud","lease_number":null,"poll_year":2025}},{"type":"Feature","id":"661f30d9-d913-4b6b-839c-7f73e904080d","geometry":{"type":"Point","coordinates":[-96.70148209975872,28.22465709963692]},"properties":{"substrate":"Mud","lease_number":null,"poll_year":2025}},{"type":"Feature","id":"668c0140-01a9-4635-9dd8-8c25d338311a","geometry":{"type":"Point","coordinates":[-96.70137800028864,28.22327099968986]},"properties":{"substrate":"Firm/Hard Bottom","lease_number":null,"poll_year":2025}},{"type":"Feature","id":"66b81d07-6bee-4d83-b42d-cda2a6e083a0","geometry":{"type":"Point","coordinates":[-96.69933010015565,28.225021800260166]},"properties":{"substrate":"Firm/Hard Bottom","lease_number":null,"poll_year":2025}},{"type":"Feature","id":"67025c13-6c0c-4453-a111-f75f24e26596","geometry":{"type":"Point","coordinates":[-96.70089549987819,28.22487440015613]},"properties":{"substrate":"Mud","lease_number":null,"poll_year":2025}},{"type":"Feature","id":"6799cfc0-da33-4007-90fb-eb216e9c1752","geometry":{"type":"Point","coordinates":[-96.69928739963693,28.224901900167346]},"properties":{"substrate":"Mud","lease_number":null,"poll_year":2025}},{"type":"Feature","id":"6a69822f-dea1-4b72-9d65-4c73f7a165fc","geometry":{"type":"Point","coordinates":[-96.70141319987475,28.224990099772754]},"properties":{"substrate":"Buried Shell","lease_number":null,"poll_year":2025}},{"type":"Feature","id":"6a89ea21-c949-4956-b87f-9896ea0d3f5c","geometry":{"type":"Point","coordinates":[-96.7011640000284,28.223458899854457]},"properties":{"substrate":"Mud","lease_number":null,"poll_year":2025}},{"type":"Feature","id":"6daadbf5-8364-4235-906c-54538de7162a","geometry":{"type":"Point","coordinates":[-96.70132300003705,28.22302779982572]},"properties":{"substrate":"Mud","lease_number":null,"poll_year":2025}},{"type":"Feature","id":"7048b38b-1b12-4f29-a3c8-4b10c04e4147","geometry":{"type":"Point","coordinates":[-96.7008256001693,28.22444319978183]},"properties":{"substrate":"Buried Shell","lease_number":null,"poll_year":2025}},{"type":"Feature","id":"70a4f48e-743c-4db1-b019-ee6d28c1418b","geometry":{"type":"Point","coordinates":[-96.70132230024946,28.223691300128337]},"properties":{"substrate":"Firm/Hard Bottom","lease_number":null,"poll_year":2025}},{"type":"Feature","id":"70e10930-cb9c-40ea-a6b3-94cf7dfa0525","geometry":{"type":"Point","coordinates":[-96.70101870022614,28.224921200194025]},"properties":{"substrate":"Mud","lease_number":null,"poll_year":2025}},{"type":"Feature","id":"7250472b-612a-4f53-8d10-1a90e48dfd5f","geometry":{"type":"Point","coordinates":[-96.70044380000387,28.22694420023356]},"properties":{"substrate":"Firm/Hard Bottom","lease_number":null,"poll_year":2025}},{"type":"Feature","id":"7272b5e8-58bc-4f38-befb-808c4bc324c4","geometry":{"type":"Point","coordinates":[-96.70112770000608,28.226416899697178]},"properties":{"substrate":"Firm/Hard Bottom","lease_number":null,"poll_year":2025}},{"type":"Feature","id":"7375ba40-ac60-497c-a887-23ec59928787","geometry":{"type":"Point","coordinates":[-96.69946579966248,28.22541219964565]},"properties":{"substrate":"Mud","lease_number":null,"poll_year":2025}},{"type":"Feature","id":"740b6034-a64a-4ba4-a3c7-61312cf22415","geometry":{"type":"Point","coordinates":[-96.69976149990119,28.22624210000598]},"properties":{"substrate":"Firm/Hard Bottom","lease_number":null,"poll_year":2025}},{"type":"Feature","id":"75772b0f-7a18-40cb-9e79-fa4578469f73","geometry":{"type":"Point","coordinates":[-96.70160629993158,28.22464660031456]},"properties":{"substrate":"Mud","lease_number":null,"poll_year":2025}},{"type":"Feature","id":"783e6f1e-0ad9-419e-b1c3-2aab2f6e5711","geometry":{"type":"Point","coordinates":[-96.70104949986398,28.22390929993489]},"properties":{"substrate":"Firm/Hard Bottom","lease_number":null,"poll_year":2025}},{"type":"Feature","id":"7aafdaad-6e81-4829-9ebe-3ffea3b9c73a","geometry":{"type":"Point","coordinates":[-96.70076469978292,28.22663170027141]},"properties":{"substrate":"Buried Shell","lease_number":null,"poll_year":2025}},{"type":"Feature","id":"7c6bba90-5618-49c1-a23f-10016018c8c1","geometry":{"type":"Point","coordinates":[-96.7016285997102,28.226867599934906]},"properties":{"substrate":"Mud","lease_number":null,"poll_year":2025}},{"type":"Feature","id":"7ce8db36-1f18-45b7-968e-5a222b3768b7","geometry":{"type":"Point","coordinates":[-96.69904979973586,28.224241300353512]},"properties":{"substrate":"Firm/Hard Bottom","lease_number":null,"poll_year":2025}},{"type":"Feature","id":"7edd5714-2b88-4cd9-aeab-383f55eeceb6","geometry":{"type":"Point","coordinates":[-96.6991786998943,28.22460180029198]},"properties":{"substrate":"Firm/Hard Bottom","lease_number":null,"poll_year":2025}},{"type":"Feature","id":"7f60647e-588f-4653-982b-aea297a4623d","geometry":{"type":"Point","coordinates":[-96.70165070006281,28.223239300265558]},"properties":{"substrate":"Firm/Hard Bottom","lease_number":null,"poll_year":2025}},{"type":"Feature","id":"8006a01c-53a5-486d-be2a-f83570b3ad3a","geometry":{"type":"Point","coordinates":[-96.7009098998722,28.22372609977296]},"properties":{"substrate":"Mud","lease_number":null,"poll_year":2025}},{"type":"Feature","id":"834cd5f7-d114-426b-ac3e-e24658038b0f","geometry":{"type":"Point","coordinates":[-96.70060120011301,28.226849899860156]},"properties":{"substrate":"Buried Shell","lease_number":null,"poll_year":2025}},{"type":"Feature","id":"865416c4-561f-49a8-9c40-02514136a47e","geometry":{"type":"Point","coordinates":[-96.70109660033094,28.225329799714203]},"properties":{"substrate":"Buried Shell","lease_number":null,"poll_year":2025}},{"type":"Feature","id":"86fd1bbb-387f-437c-9c03-8804df71f2e8","geometry":{"type":"Point","coordinates":[-96.70108660028521,28.224587500151845]},"properties":{"substrate":"Firm/Hard Bottom","lease_number":null,"poll_year":2025}},{"type":"Feature","id":"87f8518a-ec8b-45f3-a9fa-9d1bc3c3e715","geometry":{"type":"Point","coordinates":[-96.7011988995772,28.2240979002536]},"properties":{"substrate":"Mud","lease_number":null,"poll_year":2025}},{"type":"Feature","id":"8b215193-41e0-4c13-86da-9f8cca5622a9","geometry":{"type":"Point","coordinates":[-96.70098340002875,28.22348910008553]},"properties":{"substrate":"Mud","lease_number":null,"poll_year":2025}},{"type":"Feature","id":"8bd7507b-f8c8-42f6-8a9c-43ee94834e3d","geometry":{"type":"Point","coordinates":[-96.70094860019294,28.22518159982724]},"properties":{"substrate":"Buried Shell","lease_number":null,"poll_year":2025}},{"type":"Feature","id":"8d8abd46-5376-4891-9138-cbe7611ad421","geometry":{"type":"Point","coordinates":[-96.70100340012021,28.223259600277494]},"properties":{"substrate":"Firm/Hard Bottom","lease_number":null,"poll_year":2025}},{"type":"Feature","id":"8ef16baf-6791-4a03-96a9-9f871dbf6c15","geometry":{"type":"Point","coordinates":[-96.7006847003153,28.22331119998244]},"properties":{"substrate":"Mud","lease_number":null,"poll_year":2025}},{"type":"Feature","id":"8faa9e88-09ab-4858-b7c2-67a6efb8e253","geometry":{"type":"Point","coordinates":[-96.70132159956354,28.225740799865438]},"properties":{"substrate":"Buried Shell","lease_number":null,"poll_year":2025}},{"type":"Feature","id":"92341142-dd0c-475b-8756-333603c22885","geometry":{"type":"Point","coordinates":[-96.70146109984232,28.226231800295977]},"properties":{"substrate":"Firm/Hard Bottom","lease_number":null,"poll_year":2025}},{"type":"Feature","id":"93f83179-b230-40f3-8da4-0736c5bf788b","geometry":{"type":"Point","coordinates":[-96.70124739961938,28.223848799971496]},"properties":{"substrate":"Mud","lease_number":null,"poll_year":2025}},{"type":"Feature","id":"941282f0-fca2-444c-b392-90d3f1446d30","geometry":{"type":"Point","coordinates":[-96.70120460028599,28.226613499935155]},"properties":{"substrate":"Firm/Hard Bottom","lease_number":null,"poll_year":2025}},{"type":"Feature","id":"942e7cbc-5a22-46df-a013-87d2174a2b97","geometry":{"type":"Point","coordinates":[-96.69832269975164,28.22221479962855]},"properties":{"substrate":"Firm/Hard Bottom","lease_number":null,"poll_year":2025}},{"type":"Feature","id":"94370ce2-c5f5-4e84-a2eb-79fae93fed44","geometry":{"type":"Point","coordinates":[-96.70153099955121,28.226916499710324]},"properties":{"substrate":"Firm/Hard Bottom","lease_number":null,"poll_year":2025}},{"type":"Feature","id":"956ab970-55f0-4fb3-a621-77974d1ef849","geometry":{"type":"Point","coordinates":[-96.69881069964828,28.223586199845425]},"properties":{"substrate":"Firm/Hard Bottom","lease_number":null,"poll_year":2025}},{"type":"Feature","id":"974ebb24-7389-48f0-b241-466a82124b5d","geometry":{"type":"Point","coordinates":[-96.6979604999274,28.221187300337476]},"properties":{"substrate":"Firm/Hard Bottom","lease_number":null,"poll_year":2025}},{"type":"Feature","id":"9a72d2d4-ece4-42da-ae5d-5c68f0b38744","geometry":{"type":"Point","coordinates":[-96.6996362999034,28.2258847003586]},"properties":{"substrate":"Firm/Hard Bottom","lease_number":null,"poll_year":2025}},{"type":"Feature","id":"9ac9dad2-270a-495a-812c-fb8080766539","geometry":{"type":"Point","coordinates":[-96.7007918998714,28.22353389978356]},"properties":{"substrate":"Firm/Hard Bottom","lease_number":null,"poll_year":2025}},{"type":"Feature","id":"9d638b0e-26be-4139-be45-06af7740d75d","geometry":{"type":"Point","coordinates":[-96.70144250022435,28.223014100236732]},"properties":{"substrate":"Mud","lease_number":null,"poll_year":2025}},{"type":"Feature","id":"a10da746-5a0b-4720-bdbd-f3653f9a566f","geometry":{"type":"Point","coordinates":[-96.70064479984532,28.22316269968275]},"properties":{"substrate":"Mud","lease_number":null,"poll_year":2025}},{"type":"Feature","id":"a1114718-5646-4b48-9ae5-d076dce92397","geometry":{"type":"Point","coordinates":[-96.70004859966934,28.226733500207597]},"properties":{"substrate":"Firm/Hard Bottom","lease_number":null,"poll_year":2025}},{"type":"Feature","id":"a179373f-c363-4905-87c2-1bf2bbbb1065","geometry":{"type":"Point","coordinates":[-96.69995520003265,28.226782700019108]},"properties":{"substrate":"Firm/Hard Bottom","lease_number":null,"poll_year":2025}},{"type":"Feature","id":"a200a317-92eb-4dd6-86d7-e5d6b28d7111","geometry":{"type":"Point","coordinates":[-96.70120129987562,28.2237103003906]},"properties":{"substrate":"Mud","lease_number":null,"poll_year":2025}},{"type":"Feature","id":"a26fa0c4-34c4-42ff-bdbf-2ea7625e0653","geometry":{"type":"Point","coordinates":[-96.70114399993692,28.223302600165297]},"properties":{"substrate":"Mud","lease_number":null,"poll_year":2025}},{"type":"Feature","id":"a2760eb5-0562-4e02-8e96-12fa129ce5d7","geometry":{"type":"Point","coordinates":[-96.70090369970009,28.226541099845345]},"properties":{"substrate":"Firm/Hard Bottom","lease_number":null,"poll_year":2025}},{"type":"Feature","id":"a3326c63-c544-4797-b189-b1baebe5c8ee","geometry":{"type":"Point","coordinates":[-96.70110489986585,28.22288469966433]},"properties":{"substrate":"Buried Shell","lease_number":null,"poll_year":2025}},{"type":"Feature","id":"a47f720d-d1f1-44ba-bfe5-cb8dbfce6269","geometry":{"type":"Point","coordinates":[-96.70123109968854,28.22329140021826]},"properties":{"substrate":"Firm/Hard Bottom","lease_number":null,"poll_year":2025}},{"type":"Feature","id":"a4c66ef1-7138-4d63-83c3-96837f3f8c29","geometry":{"type":"Point","coordinates":[-96.69819110015577,28.22183049992633]},"properties":{"substrate":"Firm/Hard Bottom","lease_number":null,"poll_year":2025}},{"type":"Feature","id":"a7a81f1b-14a9-4ab6-a537-504339b480ab","geometry":{"type":"Point","coordinates":[-96.70120150019994,28.22304180018964]},"properties":{"substrate":"Mud","lease_number":null,"poll_year":2025}},{"type":"Feature","id":"a7ebacbf-8900-418c-ab50-524684111680","geometry":{"type":"Point","coordinates":[-96.70106959966846,28.22421260024463]},"properties":{"substrate":"Firm/Hard Bottom","lease_number":null,"poll_year":2025}},{"type":"Feature","id":"ac82f523-5b9e-48ac-9d8f-43e07dcf4eb8","geometry":{"type":"Point","coordinates":[-96.69843009963206,28.22251349968066]},"properties":{"substrate":"Firm/Hard Bottom","lease_number":null,"poll_year":2025}},{"type":"Feature","id":"accb6a69-27a0-40bf-a010-507edb0157ee","geometry":{"type":"Point","coordinates":[-96.69953260018363,28.225591300116793]},"properties":{"substrate":"Mud","lease_number":null,"poll_year":2025}},{"type":"Feature","id":"ae83afb9-8267-43c7-8f5e-8edeec2cafcf","geometry":{"type":"Point","coordinates":[-96.70075640024801,28.224043199792156]},"properties":{"substrate":"Mud","lease_number":null,"poll_year":2025}},{"type":"Feature","id":"af16e132-c860-49f5-a45a-ee8772e5a220","geometry":{"type":"Point","coordinates":[-96.70109260013298,28.224674800075295]},"properties":{"substrate":"Firm/Hard Bottom","lease_number":null,"poll_year":2025}},{"type":"Feature","id":"b7458880-e853-4405-a672-40e7acb26869","geometry":{"type":"Point","coordinates":[-96.7013737000534,28.22255260004404]},"properties":{"substrate":"Buried Shell","lease_number":null,"poll_year":2025}},{"type":"Feature","id":"b99f1b18-1a98-4c8f-a6e9-6f7dbcd0d89f","geometry":{"type":"Point","coordinates":[-96.70107690027676,28.224388699748744]},"properties":{"substrate":"Firm/Hard Bottom","lease_number":null,"poll_year":2025}},{"type":"Feature","id":"b9fbca5b-e180-4b1a-bbe8-87887127779a","geometry":{"type":"Point","coordinates":[-96.70078939985997,28.22394369979546]},"properties":{"substrate":"Mud","lease_number":null,"poll_year":2025}},{"type":"Feature","id":"ba2e7f8c-e127-49b0-b214-c2912384b264","geometry":{"type":"Point","coordinates":[-96.70078360033651,28.222924399862748]},"properties":{"substrate":"Mud","lease_number":null,"poll_year":2025}},{"type":"Feature","id":"ba3ea950-84cb-4426-964f-119bc464649e","geometry":{"type":"Point","coordinates":[-96.70050350024103,28.2263841999687]},"properties":{"substrate":"Buried Shell","lease_number":null,"poll_year":2025}},{"type":"Feature","id":"bd066861-4825-4cbc-a042-97d53f4a0907","geometry":{"type":"Point","coordinates":[-96.70153300009935,28.224878500146733]},"properties":{"substrate":"Mud","lease_number":null,"poll_year":2025}},{"type":"Feature","id":"bd88f130-8b42-43c8-a4d6-042e8c204075","geometry":{"type":"Point","coordinates":[-96.70141680032239,28.22548820024069]},"properties":{"substrate":"Buried Shell","lease_number":null,"poll_year":2025}},{"type":"Feature","id":"bfdc97a1-0e97-4848-8a54-dce46a6fa249","geometry":{"type":"Point","coordinates":[-96.7012128001079,28.225337699681553]},"properties":{"substrate":"Buried Shell","lease_number":null,"poll_year":2025}},{"type":"Feature","id":"c05a6551-ab65-494a-8200-af1fb6dde13c","geometry":{"type":"Point","coordinates":[-96.70028310038269,28.226593699991998]},"properties":{"substrate":"Firm/Hard Bottom","lease_number":null,"poll_year":2025}},{"type":"Feature","id":"c2970500-784a-402a-8759-ff38811c500d","geometry":{"type":"Point","coordinates":[-96.69876709991595,28.223465600024383]},"properties":{"substrate":"Firm/Hard Bottom","lease_number":null,"poll_year":2025}},{"type":"Feature","id":"c3aadfb9-cb8e-4d18-ac96-d5d7bdaa66fb","geometry":{"type":"Point","coordinates":[-96.70146260002885,28.222838300033764]},"properties":{"substrate":"Buried Shell","lease_number":null,"poll_year":2025}},{"type":"Feature","id":"c3c24ac7-5952-4d0d-9924-3a7ed3d70035","geometry":{"type":"Point","coordinates":[-96.70082419969576,28.223330800281076]},"properties":{"substrate":"Mud","lease_number":null,"poll_year":2025}},{"type":"Feature","id":"c50f663d-7653-416b-a53b-642a755f7502","geometry":{"type":"Point","coordinates":[-96.69992339967158,28.22669319989302]},"properties":{"substrate":"Firm/Hard Bottom","lease_number":null,"poll_year":2025}},{"type":"Feature","id":"c56f9670-34e0-4215-b8d3-b74217a7df07","geometry":{"type":"Point","coordinates":[-96.70139740030554,28.22383280035483]},"properties":{"substrate":"Mud","lease_number":null,"poll_year":2025}},{"type":"Feature","id":"c5ab5f01-d19f-48a7-bb27-cb7e793d571a","geometry":{"type":"Point","coordinates":[-96.69939270015455,28.225203400156772]},"properties":{"substrate":"Firm/Hard Bottom","lease_number":null,"poll_year":2025}},{"type":"Feature","id":"c7db5e96-2972-42cc-a9e1-612fed83e9b1","geometry":{"type":"Point","coordinates":[-96.70129970043355,28.225327800383603]},"properties":{"substrate":"Buried Shell","lease_number":null,"poll_year":2025}},{"type":"Feature","id":"c9e745cd-071e-4397-9ba7-356cff11a32e","geometry":{"type":"Point","coordinates":[-96.70092719962793,28.222906900179836]},"properties":{"substrate":"Mud","lease_number":null,"poll_year":2025}},{"type":"Feature","id":"ca347cfe-fe4a-4509-b9d4-d7d72158f6e5","geometry":{"type":"Point","coordinates":[-96.7015443997203,28.222237300270795]},"properties":{"substrate":"Buried Shell","lease_number":null,"poll_year":2025}},{"type":"Feature","id":"cc365e63-2184-48d8-9990-bb760617e2b4","geometry":{"type":"Point","coordinates":[-96.7012704997969,28.225501499805002]},"properties":{"substrate":"Buried Shell","lease_number":null,"poll_year":2025}},{"type":"Feature","id":"ceb67659-1cd0-4892-923c-346c46a70188","geometry":{"type":"Point","coordinates":[-96.69848220012192,28.222658499988686]},"properties":{"substrate":"Mud","lease_number":null,"poll_year":2025}},{"type":"Feature","id":"d0258a07-5fdf-47a7-a4e7-271ccec7a3a9","geometry":{"type":"Point","coordinates":[-96.70101900026344,28.224119999995093]},"properties":{"substrate":"Mud","lease_number":null,"poll_year":2025}},{"type":"Feature","id":"d050ea9f-03c7-46ed-843f-6eeb94d61be2","geometry":{"type":"Point","coordinates":[-96.70150410039834,28.224059599881357]},"properties":{"substrate":"Firm/Hard Bottom","lease_number":null,"poll_year":2025}},{"type":"Feature","id":"d05b4a74-938a-4fd6-a16e-493de23386b5","geometry":{"type":"Point","coordinates":[-96.70159629988585,28.226540400166755]},"properties":{"substrate":"Firm/Hard Bottom","lease_number":null,"poll_year":2025}},{"type":"Feature","id":"d08c11d1-0f23-4e93-9c1b-cbb21acd4172","geometry":{"type":"Point","coordinates":[-96.70073230024556,28.22312010024623]},"properties":{"substrate":"Mud","lease_number":null,"poll_year":2025}},{"type":"Feature","id":"d0a8a2ad-a7ac-465b-8c1d-f35fc812d55a","geometry":{"type":"Point","coordinates":[-96.69872530040747,28.22334640025773]},"properties":{"substrate":"Firm/Hard Bottom","lease_number":null,"poll_year":2025}},{"type":"Feature","id":"d1dcb46a-be69-4780-836c-3e1d72ecdc45","geometry":{"type":"Point","coordinates":[-96.70114749977326,28.2229614999092]},"properties":{"substrate":"Buried Shell","lease_number":null,"poll_year":2025}},{"type":"Feature","id":"d3ce5326-9d3d-4b64-8b9b-bda8e9478c8c","geometry":{"type":"Point","coordinates":[-96.70165209963804,28.22486639963346]},"properties":{"substrate":"Buried Shell","lease_number":null,"poll_year":2025}},{"type":"Feature","id":"d4a9a67c-daec-45d1-a053-c6f8b69e6471","geometry":{"type":"Point","coordinates":[-96.70159909993458,28.225705799837183]},"properties":{"substrate":"Buried Shell","lease_number":null,"poll_year":2025}},{"type":"Feature","id":"d50f8fea-ee29-4dbb-8005-e15d38b08815","geometry":{"type":"Point","coordinates":[-96.70113050005483,28.22452210035554]},"properties":{"substrate":"Mud","lease_number":null,"poll_year":2025}},{"type":"Feature","id":"d601cc97-0698-407e-ac37-72ad5d6d1da3","geometry":{"type":"Point","coordinates":[-96.69888780025248,28.223792799719686]},"properties":{"substrate":"Firm/Hard Bottom","lease_number":null,"poll_year":2025}},{"type":"Feature","id":"d6ad33a8-2afe-45d5-8b3e-b2097dd63184","geometry":{"type":"Point","coordinates":[-96.70164060030407,28.222814199857776]},"properties":{"substrate":"Buried Shell","lease_number":null,"poll_year":2025}},{"type":"Feature","id":"d8539a52-b4ad-456e-950c-bb38bd2fe6b4","geometry":{"type":"Point","coordinates":[-96.70143460043974,28.225069099671533]},"properties":{"substrate":"Buried Shell","lease_number":null,"poll_year":2025}},{"type":"Feature","id":"d9be9378-a220-45ff-968d-a5029bd17639","geometry":{"type":"Point","coordinates":[-96.70104989961428,28.223060799775975]},"properties":{"substrate":"Mud","lease_number":null,"poll_year":2025}},{"type":"Feature","id":"dca45b2b-628b-43c6-9dcd-f5e88abcb3f4","geometry":{"type":"Point","coordinates":[-96.69836709988287,28.222333399892918]},"properties":{"substrate":"Firm/Hard Bottom","lease_number":null,"poll_year":2025}},{"type":"Feature","id":"df26bc32-ddcd-451f-9683-060de39407c6","geometry":{"type":"Point","coordinates":[-96.70158370011566,28.226160200148183]},"properties":{"substrate":"Firm/Hard Bottom","lease_number":null,"poll_year":2025}},{"type":"Feature","id":"df4c1801-b595-49d4-804b-b0b40b3bef9a","geometry":{"type":"Point","coordinates":[-96.69943479970034,28.225323200181833]},"properties":{"substrate":"Mud","lease_number":null,"poll_year":2025}},{"type":"Feature","id":"e5c7f8a5-b048-4f8e-97c3-3090f4b77b3d","geometry":{"type":"Point","coordinates":[-96.70132839981022,28.224673600153]},"properties":{"substrate":"Mud","lease_number":null,"poll_year":2025}},{"type":"Feature","id":"e8b4a1e6-1f12-47c1-b3ab-b4a8763a57ca","geometry":{"type":"Point","coordinates":[-96.70108190029964,28.223077299747292]},"properties":{"substrate":"Buried Shell","lease_number":null,"poll_year":2025}},{"type":"Feature","id":"e8fcc37f-3c87-4f43-9aa8-c62542a0b9dd","geometry":{"type":"Point","coordinates":[-96.70095480036503,28.226641399992715]},"properties":{"substrate":"Firm/Hard Bottom","lease_number":null,"poll_year":2025}},{"type":"Feature","id":"ec490e56-30af-4fc7-9eaf-871c9791c1d2","geometry":{"type":"Point","coordinates":[-96.70164899955198,28.225048800003695]},"properties":{"substrate":"Buried Shell","lease_number":null,"poll_year":2025}},{"type":"Feature","id":"ec5c89f8-b9e7-451a-9618-dae3dcdb11db","geometry":{"type":"Point","coordinates":[-96.70125699991482,28.22674929993396]},"properties":{"substrate":"Firm/Hard Bottom","lease_number":null,"poll_year":2025}},{"type":"Feature","id":"edba5edd-bbd0-4535-90cf-1285900e4b46","geometry":{"type":"Point","coordinates":[-96.70164639982755,28.22445950007968]},"properties":{"substrate":"Mud","lease_number":null,"poll_year":2025}},{"type":"Feature","id":"f1ab2b4b-e04c-4268-af2e-023db1ffa295","geometry":{"type":"Point","coordinates":[-96.70155129967999,28.223828200088633]},"properties":{"substrate":"Mud","lease_number":null,"poll_year":2025}},{"type":"Feature","id":"f6bc87a7-d345-4fa1-b155-f630a9784848","geometry":{"type":"Point","coordinates":[-96.70140689998965,28.22669780003575]},"properties":{"substrate":"Firm/Hard Bottom","lease_number":null,"poll_year":2025}},{"type":"Feature","id":"f717eafb-c3fa-426c-b905-e14e7f1b17a3","geometry":{"type":"Point","coordinates":[-96.69825189993084,28.22200589969408]},"properties":{"substrate":"Firm/Hard Bottom","lease_number":null,"poll_year":2025}},{"type":"Feature","id":"fb435b4a-d7a0-4c9c-b91c-eb00b8acb9dd","geometry":{"type":"Point","coordinates":[-96.70097800025556,28.225609799813817]},"properties":{"substrate":"Buried Shell","lease_number":null,"poll_year":2025}},{"type":"Feature","id":"fb6e102a-cf54-4b9b-8905-32591993264a","geometry":{"type":"Point","coordinates":[-96.69997170028778,28.22652270003771]},"properties":{"substrate":"Firm/Hard Bottom","lease_number":null,"poll_year":2025}},{"type":"Feature","id":"fd3f4403-3ef1-447f-b25f-206205c91f90","geometry":{"type":"Point","coordinates":[-96.70120560011088,28.224686599838257]},"properties":{"substrate":"Mud","lease_number":null,"poll_year":2025}},{"type":"Feature","id":"ff7cee95-c7e5-4ff9-85be-ce791715d9ff","geometry":{"type":"Point","coordinates":[-96.69884430023315,28.223674699729784]},"properties":{"substrate":"Firm/Hard Bottom","lease_number":null,"poll_year":2025}}]}