{"type":"FeatureCollection","features":[{"type":"Feature","id":"02063f0a-d665-4cce-a49a-7276309c1366","geometry":{"type":"Point","coordinates":[-96.66740532871918,28.271387034076987]},"properties":{"substrate":"Mud","lease_number":null,"poll_year":2025}},{"type":"Feature","id":"0e536ebe-ac68-43b6-9a36-64a7c01f89b0","geometry":{"type":"Point","coordinates":[-96.67043459697756,28.273565546010087]},"properties":{"substrate":"Mud","lease_number":null,"poll_year":2025}},{"type":"Feature","id":"1174b637-b3ca-4475-a873-02c0dffc9a7b","geometry":{"type":"Point","coordinates":[-96.66712523221695,28.272642050665038]},"properties":{"substrate":"Mud","lease_number":null,"poll_year":2025}},{"type":"Feature","id":"168c9b1f-9603-420f-86fe-1b784c87c56d","geometry":{"type":"Point","coordinates":[-96.66894871432737,28.27388700577836]},"properties":{"substrate":"Mud","lease_number":null,"poll_year":2025}},{"type":"Feature","id":"1e3d1d28-a030-43b4-8714-db0f62df09dd","geometry":{"type":"Point","coordinates":[-96.66756697246971,28.27417797411781]},"properties":{"substrate":"Mud","lease_number":null,"poll_year":2025}},{"type":"Feature","id":"243f8486-0e35-444e-87d8-52da483877d6","geometry":{"type":"Point","coordinates":[-96.67447065209063,28.272681745002792]},"properties":{"substrate":"Mud","lease_number":null,"poll_year":2025}},{"type":"Feature","id":"25086a03-9b04-4c28-b8ce-c414eadfab7b","geometry":{"type":"Point","coordinates":[-96.67071054775477,28.273514738024716]},"properties":{"substrate":"Mud","lease_number":null,"poll_year":2025}},{"type":"Feature","id":"27bc2078-1b64-4f39-b8d3-ed997afa3c27","geometry":{"type":"Point","coordinates":[-96.67335687229237,28.272926553983876]},"properties":{"substrate":"Mud","lease_number":null,"poll_year":2025}},{"type":"Feature","id":"422d489b-e572-49cf-a867-2f4d9f3fd693","geometry":{"type":"Point","coordinates":[-96.66692332238213,28.273674771110798]},"properties":{"substrate":"Mud","lease_number":null,"poll_year":2025}},{"type":"Feature","id":"4a7cb94e-2962-48b9-b8b2-a6fa2e664589","geometry":{"type":"Point","coordinates":[-96.6728182020238,28.273038093843546]},"properties":{"substrate":"Mud","lease_number":null,"poll_year":2025}},{"type":"Feature","id":"4db1ab39-3d51-4a6c-b7ec-0901042ca90e","geometry":{"type":"Point","coordinates":[-96.67254870115038,28.27310121624625]},"properties":{"substrate":"Mud","lease_number":null,"poll_year":2025}},{"type":"Feature","id":"5437c93e-2d0c-4473-b707-4bf692bec3e1","geometry":{"type":"Point","coordinates":[-96.67098599817031,28.27344678435349]},"properties":{"substrate":"Mud","lease_number":null,"poll_year":2025}},{"type":"Feature","id":"5d83ac6e-ccdf-45fc-a9bb-36e6038cce55","geometry":{"type":"Point","coordinates":[-96.6698350290176,28.27370213037497]},"properties":{"substrate":"Mud","lease_number":null,"poll_year":2025}},{"type":"Feature","id":"60cf1570-b516-45aa-9a83-5d65f8775080","geometry":{"type":"Point","coordinates":[-96.6767609069075,28.27217177610812]},"properties":{"substrate":"Mud","lease_number":null,"poll_year":2025}},{"type":"Feature","id":"649effc3-9620-45f0-9ef7-642c946296c5","geometry":{"type":"Point","coordinates":[-96.67419591403909,28.27274241030858]},"properties":{"substrate":"Mud","lease_number":null,"poll_year":2025}},{"type":"Feature","id":"7129554f-2edf-4939-8540-34f8741dd6e5","geometry":{"type":"Point","coordinates":[-96.66855445902051,28.273962314394996]},"properties":{"substrate":"Mud","lease_number":null,"poll_year":2025}},{"type":"Feature","id":"824fb92c-d8c8-465a-80ff-cedafef215f8","geometry":{"type":"Point","coordinates":[-96.6695875889709,28.273754540332046]},"properties":{"substrate":"Mud","lease_number":null,"poll_year":2025}},{"type":"Feature","id":"8f372dc6-1f28-421c-8c9a-c6dc62d53082","geometry":{"type":"Point","coordinates":[-96.66929090597527,28.273817213733405]},"properties":{"substrate":"Mud","lease_number":null,"poll_year":2025}},{"type":"Feature","id":"99fbf11b-b1a1-4c75-9dfe-eff9a6f3acd2","geometry":{"type":"Point","coordinates":[-96.67305618191224,28.272990130571042]},"properties":{"substrate":"Mud","lease_number":null,"poll_year":2025}},{"type":"Feature","id":"9caa3249-29b1-4af0-8b28-48d7ed400ed2","geometry":{"type":"Point","coordinates":[-96.67568167451842,28.272417300670618]},"properties":{"substrate":"Mud","lease_number":null,"poll_year":2025}},{"type":"Feature","id":"aa4f5fda-464b-457a-84c2-0bd73958c309","geometry":{"type":"Point","coordinates":[-96.67121897174768,28.2733915008102]},"properties":{"substrate":"Mud","lease_number":null,"poll_year":2025}},{"type":"Feature","id":"b4394179-cfc1-4d20-8e26-a406773c83dd","geometry":{"type":"Point","coordinates":[-96.6672361004927,28.272149418121465]},"properties":{"substrate":"Mud","lease_number":null,"poll_year":2025}},{"type":"Feature","id":"b4e0c3a5-c993-4adf-a521-016ff3caae91","geometry":{"type":"Point","coordinates":[-96.6764591771766,28.272234477339822]},"properties":{"substrate":"Mud","lease_number":null,"poll_year":2025}},{"type":"Feature","id":"b7fe6d3c-26f7-4490-be99-644ae8207a78","geometry":{"type":"Point","coordinates":[-96.67222160389416,28.273175248509474]},"properties":{"substrate":"Mud","lease_number":null,"poll_year":2025}},{"type":"Feature","id":"be2eebe1-1a93-42fb-98d5-31d81e2681e8","geometry":{"type":"Point","coordinates":[-96.67471168804767,28.27263153786961]},"properties":{"substrate":"Mud","lease_number":null,"poll_year":2025}},{"type":"Feature","id":"c24f9f2e-f9c1-4a92-90e7-5f37c61ae23f","geometry":{"type":"Point","coordinates":[-96.67181761444292,28.273258458794174]},"properties":{"substrate":"Mud","lease_number":null,"poll_year":2025}},{"type":"Feature","id":"c5bdd7b8-8d3b-4bb2-8902-42ea93bb7155","geometry":{"type":"Point","coordinates":[-96.67012990999275,28.273635777303827]},"properties":{"substrate":"Mud","lease_number":null,"poll_year":2025}},{"type":"Feature","id":"c758145c-511c-48fd-820f-4852679edf6c","geometry":{"type":"Point","coordinates":[-96.67365418590532,28.272860300114303]},"properties":{"substrate":"Mud","lease_number":null,"poll_year":2025}},{"type":"Feature","id":"e0c1b840-fa98-4e47-b180-70108fadacf5","geometry":{"type":"Point","coordinates":[-96.6751567062529,28.272534679753015]},"properties":{"substrate":"Mud","lease_number":null,"poll_year":2025}},{"type":"Feature","id":"e2755088-165f-42cb-ac84-2036cf7f161b","geometry":{"type":"Point","coordinates":[-96.67625772997413,28.27227899864928]},"properties":{"substrate":"Mud","lease_number":null,"poll_year":2025}},{"type":"Feature","id":"f5b398bd-9b36-4107-b3b5-8c473719d450","geometry":{"type":"Point","coordinates":[-96.66805458429414,28.27408046313541]},"properties":{"substrate":"Mud","lease_number":null,"poll_year":2025}}]}