{"type":"FeatureCollection","features":[{"type":"Feature","id":"01111945-3144-4074-b8ff-d65bfa65058b","geometry":{"type":"Point","coordinates":[-96.64129244157529,28.688938657173665]},"properties":{"substrate":"Firm/Hard Bottom","lease_number":null,"poll_year":2025}},{"type":"Feature","id":"09092732-8e98-443f-b5c2-079b7e2fd025","geometry":{"type":"Point","coordinates":[-96.64043008046211,28.689151712236246]},"properties":{"substrate":"Firm/Hard Bottom","lease_number":null,"poll_year":2025}},{"type":"Feature","id":"12ac9308-61cb-428e-83e6-a2216127fee5","geometry":{"type":"Point","coordinates":[-96.64138876522824,28.687477752332992]},"properties":{"substrate":"Mud","lease_number":null,"poll_year":2025}},{"type":"Feature","id":"131a0e99-cd86-4b8b-bb58-a95496623016","geometry":{"type":"Point","coordinates":[-96.64196384062201,28.68734319619089]},"properties":{"substrate":"Mud","lease_number":null,"poll_year":2025}},{"type":"Feature","id":"1c7dcb14-530a-4530-ad5d-0ecd9126171e","geometry":{"type":"Point","coordinates":[-96.64059427812299,28.69001665087936]},"properties":{"substrate":"Firm/Hard Bottom","lease_number":null,"poll_year":2025}},{"type":"Feature","id":"1cd43d8e-8f55-407a-bdd0-e0b970d90f1d","geometry":{"type":"Point","coordinates":[-96.6413575811115,28.688200180299344]},"properties":{"substrate":"Mud","lease_number":null,"poll_year":2025}},{"type":"Feature","id":"1d24ca56-2b92-4b7c-a1c0-514bcf32e58a","geometry":{"type":"Point","coordinates":[-96.64036611232903,28.68932460943978]},"properties":{"substrate":"Firm/Hard Bottom","lease_number":null,"poll_year":2025}},{"type":"Feature","id":"1f50d890-9cfb-4559-a200-906fd3ffd789","geometry":{"type":"Point","coordinates":[-96.64085546508848,28.68782507369874]},"properties":{"substrate":"Mud","lease_number":null,"poll_year":2025}},{"type":"Feature","id":"28a1a3fa-dc71-40b7-bda8-da68a7be55c3","geometry":{"type":"Point","coordinates":[-96.64161518200237,28.68953589379581]},"properties":{"substrate":"Mud","lease_number":null,"poll_year":2025}},{"type":"Feature","id":"28b17d27-2495-42f2-b055-dc3675da246d","geometry":{"type":"Point","coordinates":[-96.63997919356312,28.69053201582265]},"properties":{"substrate":"Firm/Hard Bottom","lease_number":null,"poll_year":2025}},{"type":"Feature","id":"2cd081ea-8732-4ab6-ba57-92fb8be3f596","geometry":{"type":"Point","coordinates":[-96.6417534569791,28.68790656071929]},"properties":{"substrate":"Mud","lease_number":null,"poll_year":2025}},{"type":"Feature","id":"2f932a9c-a0be-46ae-8411-1575ca8e58d5","geometry":{"type":"Point","coordinates":[-96.63959025538446,28.690235660446884]},"properties":{"substrate":"Mud","lease_number":null,"poll_year":2025}},{"type":"Feature","id":"30d5cb21-3205-4cb4-9d2b-4ab10e1a6404","geometry":{"type":"Point","coordinates":[-96.64114215612321,28.68927181271323]},"properties":{"substrate":"Firm/Hard Bottom","lease_number":null,"poll_year":2025}},{"type":"Feature","id":"377c2323-221a-4865-910a-6a81f85c8b99","geometry":{"type":"Point","coordinates":[-96.6416973922239,28.688065257857293]},"properties":{"substrate":"Mud","lease_number":null,"poll_year":2025}},{"type":"Feature","id":"37920983-da3c-4cfb-a8d3-c95f1b3078f0","geometry":{"type":"Point","coordinates":[-96.64079296031102,28.68734680387954]},"properties":{"substrate":"Mud","lease_number":null,"poll_year":2025}},{"type":"Feature","id":"3927650b-7529-44aa-bb3f-c6eeb7a4eba3","geometry":{"type":"Point","coordinates":[-96.64131785671132,28.690204504994487]},"properties":{"substrate":"Mud","lease_number":null,"poll_year":2025}},{"type":"Feature","id":"3994e37f-faff-4cd6-a7c9-06de499ad014","geometry":{"type":"Point","coordinates":[-96.6416379417184,28.688213913517355]},"properties":{"substrate":"Mud","lease_number":null,"poll_year":2025}},{"type":"Feature","id":"3a86dce4-59f8-4331-bce7-99e4d1803580","geometry":{"type":"Point","coordinates":[-96.64074783613766,28.688694992674815]},"properties":{"substrate":"Firm/Hard Bottom","lease_number":null,"poll_year":2025}},{"type":"Feature","id":"3a87d9ba-07d5-4f8b-955d-5201fa8279df","geometry":{"type":"Point","coordinates":[-96.63940817046962,28.690542565901886]},"properties":{"substrate":"Mud","lease_number":null,"poll_year":2025}},{"type":"Feature","id":"3bee8798-0c66-4a2c-ba43-d534e97f6d93","geometry":{"type":"Point","coordinates":[-96.6400133052894,28.690128513894553]},"properties":{"substrate":"Firm/Hard Bottom","lease_number":null,"poll_year":2025}},{"type":"Feature","id":"3d94ed8b-bb8b-4c5f-ac01-07a246a128a3","geometry":{"type":"Point","coordinates":[-96.64037272392954,28.690520182049287]},"properties":{"substrate":"Firm/Hard Bottom","lease_number":null,"poll_year":2025}},{"type":"Feature","id":"428d08b0-c22d-4b79-9638-26a6dc58c302","geometry":{"type":"Point","coordinates":[-96.64053049055131,28.68791142059173]},"properties":{"substrate":"Mud","lease_number":null,"poll_year":2025}},{"type":"Feature","id":"43b2a75d-4fc1-4e0f-a056-6913bf87f16c","geometry":{"type":"Point","coordinates":[-96.64002150870458,28.68927377649535]},"properties":{"substrate":"Mud","lease_number":null,"poll_year":2025}},{"type":"Feature","id":"45844558-cc38-41dc-ae62-ed3a60e1e4db","geometry":{"type":"Point","coordinates":[-96.6411642906118,28.687826580441662]},"properties":{"substrate":"Firm/Hard Bottom","lease_number":null,"poll_year":2025}},{"type":"Feature","id":"45d0d249-4ade-48b2-b2ca-bd6dcd34f76c","geometry":{"type":"Point","coordinates":[-96.64211659913609,28.688389814706525]},"properties":{"substrate":"Mud","lease_number":null,"poll_year":2025}},{"type":"Feature","id":"485def22-6e2b-42c1-8fbf-4b61931a0dc8","geometry":{"type":"Point","coordinates":[-96.64065360466098,28.68986721447696]},"properties":{"substrate":"Firm/Hard Bottom","lease_number":null,"poll_year":2025}},{"type":"Feature","id":"4f3bc29b-2742-4747-9a16-104be4265c63","geometry":{"type":"Point","coordinates":[-96.64190677065201,28.688895540504326]},"properties":{"substrate":"Mud","lease_number":null,"poll_year":2025}},{"type":"Feature","id":"4f7c097a-2230-492d-96b4-251a51b84e65","geometry":{"type":"Point","coordinates":[-96.64055829430765,28.68876012643439]},"properties":{"substrate":"Firm/Hard Bottom","lease_number":null,"poll_year":2025}},{"type":"Feature","id":"544d2d77-3578-49fe-8986-188080619632","geometry":{"type":"Point","coordinates":[-96.6418585805286,28.6876393808672]},"properties":{"substrate":"Mud","lease_number":null,"poll_year":2025}},{"type":"Feature","id":"5567839f-8bab-4a40-bcb9-9d56e6817101","geometry":{"type":"Point","coordinates":[-96.64140892701649,28.689999017941883]},"properties":{"substrate":"Mud","lease_number":null,"poll_year":2025}},{"type":"Feature","id":"5a7e3544-f414-4e9a-a8e9-7f6fa67ec712","geometry":{"type":"Point","coordinates":[-96.64041057444402,28.688145477517693]},"properties":{"substrate":"Mud","lease_number":null,"poll_year":2025}},{"type":"Feature","id":"5fa769df-8ce2-40a9-879f-d8044b3563d3","geometry":{"type":"Point","coordinates":[-96.64204167065823,28.688567770020143]},"properties":{"substrate":"Mud","lease_number":null,"poll_year":2025}},{"type":"Feature","id":"621cbd91-4393-441a-bf66-9e55213be975","geometry":{"type":"Point","coordinates":[-96.64156409121888,28.68838836943896]},"properties":{"substrate":"Mud","lease_number":null,"poll_year":2025}},{"type":"Feature","id":"63f01aad-205b-4eb4-850d-674f9d1422d5","geometry":{"type":"Point","coordinates":[-96.64084140914923,28.689916591642408]},"properties":{"substrate":"Firm/Hard Bottom","lease_number":null,"poll_year":2025}},{"type":"Feature","id":"63fafbc1-33f1-495b-a353-8df987f00781","geometry":{"type":"Point","coordinates":[-96.64056044667109,28.689158011003567]},"properties":{"substrate":"Firm/Hard Bottom","lease_number":null,"poll_year":2025}},{"type":"Feature","id":"64ca0c45-904d-473e-96e5-16e659d33b9b","geometry":{"type":"Point","coordinates":[-96.640801006521,28.68800196059631]},"properties":{"substrate":"Mud","lease_number":null,"poll_year":2025}},{"type":"Feature","id":"65dc1bd7-454b-4953-ad54-5a3f90089b5e","geometry":{"type":"Point","coordinates":[-96.64118073427308,28.69052838460302]},"properties":{"substrate":"Mud","lease_number":null,"poll_year":2025}},{"type":"Feature","id":"6732fc79-8ef1-445c-87ae-54ce8fa50135","geometry":{"type":"Point","coordinates":[-96.63997310478213,28.68942472204074]},"properties":{"substrate":"Mud","lease_number":null,"poll_year":2025}},{"type":"Feature","id":"67ee885e-52be-470f-bb81-a8e3ff612321","geometry":{"type":"Point","coordinates":[-96.63975543131069,28.68992588408832]},"properties":{"substrate":"Mud","lease_number":null,"poll_year":2025}},{"type":"Feature","id":"6b7580a4-836f-46ed-b943-666957756ee7","geometry":{"type":"Point","coordinates":[-96.6398379577392,28.690434181675105]},"properties":{"substrate":"Firm/Hard Bottom","lease_number":null,"poll_year":2025}},{"type":"Feature","id":"7709a2fd-cad0-4b61-8b0d-b22fb564ba35","geometry":{"type":"Point","coordinates":[-96.64041081968409,28.68950714478735]},"properties":{"substrate":"Firm/Hard Bottom","lease_number":null,"poll_year":2025}},{"type":"Feature","id":"77d3902c-6350-4595-90a2-7d66f42ac275","geometry":{"type":"Point","coordinates":[-96.64078961139164,28.68954942667839]},"properties":{"substrate":"Firm/Hard Bottom","lease_number":null,"poll_year":2025}},{"type":"Feature","id":"7b7e43bf-9d3c-4c07-8747-54cb90288e2b","geometry":{"type":"Point","coordinates":[-96.64205363711612,28.68715958059386]},"properties":{"substrate":"Mud","lease_number":null,"poll_year":2025}},{"type":"Feature","id":"7b8b157c-8d23-4ba9-9f9e-7f3f0031b32f","geometry":{"type":"Point","coordinates":[-96.6406083322656,28.688607188554812]},"properties":{"substrate":"Mud","lease_number":null,"poll_year":2025}},{"type":"Feature","id":"7cbcc252-788d-4df3-b84b-5997b3bf93a1","geometry":{"type":"Point","coordinates":[-96.64072713356362,28.68969767045491]},"properties":{"substrate":"Firm/Hard Bottom","lease_number":null,"poll_year":2025}},{"type":"Feature","id":"7ce1009e-0d0a-43b9-aba8-8882a4994475","geometry":{"type":"Point","coordinates":[-96.64176310668189,28.6891808939737]},"properties":{"substrate":"Mud","lease_number":null,"poll_year":2025}},{"type":"Feature","id":"7d5931b4-07b2-4a65-bc54-003efd42bbf3","geometry":{"type":"Point","coordinates":[-96.64055162611331,28.69048200064683]},"properties":{"substrate":"Firm/Hard Bottom","lease_number":null,"poll_year":2025}},{"type":"Feature","id":"7dddf001-08a2-458b-aff6-8c119181aea9","geometry":{"type":"Point","coordinates":[-96.64122214031947,28.68853005363736]},"properties":{"substrate":"Firm/Hard Bottom","lease_number":null,"poll_year":2025}},{"type":"Feature","id":"7ff9e9b2-6f29-4556-be4a-f22b7b99a419","geometry":{"type":"Point","coordinates":[-96.63991265355341,28.68960364093464]},"properties":{"substrate":"Mud","lease_number":null,"poll_year":2025}},{"type":"Feature","id":"804e8511-1a47-48f5-8064-d391a9b7a650","geometry":{"type":"Point","coordinates":[-96.64059947038534,28.687770299008974]},"properties":{"substrate":"Mud","lease_number":null,"poll_year":2025}},{"type":"Feature","id":"826cb2f3-7768-43c2-9c68-a6e2c8c9b61f","geometry":{"type":"Point","coordinates":[-96.6409036022113,28.688345218657243]},"properties":{"substrate":"Firm/Hard Bottom","lease_number":null,"poll_year":2025}},{"type":"Feature","id":"88db8d99-b1fb-4553-8acc-817f6eca1dd6","geometry":{"type":"Point","coordinates":[-96.64138555734438,28.688766545795126]},"properties":{"substrate":"Mud","lease_number":null,"poll_year":2025}},{"type":"Feature","id":"8989296b-9dbc-4c82-baff-926d58489760","geometry":{"type":"Point","coordinates":[-96.64049996400131,28.688942499642412]},"properties":{"substrate":"Firm/Hard Bottom","lease_number":null,"poll_year":2025}},{"type":"Feature","id":"8a853064-d385-4355-8f18-9caa76a07c50","geometry":{"type":"Point","coordinates":[-96.64091063332503,28.687677457708087]},"properties":{"substrate":"Mud","lease_number":null,"poll_year":2025}},{"type":"Feature","id":"8e85f79c-93e7-4863-93b0-6ff4509673f4","geometry":{"type":"Point","coordinates":[-96.64105668950876,28.688033486296746]},"properties":{"substrate":"Firm/Hard Bottom","lease_number":null,"poll_year":2025}},{"type":"Feature","id":"8f4ea9b0-1296-4b36-861c-7f678361562d","geometry":{"type":"Point","coordinates":[-96.64092536210242,28.689735901001395]},"properties":{"substrate":"Firm/Hard Bottom","lease_number":null,"poll_year":2025}},{"type":"Feature","id":"8f72cef4-a5ba-4c31-bcee-f5af08fb84b9","geometry":{"type":"Point","coordinates":[-96.64107692945042,28.68941510330442]},"properties":{"substrate":"Firm/Hard Bottom","lease_number":null,"poll_year":2025}},{"type":"Feature","id":"90b13de3-b10f-4e80-9a33-c13570a75738","geometry":{"type":"Point","coordinates":[-96.64074989058473,28.688157812754763]},"properties":{"substrate":"Firm/Hard Bottom","lease_number":null,"poll_year":2025}},{"type":"Feature","id":"93312a52-734a-4365-8caf-6063a668fdff","geometry":{"type":"Point","coordinates":[-96.64098968686667,28.68817296130327]},"properties":{"substrate":"Firm/Hard Bottom","lease_number":null,"poll_year":2025}},{"type":"Feature","id":"95996d83-77d4-46dd-bb3c-3a376f16003d","geometry":{"type":"Point","coordinates":[-96.6419145635371,28.687490982083148]},"properties":{"substrate":"Mud","lease_number":null,"poll_year":2025}},{"type":"Feature","id":"95c97309-3a49-4c0a-8be7-67f9ab09f1b4","geometry":{"type":"Point","coordinates":[-96.64108207859364,28.68885216849304]},"properties":{"substrate":"Firm/Hard Bottom","lease_number":null,"poll_year":2025}},{"type":"Feature","id":"9e8cda8a-6c6f-44fa-a5e8-ecd7ee19dbf2","geometry":{"type":"Point","coordinates":[-96.64009345387737,28.68996071026458]},"properties":{"substrate":"Firm/Hard Bottom","lease_number":null,"poll_year":2025}},{"type":"Feature","id":"a9608de8-d50e-4e88-bdf6-e2c59f817d46","geometry":{"type":"Point","coordinates":[-96.64069005470196,28.687490328791363]},"properties":{"substrate":"Mud","lease_number":null,"poll_year":2025}},{"type":"Feature","id":"a9939a7d-c1d2-49fc-b4f2-4f3a2f6e431a","geometry":{"type":"Point","coordinates":[-96.6402880693921,28.688447762512485]},"properties":{"substrate":"Mud","lease_number":null,"poll_year":2025}},{"type":"Feature","id":"aa9c9464-1b93-46eb-8174-a072d0dd544a","geometry":{"type":"Point","coordinates":[-96.64150301476272,28.68784485284978]},"properties":{"substrate":"Mud","lease_number":null,"poll_year":2025}},{"type":"Feature","id":"aacb2438-ba65-407f-a808-1dc83a60670e","geometry":{"type":"Point","coordinates":[-96.64009435488761,28.69025007267741]},"properties":{"substrate":"Firm/Hard Bottom","lease_number":null,"poll_year":2025}},{"type":"Feature","id":"ad3cab0a-d55a-4933-b9c0-5f0ac54de721","geometry":{"type":"Point","coordinates":[-96.6401565614244,28.690112876263438]},"properties":{"substrate":"Firm/Hard Bottom","lease_number":null,"poll_year":2025}},{"type":"Feature","id":"afc739fe-8660-4348-b4a9-c67bb80ce495","geometry":{"type":"Point","coordinates":[-96.6414448964588,28.687992518251235]},"properties":{"substrate":"Mud","lease_number":null,"poll_year":2025}},{"type":"Feature","id":"b237237a-6bf6-4722-8ac6-a1bf0386998c","geometry":{"type":"Point","coordinates":[-96.64100078914527,28.689055444202864]},"properties":{"substrate":"Firm/Hard Bottom","lease_number":null,"poll_year":2025}},{"type":"Feature","id":"b288df08-817a-4022-b1e9-5b907e8df199","geometry":{"type":"Point","coordinates":[-96.64023119435652,28.689936358577814]},"properties":{"substrate":"Firm/Hard Bottom","lease_number":null,"poll_year":2025}},{"type":"Feature","id":"b684a2cb-8050-4eb4-93f4-d81afb0fcb34","geometry":{"type":"Point","coordinates":[-96.64065613970672,28.690286181653672]},"properties":{"substrate":"Firm/Hard Bottom","lease_number":null,"poll_year":2025}},{"type":"Feature","id":"b824faef-02a4-4bae-b256-9fd82c545f54","geometry":{"type":"Point","coordinates":[-96.64018460503094,28.688782604439776]},"properties":{"substrate":"Mud","lease_number":null,"poll_year":2025}},{"type":"Feature","id":"ba361e45-b5a9-4545-a09d-79590977dece","geometry":{"type":"Point","coordinates":[-96.63984751671215,28.68975384289132]},"properties":{"substrate":"Mud","lease_number":null,"poll_year":2025}},{"type":"Feature","id":"baebaeeb-ad1e-4b81-8bce-cc4da0763618","geometry":{"type":"Point","coordinates":[-96.64147660788664,28.688568375234787]},"properties":{"substrate":"Firm/Hard Bottom","lease_number":null,"poll_year":2025}},{"type":"Feature","id":"bc85158d-2f07-4689-b851-bd9d303b89a7","geometry":{"type":"Point","coordinates":[-96.63993413227183,28.690294775087043]},"properties":{"substrate":"Firm/Hard Bottom","lease_number":null,"poll_year":2025}},{"type":"Feature","id":"bfc8ca9a-47a8-417d-b014-18d450116bba","geometry":{"type":"Point","coordinates":[-96.64168064583038,28.689387518188546]},"properties":{"substrate":"Mud","lease_number":null,"poll_year":2025}},{"type":"Feature","id":"c21b8785-71ba-404f-810c-dc610c853a8e","geometry":{"type":"Point","coordinates":[-96.64155105307086,28.689677470845094]},"properties":{"substrate":"Mud","lease_number":null,"poll_year":2025}},{"type":"Feature","id":"c24e8180-7016-4c29-89fa-f94e211224c5","geometry":{"type":"Point","coordinates":[-96.639680030319,28.69006505318297]},"properties":{"substrate":"Mud","lease_number":null,"poll_year":2025}},{"type":"Feature","id":"c32c2a2d-7b88-46d1-9ca1-21dbb8212d1c","geometry":{"type":"Point","coordinates":[-96.64017932293706,28.689791973337417]},"properties":{"substrate":"Firm/Hard Bottom","lease_number":null,"poll_year":2025}},{"type":"Feature","id":"c42b3961-17a5-4557-a253-096f2b14bea1","geometry":{"type":"Point","coordinates":[-96.6403016052068,28.689501964259584]},"properties":{"substrate":"Firm/Hard Bottom","lease_number":null,"poll_year":2025}},{"type":"Feature","id":"c6a1ab82-864a-435e-997f-53c5bef8b579","geometry":{"type":"Point","coordinates":[-96.64052975662771,28.69016140539501]},"properties":{"substrate":"Firm/Hard Bottom","lease_number":null,"poll_year":2025}},{"type":"Feature","id":"c81d6cc9-0850-4858-8073-b8a92df8fa97","geometry":{"type":"Point","coordinates":[-96.64197964827606,28.68871686705651]},"properties":{"substrate":"Mud","lease_number":null,"poll_year":2025}},{"type":"Feature","id":"cd421566-71c8-4c29-90cc-39e098b5abea","geometry":{"type":"Point","coordinates":[-96.64049934865535,28.689328356542145]},"properties":{"substrate":"Firm/Hard Bottom","lease_number":null,"poll_year":2025}},{"type":"Feature","id":"d1eee873-b299-47f0-884c-e04298b329ca","geometry":{"type":"Point","coordinates":[-96.64084230476956,28.68848618658521]},"properties":{"substrate":"Firm/Hard Bottom","lease_number":null,"poll_year":2025}},{"type":"Feature","id":"d3e88211-4b8a-43c7-986a-f02add1e910f","geometry":{"type":"Point","coordinates":[-96.64046433322389,28.6903107271137]},"properties":{"substrate":"Firm/Hard Bottom","lease_number":null,"poll_year":2025}},{"type":"Feature","id":"d40680d8-f833-48ae-b305-ce6a1240d202","geometry":{"type":"Point","coordinates":[-96.64028988668393,28.68979651081776]},"properties":{"substrate":"Firm/Hard Bottom","lease_number":null,"poll_year":2025}},{"type":"Feature","id":"d4320110-050a-4d2f-b07b-9c366a231bef","geometry":{"type":"Point","coordinates":[-96.64063210977287,28.68898217572397]},"properties":{"substrate":"Firm/Hard Bottom","lease_number":null,"poll_year":2025}},{"type":"Feature","id":"d5c304af-3d7c-470c-8d11-2b2e5d58eef0","geometry":{"type":"Point","coordinates":[-96.64012891577153,28.688930840633656]},"properties":{"substrate":"Mud","lease_number":null,"poll_year":2025}},{"type":"Feature","id":"d6a70888-ca9d-4922-bb1a-c65b1ff89989","geometry":{"type":"Point","coordinates":[-96.64129336773834,28.688352122688926]},"properties":{"substrate":"Firm/Hard Bottom","lease_number":null,"poll_year":2025}},{"type":"Feature","id":"d6d5a01f-a03d-4164-b009-b512681a66cd","geometry":{"type":"Point","coordinates":[-96.6400341345259,28.69039063535938]},"properties":{"substrate":"Firm/Hard Bottom","lease_number":null,"poll_year":2025}},{"type":"Feature","id":"d76bc0af-3da8-4e16-87a8-1716301af561","geometry":{"type":"Point","coordinates":[-96.64024912113632,28.688595624861552]},"properties":{"substrate":"Mud","lease_number":null,"poll_year":2025}},{"type":"Feature","id":"d8353c88-4ddb-455e-bfd9-2a1611dbf47d","geometry":{"type":"Point","coordinates":[-96.64147144526869,28.68985373049327]},"properties":{"substrate":"Mud","lease_number":null,"poll_year":2025}},{"type":"Feature","id":"d8e17d0e-08da-4640-bb24-168fed2a83e8","geometry":{"type":"Point","coordinates":[-96.6408669266932,28.689378384089608]},"properties":{"substrate":"Firm/Hard Bottom","lease_number":null,"poll_year":2025}},{"type":"Feature","id":"df6ba5b3-f1d0-40a1-b3e7-7a0ea9b193f4","geometry":{"type":"Point","coordinates":[-96.64125640296272,28.6903528707756]},"properties":{"substrate":"Mud","lease_number":null,"poll_year":2025}},{"type":"Feature","id":"e0da8acb-9827-45b3-bfed-8c42c713e6d0","geometry":{"type":"Point","coordinates":[-96.64114449174293,28.68870603388733]},"properties":{"substrate":"Firm/Hard Bottom","lease_number":null,"poll_year":2025}},{"type":"Feature","id":"e6cc0f1a-349c-44a0-b44a-51da5baf8a69","geometry":{"type":"Point","coordinates":[-96.64183614151112,28.689033127803473]},"properties":{"substrate":"Mud","lease_number":null,"poll_year":2025}},{"type":"Feature","id":"ebc88d5b-189d-45c8-95c1-f948a7c8674e","geometry":{"type":"Point","coordinates":[-96.64094167371135,28.68920548539884]},"properties":{"substrate":"Firm/Hard Bottom","lease_number":null,"poll_year":2025}},{"type":"Feature","id":"ec36afd1-ddef-4b8a-93a0-cb512d01675f","geometry":{"type":"Point","coordinates":[-96.64097950715787,28.68746647300037]},"properties":{"substrate":"Mud","lease_number":null,"poll_year":2025}},{"type":"Feature","id":"ecfcaa11-4c94-409d-ac8a-c2635561887f","geometry":{"type":"Point","coordinates":[-96.63949975910273,28.69037591975806]},"properties":{"substrate":"Mud","lease_number":null,"poll_year":2025}},{"type":"Feature","id":"eecc9865-26c2-40e8-a492-601ad0b09350","geometry":{"type":"Point","coordinates":[-96.64035038821831,28.688291285868363]},"properties":{"substrate":"Mud","lease_number":null,"poll_year":2025}},{"type":"Feature","id":"f26501ba-e4c7-4322-9a5b-5f5bee694d1c","geometry":{"type":"Point","coordinates":[-96.6407467985835,28.690110579949135]},"properties":{"substrate":"Firm/Hard Bottom","lease_number":null,"poll_year":2025}},{"type":"Feature","id":"f2d18e7f-caba-4fae-a8e9-0dabf72d61f5","geometry":{"type":"Point","coordinates":[-96.64069093594924,28.68883346205184]},"properties":{"substrate":"Firm/Hard Bottom","lease_number":null,"poll_year":2025}},{"type":"Feature","id":"f3036ab4-5d69-4efb-bc98-6ed558ffa88e","geometry":{"type":"Point","coordinates":[-96.64008428656989,28.689087056270047]},"properties":{"substrate":"Mud","lease_number":null,"poll_year":2025}},{"type":"Feature","id":"f5977996-05dd-4287-91b4-f474d69ec511","geometry":{"type":"Point","coordinates":[-96.64100377873851,28.689560141555432]},"properties":{"substrate":"Firm/Hard Bottom","lease_number":null,"poll_year":2025}},{"type":"Feature","id":"f5ee8f94-d2ab-49d6-a206-2630d7b27be0","geometry":{"type":"Point","coordinates":[-96.64035025167438,28.6896500678337]},"properties":{"substrate":"Firm/Hard Bottom","lease_number":null,"poll_year":2025}},{"type":"Feature","id":"f6af02cd-63a4-4616-953f-869f1e28748b","geometry":{"type":"Point","coordinates":[-96.64025041471032,28.68965027981424]},"properties":{"substrate":"Firm/Hard Bottom","lease_number":null,"poll_year":2025}},{"type":"Feature","id":"fa81d772-fc1a-41cd-946b-c5df568bb2f4","geometry":{"type":"Point","coordinates":[-96.64124152506498,28.68769112007052]},"properties":{"substrate":"Mud","lease_number":null,"poll_year":2025}},{"type":"Feature","id":"fae42117-118d-42bf-8503-8df1fc90dc09","geometry":{"type":"Point","coordinates":[-96.64068612277596,28.688366858275707]},"properties":{"substrate":"Firm/Hard Bottom","lease_number":null,"poll_year":2025}},{"type":"Feature","id":"fd9d2d3c-e198-4000-acfa-9a03537754df","geometry":{"type":"Point","coordinates":[-96.6416017602737,28.687581141036404]},"properties":{"substrate":"Mud","lease_number":null,"poll_year":2025}}]}