{"type":"FeatureCollection","features":[{"type":"Feature","id":"0a430a8b-cc2b-4b2d-ba75-f990d6bcd889","geometry":{"type":"Point","coordinates":[-96.63954129450653,28.690904156065617]},"properties":{"substrate":"Mud","lease_number":null,"poll_year":2025}},{"type":"Feature","id":"0c9f6538-2163-4778-bdd5-17da828b53de","geometry":{"type":"Point","coordinates":[-96.63933745868371,28.691239752152054]},"properties":{"substrate":"Mud","lease_number":null,"poll_year":2025}},{"type":"Feature","id":"1021b3d0-dcf5-48ae-ab3d-1708d3973b5f","geometry":{"type":"Point","coordinates":[-96.63971370007415,28.690624978312133]},"properties":{"substrate":"Firm/Hard Bottom","lease_number":null,"poll_year":2025}},{"type":"Feature","id":"11daa69f-6feb-4c54-99e9-6bd395a0bdd8","geometry":{"type":"Point","coordinates":[-96.6397898969732,28.6928112077747]},"properties":{"substrate":"Mud","lease_number":null,"poll_year":2025}},{"type":"Feature","id":"125983dd-b029-4419-aba1-83e35bf37fc7","geometry":{"type":"Point","coordinates":[-96.6400733953954,28.691496141945244]},"properties":{"substrate":"Firm/Hard Bottom","lease_number":null,"poll_year":2025}},{"type":"Feature","id":"12fb859e-8517-4f97-98b7-0b0c14e17961","geometry":{"type":"Point","coordinates":[-96.6409502229779,28.6910524838182]},"properties":{"substrate":"Mud","lease_number":null,"poll_year":2025}},{"type":"Feature","id":"14c5d09d-6e98-41a6-994c-cea442424652","geometry":{"type":"Point","coordinates":[-96.63928944283346,28.691934466485943]},"properties":{"substrate":"Mud","lease_number":null,"poll_year":2025}},{"type":"Feature","id":"17c791bf-1b76-4226-ad89-31bcbde383f7","geometry":{"type":"Point","coordinates":[-96.64033166014127,28.69094216394928]},"properties":{"substrate":"Firm/Hard Bottom","lease_number":null,"poll_year":2025}},{"type":"Feature","id":"18d30cdf-0307-4315-90ce-9a95379b460d","geometry":{"type":"Point","coordinates":[-96.63928712877329,28.692493015995037]},"properties":{"substrate":"Mud","lease_number":null,"poll_year":2025}},{"type":"Feature","id":"1c234508-13eb-4c1b-8eb5-9036ba6760be","geometry":{"type":"Point","coordinates":[-96.63990971426578,28.6906682045926]},"properties":{"substrate":"Firm/Hard Bottom","lease_number":null,"poll_year":2025}},{"type":"Feature","id":"1d3bfa3a-d2cf-48be-847e-4a22cb6de681","geometry":{"type":"Point","coordinates":[-96.64000576393258,28.69164127108726]},"properties":{"substrate":"Mud","lease_number":null,"poll_year":2025}},{"type":"Feature","id":"1e570d94-b4db-4426-8eb1-27f8930aa609","geometry":{"type":"Point","coordinates":[-96.63967203261802,28.69234612682824]},"properties":{"substrate":"Mud","lease_number":null,"poll_year":2025}},{"type":"Feature","id":"24ff5249-d022-410c-afc9-68b4c48c2499","geometry":{"type":"Point","coordinates":[-96.63982030943714,28.69201679111902]},"properties":{"substrate":"Mud","lease_number":null,"poll_year":2025}},{"type":"Feature","id":"2fef530a-6af3-4ada-90b3-c1fc0bd629c6","geometry":{"type":"Point","coordinates":[-96.63931640846167,28.690711705087494]},"properties":{"substrate":"Mud","lease_number":null,"poll_year":2025}},{"type":"Feature","id":"314ff337-ccbd-4bbf-833d-7927abc65fc0","geometry":{"type":"Point","coordinates":[-96.6402489136255,28.69111859877294]},"properties":{"substrate":"Firm/Hard Bottom","lease_number":null,"poll_year":2025}},{"type":"Feature","id":"41e6aff7-d34b-4204-ad2a-ea80376a06c0","geometry":{"type":"Point","coordinates":[-96.63923185812881,28.691443372318343]},"properties":{"substrate":"Firm/Hard Bottom","lease_number":null,"poll_year":2025}},{"type":"Feature","id":"43207e7b-1cff-4689-8fc8-5e37cd56672d","geometry":{"type":"Point","coordinates":[-96.63914995153785,28.69161938864834]},"properties":{"substrate":"Mud","lease_number":null,"poll_year":2025}},{"type":"Feature","id":"44a6b913-f668-4229-8cf0-c9a966530d26","geometry":{"type":"Point","coordinates":[-96.63900380552256,28.691244774989855]},"properties":{"substrate":"Mud","lease_number":null,"poll_year":2025}},{"type":"Feature","id":"45e54ca3-7c19-4cd6-a70c-4cd4397219c1","geometry":{"type":"Point","coordinates":[-96.63982976420549,28.69159046054412]},"properties":{"substrate":"Mud","lease_number":null,"poll_year":2025}},{"type":"Feature","id":"4aac0028-9568-4e4a-a110-f226054ccd51","geometry":{"type":"Point","coordinates":[-96.64039778153607,28.690800771431533]},"properties":{"substrate":"Firm/Hard Bottom","lease_number":null,"poll_year":2025}},{"type":"Feature","id":"4cb0c3af-4550-4ba1-be1c-a3a55d3c64ae","geometry":{"type":"Point","coordinates":[-96.63976130629264,28.690989305778388]},"properties":{"substrate":"Firm/Hard Bottom","lease_number":null,"poll_year":2025}},{"type":"Feature","id":"50ecd72d-11ad-4712-aefb-69915089ab27","geometry":{"type":"Point","coordinates":[-96.63946481194321,28.691630189207373]},"properties":{"substrate":"Mud","lease_number":null,"poll_year":2025}},{"type":"Feature","id":"52078f69-f586-49cc-9483-13f08436a97f","geometry":{"type":"Point","coordinates":[-96.64061240702375,28.69175147516915]},"properties":{"substrate":"Mud","lease_number":null,"poll_year":2025}},{"type":"Feature","id":"52a3e074-1c79-490c-8689-c6038caa0cae","geometry":{"type":"Point","coordinates":[-96.63913192684166,28.691931224594153]},"properties":{"substrate":"Mud","lease_number":null,"poll_year":2025}},{"type":"Feature","id":"5321c231-6af1-4f3d-84d3-fdd995f58fdf","geometry":{"type":"Point","coordinates":[-96.64070271016767,28.691582537031714]},"properties":{"substrate":"Mud","lease_number":null,"poll_year":2025}},{"type":"Feature","id":"5491b0b2-526a-493a-a50e-72db66f18b05","geometry":{"type":"Point","coordinates":[-96.64029767238249,28.69069536147408]},"properties":{"substrate":"Firm/Hard Bottom","lease_number":null,"poll_year":2025}},{"type":"Feature","id":"5979927b-8e2f-431d-929b-5dcb7529a994","geometry":{"type":"Point","coordinates":[-96.6401559451801,28.69101748148833]},"properties":{"substrate":"Firm/Hard Bottom","lease_number":null,"poll_year":2025}},{"type":"Feature","id":"5d26c57a-6735-470a-94f7-24ef12da8459","geometry":{"type":"Point","coordinates":[-96.64085432871966,28.691261815126804]},"properties":{"substrate":"Mud","lease_number":null,"poll_year":2025}},{"type":"Feature","id":"5fad1b00-2728-45cc-b1b3-c22dde2b8d43","geometry":{"type":"Point","coordinates":[-96.63944525651782,28.692275532012843]},"properties":{"substrate":"Mud","lease_number":null,"poll_year":2025}},{"type":"Feature","id":"61b46825-f037-4321-8425-f478585cce53","geometry":{"type":"Point","coordinates":[-96.63953868040905,28.692103909959975]},"properties":{"substrate":"Mud","lease_number":null,"poll_year":2025}},{"type":"Feature","id":"67ff7a9e-09cd-457e-bfbe-5667e3016798","geometry":{"type":"Point","coordinates":[-96.64040446679842,28.69199994180435]},"properties":{"substrate":"Mud","lease_number":null,"poll_year":2025}},{"type":"Feature","id":"6db2a1f7-1b36-428a-9735-529ab5845854","geometry":{"type":"Point","coordinates":[-96.63962558612458,28.690764826541617]},"properties":{"substrate":"Mud","lease_number":null,"poll_year":2025}},{"type":"Feature","id":"6f7569e8-29c5-4847-8d8d-d11b52523d47","geometry":{"type":"Point","coordinates":[-96.63960843818413,28.691308361069446]},"properties":{"substrate":"Mud","lease_number":null,"poll_year":2025}},{"type":"Feature","id":"729c6f8f-cb98-4db1-a800-8fb72010702b","geometry":{"type":"Point","coordinates":[-96.63913654058895,28.6910220559526]},"properties":{"substrate":"Mud","lease_number":null,"poll_year":2025}},{"type":"Feature","id":"73750d4d-71ce-4bd8-b469-01992729ddd3","geometry":{"type":"Point","coordinates":[-96.64023470317602,28.69084719228353]},"properties":{"substrate":"Firm/Hard Bottom","lease_number":null,"poll_year":2025}},{"type":"Feature","id":"7752bb06-c376-4f4a-8693-fcd40bfc4f75","geometry":{"type":"Point","coordinates":[-96.63968012823536,28.691161397742576]},"properties":{"substrate":"Firm/Hard Bottom","lease_number":null,"poll_year":2025}},{"type":"Feature","id":"86790bca-8273-40a6-84b2-3833ad678339","geometry":{"type":"Point","coordinates":[-96.63992386632476,28.691816197259264]},"properties":{"substrate":"Firm/Hard Bottom","lease_number":null,"poll_year":2025}},{"type":"Feature","id":"8946b7d8-db73-4041-832e-61961fc61dcb","geometry":{"type":"Point","coordinates":[-96.64077240595901,28.691436022472132]},"properties":{"substrate":"Mud","lease_number":null,"poll_year":2025}},{"type":"Feature","id":"8b172f5e-1503-477a-8c92-d3b1d1b5e466","geometry":{"type":"Point","coordinates":[-96.64046525220041,28.690652258924654]},"properties":{"substrate":"Firm/Hard Bottom","lease_number":null,"poll_year":2025}},{"type":"Feature","id":"8b191da9-8ed7-49db-9e44-c291d53a35e0","geometry":{"type":"Point","coordinates":[-96.640011682932,28.69127631468624]},"properties":{"substrate":"Firm/Hard Bottom","lease_number":null,"poll_year":2025}},{"type":"Feature","id":"9b4ef56f-7f43-4525-adef-89d59815a9a2","geometry":{"type":"Point","coordinates":[-96.63963133803735,28.691928055199607]},"properties":{"substrate":"Mud","lease_number":null,"poll_year":2025}},{"type":"Feature","id":"9c372770-dd2d-404c-b88f-0ccd5f916da8","geometry":{"type":"Point","coordinates":[-96.63951141474354,28.69262528265573]},"properties":{"substrate":"Mud","lease_number":null,"poll_year":2025}},{"type":"Feature","id":"9d101c8b-0965-4e21-b1d8-ea71a0b474ff","geometry":{"type":"Point","coordinates":[-96.63890743066563,28.691410950879668]},"properties":{"substrate":"Mud","lease_number":null,"poll_year":2025}},{"type":"Feature","id":"a2eaf772-bffd-4987-9cb1-61ec00f2e3ba","geometry":{"type":"Point","coordinates":[-96.63989898478803,28.69265818203983]},"properties":{"substrate":"Mud","lease_number":null,"poll_year":2025}},{"type":"Feature","id":"b12940ed-6744-46f7-8dec-bdbcbe105721","geometry":{"type":"Point","coordinates":[-96.63908841155097,28.69177025437445]},"properties":{"substrate":"Mud","lease_number":null,"poll_year":2025}},{"type":"Feature","id":"b23ec1cf-b8be-4b24-923a-2c35782e0470","geometry":{"type":"Point","coordinates":[-96.6411064498873,28.690701362275547]},"properties":{"substrate":"Mud","lease_number":null,"poll_year":2025}},{"type":"Feature","id":"b4ae9dde-d4f9-432e-9348-a7194b2c6c0f","geometry":{"type":"Point","coordinates":[-96.64014951503931,28.692307182508348]},"properties":{"substrate":"Firm/Hard Bottom","lease_number":null,"poll_year":2025}},{"type":"Feature","id":"b4dc6218-0a29-44b4-8134-e3c144b739a8","geometry":{"type":"Point","coordinates":[-96.64015275166928,28.691321939428047]},"properties":{"substrate":"Firm/Hard Bottom","lease_number":null,"poll_year":2025}},{"type":"Feature","id":"bd4eebd9-1eeb-4b75-b555-83a1ffa6ff78","geometry":{"type":"Point","coordinates":[-96.63973901100562,28.6921938860621]},"properties":{"substrate":"Mud","lease_number":null,"poll_year":2025}},{"type":"Feature","id":"c5c92e99-1c80-4c0d-a15d-fc3133a1363f","geometry":{"type":"Point","coordinates":[-96.64051267426429,28.691873389826394]},"properties":{"substrate":"Mud","lease_number":null,"poll_year":2025}},{"type":"Feature","id":"cd000fbe-5f57-4004-b9ec-1c98dbb9bc3e","geometry":{"type":"Point","coordinates":[-96.63990975468997,28.691446231248424]},"properties":{"substrate":"Mud","lease_number":null,"poll_year":2025}},{"type":"Feature","id":"cda82020-c132-459e-8f9c-78d55f836411","geometry":{"type":"Point","coordinates":[-96.64102849139198,28.690878438167278]},"properties":{"substrate":"Mud","lease_number":null,"poll_year":2025}},{"type":"Feature","id":"d03ff0b2-160a-4b57-be29-92fc58407a90","geometry":{"type":"Point","coordinates":[-96.6395214866545,28.69148427991227]},"properties":{"substrate":"Mud","lease_number":null,"poll_year":2025}},{"type":"Feature","id":"d4ab77f5-b518-4699-a707-74c022d47dec","geometry":{"type":"Point","coordinates":[-96.63882265755059,28.691554936726572]},"properties":{"substrate":"Mud","lease_number":null,"poll_year":2025}},{"type":"Feature","id":"d8276d6a-dc49-4ba5-937b-d42c90a08d6c","geometry":{"type":"Point","coordinates":[-96.63872358415452,28.691727194032364]},"properties":{"substrate":"Mud","lease_number":null,"poll_year":2025}},{"type":"Feature","id":"dcbbe47d-1a40-4701-9bc3-0fe76c08b23f","geometry":{"type":"Point","coordinates":[-96.63972667354349,28.69175601886874]},"properties":{"substrate":"Mud","lease_number":null,"poll_year":2025}},{"type":"Feature","id":"e8feb53c-09b6-4251-8ab2-e9c58b2b4180","geometry":{"type":"Point","coordinates":[-96.6400151980397,28.692491180718974]},"properties":{"substrate":"Firm/Hard Bottom","lease_number":null,"poll_year":2025}},{"type":"Feature","id":"ed92576c-316f-4d59-981f-33f56910b500","geometry":{"type":"Point","coordinates":[-96.63943538313453,28.691068825011822]},"properties":{"substrate":"Mud","lease_number":null,"poll_year":2025}},{"type":"Feature","id":"eeba94aa-4d7f-412c-bee2-a284f11cf6cf","geometry":{"type":"Point","coordinates":[-96.64025258504007,28.69217466800974]},"properties":{"substrate":"Mud","lease_number":null,"poll_year":2025}},{"type":"Feature","id":"f7089635-32e1-4778-91a4-ef8eb48f12b2","geometry":{"type":"Point","coordinates":[-96.63982807537278,28.690841083531318]},"properties":{"substrate":"Firm/Hard Bottom","lease_number":null,"poll_year":2025}},{"type":"Feature","id":"f7c4cbef-1951-4e74-8c94-030521228ce0","geometry":{"type":"Point","coordinates":[-96.63922754531713,28.690855600485516]},"properties":{"substrate":"Mud","lease_number":null,"poll_year":2025}}]}