{"type":"FeatureCollection","features":[{"type":"Feature","id":"00835da2-00a9-4241-8b66-082e057d6bab","geometry":{"type":"Point","coordinates":[-96.65761717578894,28.25583966262953]},"properties":{"substrate":"Solid Reef","lease_number":null,"poll_year":2025}},{"type":"Feature","id":"0122f281-2728-43be-8aa6-2cb72fc208c4","geometry":{"type":"Point","coordinates":[-96.6554863656468,28.257740372739228]},"properties":{"substrate":"Mud","lease_number":null,"poll_year":2025}},{"type":"Feature","id":"013fbbb3-0f6f-49d3-af25-e602f32b6107","geometry":{"type":"Point","coordinates":[-96.65387189994345,28.257884200002486]},"properties":{"substrate":"Firm/Hard Bottom","lease_number":null,"poll_year":2025}},{"type":"Feature","id":"02c1a988-8875-49d5-aefa-3a0d83b41960","geometry":{"type":"Point","coordinates":[-96.65599093586718,28.25502570099763]},"properties":{"substrate":"Firm/Hard Bottom","lease_number":null,"poll_year":2025}},{"type":"Feature","id":"04f60ac9-50e7-44cf-b7d3-19cbe9f4448e","geometry":{"type":"Point","coordinates":[-96.65618650000285,28.25974300017308]},"properties":{"substrate":"Firm/Hard Bottom","lease_number":null,"poll_year":2025}},{"type":"Feature","id":"05af6be2-f595-4581-a1ef-c7fe24e5f003","geometry":{"type":"Point","coordinates":[-96.65737587842216,28.256303961580414]},"properties":{"substrate":"Solid Reef","lease_number":null,"poll_year":2025}},{"type":"Feature","id":"05e68bb8-a1e3-4d47-928a-f06c29f718ff","geometry":{"type":"Point","coordinates":[-96.6559488372197,28.254878615337343]},"properties":{"substrate":"Firm/Hard Bottom","lease_number":null,"poll_year":2025}},{"type":"Feature","id":"06de6ea0-ad5e-48be-ac76-962b42a6f833","geometry":{"type":"Point","coordinates":[-96.65623903078571,28.256550710398404]},"properties":{"substrate":"Solid Reef","lease_number":null,"poll_year":2025}},{"type":"Feature","id":"077e40af-29b8-429f-a6fd-538e47632d2b","geometry":{"type":"Point","coordinates":[-96.65685732682273,28.257594544973504]},"properties":{"substrate":"Firm/Hard Bottom","lease_number":null,"poll_year":2025}},{"type":"Feature","id":"0abd949a-b147-4c81-b4b7-6eb511ef6ea2","geometry":{"type":"Point","coordinates":[-96.65580048045052,28.25413121894266]},"properties":{"substrate":"Firm/Hard Bottom","lease_number":null,"poll_year":2025}},{"type":"Feature","id":"0d02d301-a574-4c3f-a4d2-5ba6a1b2eff7","geometry":{"type":"Point","coordinates":[-96.65748523393496,28.253547937577256]},"properties":{"substrate":"Firm/Hard Bottom","lease_number":null,"poll_year":2025}},{"type":"Feature","id":"0e6ee58d-b8d0-48d7-a476-1964a99e4f1d","geometry":{"type":"Point","coordinates":[-96.65564497039675,28.25645625024634]},"properties":{"substrate":"Firm/Hard Bottom","lease_number":null,"poll_year":2025}},{"type":"Feature","id":"0e90eee6-b620-4791-b0a4-c9446b811d0d","geometry":{"type":"Point","coordinates":[-96.65489006485953,28.25731760001194]},"properties":{"substrate":"Mud","lease_number":null,"poll_year":2025}},{"type":"Feature","id":"10761948-285e-4f49-bbfa-4233030b18a9","geometry":{"type":"Point","coordinates":[-96.6551059237341,28.25765166769021]},"properties":{"substrate":"Mud","lease_number":null,"poll_year":2025}},{"type":"Feature","id":"11cdbe31-068d-4387-9917-19ba3501b9dc","geometry":{"type":"Point","coordinates":[-96.65750900605234,28.25259955572194]},"properties":{"substrate":"Firm/Hard Bottom","lease_number":null,"poll_year":2025}},{"type":"Feature","id":"127b7d0b-fe28-4e4d-84cd-63b4f1591751","geometry":{"type":"Point","coordinates":[-96.65727981168737,28.25350832473698]},"properties":{"substrate":"Firm/Hard Bottom","lease_number":null,"poll_year":2025}},{"type":"Feature","id":"12ab6f13-a5e8-4238-9d1b-4a2b038042ea","geometry":{"type":"Point","coordinates":[-96.65615179988005,28.257187557391177]},"properties":{"substrate":"Firm/Hard Bottom","lease_number":null,"poll_year":2025}},{"type":"Feature","id":"12b01f57-42a1-4033-8e1d-b954e94e7d84","geometry":{"type":"Point","coordinates":[-96.65398110004772,28.257696199840073]},"properties":{"substrate":"Mud","lease_number":null,"poll_year":2025}},{"type":"Feature","id":"1354e176-ef62-4c5e-b684-9c0c2ddac88a","geometry":{"type":"Point","coordinates":[-96.65713639295731,28.257647847482893]},"properties":{"substrate":"Firm/Hard Bottom","lease_number":null,"poll_year":2025}},{"type":"Feature","id":"137ac628-e6e9-41e0-8464-02ff7be24076","geometry":{"type":"Point","coordinates":[-96.6544098461699,28.25649779981006]},"properties":{"substrate":"Firm/Hard Bottom","lease_number":null,"poll_year":2025}},{"type":"Feature","id":"13b387a7-269a-49d1-b83e-b0a6447fbe09","geometry":{"type":"Point","coordinates":[-96.6557583027513,28.254436997895688]},"properties":{"substrate":"Firm/Hard Bottom","lease_number":null,"poll_year":2025}},{"type":"Feature","id":"15339e9c-d555-4d5f-ad9b-ec595a582e3e","geometry":{"type":"Point","coordinates":[-96.65727524734741,28.25474490293881]},"properties":{"substrate":"Firm/Hard Bottom","lease_number":null,"poll_year":2025}},{"type":"Feature","id":"173910fe-72ee-419c-860c-a6ad0936caa4","geometry":{"type":"Point","coordinates":[-96.65396948662773,28.25631264261229]},"properties":{"substrate":"Firm/Hard Bottom","lease_number":null,"poll_year":2025}},{"type":"Feature","id":"1bdbf930-1e28-477f-9ded-96a2ff6a61a2","geometry":{"type":"Point","coordinates":[-96.65631592118415,28.255637972956574]},"properties":{"substrate":"Firm/Hard Bottom","lease_number":null,"poll_year":2025}},{"type":"Feature","id":"1d87f910-cdf8-4b4c-9113-49e03ace09c3","geometry":{"type":"Point","coordinates":[-96.65697480580064,28.2540822794159]},"properties":{"substrate":"Firm/Hard Bottom","lease_number":null,"poll_year":2025}},{"type":"Feature","id":"1dc23484-8111-4b01-9ef9-64173c813a60","geometry":{"type":"Point","coordinates":[-96.65669349657277,28.25462871650697]},"properties":{"substrate":"Firm/Hard Bottom","lease_number":null,"poll_year":2025}},{"type":"Feature","id":"1e121bff-8889-4fb8-856b-6e91f062eddc","geometry":{"type":"Point","coordinates":[-96.6561777108861,28.257504990779093]},"properties":{"substrate":"Firm/Hard Bottom","lease_number":null,"poll_year":2025}},{"type":"Feature","id":"20756a81-c686-42e7-967b-882826615789","geometry":{"type":"Point","coordinates":[-96.6572882998685,28.260332400332267]},"properties":{"substrate":"Mud","lease_number":null,"poll_year":2025}},{"type":"Feature","id":"21faf63f-d166-4087-b906-efbcd3315c33","geometry":{"type":"Point","coordinates":[-96.65764950885098,28.254598024998664]},"properties":{"substrate":"Firm/Hard Bottom","lease_number":null,"poll_year":2025}},{"type":"Feature","id":"2244eec1-d504-4c46-b8d8-1adff0975f3a","geometry":{"type":"Point","coordinates":[-96.6575942561728,28.25324538217813]},"properties":{"substrate":"Firm/Hard Bottom","lease_number":null,"poll_year":2025}},{"type":"Feature","id":"266d8696-bd2a-499a-80b6-cb5cb40cd30f","geometry":{"type":"Point","coordinates":[-96.65710616554632,28.254910458870253]},"properties":{"substrate":"Firm/Hard Bottom","lease_number":null,"poll_year":2025}},{"type":"Feature","id":"26be1d38-821b-4527-9a2a-8ddf078b8f12","geometry":{"type":"Point","coordinates":[-96.65698664829102,28.25316783696671]},"properties":{"substrate":"Firm/Hard Bottom","lease_number":null,"poll_year":2025}},{"type":"Feature","id":"27716501-817b-4ac4-b6a0-4df64795c169","geometry":{"type":"Point","coordinates":[-96.65714453079548,28.25410705778408]},"properties":{"substrate":"Firm/Hard Bottom","lease_number":null,"poll_year":2025}},{"type":"Feature","id":"2879b477-8e4e-4981-933f-411b4e4c6ea1","geometry":{"type":"Point","coordinates":[-96.65758050655906,28.25821654808695]},"properties":{"substrate":"Firm/Hard Bottom","lease_number":null,"poll_year":2025}},{"type":"Feature","id":"28de8cda-d091-4b74-aa3a-5a60d9cff5a6","geometry":{"type":"Point","coordinates":[-96.6572021083136,28.25627801897191]},"properties":{"substrate":"Solid Reef","lease_number":null,"poll_year":2025}},{"type":"Feature","id":"29119340-0895-46b3-b7a8-fab3537cfc1d","geometry":{"type":"Point","coordinates":[-96.65724525439671,28.256711438374577]},"properties":{"substrate":"Firm/Hard Bottom","lease_number":null,"poll_year":2025}},{"type":"Feature","id":"29ffa384-5c2a-40a8-80f8-71050cc0085e","geometry":{"type":"Point","coordinates":[-96.65448728903222,28.25750936724865]},"properties":{"substrate":"Mud","lease_number":null,"poll_year":2025}},{"type":"Feature","id":"2a640b8b-e06c-478e-88f8-7427a85ee6f5","geometry":{"type":"Point","coordinates":[-96.65568909384686,28.25779330407486]},"properties":{"substrate":"Mud","lease_number":null,"poll_year":2025}},{"type":"Feature","id":"2ac273ba-5488-45da-9d9f-c021cb84c65b","geometry":{"type":"Point","coordinates":[-96.65696431168149,28.258082255926976]},"properties":{"substrate":"Mud","lease_number":null,"poll_year":2025}},{"type":"Feature","id":"2ae7a1f0-2fee-4f17-ac9b-141662be543f","geometry":{"type":"Point","coordinates":[-96.65758617492848,28.255350893764067]},"properties":{"substrate":"Solid Reef","lease_number":null,"poll_year":2025}},{"type":"Feature","id":"2c6cc839-3580-470f-9559-d86a3bc8894d","geometry":{"type":"Point","coordinates":[-96.65735832893478,28.25293233729443]},"properties":{"substrate":"Firm/Hard Bottom","lease_number":null,"poll_year":2025}},{"type":"Feature","id":"2c7028be-d314-4c4f-8fbc-28bbddeb3753","geometry":{"type":"Point","coordinates":[-96.65648425918017,28.25526278255949]},"properties":{"substrate":"Mud","lease_number":null,"poll_year":2025}},{"type":"Feature","id":"2e48fb1a-62a9-4546-9c46-7c32e032ab73","geometry":{"type":"Point","coordinates":[-96.65461432698307,28.25653859527811]},"properties":{"substrate":"Firm/Hard Bottom","lease_number":null,"poll_year":2025}},{"type":"Feature","id":"2e927949-7508-4484-ae30-86417f05c178","geometry":{"type":"Point","coordinates":[-96.65679658184489,28.25805153138885]},"properties":{"substrate":"Mud","lease_number":null,"poll_year":2025}},{"type":"Feature","id":"309cdade-7143-4e6a-aa41-f81ea7dd1bef","geometry":{"type":"Point","coordinates":[-96.65541618207028,28.255072794826468]},"properties":{"substrate":"Firm/Hard Bottom","lease_number":null,"poll_year":2025}},{"type":"Feature","id":"30d8ce24-3191-4ae9-9b43-e27dbbd746c8","geometry":{"type":"Point","coordinates":[-96.65603158373547,28.25651968711038]},"properties":{"substrate":"Solid Reef","lease_number":null,"poll_year":2025}},{"type":"Feature","id":"31059aaf-707a-4b73-be80-d2867f486e84","geometry":{"type":"Point","coordinates":[-96.6557473001857,28.259508599825235]},"properties":{"substrate":"Mud","lease_number":null,"poll_year":2025}},{"type":"Feature","id":"32a01586-a836-4a36-a5e1-9d04ebf99a8c","geometry":{"type":"Point","coordinates":[-96.65753062850122,28.252957808313553]},"properties":{"substrate":"Firm/Hard Bottom","lease_number":null,"poll_year":2025}},{"type":"Feature","id":"33ae498a-882e-41f2-ab6b-b801956b26e3","geometry":{"type":"Point","coordinates":[-96.65558268660483,28.25510562581845]},"properties":{"substrate":"Firm/Hard Bottom","lease_number":null,"poll_year":2025}},{"type":"Feature","id":"3454ea9e-832b-4392-80f0-f6ecdc75ccfd","geometry":{"type":"Point","coordinates":[-96.65747403284169,28.257236728124035]},"properties":{"substrate":"Firm/Hard Bottom","lease_number":null,"poll_year":2025}},{"type":"Feature","id":"359a795f-6832-4153-a389-9e79453b7748","geometry":{"type":"Point","coordinates":[-96.65382789956253,28.25846360027601]},"properties":{"substrate":"Firm/Hard Bottom","lease_number":null,"poll_year":2025}},{"type":"Feature","id":"364c88ad-88e4-4411-81bf-1c3cde7bbd4f","geometry":{"type":"Point","coordinates":[-96.65662857532719,28.252833215573443]},"properties":{"substrate":"Firm/Hard Bottom","lease_number":null,"poll_year":2025}},{"type":"Feature","id":"36c4d151-dd9c-4afe-88d3-571aed644852","geometry":{"type":"Point","coordinates":[-96.65544250360644,28.25485325555651]},"properties":{"substrate":"Firm/Hard Bottom","lease_number":null,"poll_year":2025}},{"type":"Feature","id":"3732ebc9-6346-4716-841c-a7345b0774ff","geometry":{"type":"Point","coordinates":[-96.6557753294192,28.254850966378854]},"properties":{"substrate":"Firm/Hard Bottom","lease_number":null,"poll_year":2025}},{"type":"Feature","id":"38e04c38-f99c-4448-9e1c-a81631cbb6cc","geometry":{"type":"Point","coordinates":[-96.65652244476628,28.254589772702836]},"properties":{"substrate":"Firm/Hard Bottom","lease_number":null,"poll_year":2025}},{"type":"Feature","id":"3a68c774-aaf8-4f21-a4a3-4160386be128","geometry":{"type":"Point","coordinates":[-96.65502015618402,28.256353003743726]},"properties":{"substrate":"Firm/Hard Bottom","lease_number":null,"poll_year":2025}},{"type":"Feature","id":"3aefab4c-30e6-41db-87b9-3b560ff7b4c1","geometry":{"type":"Point","coordinates":[-96.65726805184198,28.255782769202803]},"properties":{"substrate":"Solid Reef","lease_number":null,"poll_year":2025}},{"type":"Feature","id":"3c251040-8106-4bd5-b649-4e929dd87494","geometry":{"type":"Point","coordinates":[-96.65744147789579,28.255813825938816]},"properties":{"substrate":"Solid Reef","lease_number":null,"poll_year":2025}},{"type":"Feature","id":"3c8dcd03-b6ff-4eb9-93ad-a2eb8271a399","geometry":{"type":"Point","coordinates":[-96.65645069812116,28.257012995646637]},"properties":{"substrate":"Firm/Hard Bottom","lease_number":null,"poll_year":2025}},{"type":"Feature","id":"3c9ce56f-a502-403a-887b-417e2b014351","geometry":{"type":"Point","coordinates":[-96.65770201897259,28.25298185024697]},"properties":{"substrate":"Firm/Hard Bottom","lease_number":null,"poll_year":2025}},{"type":"Feature","id":"3dbae818-d09b-42fc-9e33-57268f30ab36","geometry":{"type":"Point","coordinates":[-96.65669574954751,28.256184484366123]},"properties":{"substrate":"Solid Reef","lease_number":null,"poll_year":2025}},{"type":"Feature","id":"408c865a-f741-40a7-b609-4f63e4a4ea5a","geometry":{"type":"Point","coordinates":[-96.65574499690533,28.257439969602856]},"properties":{"substrate":"Mud","lease_number":null,"poll_year":2025}},{"type":"Feature","id":"40a57d64-a9be-45e0-89ae-33a722126eac","geometry":{"type":"Point","coordinates":[-96.65531528958579,28.25769826740373]},"properties":{"substrate":"Mud","lease_number":null,"poll_year":2025}},{"type":"Feature","id":"40fd3144-328c-47e8-a9ea-ee9d9b9119b5","geometry":{"type":"Point","coordinates":[-96.6566204347941,28.258016342563675]},"properties":{"substrate":"Mud","lease_number":null,"poll_year":2025}},{"type":"Feature","id":"42169aff-3656-4263-a3ed-e5bc0b678b40","geometry":{"type":"Point","coordinates":[-96.6554024405414,28.25641669150179]},"properties":{"substrate":"Firm/Hard Bottom","lease_number":null,"poll_year":2025}},{"type":"Feature","id":"4284a8b7-39a6-48af-ab96-b16d6b752704","geometry":{"type":"Point","coordinates":[-96.65481333256459,28.25658949602374]},"properties":{"substrate":"Firm/Hard Bottom","lease_number":null,"poll_year":2025}},{"type":"Feature","id":"4350537a-2bab-4bd6-af87-6293e33c4c9a","geometry":{"type":"Point","coordinates":[-96.65497964216472,28.25663244054167]},"properties":{"substrate":"Firm/Hard Bottom","lease_number":null,"poll_year":2025}},{"type":"Feature","id":"436a8af3-cec9-4043-9133-9bdba2a86ced","geometry":{"type":"Point","coordinates":[-96.6568643193089,28.25502449983411]},"properties":{"substrate":"Firm/Hard Bottom","lease_number":null,"poll_year":2025}},{"type":"Feature","id":"446a292b-7719-4801-a0c2-73490ec7ac8a","geometry":{"type":"Point","coordinates":[-96.65744529214248,28.254145594251796]},"properties":{"substrate":"Firm/Hard Bottom","lease_number":null,"poll_year":2025}},{"type":"Feature","id":"468ddb4b-b5db-4d71-bbf2-b04168696bce","geometry":{"type":"Point","coordinates":[-96.65686753348099,28.255326507367627]},"properties":{"substrate":"Solid Reef","lease_number":null,"poll_year":2025}},{"type":"Feature","id":"481e0a31-b775-47cc-8a72-6b1255a88862","geometry":{"type":"Point","coordinates":[-96.6570725407069,28.253473614726296]},"properties":{"substrate":"Firm/Hard Bottom","lease_number":null,"poll_year":2025}},{"type":"Feature","id":"485cc826-12fe-4b0a-8a25-22a000bcfc70","geometry":{"type":"Point","coordinates":[-96.65651649971572,28.259923199807826]},"properties":{"substrate":"Mud","lease_number":null,"poll_year":2025}},{"type":"Feature","id":"49e2d278-9b7c-4e5b-874b-3d27488ba2be","geometry":{"type":"Point","coordinates":[-96.6546493397196,28.257272593737003]},"properties":{"substrate":"Mud","lease_number":null,"poll_year":2025}},{"type":"Feature","id":"4a641876-c1d1-49ff-90e7-5a4f638836ee","geometry":{"type":"Point","coordinates":[-96.65544310008778,28.259341800071233]},"properties":{"substrate":"Mud","lease_number":null,"poll_year":2025}},{"type":"Feature","id":"4c8ead82-4cf8-459e-a242-8968bbecdc01","geometry":{"type":"Point","coordinates":[-96.65549464002888,28.25740022685912]},"properties":{"substrate":"Mud","lease_number":null,"poll_year":2025}},{"type":"Feature","id":"4cd0c543-f4dd-43bb-bed2-3c8ef0dbca49","geometry":{"type":"Point","coordinates":[-96.65741924369419,28.256743098577225]},"properties":{"substrate":"Firm/Hard Bottom","lease_number":null,"poll_year":2025}},{"type":"Feature","id":"4d05f7e1-f109-4e9a-9c71-83e0efa6994e","geometry":{"type":"Point","coordinates":[-96.65620795716171,28.253616358929975]},"properties":{"substrate":"Firm/Hard Bottom","lease_number":null,"poll_year":2025}},{"type":"Feature","id":"4d6ba823-0ea0-432b-9aff-86b359241607","geometry":{"type":"Point","coordinates":[-96.65613682406594,28.25450990051131]},"properties":{"substrate":"Firm/Hard Bottom","lease_number":null,"poll_year":2025}},{"type":"Feature","id":"4dae429a-8fff-4178-a467-8f7d06de7463","geometry":{"type":"Point","coordinates":[-96.65579554869961,28.254969584965473]},"properties":{"substrate":"Firm/Hard Bottom","lease_number":null,"poll_year":2025}},{"type":"Feature","id":"4dc27d57-a144-4875-9a50-a2c948bc4e7e","geometry":{"type":"Point","coordinates":[-96.65493612687403,28.257606066527895]},"properties":{"substrate":"Mud","lease_number":null,"poll_year":2025}},{"type":"Feature","id":"4df79e3a-4cf2-49d3-b996-3e9233973297","geometry":{"type":"Point","coordinates":[-96.65574268374347,28.25683979538651]},"properties":{"substrate":"Firm/Hard Bottom","lease_number":null,"poll_year":2025}},{"type":"Feature","id":"4ec6c680-d508-4b66-86f1-06dde451a821","geometry":{"type":"Point","coordinates":[-96.65702047525136,28.255749708158337]},"properties":{"substrate":"Solid Reef","lease_number":null,"poll_year":2025}},{"type":"Feature","id":"4ee6726c-5265-4f2c-800e-8b60475e43c1","geometry":{"type":"Point","coordinates":[-96.65600009688644,28.25416915323249]},"properties":{"substrate":"Firm/Hard Bottom","lease_number":null,"poll_year":2025}},{"type":"Feature","id":"502a2b5d-fe8c-416c-9a6f-aa52cc3cc72e","geometry":{"type":"Point","coordinates":[-96.65603038089131,28.253904493624507]},"properties":{"substrate":"Firm/Hard Bottom","lease_number":null,"poll_year":2025}},{"type":"Feature","id":"52d22a9e-1f44-4e8b-ad5a-6090b0762313","geometry":{"type":"Point","coordinates":[-96.6563149204609,28.25455140889556]},"properties":{"substrate":"Firm/Hard Bottom","lease_number":null,"poll_year":2025}},{"type":"Feature","id":"546ee99d-cd72-4782-90a1-60d648ccbc76","geometry":{"type":"Point","coordinates":[-96.65716591069925,28.255267013525835]},"properties":{"substrate":"Firm/Hard Bottom","lease_number":null,"poll_year":2025}},{"type":"Feature","id":"5476af54-587c-46aa-b19c-fd48ad198781","geometry":{"type":"Point","coordinates":[-96.65611068039624,28.25693663137092]},"properties":{"substrate":"Firm/Hard Bottom","lease_number":null,"poll_year":2025}},{"type":"Feature","id":"54799bb1-91f8-4405-8b2e-cd75fdf83d0a","geometry":{"type":"Point","coordinates":[-96.65519281866985,28.256384793029873]},"properties":{"substrate":"Firm/Hard Bottom","lease_number":null,"poll_year":2025}},{"type":"Feature","id":"55dbc116-c47a-40b2-bceb-062fb96b7131","geometry":{"type":"Point","coordinates":[-96.65691836375302,28.2537149450108]},"properties":{"substrate":"Firm/Hard Bottom","lease_number":null,"poll_year":2025}},{"type":"Feature","id":"579cc9d7-2ac6-427e-84d7-6f4c6ad32f9f","geometry":{"type":"Point","coordinates":[-96.65689498060618,28.25710911537902]},"properties":{"substrate":"Firm/Hard Bottom","lease_number":null,"poll_year":2025}},{"type":"Feature","id":"593b8eb1-e928-4b38-84e6-42258377f3f3","geometry":{"type":"Point","coordinates":[-96.65731711872112,28.257674282713435]},"properties":{"substrate":"Firm/Hard Bottom","lease_number":null,"poll_year":2025}},{"type":"Feature","id":"5a75cf39-1610-41f5-a30b-8b26dcd30642","geometry":{"type":"Point","coordinates":[-96.65734222932825,28.258162116738166]},"properties":{"substrate":"Firm/Hard Bottom","lease_number":null,"poll_year":2025}},{"type":"Feature","id":"5bd40c63-f976-4052-ad56-8108ec3f3368","geometry":{"type":"Point","coordinates":[-96.65602099978477,28.259654500140797]},"properties":{"substrate":"Firm/Hard Bottom","lease_number":null,"poll_year":2025}},{"type":"Feature","id":"5e2bb470-e8e7-4e17-8397-8aae29185c55","geometry":{"type":"Point","coordinates":[-96.65655995212434,28.25401668484227]},"properties":{"substrate":"Firm/Hard Bottom","lease_number":null,"poll_year":2025}},{"type":"Feature","id":"6405a9b0-28c9-4bf6-83d8-a89ddd23d84b","geometry":{"type":"Point","coordinates":[-96.65646479538292,28.255120910176476]},"properties":{"substrate":"Firm/Hard Bottom","lease_number":null,"poll_year":2025}},{"type":"Feature","id":"641d62a7-306f-4616-95d5-8c282c63e2a3","geometry":{"type":"Point","coordinates":[-96.65652095625786,28.252484384562912]},"properties":{"substrate":"Firm/Hard Bottom","lease_number":null,"poll_year":2025}},{"type":"Feature","id":"659e1603-9866-4aea-b023-d382fd5b5ff8","geometry":{"type":"Point","coordinates":[-96.65582540241147,28.255149509391536]},"properties":{"substrate":"Firm/Hard Bottom","lease_number":null,"poll_year":2025}},{"type":"Feature","id":"66559cf3-6003-49c1-a948-50574b909c2b","geometry":{"type":"Point","coordinates":[-96.65641414477393,28.25657601043028]},"properties":{"substrate":"Solid Reef","lease_number":null,"poll_year":2025}},{"type":"Feature","id":"666f994b-e02d-4797-b96f-ef9e4076ac89","geometry":{"type":"Point","coordinates":[-96.65715017401209,28.252556858838567]},"properties":{"substrate":"Firm/Hard Bottom","lease_number":null,"poll_year":2025}},{"type":"Feature","id":"67eb0ef3-5410-43f7-91a6-ceab642edcac","geometry":{"type":"Point","coordinates":[-96.65585604125084,28.256489466160534]},"properties":{"substrate":"Solid Reef","lease_number":null,"poll_year":2025}},{"type":"Feature","id":"68455814-42e5-4b1f-85ca-78b694979013","geometry":{"type":"Point","coordinates":[-96.65616431161533,28.253935518464868]},"properties":{"substrate":"Firm/Hard Bottom","lease_number":null,"poll_year":2025}},{"type":"Feature","id":"684854b2-abf9-456f-91df-d425524f9c3f","geometry":{"type":"Point","coordinates":[-96.6568998018643,28.253441686095982]},"properties":{"substrate":"Firm/Hard Bottom","lease_number":null,"poll_year":2025}},{"type":"Feature","id":"6880f525-362a-4c92-96df-afca3fd77868","geometry":{"type":"Point","coordinates":[-96.65554316073232,28.2559671075617]},"properties":{"substrate":"Firm/Hard Bottom","lease_number":null,"poll_year":2025}},{"type":"Feature","id":"68b2a8ad-52e2-45c7-bbb9-e214b1874be9","geometry":{"type":"Point","coordinates":[-96.6573610634065,28.255307107601098]},"properties":{"substrate":"Solid Reef","lease_number":null,"poll_year":2025}},{"type":"Feature","id":"691a565d-dc15-4d59-8c36-846a7acab06f","geometry":{"type":"Point","coordinates":[-96.65712291912638,28.254474937615704]},"properties":{"substrate":"Firm/Hard Bottom","lease_number":null,"poll_year":2025}},{"type":"Feature","id":"6a3c9ff4-1488-4088-b4d5-9209bdccbb78","geometry":{"type":"Point","coordinates":[-96.65713970504576,28.258118222536364]},"properties":{"substrate":"Mud","lease_number":null,"poll_year":2025}},{"type":"Feature","id":"6b86049c-2614-4a50-a6c7-aec8079bdfec","geometry":{"type":"Point","coordinates":[-96.65550945324792,28.25677394455636]},"properties":{"substrate":"Firm/Hard Bottom","lease_number":null,"poll_year":2025}},{"type":"Feature","id":"6cd6070e-1d26-4dcd-9cea-5d30f7c21100","geometry":{"type":"Point","coordinates":[-96.65488535858576,28.254697475835087]},"properties":{"substrate":"Mud","lease_number":null,"poll_year":2025}},{"type":"Feature","id":"6d342d4b-ec0a-4fa7-8626-a3c09374380c","geometry":{"type":"Point","coordinates":[-96.65758171838637,28.25546188546626]},"properties":{"substrate":"Solid Reef","lease_number":null,"poll_year":2025}},{"type":"Feature","id":"6dd39460-f4f1-43e2-8943-148c533f1c41","geometry":{"type":"Point","coordinates":[-96.65414378943726,28.257464806535292]},"properties":{"substrate":"Mud","lease_number":null,"poll_year":2025}},{"type":"Feature","id":"6e1e837c-22e0-4135-b406-1dca10a86893","geometry":{"type":"Point","coordinates":[-96.65653356231623,28.25430694622203]},"properties":{"substrate":"Firm/Hard Bottom","lease_number":null,"poll_year":2025}},{"type":"Feature","id":"7054152f-2a0a-40f5-9704-4c208513fd93","geometry":{"type":"Point","coordinates":[-96.6564805581212,28.25337782880667]},"properties":{"substrate":"Firm/Hard Bottom","lease_number":null,"poll_year":2025}},{"type":"Feature","id":"71103fd5-818f-401d-b822-a7a310258c60","geometry":{"type":"Point","coordinates":[-96.65506099988507,28.259135899662965]},"properties":{"substrate":"Mud","lease_number":null,"poll_year":2025}},{"type":"Feature","id":"7122e7c2-bfb4-492b-8686-7aedab457a32","geometry":{"type":"Point","coordinates":[-96.65703002254621,28.256247993397533]},"properties":{"substrate":"Solid Reef","lease_number":null,"poll_year":2025}},{"type":"Feature","id":"718da4a6-0a47-4b91-b8e1-c7350fbf60cb","geometry":{"type":"Point","coordinates":[-96.65489958161164,28.25545045230313]},"properties":{"substrate":"Firm/Hard Bottom","lease_number":null,"poll_year":2025}},{"type":"Feature","id":"782b9eaf-9fb1-45ce-acb1-3a05cf860900","geometry":{"type":"Point","coordinates":[-96.6563394166204,28.256120203015232]},"properties":{"substrate":"Firm/Hard Bottom","lease_number":null,"poll_year":2025}},{"type":"Feature","id":"7848a1c4-26b7-471b-8a45-f101c767cdb4","geometry":{"type":"Point","coordinates":[-96.65523579676798,28.255908000218994]},"properties":{"substrate":"Firm/Hard Bottom","lease_number":null,"poll_year":2025}},{"type":"Feature","id":"785a53f4-4f96-4753-b528-5dc60496b389","geometry":{"type":"Point","coordinates":[-96.65586054360705,28.25783653612629]},"properties":{"substrate":"Mud","lease_number":null,"poll_year":2025}},{"type":"Feature","id":"7b5ae2b9-775d-441c-b062-df8048e1130a","geometry":{"type":"Point","coordinates":[-96.65711425487545,28.254374120813548]},"properties":{"substrate":"Firm/Hard Bottom","lease_number":null,"poll_year":2025}},{"type":"Feature","id":"7ba78dc8-8c5e-44ff-bb89-eee0308f0832","geometry":{"type":"Point","coordinates":[-96.65637015247783,28.254738431831157]},"properties":{"substrate":"Firm/Hard Bottom","lease_number":null,"poll_year":2025}},{"type":"Feature","id":"7c62d7bd-fb29-4538-8cc7-7b0b9c242e38","geometry":{"type":"Point","coordinates":[-96.656696406216,28.25529879759686]},"properties":{"substrate":"Mud","lease_number":null,"poll_year":2025}},{"type":"Feature","id":"7f6085ac-d3ed-4cb4-a8e9-db39ccd6fef6","geometry":{"type":"Point","coordinates":[-96.65467900029364,28.258924499660043]},"properties":{"substrate":"Mud","lease_number":null,"poll_year":2025}},{"type":"Feature","id":"804f9d39-27d7-4f8b-94ce-3935f3c55c07","geometry":{"type":"Point","coordinates":[-96.65556422802237,28.254118187237033]},"properties":{"substrate":"Firm/Hard Bottom","lease_number":null,"poll_year":2025}},{"type":"Feature","id":"80c31f26-b24a-4ba8-b8ea-8b8cf18997f5","geometry":{"type":"Point","coordinates":[-96.65602838124148,28.257877040689916]},"properties":{"substrate":"Mud","lease_number":null,"poll_year":2025}},{"type":"Feature","id":"82007b98-a331-45ca-9c2d-ba4daad03bff","geometry":{"type":"Point","coordinates":[-96.65728917842084,28.254516135038898]},"properties":{"substrate":"Firm/Hard Bottom","lease_number":null,"poll_year":2025}},{"type":"Feature","id":"82ba7cbe-f914-425a-93b9-306523abe703","geometry":{"type":"Point","coordinates":[-96.65710237735077,28.254708891670724]},"properties":{"substrate":"Firm/Hard Bottom","lease_number":null,"poll_year":2025}},{"type":"Feature","id":"83a0d864-100b-456f-a6d3-58592b49c346","geometry":{"type":"Point","coordinates":[-96.65703794838196,28.25667790285727]},"properties":{"substrate":"Firm/Hard Bottom","lease_number":null,"poll_year":2025}},{"type":"Feature","id":"845b3857-eb08-4202-951c-901e82830b46","geometry":{"type":"Point","coordinates":[-96.65595961161321,28.257473774700816]},"properties":{"substrate":"Firm/Hard Bottom","lease_number":null,"poll_year":2025}},{"type":"Feature","id":"86d2f9a6-1a4b-4925-bd11-795264c1850c","geometry":{"type":"Point","coordinates":[-96.65692695344377,28.254416919044935]},"properties":{"substrate":"Firm/Hard Bottom","lease_number":null,"poll_year":2025}},{"type":"Feature","id":"88602e74-2c98-456b-af03-7d2fc9fbce81","geometry":{"type":"Point","coordinates":[-96.65493370142276,28.255848755953092]},"properties":{"substrate":"Mud","lease_number":null,"poll_year":2025}},{"type":"Feature","id":"897b7675-132d-481e-9972-582b8dd99df5","geometry":{"type":"Point","coordinates":[-96.65676259139119,28.254371155076758]},"properties":{"substrate":"Firm/Hard Bottom","lease_number":null,"poll_year":2025}},{"type":"Feature","id":"8a5f8f99-f695-4957-8f02-3bb939612e55","geometry":{"type":"Point","coordinates":[-96.6567048755325,28.25481473912665]},"properties":{"substrate":"Firm/Hard Bottom","lease_number":null,"poll_year":2025}},{"type":"Feature","id":"8afc3bf2-e089-4758-bf2f-20d88620c164","geometry":{"type":"Point","coordinates":[-96.65670889998496,28.260024099981354]},"properties":{"substrate":"Mud","lease_number":null,"poll_year":2025}},{"type":"Feature","id":"9407ef1b-e2bc-4b35-9c57-98daece9cdb0","geometry":{"type":"Point","coordinates":[-96.65476538318967,28.25756663085554]},"properties":{"substrate":"Mud","lease_number":null,"poll_year":2025}},{"type":"Feature","id":"9587f4ba-8190-41b3-a9a8-755451376332","geometry":{"type":"Point","coordinates":[-96.65616671820197,28.254211650066054]},"properties":{"substrate":"Firm/Hard Bottom","lease_number":null,"poll_year":2025}},{"type":"Feature","id":"959ac434-df7a-44a3-ac5d-2ef2c1b6cbf3","geometry":{"type":"Point","coordinates":[-96.6546379859127,28.256292208834164]},"properties":{"substrate":"Firm/Hard Bottom","lease_number":null,"poll_year":2025}},{"type":"Feature","id":"972b4b30-6229-4744-8e6b-4e7744b0b2ea","geometry":{"type":"Point","coordinates":[-96.65679596560061,28.25663861955635]},"properties":{"substrate":"Firm/Hard Bottom","lease_number":null,"poll_year":2025}},{"type":"Feature","id":"976a0051-418f-40f3-9419-4a9da7ee8488","geometry":{"type":"Point","coordinates":[-96.65467403440674,28.25477340730087]},"properties":{"substrate":"Mud","lease_number":null,"poll_year":2025}},{"type":"Feature","id":"99c63cfd-c547-434e-9a7f-9c1de3ae0e34","geometry":{"type":"Point","coordinates":[-96.6568989143288,28.254670431369775]},"properties":{"substrate":"Firm/Hard Bottom","lease_number":null,"poll_year":2025}},{"type":"Feature","id":"9a6d6c32-7083-4dbe-ba99-3921a9227334","geometry":{"type":"Point","coordinates":[-96.65649735482039,28.25566421244919]},"properties":{"substrate":"Firm/Hard Bottom","lease_number":null,"poll_year":2025}},{"type":"Feature","id":"9ae2a9c3-2e2e-41ea-a49c-a48dc6c76914","geometry":{"type":"Point","coordinates":[-96.65721106900857,28.255391438836007]},"properties":{"substrate":"Solid Reef","lease_number":null,"poll_year":2025}},{"type":"Feature","id":"9bb83a6a-48bc-4f27-bc28-9b991b36c0e6","geometry":{"type":"Point","coordinates":[-96.6567018607864,28.253686385766724]},"properties":{"substrate":"Firm/Hard Bottom","lease_number":null,"poll_year":2025}},{"type":"Feature","id":"9c3d1f0c-ae7f-41cf-ad68-75a14bbd7302","geometry":{"type":"Point","coordinates":[-96.6565291291303,28.253664868999913]},"properties":{"substrate":"Firm/Hard Bottom","lease_number":null,"poll_year":2025}},{"type":"Feature","id":"9d1b8302-443c-48ad-b548-eed87e8ef7be","geometry":{"type":"Point","coordinates":[-96.65404710016995,28.258577300364667]},"properties":{"substrate":"Mud","lease_number":null,"poll_year":2025}},{"type":"Feature","id":"9f5cae81-f318-47da-996b-2de59d6d89ce","geometry":{"type":"Point","coordinates":[-96.65765393485037,28.254822146316076]},"properties":{"substrate":"Firm/Hard Bottom","lease_number":null,"poll_year":2025}},{"type":"Feature","id":"9fc92c09-6d69-4101-80d7-4df205077ef0","geometry":{"type":"Point","coordinates":[-96.65749468511007,28.25769717467298]},"properties":{"substrate":"Firm/Hard Bottom","lease_number":null,"poll_year":2025}},{"type":"Feature","id":"a2ba9e65-4ef6-4138-a5df-9aefa6fdf7fe","geometry":{"type":"Point","coordinates":[-96.65669684010227,28.255174041423828]},"properties":{"substrate":"Firm/Hard Bottom","lease_number":null,"poll_year":2025}},{"type":"Feature","id":"a4e7c656-9fb8-44ea-8be7-3471716ae8ea","geometry":{"type":"Point","coordinates":[-96.6568065549412,28.253148122663575]},"properties":{"substrate":"Firm/Hard Bottom","lease_number":null,"poll_year":2025}},{"type":"Feature","id":"a5216c9c-7669-46d5-af5a-a907560f1f7b","geometry":{"type":"Point","coordinates":[-96.65561001245746,28.254564653403563]},"properties":{"substrate":"Firm/Hard Bottom","lease_number":null,"poll_year":2025}},{"type":"Feature","id":"a616ee01-141c-4650-8925-cdad3a611579","geometry":{"type":"Point","coordinates":[-96.65683738961332,28.254343606479896]},"properties":{"substrate":"Firm/Hard Bottom","lease_number":null,"poll_year":2025}},{"type":"Feature","id":"aa19a455-4d51-4f98-91b1-2c9b91cbe005","geometry":{"type":"Point","coordinates":[-96.65596585849771,28.254477338372542]},"properties":{"substrate":"Firm/Hard Bottom","lease_number":null,"poll_year":2025}},{"type":"Feature","id":"ab9cf805-6790-4726-87a1-0f5580aa9a6f","geometry":{"type":"Point","coordinates":[-96.65627537213052,28.253348640394563]},"properties":{"substrate":"Firm/Hard Bottom","lease_number":null,"poll_year":2025}},{"type":"Feature","id":"abc50006-60f8-4c6f-9899-22b2e6e69748","geometry":{"type":"Point","coordinates":[-96.65667829528154,28.255695078522386]},"properties":{"substrate":"Firm/Hard Bottom","lease_number":null,"poll_year":2025}},{"type":"Feature","id":"abcd31a5-b8d8-4f06-925d-0d9c4d04fc4d","geometry":{"type":"Point","coordinates":[-96.65759147588697,28.25677325219742]},"properties":{"substrate":"Firm/Hard Bottom","lease_number":null,"poll_year":2025}},{"type":"Feature","id":"abd5644d-f3e0-4d07-b5aa-04e3a741d4ba","geometry":{"type":"Point","coordinates":[-96.65620072213042,28.257917587174877]},"properties":{"substrate":"Mud","lease_number":null,"poll_year":2025}},{"type":"Feature","id":"abed41c1-bac5-49b2-9950-459f10c9de3a","geometry":{"type":"Point","coordinates":[-96.65765739066927,28.253575379555443]},"properties":{"substrate":"Firm/Hard Bottom","lease_number":null,"poll_year":2025}},{"type":"Feature","id":"ad61be9d-595a-4db7-a08f-d336a4ade7a1","geometry":{"type":"Point","coordinates":[-96.65672525022144,28.25341573646064]},"properties":{"substrate":"Firm/Hard Bottom","lease_number":null,"poll_year":2025}},{"type":"Feature","id":"ad776c3e-ad1b-4962-a2ce-df999095a3c6","geometry":{"type":"Point","coordinates":[-96.65533043787643,28.257036493066256]},"properties":{"substrate":"Firm/Hard Bottom","lease_number":null,"poll_year":2025}},{"type":"Feature","id":"b0d7e6c2-c4d8-4546-a34d-25af3a4b1fe1","geometry":{"type":"Point","coordinates":[-96.65650139813748,28.2561492624825]},"properties":{"substrate":"Firm/Hard Bottom","lease_number":null,"poll_year":2025}},{"type":"Feature","id":"b1e5bf80-1982-4e09-ae96-1d151b62c889","geometry":{"type":"Point","coordinates":[-96.65764416746829,28.257269427891135]},"properties":{"substrate":"Firm/Hard Bottom","lease_number":null,"poll_year":2025}},{"type":"Feature","id":"b1f177e6-4fc3-4ef3-8636-90d07aaab6ed","geometry":{"type":"Point","coordinates":[-96.6576864385923,28.254442445890618]},"properties":{"substrate":"Firm/Hard Bottom","lease_number":null,"poll_year":2025}},{"type":"Feature","id":"b291d8e4-8ec7-497f-8347-9843cf627371","geometry":{"type":"Point","coordinates":[-96.65521164915482,28.255029005384166]},"properties":{"substrate":"Firm/Hard Bottom","lease_number":null,"poll_year":2025}},{"type":"Feature","id":"b37068b4-7955-49f8-86a0-6daeb03c7c37","geometry":{"type":"Point","coordinates":[-96.65503560541029,28.254994542748104]},"properties":{"substrate":"Firm/Hard Bottom","lease_number":null,"poll_year":2025}},{"type":"Feature","id":"b48ad035-8ceb-4a37-9990-57d7042d180b","geometry":{"type":"Point","coordinates":[-96.65595505535809,28.256053875394432]},"properties":{"substrate":"Firm/Hard Bottom","lease_number":null,"poll_year":2025}},{"type":"Feature","id":"b49f14f3-7ba5-48b4-acff-18bbff341e8c","geometry":{"type":"Point","coordinates":[-96.65525340913744,28.2554860629346]},"properties":{"substrate":"Firm/Hard Bottom","lease_number":null,"poll_year":2025}},{"type":"Feature","id":"b517b474-5088-415c-b891-62ce80026141","geometry":{"type":"Point","coordinates":[-96.65534484775189,28.256729389865715]},"properties":{"substrate":"Firm/Hard Bottom","lease_number":null,"poll_year":2025}},{"type":"Feature","id":"b6990187-4e42-4d3e-a4fd-911a2e5e34c3","geometry":{"type":"Point","coordinates":[-96.65680149832446,28.25285580392345]},"properties":{"substrate":"Firm/Hard Bottom","lease_number":null,"poll_year":2025}},{"type":"Feature","id":"b710ae7c-b565-45a8-a705-1c6aebd3599d","geometry":{"type":"Point","coordinates":[-96.65579295436507,28.256022152476547]},"properties":{"substrate":"Firm/Hard Bottom","lease_number":null,"poll_year":2025}},{"type":"Feature","id":"b728b6ef-807e-44a6-a67c-34b385e9cf2d","geometry":{"type":"Point","coordinates":[-96.65687319286728,28.254851286056606]},"properties":{"substrate":"Firm/Hard Bottom","lease_number":null,"poll_year":2025}},{"type":"Feature","id":"b8fac9cc-f359-45a3-b0b4-377b9370da58","geometry":{"type":"Point","coordinates":[-96.65372239961894,28.258146600186585]},"properties":{"substrate":"Firm/Hard Bottom","lease_number":null,"poll_year":2025}},{"type":"Feature","id":"b900e187-35fc-4a0e-9eda-0dbdc08eec97","geometry":{"type":"Point","coordinates":[-96.65684519956639,28.26009479991272]},"properties":{"substrate":"Mud","lease_number":null,"poll_year":2025}},{"type":"Feature","id":"b9175edd-92b2-4b4f-ba27-3eacdd1b7f72","geometry":{"type":"Point","coordinates":[-96.65568936783303,28.257138259242048]},"properties":{"substrate":"Firm/Hard Bottom","lease_number":null,"poll_year":2025}},{"type":"Feature","id":"b97f8092-a9d6-40e9-8352-ae229d196b4f","geometry":{"type":"Point","coordinates":[-96.65753053777138,28.255118324274687]},"properties":{"substrate":"Solid Reef","lease_number":null,"poll_year":2025}},{"type":"Feature","id":"b983be32-e554-43d6-bd8c-a581cb3b4c0f","geometry":{"type":"Point","coordinates":[-96.65737855270677,28.25321634644945]},"properties":{"substrate":"Firm/Hard Bottom","lease_number":null,"poll_year":2025}},{"type":"Feature","id":"b9d49f19-c94b-48be-8017-cf2b2bb45415","geometry":{"type":"Point","coordinates":[-96.65762635297789,28.253812420821546]},"properties":{"substrate":"Firm/Hard Bottom","lease_number":null,"poll_year":2025}},{"type":"Feature","id":"bb5839f9-7fcc-4bcd-b417-923aabad93d5","geometry":{"type":"Point","coordinates":[-96.655031074308,28.256950980981237]},"properties":{"substrate":"Firm/Hard Bottom","lease_number":null,"poll_year":2025}},{"type":"Feature","id":"bdf524bb-c70c-431e-b279-ae06b2cd314a","geometry":{"type":"Point","coordinates":[-96.65556451907653,28.254820821710297]},"properties":{"substrate":"Firm/Hard Bottom","lease_number":null,"poll_year":2025}},{"type":"Feature","id":"bf0a6429-766e-44fe-a294-4c15075d89b1","geometry":{"type":"Point","coordinates":[-96.65727196041178,28.253756775759474]},"properties":{"substrate":"Firm/Hard Bottom","lease_number":null,"poll_year":2025}},{"type":"Feature","id":"bf804d63-a83e-436f-8f7d-a645394f99e8","geometry":{"type":"Point","coordinates":[-96.657046556039,28.255360879690695]},"properties":{"substrate":"Solid Reef","lease_number":null,"poll_year":2025}},{"type":"Feature","id":"bf98d867-5226-4421-b6f9-e899a1e7ffab","geometry":{"type":"Point","coordinates":[-96.6575684080488,28.25442721128626]},"properties":{"substrate":"Firm/Hard Bottom","lease_number":null,"poll_year":2025}},{"type":"Feature","id":"c0795234-8b12-4e7b-acff-5a070c31b95f","geometry":{"type":"Point","coordinates":[-96.6548432841928,28.25632446261432]},"properties":{"substrate":"Firm/Hard Bottom","lease_number":null,"poll_year":2025}},{"type":"Feature","id":"c14f9047-5344-4c99-91f2-d3de77753042","geometry":{"type":"Point","coordinates":[-96.6570979244019,28.25715307250624]},"properties":{"substrate":"Firm/Hard Bottom","lease_number":null,"poll_year":2025}},{"type":"Feature","id":"c2a9e15d-ca56-4c12-883d-d32af3337a66","geometry":{"type":"Point","coordinates":[-96.65725598477277,28.254392089315232]},"properties":{"substrate":"Firm/Hard Bottom","lease_number":null,"poll_year":2025}},{"type":"Feature","id":"c2edcfd3-67ed-46ce-b87d-ab47d89fc5d9","geometry":{"type":"Point","coordinates":[-96.65606493638533,28.255182898211704]},"properties":{"substrate":"Firm/Hard Bottom","lease_number":null,"poll_year":2025}},{"type":"Feature","id":"c46fc664-28b7-47db-814d-d35448ea2d3f","geometry":{"type":"Point","coordinates":[-96.6542008567123,28.25648273087474]},"properties":{"substrate":"Firm/Hard Bottom","lease_number":null,"poll_year":2025}},{"type":"Feature","id":"c657eb06-592e-4e57-ac16-2001ff4798df","geometry":{"type":"Point","coordinates":[-96.65423628357216,28.25685463638651]},"properties":{"substrate":"Firm/Hard Bottom","lease_number":null,"poll_year":2025}},{"type":"Feature","id":"c97fdbff-7b11-4dee-b6c8-8c1571aadf3d","geometry":{"type":"Point","coordinates":[-96.65396351732267,28.256798761862285]},"properties":{"substrate":"Firm/Hard Bottom","lease_number":null,"poll_year":2025}},{"type":"Feature","id":"c9befe41-afc2-4d6c-a27e-5e7bde84c07b","geometry":{"type":"Point","coordinates":[-96.65748413978694,28.25378994424606]},"properties":{"substrate":"Firm/Hard Bottom","lease_number":null,"poll_year":2025}},{"type":"Feature","id":"cbb62877-db30-4f09-84ac-4c5c20fcb27d","geometry":{"type":"Point","coordinates":[-96.65676858495075,28.25404736306603]},"properties":{"substrate":"Firm/Hard Bottom","lease_number":null,"poll_year":2025}},{"type":"Feature","id":"cc3455b9-15bc-4426-a6b6-5ac988b9e379","geometry":{"type":"Point","coordinates":[-96.65510420615527,28.257348323970326]},"properties":{"substrate":"Mud","lease_number":null,"poll_year":2025}},{"type":"Feature","id":"ccd9f0ff-11dd-46e9-9f54-1f9a703255fa","geometry":{"type":"Point","coordinates":[-96.65662033597943,28.25660849913133]},"properties":{"substrate":"Solid Reef","lease_number":null,"poll_year":2025}},{"type":"Feature","id":"ce6d92b8-4779-42e0-82ae-c8eff573940a","geometry":{"type":"Point","coordinates":[-96.65632440038212,28.259819299930033]},"properties":{"substrate":"Mud","lease_number":null,"poll_year":2025}},{"type":"Feature","id":"d0876139-edc4-43c0-b636-f6ac4761416d","geometry":{"type":"Point","coordinates":[-96.65714514883639,28.255066790593926]},"properties":{"substrate":"Solid Reef","lease_number":null,"poll_year":2025}},{"type":"Feature","id":"d0dd30bb-3e41-4171-9e7c-b3fff32eb6c9","geometry":{"type":"Point","coordinates":[-96.65627831141813,28.255228346111185]},"properties":{"substrate":"Firm/Hard Bottom","lease_number":null,"poll_year":2025}},{"type":"Feature","id":"d36d4a72-c19a-444a-ac3d-766187df73c1","geometry":{"type":"Point","coordinates":[-96.65518110643517,28.256684608853803]},"properties":{"substrate":"Firm/Hard Bottom","lease_number":null,"poll_year":2025}},{"type":"Feature","id":"d3c744b0-b0dc-4c91-ad0e-f2d990f14f52","geometry":{"type":"Point","coordinates":[-96.6575824612931,28.256333585173536]},"properties":{"substrate":"Solid Reef","lease_number":null,"poll_year":2025}},{"type":"Feature","id":"d554f5cd-1236-4ff6-a08d-3ab29215e4aa","geometry":{"type":"Point","coordinates":[-96.65443244868075,28.257242534418424]},"properties":{"substrate":"Mud","lease_number":null,"poll_year":2025}},{"type":"Feature","id":"d5a47bc9-f2da-4ade-b574-17b1bca35cd8","geometry":{"type":"Point","coordinates":[-96.65393764314753,28.25718952684792]},"properties":{"substrate":"Mud","lease_number":null,"poll_year":2025}},{"type":"Feature","id":"d65a4fa4-5e66-4b3e-9fe6-1cac044a2757","geometry":{"type":"Point","coordinates":[-96.65589796203189,28.253876096645413]},"properties":{"substrate":"Firm/Hard Bottom","lease_number":null,"poll_year":2025}},{"type":"Feature","id":"d66a3771-b353-4d03-88b2-46e232e8ed33","geometry":{"type":"Point","coordinates":[-96.65560088287923,28.254907790670106]},"properties":{"substrate":"Firm/Hard Bottom","lease_number":null,"poll_year":2025}},{"type":"Feature","id":"d7a60bce-c263-4674-bfdf-0645090abd29","geometry":{"type":"Point","coordinates":[-96.65665218484949,28.254993368487764]},"properties":{"substrate":"Firm/Hard Bottom","lease_number":null,"poll_year":2025}},{"type":"Feature","id":"d84b754a-b43b-42b9-bd5a-8fbc8d3c6af9","geometry":{"type":"Point","coordinates":[-96.65629328543561,28.255088984413337]},"properties":{"substrate":"Firm/Hard Bottom","lease_number":null,"poll_year":2025}},{"type":"Feature","id":"d94d343d-28b7-443c-987f-a7d5914bd348","geometry":{"type":"Point","coordinates":[-96.65762190002903,28.260507899798565]},"properties":{"substrate":"Mud","lease_number":null,"poll_year":2025}},{"type":"Feature","id":"da18240f-5699-4cc6-af66-bbbf112ce62e","geometry":{"type":"Point","coordinates":[-96.65527967048646,28.25736572859152]},"properties":{"substrate":"Mud","lease_number":null,"poll_year":2025}},{"type":"Feature","id":"da93c961-6a6c-404f-bc64-96155af2e9bf","geometry":{"type":"Point","coordinates":[-96.65734291564114,28.254965177531698]},"properties":{"substrate":"Firm/Hard Bottom","lease_number":null,"poll_year":2025}},{"type":"Feature","id":"daea8368-d0bc-4100-8199-16c0ad946db8","geometry":{"type":"Point","coordinates":[-96.65591069565104,28.25688384520294]},"properties":{"substrate":"Firm/Hard Bottom","lease_number":null,"poll_year":2025}},{"type":"Feature","id":"db2c1c3a-1978-47fa-81a1-e51b580b0bf9","geometry":{"type":"Point","coordinates":[-96.65757823651631,28.255010086662043]},"properties":{"substrate":"Solid Reef","lease_number":null,"poll_year":2025}},{"type":"Feature","id":"dd3c2b0f-ba7f-4d9c-96f4-907c279674fc","geometry":{"type":"Point","coordinates":[-96.65693573806894,28.25522081946686]},"properties":{"substrate":"Firm/Hard Bottom","lease_number":null,"poll_year":2025}},{"type":"Feature","id":"dee08106-a678-44b0-8e89-3fca3613b706","geometry":{"type":"Point","coordinates":[-96.65697726718452,28.252534804551907]},"properties":{"substrate":"Firm/Hard Bottom","lease_number":null,"poll_year":2025}},{"type":"Feature","id":"dffcf794-7c2e-44dc-a5fc-d997ef86fa73","geometry":{"type":"Point","coordinates":[-96.65665637279535,28.257057349237368]},"properties":{"substrate":"Firm/Hard Bottom","lease_number":null,"poll_year":2025}},{"type":"Feature","id":"e03c9c2c-a0d2-4353-858f-20df719b2333","geometry":{"type":"Point","coordinates":[-96.65659522447397,28.253118377908557]},"properties":{"substrate":"Firm/Hard Bottom","lease_number":null,"poll_year":2025}},{"type":"Feature","id":"e1d3f352-8094-4914-bd39-09aa391de19a","geometry":{"type":"Point","coordinates":[-96.65660199238131,28.257563069387658]},"properties":{"substrate":"Firm/Hard Bottom","lease_number":null,"poll_year":2025}},{"type":"Feature","id":"e24e63d7-49f5-41b0-8911-451b49bb672e","geometry":{"type":"Point","coordinates":[-96.65518758239006,28.254762357835823]},"properties":{"substrate":"Firm/Hard Bottom","lease_number":null,"poll_year":2025}},{"type":"Feature","id":"e2bb966a-1575-4365-aaf1-0142e4cce9b8","geometry":{"type":"Point","coordinates":[-96.65709615292415,28.253739039789924]},"properties":{"substrate":"Firm/Hard Bottom","lease_number":null,"poll_year":2025}},{"type":"Feature","id":"e32b63b1-ed80-434d-b7a8-a9568f60765f","geometry":{"type":"Point","coordinates":[-96.65735757973982,28.25509280787747]},"properties":{"substrate":"Solid Reef","lease_number":null,"poll_year":2025}},{"type":"Feature","id":"e462a7aa-b9af-4faa-b3b1-98b99bbcfe0f","geometry":{"type":"Point","coordinates":[-96.657404056776,28.254406076859595]},"properties":{"substrate":"Firm/Hard Bottom","lease_number":null,"poll_year":2025}},{"type":"Feature","id":"e4d1f618-634b-4918-a9d5-eb4ab36e46f9","geometry":{"type":"Point","coordinates":[-96.65636430444535,28.2542643853323]},"properties":{"substrate":"Firm/Hard Bottom","lease_number":null,"poll_year":2025}},{"type":"Feature","id":"e4db47ae-ee9f-4cef-817a-00f913e5c9bc","geometry":{"type":"Point","coordinates":[-96.65614822997512,28.25608479990897]},"properties":{"substrate":"Firm/Hard Bottom","lease_number":null,"poll_year":2025}},{"type":"Feature","id":"e5bac77f-a695-4d72-ad11-abc7fb4b7263","geometry":{"type":"Point","coordinates":[-96.65411354765321,28.256210051143423]},"properties":{"substrate":"Firm/Hard Bottom","lease_number":null,"poll_year":2025}},{"type":"Feature","id":"e689b31d-45df-4870-8551-33f38dd49de2","geometry":{"type":"Point","coordinates":[-96.65569478916576,28.25554726502]},"properties":{"substrate":"Firm/Hard Bottom","lease_number":null,"poll_year":2025}},{"type":"Feature","id":"e726318c-dcf9-4781-b8d2-feaf40ac133e","geometry":{"type":"Point","coordinates":[-96.65613877161348,28.254690744392523]},"properties":{"substrate":"Firm/Hard Bottom","lease_number":null,"poll_year":2025}},{"type":"Feature","id":"e8093b59-5791-4a4e-8478-8f7e91fa4f16","geometry":{"type":"Point","coordinates":[-96.6572008497739,28.25319361257775]},"properties":{"substrate":"Firm/Hard Bottom","lease_number":null,"poll_year":2025}},{"type":"Feature","id":"e8909e96-7841-4dd5-8966-c976d12c86a8","geometry":{"type":"Point","coordinates":[-96.65622995330976,28.254925013695114]},"properties":{"substrate":"Firm/Hard Bottom","lease_number":null,"poll_year":2025}},{"type":"Feature","id":"e904d8d2-6f31-4884-9b97-09dbdd059da4","geometry":{"type":"Point","coordinates":[-96.65576758773808,28.254608004665567]},"properties":{"substrate":"Firm/Hard Bottom","lease_number":null,"poll_year":2025}},{"type":"Feature","id":"e9b77586-7546-4d1d-9e72-b64385a2a35e","geometry":{"type":"Point","coordinates":[-96.65744460133803,28.254780796293687]},"properties":{"substrate":"Firm/Hard Bottom","lease_number":null,"poll_year":2025}},{"type":"Feature","id":"ea92bf60-e994-45e8-a927-c09fc6ad0dc4","geometry":{"type":"Point","coordinates":[-96.65547689381046,28.255515027621534]},"properties":{"substrate":"Firm/Hard Bottom","lease_number":null,"poll_year":2025}},{"type":"Feature","id":"eb20eae5-e1ea-473b-acda-89765ae7609f","geometry":{"type":"Point","coordinates":[-96.65609767907912,28.2556051389634]},"properties":{"substrate":"Firm/Hard Bottom","lease_number":null,"poll_year":2025}},{"type":"Feature","id":"eb35ba4c-08ab-4ee6-ab99-cfe886140483","geometry":{"type":"Point","coordinates":[-96.65476876444839,28.25693039698488]},"properties":{"substrate":"Firm/Hard Bottom","lease_number":null,"poll_year":2025}},{"type":"Feature","id":"eb59deb2-9ce8-45f1-b542-6bb9085f67e2","geometry":{"type":"Point","coordinates":[-96.65448979982344,28.256867859244203]},"properties":{"substrate":"Firm/Hard Bottom","lease_number":null,"poll_year":2025}},{"type":"Feature","id":"ecdddd75-cbcd-4ffc-8656-b358a0fce683","geometry":{"type":"Point","coordinates":[-96.65744913783023,28.25455637261895]},"properties":{"substrate":"Firm/Hard Bottom","lease_number":null,"poll_year":2025}},{"type":"Feature","id":"ede62447-bfd9-451f-b30b-19deea457aaa","geometry":{"type":"Point","coordinates":[-96.65628177981345,28.256974816285034]},"properties":{"substrate":"Firm/Hard Bottom","lease_number":null,"poll_year":2025}},{"type":"Feature","id":"ee7ae4c0-b1ce-47cf-a302-40b3c41f963c","geometry":{"type":"Point","coordinates":[-96.6572692690592,28.257190600593525]},"properties":{"substrate":"Firm/Hard Bottom","lease_number":null,"poll_year":2025}},{"type":"Feature","id":"efc7b4c1-8a3c-4d73-bff4-14a55311e08d","geometry":{"type":"Point","coordinates":[-96.65714971407466,28.252903096534784]},"properties":{"substrate":"Firm/Hard Bottom","lease_number":null,"poll_year":2025}},{"type":"Feature","id":"f2f2895e-ff85-4024-9664-fb527eb1f835","geometry":{"type":"Point","coordinates":[-96.65733087641969,28.252581542605416]},"properties":{"substrate":"Firm/Hard Bottom","lease_number":null,"poll_year":2025}},{"type":"Feature","id":"f429b336-2683-4b4b-8ab1-91238ede38be","geometry":{"type":"Point","coordinates":[-96.65591372746513,28.25557848087115]},"properties":{"substrate":"Firm/Hard Bottom","lease_number":null,"poll_year":2025}},{"type":"Feature","id":"f575e393-adc8-40a4-9b7d-c99618eae0e6","geometry":{"type":"Point","coordinates":[-96.65507227733512,28.25584303187533]},"properties":{"substrate":"Mud","lease_number":null,"poll_year":2025}},{"type":"Feature","id":"f5ab9932-1a41-4953-b768-5a76f4624694","geometry":{"type":"Point","coordinates":[-96.65446298690884,28.256261298622675]},"properties":{"substrate":"Firm/Hard Bottom","lease_number":null,"poll_year":2025}},{"type":"Feature","id":"f84415eb-9fdf-420b-8b43-9f95b0175015","geometry":{"type":"Point","coordinates":[-96.65641410614639,28.253094200694548]},"properties":{"substrate":"Firm/Hard Bottom","lease_number":null,"poll_year":2025}},{"type":"Feature","id":"f90efe0f-af6b-40d6-b320-1d7b8f75c0e6","geometry":{"type":"Point","coordinates":[-96.6564065198738,28.25796974298921]},"properties":{"substrate":"Mud","lease_number":null,"poll_year":2025}},{"type":"Feature","id":"f9389bfb-5313-436e-a5d6-58c3ebbab967","geometry":{"type":"Point","coordinates":[-96.6569785652501,28.25287901897527]},"properties":{"substrate":"Firm/Hard Bottom","lease_number":null,"poll_year":2025}},{"type":"Feature","id":"fa3e54ca-2c7e-41e4-9e94-9a46c63703d6","geometry":{"type":"Point","coordinates":[-96.65641921037383,28.25281463038886]},"properties":{"substrate":"Firm/Hard Bottom","lease_number":null,"poll_year":2025}},{"type":"Feature","id":"fb546bbb-3529-4d87-aeaf-ae8c354a6640","geometry":{"type":"Point","coordinates":[-96.65709310044883,28.260229000126884]},"properties":{"substrate":"Mud","lease_number":null,"poll_year":2025}},{"type":"Feature","id":"ff30b024-6629-42c2-8f46-6947526d95b9","geometry":{"type":"Point","coordinates":[-96.65519629964157,28.25920840027557]},"properties":{"substrate":"Mud","lease_number":null,"poll_year":2025}},{"type":"Feature","id":"ffc43390-c969-4db6-b8bf-3ec96808afc1","geometry":{"type":"Point","coordinates":[-96.65635335038877,28.25753341290321]},"properties":{"substrate":"Firm/Hard Bottom","lease_number":null,"poll_year":2025}}]}