{"type":"FeatureCollection","features":[{"type":"Feature","id":"002af413-cc9d-4626-8df5-e97c1eb976de","geometry":{"type":"Point","coordinates":[-96.63428705649454,28.677491185417395]},"properties":{"substrate":"Mud","lease_number":null,"poll_year":2025}},{"type":"Feature","id":"130dc1fc-3454-4de3-9e47-9d9e448dd6bc","geometry":{"type":"Point","coordinates":[-96.63227824565283,28.67967203994482]},"properties":{"substrate":"Mud","lease_number":null,"poll_year":2025}},{"type":"Feature","id":"14067d6b-6c45-4062-a0ef-d2283d28df67","geometry":{"type":"Point","coordinates":[-96.6334815560439,28.678228107982815]},"properties":{"substrate":"Mud","lease_number":null,"poll_year":2025}},{"type":"Feature","id":"1cb3eae5-9357-46ed-9670-df9bcf42428c","geometry":{"type":"Point","coordinates":[-96.6329310756243,28.67922991739658]},"properties":{"substrate":"Mud","lease_number":null,"poll_year":2025}},{"type":"Feature","id":"1d17928d-2f4e-45e6-a915-1d2a31465668","geometry":{"type":"Point","coordinates":[-96.6348944460857,28.677864191650517]},"properties":{"substrate":"Mud","lease_number":null,"poll_year":2025}},{"type":"Feature","id":"1f38429a-44ed-4c8e-9174-1aff05f00d87","geometry":{"type":"Point","coordinates":[-96.63192799342185,28.678696467142405]},"properties":{"substrate":"Mud","lease_number":null,"poll_year":2025}},{"type":"Feature","id":"1fac3354-298d-41bc-b919-e20556d90ce2","geometry":{"type":"Point","coordinates":[-96.63385884576829,28.67803554070971]},"properties":{"substrate":"Mud","lease_number":null,"poll_year":2025}},{"type":"Feature","id":"2127ed37-e8eb-4d6f-876b-c518ec923f2a","geometry":{"type":"Point","coordinates":[-96.63201849599179,28.679856277087794]},"properties":{"substrate":"Mud","lease_number":null,"poll_year":2025}},{"type":"Feature","id":"274c68bf-d266-48ad-a52a-79156594f776","geometry":{"type":"Point","coordinates":[-96.63215587444988,28.678924365863146]},"properties":{"substrate":"Mud","lease_number":null,"poll_year":2025}},{"type":"Feature","id":"286401c5-2210-48ef-953d-2d3a2f92b075","geometry":{"type":"Point","coordinates":[-96.63313884606806,28.678416914799342]},"properties":{"substrate":"Mud","lease_number":null,"poll_year":2025}},{"type":"Feature","id":"2ad358f8-aa4b-47d1-af28-2348f8e38b0f","geometry":{"type":"Point","coordinates":[-96.63455368814897,28.678107161798543]},"properties":{"substrate":"Mud","lease_number":null,"poll_year":2025}},{"type":"Feature","id":"2c167b19-a729-4f32-9b1a-a00ac5afa075","geometry":{"type":"Point","coordinates":[-96.63120110005015,28.67909745964232]},"properties":{"substrate":"Mud","lease_number":null,"poll_year":2025}},{"type":"Feature","id":"37697f33-1777-4df2-a1ad-2ed79d25fada","geometry":{"type":"Point","coordinates":[-96.63406847482635,28.6779168924611]},"properties":{"substrate":"Mud","lease_number":null,"poll_year":2025}},{"type":"Feature","id":"4311f038-ab2a-4740-8f22-0cf5bf5b7509","geometry":{"type":"Point","coordinates":[-96.63472531577558,28.677984416197873]},"properties":{"substrate":"Mud","lease_number":null,"poll_year":2025}},{"type":"Feature","id":"465f5af9-a16d-436c-9afc-f343e7d4ef26","geometry":{"type":"Point","coordinates":[-96.6337424214125,28.677759503987716]},"properties":{"substrate":"Mud","lease_number":null,"poll_year":2025}},{"type":"Feature","id":"48d009f6-c926-41be-9082-0a0cd31ab15e","geometry":{"type":"Point","coordinates":[-96.63283108684497,28.678578242860212]},"properties":{"substrate":"Mud","lease_number":null,"poll_year":2025}},{"type":"Feature","id":"4d28f5dd-eb9a-447e-8bef-9a69716589fe","geometry":{"type":"Point","coordinates":[-96.63315300441523,28.67806218937817]},"properties":{"substrate":"Mud","lease_number":null,"poll_year":2025}},{"type":"Feature","id":"4fd4086f-0f50-4ec7-bb84-c198baaa267d","geometry":{"type":"Point","coordinates":[-96.63445786036604,28.67739468047298]},"properties":{"substrate":"Mud","lease_number":null,"poll_year":2025}},{"type":"Feature","id":"509446d7-d41b-496e-8683-1df38204be43","geometry":{"type":"Point","coordinates":[-96.63528665503031,28.677596888450026]},"properties":{"substrate":"Mud","lease_number":null,"poll_year":2025}},{"type":"Feature","id":"5198c553-3a3f-49ca-975d-288118581bd3","geometry":{"type":"Point","coordinates":[-96.63393081789052,28.677656803863865]},"properties":{"substrate":"Mud","lease_number":null,"poll_year":2025}},{"type":"Feature","id":"5331a147-a709-4c51-a3a8-92533028d226","geometry":{"type":"Point","coordinates":[-96.6335856986331,28.67878152747995]},"properties":{"substrate":"Mud","lease_number":null,"poll_year":2025}},{"type":"Feature","id":"541b0c2c-7fe2-433e-932e-e2838296f029","geometry":{"type":"Point","coordinates":[-96.63508680593074,28.67737593415516]},"properties":{"substrate":"Mud","lease_number":null,"poll_year":2025}},{"type":"Feature","id":"5f81adbf-2007-4285-a81c-47eaa1dcce07","geometry":{"type":"Point","coordinates":[-96.63190276693206,28.679057805035033]},"properties":{"substrate":"Mud","lease_number":null,"poll_year":2025}},{"type":"Feature","id":"5fc61228-47b3-4054-9abc-66ac6917a707","geometry":{"type":"Point","coordinates":[-96.63172121831144,28.680064822972877]},"properties":{"substrate":"Mud","lease_number":null,"poll_year":2025}},{"type":"Feature","id":"621bfe92-22be-407b-98bb-f655bc168f17","geometry":{"type":"Point","coordinates":[-96.6314038228603,28.67897477509859]},"properties":{"substrate":"Mud","lease_number":null,"poll_year":2025}},{"type":"Feature","id":"6534ae22-c814-4881-8040-1895da3d79f5","geometry":{"type":"Point","coordinates":[-96.6322466060902,28.67853178504458]},"properties":{"substrate":"Mud","lease_number":null,"poll_year":2025}},{"type":"Feature","id":"6a7bf625-0381-4418-a1b2-c71dbd31c040","geometry":{"type":"Point","coordinates":[-96.63332441644619,28.67831154045088]},"properties":{"substrate":"Mud","lease_number":null,"poll_year":2025}},{"type":"Feature","id":"6e3dc5ac-f036-447b-84a9-0f5d0f8ddb51","geometry":{"type":"Point","coordinates":[-96.63251246160021,28.678749134433446]},"properties":{"substrate":"Mud","lease_number":null,"poll_year":2025}},{"type":"Feature","id":"6f57e475-cd2d-461a-8708-9635b0c89543","geometry":{"type":"Point","coordinates":[-96.63310234033155,28.679105051516565]},"properties":{"substrate":"Mud","lease_number":null,"poll_year":2025}},{"type":"Feature","id":"71b97323-08b7-45a9-a402-285288cd1333","geometry":{"type":"Point","coordinates":[-96.63277531494056,28.678256562967565]},"properties":{"substrate":"Mud","lease_number":null,"poll_year":2025}},{"type":"Feature","id":"7462a483-657f-40b7-beb4-5c97473e0a4d","geometry":{"type":"Point","coordinates":[-96.63151732948803,28.68020238404591]},"properties":{"substrate":"Mud","lease_number":null,"poll_year":2025}},{"type":"Feature","id":"757ae192-9e83-466d-b7cb-1e45eed38c3e","geometry":{"type":"Point","coordinates":[-96.63445363019936,28.677636307961876]},"properties":{"substrate":"Mud","lease_number":null,"poll_year":2025}},{"type":"Feature","id":"75c8f3bd-16f3-4723-8600-3ddf274c7856","geometry":{"type":"Point","coordinates":[-96.63171810385235,28.67916276802715]},"properties":{"substrate":"Mud","lease_number":null,"poll_year":2025}},{"type":"Feature","id":"767a5eb0-95af-4ed6-a80e-582295f2a404","geometry":{"type":"Point","coordinates":[-96.63298211879706,28.67849741769122]},"properties":{"substrate":"Mud","lease_number":null,"poll_year":2025}},{"type":"Feature","id":"77eb043e-b55a-4701-9259-e189c56866c0","geometry":{"type":"Point","coordinates":[-96.63261764533685,28.67835053253445]},"properties":{"substrate":"Mud","lease_number":null,"poll_year":2025}},{"type":"Feature","id":"7b0cc238-2b47-4b1a-9a67-f15a58cfa4e5","geometry":{"type":"Point","coordinates":[-96.63208712548287,28.67861243680187]},"properties":{"substrate":"Mud","lease_number":null,"poll_year":2025}},{"type":"Feature","id":"7ec3985c-e65e-408a-bd42-2d11c9b15ceb","geometry":{"type":"Point","coordinates":[-96.63174152922001,28.678794011197187]},"properties":{"substrate":"Mud","lease_number":null,"poll_year":2025}},{"type":"Feature","id":"80b6f48e-1c22-4a1d-920e-bfb1b0910818","geometry":{"type":"Point","coordinates":[-96.63403742366023,28.678461018563713]},"properties":{"substrate":"Mud","lease_number":null,"poll_year":2025}},{"type":"Feature","id":"83ebfe84-196d-44ef-868d-c35e8e29132d","geometry":{"type":"Point","coordinates":[-96.63231846502472,28.678845405636658]},"properties":{"substrate":"Mud","lease_number":null,"poll_year":2025}},{"type":"Feature","id":"841ca1d5-c96b-4fae-877f-50f810221e82","geometry":{"type":"Point","coordinates":[-96.63295873924349,28.67815677779224]},"properties":{"substrate":"Mud","lease_number":null,"poll_year":2025}},{"type":"Feature","id":"86460bc3-27b1-43f0-b695-5c096276fa6f","geometry":{"type":"Point","coordinates":[-96.63423223949928,28.678322234410516]},"properties":{"substrate":"Mud","lease_number":null,"poll_year":2025}},{"type":"Feature","id":"8f2e61e2-285b-41a9-a5cb-1ccf75f8f0a0","geometry":{"type":"Point","coordinates":[-96.63159509484555,28.67887758980348]},"properties":{"substrate":"Mud","lease_number":null,"poll_year":2025}},{"type":"Feature","id":"aad753de-2314-4d8a-9cbf-ae3901b935dd","geometry":{"type":"Point","coordinates":[-96.63128269672235,28.67939205832176]},"properties":{"substrate":"Mud","lease_number":null,"poll_year":2025}},{"type":"Feature","id":"af1d83ae-ca72-4011-a426-80a85444eab9","geometry":{"type":"Point","coordinates":[-96.63461282514243,28.677557446856]},"properties":{"substrate":"Mud","lease_number":null,"poll_year":2025}},{"type":"Feature","id":"b5bfa8e5-87ba-41fe-9f60-5d5dec8612c2","geometry":{"type":"Point","coordinates":[-96.63348768075751,28.677895873298162]},"properties":{"substrate":"Mud","lease_number":null,"poll_year":2025}},{"type":"Feature","id":"bb86648a-07eb-46cb-9403-4abc31bc9a05","geometry":{"type":"Point","coordinates":[-96.63327162335526,28.678985179753404]},"properties":{"substrate":"Mud","lease_number":null,"poll_year":2025}},{"type":"Feature","id":"bebc7e0a-4d0a-454e-b7e3-14dd8390dc42","geometry":{"type":"Point","coordinates":[-96.63268047799939,28.67940643421553]},"properties":{"substrate":"Mud","lease_number":null,"poll_year":2025}},{"type":"Feature","id":"c774e050-340c-4c0e-9bcc-507eb5d792f3","geometry":{"type":"Point","coordinates":[-96.63344489579714,28.678873218141746]},"properties":{"substrate":"Mud","lease_number":null,"poll_year":2025}},{"type":"Feature","id":"c8689ea3-33e8-475b-a672-b9faf9bbf774","geometry":{"type":"Point","coordinates":[-96.63409876781435,28.67758737817634]},"properties":{"substrate":"Mud","lease_number":null,"poll_year":2025}},{"type":"Feature","id":"cb488f0f-d75d-452a-b2ca-c4deaa2fbe15","geometry":{"type":"Point","coordinates":[-96.63364286651947,28.67815126411713]},"properties":{"substrate":"Mud","lease_number":null,"poll_year":2025}},{"type":"Feature","id":"d2a59125-f832-4fd2-b0b2-31201125d085","geometry":{"type":"Point","coordinates":[-96.63247028030774,28.678425354735964]},"properties":{"substrate":"Mud","lease_number":null,"poll_year":2025}},{"type":"Feature","id":"dbd77468-ae7c-4e09-affd-04426c142a5f","geometry":{"type":"Point","coordinates":[-96.63384346481398,28.67860286987609]},"properties":{"substrate":"Mud","lease_number":null,"poll_year":2025}},{"type":"Feature","id":"dec4243d-3b29-4279-bd47-92a4d551d69d","geometry":{"type":"Point","coordinates":[-96.634383455606,28.678227887309895]},"properties":{"substrate":"Mud","lease_number":null,"poll_year":2025}},{"type":"Feature","id":"e04c405d-aeb0-4ccd-ac34-62f311e75614","geometry":{"type":"Point","coordinates":[-96.6348504546879,28.67745968649197]},"properties":{"substrate":"Mud","lease_number":null,"poll_year":2025}},{"type":"Feature","id":"e050f1f5-7aa0-49f8-830f-05fb92b44a53","geometry":{"type":"Point","coordinates":[-96.63188005033516,28.679948477500652]},"properties":{"substrate":"Mud","lease_number":null,"poll_year":2025}},{"type":"Feature","id":"e8206458-227a-4b1b-8f7a-e34245e489e5","geometry":{"type":"Point","coordinates":[-96.63266126393377,28.678665346086262]},"properties":{"substrate":"Mud","lease_number":null,"poll_year":2025}},{"type":"Feature","id":"eab4d713-e1b5-44a0-9610-af84c8875ff7","geometry":{"type":"Point","coordinates":[-96.63506001188077,28.677753328269795]},"properties":{"substrate":"Mud","lease_number":null,"poll_year":2025}},{"type":"Feature","id":"eee06410-9840-4abe-9f79-3bf9902f89ba","geometry":{"type":"Point","coordinates":[-96.63254138196247,28.679496528411338]},"properties":{"substrate":"Mud","lease_number":null,"poll_year":2025}},{"type":"Feature","id":"f415ad87-bafe-4e51-9d24-6ce2981103a9","geometry":{"type":"Point","coordinates":[-96.6315590804875,28.679241183430353]},"properties":{"substrate":"Mud","lease_number":null,"poll_year":2025}}]}