{"type":"FeatureCollection","features":[{"type":"Feature","id":"01c9032f-e30e-4417-ade7-0566bbd2180d","geometry":{"type":"Point","coordinates":[-96.61832060006058,28.290624100214963]},"properties":{"substrate":"Solid Reef","lease_number":null,"poll_year":2025}},{"type":"Feature","id":"036d79e9-5f25-407a-9b67-3c4cbca60489","geometry":{"type":"Point","coordinates":[-96.61788210003105,28.290789700065183]},"properties":{"substrate":"Solid Reef","lease_number":null,"poll_year":2025}},{"type":"Feature","id":"03a054fc-37c0-42a5-a127-3c4c8eae2f88","geometry":{"type":"Point","coordinates":[-96.62042330012086,28.290301499693445]},"properties":{"substrate":"Solid Reef","lease_number":null,"poll_year":2025}},{"type":"Feature","id":"04169467-fa91-4575-b09e-4a728f6b2a4d","geometry":{"type":"Point","coordinates":[-96.61824080001895,28.2906584999108]},"properties":{"substrate":"Solid Reef","lease_number":null,"poll_year":2025}},{"type":"Feature","id":"04df9ec5-8cfc-4d07-8305-32f95bb0df05","geometry":{"type":"Point","coordinates":[-96.61557319978216,28.292575499679522]},"properties":{"substrate":"Solid Reef","lease_number":null,"poll_year":2025}},{"type":"Feature","id":"05615fb7-2a95-4138-bf81-2629b810826e","geometry":{"type":"Point","coordinates":[-96.61795500011301,28.29076820028307]},"properties":{"substrate":"Solid Reef","lease_number":null,"poll_year":2025}},{"type":"Feature","id":"057a1354-733a-4a93-b0b8-edc672182de4","geometry":{"type":"Point","coordinates":[-96.61913910003172,28.289583800004447]},"properties":{"substrate":"Solid Reef","lease_number":null,"poll_year":2025}},{"type":"Feature","id":"079a9591-79b2-4ab4-9a78-b96472e2f3b3","geometry":{"type":"Point","coordinates":[-96.61457729961042,28.293227699728863]},"properties":{"substrate":"Solid Reef","lease_number":null,"poll_year":2025}},{"type":"Feature","id":"07f69f7a-cf53-4f60-9379-c47c7f1adf9b","geometry":{"type":"Point","coordinates":[-96.61712960018217,28.291030600159715]},"properties":{"substrate":"Solid Reef","lease_number":null,"poll_year":2025}},{"type":"Feature","id":"0a891e5b-5850-4f15-a197-3faa8e08356d","geometry":{"type":"Point","coordinates":[-96.61432450021474,28.29228870036266]},"properties":{"substrate":"Solid Reef","lease_number":null,"poll_year":2025}},{"type":"Feature","id":"0cd80a88-770c-4c4b-aa27-d60229a36dbf","geometry":{"type":"Point","coordinates":[-96.61599829964261,28.292229400390113]},"properties":{"substrate":"Solid Reef","lease_number":null,"poll_year":2025}},{"type":"Feature","id":"138e3f41-e9ef-4173-9b8e-5dff95f7166c","geometry":{"type":"Point","coordinates":[-96.61768050011499,28.293043799980143]},"properties":{"substrate":"Solid Reef","lease_number":null,"poll_year":2025}},{"type":"Feature","id":"17749efc-72f6-4cde-93f5-254cb23d7fcf","geometry":{"type":"Point","coordinates":[-96.61768260037614,28.290079500164325]},"properties":{"substrate":"Solid Reef","lease_number":null,"poll_year":2025}},{"type":"Feature","id":"17c73b17-61d4-4f08-85d9-d5f12f90cbbc","geometry":{"type":"Point","coordinates":[-96.61739699989617,28.29100700028651]},"properties":{"substrate":"Solid Reef","lease_number":null,"poll_year":2025}},{"type":"Feature","id":"19b1b6df-1e11-4045-b337-c938cfb67546","geometry":{"type":"Point","coordinates":[-96.61944559981676,28.292727400324402]},"properties":{"substrate":"Solid Reef","lease_number":null,"poll_year":2025}},{"type":"Feature","id":"19c842d8-0c9a-46b5-9a62-321ea240f359","geometry":{"type":"Point","coordinates":[-96.61535229956223,28.29290849969245]},"properties":{"substrate":"Solid Reef","lease_number":null,"poll_year":2025}},{"type":"Feature","id":"1a0269c4-7662-4c13-b5bc-f5e7648e759a","geometry":{"type":"Point","coordinates":[-96.61744660037458,28.290973500085453]},"properties":{"substrate":"Solid Reef","lease_number":null,"poll_year":2025}},{"type":"Feature","id":"1a7b3c51-aa2e-46c0-8117-16f05ec74a9b","geometry":{"type":"Point","coordinates":[-96.61775039982389,28.290839400299067]},"properties":{"substrate":"Solid Reef","lease_number":null,"poll_year":2025}},{"type":"Feature","id":"1e6ad558-b107-409e-a4f5-521288081bcc","geometry":{"type":"Point","coordinates":[-96.61824739994135,28.293178400063535]},"properties":{"substrate":"Solid Reef","lease_number":null,"poll_year":2025}},{"type":"Feature","id":"255a4120-b787-4970-97a0-7f8cd2dbf268","geometry":{"type":"Point","coordinates":[-96.61806520004215,28.290719600318113]},"properties":{"substrate":"Solid Reef","lease_number":null,"poll_year":2025}},{"type":"Feature","id":"27dbe46a-cb79-4571-baa2-b3c6a66eccc0","geometry":{"type":"Point","coordinates":[-96.61544649959785,28.292813600339816]},"properties":{"substrate":"Solid Reef","lease_number":null,"poll_year":2025}},{"type":"Feature","id":"28e01356-56c2-4bda-8147-81f11671097a","geometry":{"type":"Point","coordinates":[-96.62065200041242,28.29078529965021]},"properties":{"substrate":"Solid Reef","lease_number":null,"poll_year":2025}},{"type":"Feature","id":"29fde37e-34ad-4127-b509-a6af9d33cc45","geometry":{"type":"Point","coordinates":[-96.61748860020738,28.29028189983916]},"properties":{"substrate":"Solid Reef","lease_number":null,"poll_year":2025}},{"type":"Feature","id":"2bb40919-e320-45bb-b8f4-eb3e10c62588","geometry":{"type":"Point","coordinates":[-96.61929669956685,28.29011480021661]},"properties":{"substrate":"Solid Reef","lease_number":null,"poll_year":2025}},{"type":"Feature","id":"2bd00be9-2344-4a60-aa56-10ffe1b84ea4","geometry":{"type":"Point","coordinates":[-96.61992940008943,28.289606799806336]},"properties":{"substrate":"Solid Reef","lease_number":null,"poll_year":2025}},{"type":"Feature","id":"2d67a4f3-7c73-4996-b3ab-4e0e15fe0b90","geometry":{"type":"Point","coordinates":[-96.61725929984122,28.290699600287063]},"properties":{"substrate":"Solid Reef","lease_number":null,"poll_year":2025}},{"type":"Feature","id":"3037b3da-369c-4799-9bd0-d6fe9e6af14f","geometry":{"type":"Point","coordinates":[-96.61868210009722,28.289722699716005]},"properties":{"substrate":"Solid Reef","lease_number":null,"poll_year":2025}},{"type":"Feature","id":"3662e4cf-c874-4277-823b-83e96e616ef2","geometry":{"type":"Point","coordinates":[-96.61805050001087,28.28991949963941]},"properties":{"substrate":"Solid Reef","lease_number":null,"poll_year":2025}},{"type":"Feature","id":"372769ab-b70d-485f-80d8-4d7a5ebe0901","geometry":{"type":"Point","coordinates":[-96.61497319973255,28.292448899823132]},"properties":{"substrate":"Solid Reef","lease_number":null,"poll_year":2025}},{"type":"Feature","id":"39275cf3-0f66-4dd6-b3b1-4dbddc3f6d84","geometry":{"type":"Point","coordinates":[-96.61766029969922,28.2908678000833]},"properties":{"substrate":"Solid Reef","lease_number":null,"poll_year":2025}},{"type":"Feature","id":"40ee3224-b184-4a51-9eb8-a6b43361c105","geometry":{"type":"Point","coordinates":[-96.61839380017985,28.290598999694037]},"properties":{"substrate":"Solid Reef","lease_number":null,"poll_year":2025}},{"type":"Feature","id":"440edece-b81f-4571-b648-c50c2432d8a5","geometry":{"type":"Point","coordinates":[-96.61491730026736,28.293126699698448]},"properties":{"substrate":"Solid Reef","lease_number":null,"poll_year":2025}},{"type":"Feature","id":"44f7480e-2844-4c0e-9db0-919a7b12f23a","geometry":{"type":"Point","coordinates":[-96.62056359990024,28.290592499914272]},"properties":{"substrate":"Solid Reef","lease_number":null,"poll_year":2025}},{"type":"Feature","id":"47545e67-1558-4939-af9e-dedc70ce78cf","geometry":{"type":"Point","coordinates":[-96.61966480042419,28.292506800390957]},"properties":{"substrate":"Solid Reef","lease_number":null,"poll_year":2025}},{"type":"Feature","id":"479e8376-acfb-4bf6-b0df-5aca32eb6487","geometry":{"type":"Point","coordinates":[-96.61900540017473,28.289623099635413]},"properties":{"substrate":"Solid Reef","lease_number":null,"poll_year":2025}},{"type":"Feature","id":"4a532273-ee2a-45a5-b8bc-0ea00e7d0490","geometry":{"type":"Point","coordinates":[-96.61850830034426,28.29311190013702]},"properties":{"substrate":"Solid Reef","lease_number":null,"poll_year":2025}},{"type":"Feature","id":"4c7826cd-c187-46f9-8785-e9d5b4fe3f86","geometry":{"type":"Point","coordinates":[-96.62038609998663,28.290218600147906]},"properties":{"substrate":"Solid Reef","lease_number":null,"poll_year":2025}},{"type":"Feature","id":"50051b80-b385-4881-898f-96d7cc18ea27","geometry":{"type":"Point","coordinates":[-96.61910430019591,28.29031870038589]},"properties":{"substrate":"Mud","lease_number":null,"poll_year":2025}},{"type":"Feature","id":"50c3c821-7119-48ff-aa1e-80ca5c251da4","geometry":{"type":"Point","coordinates":[-96.61499620019707,28.293085200014513]},"properties":{"substrate":"Solid Reef","lease_number":null,"poll_year":2025}},{"type":"Feature","id":"5286ab4f-0c09-4a0a-97c2-225be874832e","geometry":{"type":"Point","coordinates":[-96.61858630016206,28.28975170018419]},"properties":{"substrate":"Solid Reef","lease_number":null,"poll_year":2025}},{"type":"Feature","id":"52badb95-2b81-42ca-9129-cc4c614209e5","geometry":{"type":"Point","coordinates":[-96.62059529965,28.290657999988873]},"properties":{"substrate":"Solid Reef","lease_number":null,"poll_year":2025}},{"type":"Feature","id":"52c19ad7-3094-4296-9140-a77289b54f19","geometry":{"type":"Point","coordinates":[-96.61649510033408,28.292777900145506]},"properties":{"substrate":"Solid Reef","lease_number":null,"poll_year":2025}},{"type":"Feature","id":"5490be4d-8085-4f00-939f-a0edb09fa25c","geometry":{"type":"Point","coordinates":[-96.61761669996689,28.290145100223015]},"properties":{"substrate":"Solid Reef","lease_number":null,"poll_year":2025}},{"type":"Feature","id":"559854c1-3767-473f-988c-51d3670d3b2c","geometry":{"type":"Point","coordinates":[-96.61614949957965,28.29206259966061]},"properties":{"substrate":"Solid Reef","lease_number":null,"poll_year":2025}},{"type":"Feature","id":"586e76cb-d104-42ef-bce0-b416c0cf0126","geometry":{"type":"Point","coordinates":[-96.613906300314,28.29318489968538]},"properties":{"substrate":"Solid Reef","lease_number":null,"poll_year":2025}},{"type":"Feature","id":"5c266ed5-7826-403b-a60b-ecb65b1728e6","geometry":{"type":"Point","coordinates":[-96.6162095995671,28.29199299987647]},"properties":{"substrate":"Solid Reef","lease_number":null,"poll_year":2025}},{"type":"Feature","id":"5e0f62b7-e47d-400e-90eb-b3b209aabcdc","geometry":{"type":"Point","coordinates":[-96.61380389955814,28.293179699671526]},"properties":{"substrate":"Solid Reef","lease_number":null,"poll_year":2025}},{"type":"Feature","id":"60747094-4fe6-4a94-8c5c-010b5ef77caa","geometry":{"type":"Point","coordinates":[-96.62052669980332,28.290508199704636]},"properties":{"substrate":"Solid Reef","lease_number":null,"poll_year":2025}},{"type":"Feature","id":"60c3ee1e-4657-4177-813a-cad0c4cdf0a1","geometry":{"type":"Point","coordinates":[-96.61921239986395,28.2902207999716]},"properties":{"substrate":"Solid Reef","lease_number":null,"poll_year":2025}},{"type":"Feature","id":"63049740-4676-46c4-acd9-90ba6632e14f","geometry":{"type":"Point","coordinates":[-96.61914660006603,28.290285100299897]},"properties":{"substrate":"Solid Reef","lease_number":null,"poll_year":2025}},{"type":"Feature","id":"66fd7698-4cd4-499c-bf34-c8e5d9659359","geometry":{"type":"Point","coordinates":[-96.61568989992072,28.292557100193356]},"properties":{"substrate":"Solid Reef","lease_number":null,"poll_year":2025}},{"type":"Feature","id":"6bc83e3c-8523-47f0-8293-61924912ae73","geometry":{"type":"Point","coordinates":[-96.61535870005862,28.29253209979444]},"properties":{"substrate":"Solid Reef","lease_number":null,"poll_year":2025}},{"type":"Feature","id":"6e8ed8ca-fcd4-478c-9c67-67e21f94626e","geometry":{"type":"Point","coordinates":[-96.61834780014908,28.293171799984652]},"properties":{"substrate":"Solid Reef","lease_number":null,"poll_year":2025}},{"type":"Feature","id":"6eb1c6f8-0162-44ad-ad08-c5acea994550","geometry":{"type":"Point","coordinates":[-96.61691860029498,28.292875500001337]},"properties":{"substrate":"Solid Reef","lease_number":null,"poll_year":2025}},{"type":"Feature","id":"6f6b3084-27dd-4c2b-a156-12631e73fec9","geometry":{"type":"Point","coordinates":[-96.61958299983444,28.292584100237864]},"properties":{"substrate":"Solid Reef","lease_number":null,"poll_year":2025}},{"type":"Feature","id":"714f5806-d89a-495a-8d76-a3234b8ad1cd","geometry":{"type":"Point","coordinates":[-96.61904100040944,28.29293040007866]},"properties":{"substrate":"Solid Reef","lease_number":null,"poll_year":2025}},{"type":"Feature","id":"71c13ed9-d4b9-40ab-903d-0b037526a1b8","geometry":{"type":"Point","coordinates":[-96.6166166001712,28.29155339988371]},"properties":{"substrate":"Solid Reef","lease_number":null,"poll_year":2025}},{"type":"Feature","id":"7246a9c5-b9ea-4236-a92e-a68b28004c07","geometry":{"type":"Point","coordinates":[-96.62070460036556,28.29089149965513]},"properties":{"substrate":"Buried Shell","lease_number":null,"poll_year":2025}},{"type":"Feature","id":"74d0a566-f28c-4328-a562-45d43e8d0c27","geometry":{"type":"Point","coordinates":[-96.61547709980971,28.29255579978675]},"properties":{"substrate":"Solid Reef","lease_number":null,"poll_year":2025}},{"type":"Feature","id":"755ca5f8-59e0-47a1-b3fe-3474305806ac","geometry":{"type":"Point","coordinates":[-96.61567019986656,28.292591500055508]},"properties":{"substrate":"Solid Reef","lease_number":null,"poll_year":2025}},{"type":"Feature","id":"75c47330-90df-405c-987d-f5c7496908e2","geometry":{"type":"Point","coordinates":[-96.61997889995655,28.292206200239818]},"properties":{"substrate":"Solid Reef","lease_number":null,"poll_year":2025}},{"type":"Feature","id":"7628522e-5f35-4c83-b378-58d4520820e0","geometry":{"type":"Point","coordinates":[-96.61934609972097,28.292810899866883]},"properties":{"substrate":"Solid Reef","lease_number":null,"poll_year":2025}},{"type":"Feature","id":"7a931843-ef83-4732-8938-34a3f0157a55","geometry":{"type":"Point","coordinates":[-96.62047180016306,28.290402500031472]},"properties":{"substrate":"Solid Reef","lease_number":null,"poll_year":2025}},{"type":"Feature","id":"7b7ab858-f50c-4803-b9e7-26f402371b29","geometry":{"type":"Point","coordinates":[-96.62056320014995,28.291616399779983]},"properties":{"substrate":"Solid Reef","lease_number":null,"poll_year":2025}},{"type":"Feature","id":"7ba66dc7-2872-42c0-832e-edb47a9ccee8","geometry":{"type":"Point","coordinates":[-96.61519550042601,28.292989399872255]},"properties":{"substrate":"Solid Reef","lease_number":null,"poll_year":2025}},{"type":"Feature","id":"7dfcff3f-a395-49d8-ba04-30842cc8f067","geometry":{"type":"Point","coordinates":[-96.62015889988162,28.289757499960455]},"properties":{"substrate":"Solid Reef","lease_number":null,"poll_year":2025}},{"type":"Feature","id":"7e449cc4-c6db-416a-9d7e-ca1bd5995977","geometry":{"type":"Point","coordinates":[-96.61553439974841,28.29272010018223]},"properties":{"substrate":"Solid Reef","lease_number":null,"poll_year":2025}},{"type":"Feature","id":"7eca368c-f1b7-4add-83b8-295e5f4dfec0","geometry":{"type":"Point","coordinates":[-96.6184254002166,28.2931393999511]},"properties":{"substrate":"Solid Reef","lease_number":null,"poll_year":2025}},{"type":"Feature","id":"7ed3b4c4-c598-4b37-b64b-c356f11995d3","geometry":{"type":"Point","coordinates":[-96.61513749980138,28.293014600286295]},"properties":{"substrate":"Solid Reef","lease_number":null,"poll_year":2025}},{"type":"Feature","id":"7fe00150-4524-4c97-819c-0212d49168f1","geometry":{"type":"Point","coordinates":[-96.61779679960495,28.293071900179083]},"properties":{"substrate":"Solid Reef","lease_number":null,"poll_year":2025}},{"type":"Feature","id":"807182cc-f5e3-4f36-bb37-79f0df491fc6","geometry":{"type":"Point","coordinates":[-96.62063179999662,28.29154360007229]},"properties":{"substrate":"Solid Reef","lease_number":null,"poll_year":2025}},{"type":"Feature","id":"84bf95cb-43bc-41c7-a689-6716f03f8c83","geometry":{"type":"Point","coordinates":[-96.61579650030053,28.292441400329285]},"properties":{"substrate":"Solid Reef","lease_number":null,"poll_year":2025}},{"type":"Feature","id":"84e43ef1-5b9b-4ccf-b211-c12b497ab8dc","geometry":{"type":"Point","coordinates":[-96.62034259996732,28.290134499770137]},"properties":{"substrate":"Solid Reef","lease_number":null,"poll_year":2025}},{"type":"Feature","id":"86222d0e-a38c-44cd-aee2-294b2ad29000","geometry":{"type":"Point","coordinates":[-96.61810469986354,28.293145799909674]},"properties":{"substrate":"Solid Reef","lease_number":null,"poll_year":2025}},{"type":"Feature","id":"86e1e770-bf5e-480e-ada7-9e5e073647fa","geometry":{"type":"Point","coordinates":[-96.61481150028645,28.292414099667553]},"properties":{"substrate":"Solid Reef","lease_number":null,"poll_year":2025}},{"type":"Feature","id":"88beb3ad-0e46-4dac-ae69-106df41eb684","geometry":{"type":"Point","coordinates":[-96.61584000031988,28.292627799891118]},"properties":{"substrate":"Solid Reef","lease_number":null,"poll_year":2025}},{"type":"Feature","id":"8bbce0fd-c5ae-47d8-9f74-e175edd09a55","geometry":{"type":"Point","coordinates":[-96.61574120001166,28.29261009965903]},"properties":{"substrate":"Solid Reef","lease_number":null,"poll_year":2025}},{"type":"Feature","id":"8cd41748-8492-4a18-b633-9b4281e030e7","geometry":{"type":"Point","coordinates":[-96.62021010025954,28.289863000145587]},"properties":{"substrate":"Solid Reef","lease_number":null,"poll_year":2025}},{"type":"Feature","id":"8e876e42-9649-423a-99d7-6481d54401c8","geometry":{"type":"Point","coordinates":[-96.61672249986509,28.29283109962416]},"properties":{"substrate":"Solid Reef","lease_number":null,"poll_year":2025}},{"type":"Feature","id":"8f3db570-c39a-4d88-be7d-4c558e01e793","geometry":{"type":"Point","coordinates":[-96.61684679975095,28.291326800074113]},"properties":{"substrate":"Solid Reef","lease_number":null,"poll_year":2025}},{"type":"Feature","id":"909635ba-321e-4f81-ad68-8591364c155d","geometry":{"type":"Point","coordinates":[-96.61758500021716,28.293025599906436]},"properties":{"substrate":"Solid Reef","lease_number":null,"poll_year":2025}},{"type":"Feature","id":"909aa9d3-27d4-4858-83dd-d48a160095de","geometry":{"type":"Point","coordinates":[-96.61629219965747,28.29191109989829]},"properties":{"substrate":"Solid Reef","lease_number":null,"poll_year":2025}},{"type":"Feature","id":"95beb661-7601-4b2c-874b-e3a7495f4545","geometry":{"type":"Point","coordinates":[-96.61662060036916,28.292807099904287]},"properties":{"substrate":"Solid Reef","lease_number":null,"poll_year":2025}},{"type":"Feature","id":"96cf9c8e-006d-4646-8a4b-235d7f652175","geometry":{"type":"Point","coordinates":[-96.61584169993237,28.29239409995484]},"properties":{"substrate":"Solid Reef","lease_number":null,"poll_year":2025}},{"type":"Feature","id":"98c0ef76-4eaf-4aa5-8b3a-7f07e213a36b","geometry":{"type":"Point","coordinates":[-96.61876079970264,28.29045820031161]},"properties":{"substrate":"Solid Reef","lease_number":null,"poll_year":2025}},{"type":"Feature","id":"996e5ce2-1b45-47f4-9181-f253817d65b7","geometry":{"type":"Point","coordinates":[-96.61743279955688,28.290985299630925]},"properties":{"substrate":"Solid Reef","lease_number":null,"poll_year":2025}},{"type":"Feature","id":"9ac65b50-88eb-4ab1-b34a-dcf8b7b520d8","geometry":{"type":"Point","coordinates":[-96.61637099987419,28.29183089973108]},"properties":{"substrate":"Solid Reef","lease_number":null,"poll_year":2025}},{"type":"Feature","id":"a0a3d83b-142d-4273-a004-b7a6e2b3d3a3","geometry":{"type":"Point","coordinates":[-96.61432760030078,28.29321319996923]},"properties":{"substrate":"Solid Reef","lease_number":null,"poll_year":2025}},{"type":"Feature","id":"a1ce239b-d75a-4052-9537-adbbe0761584","geometry":{"type":"Point","coordinates":[-96.6200672995704,28.289636199772854]},"properties":{"substrate":"Solid Reef","lease_number":null,"poll_year":2025}},{"type":"Feature","id":"a3af7939-ccb8-477b-aac8-990e9060d1ef","geometry":{"type":"Point","coordinates":[-96.61655650018373,28.2916275000027]},"properties":{"substrate":"Solid Reef","lease_number":null,"poll_year":2025}},{"type":"Feature","id":"a3e7b1d0-a866-4d0c-a802-58d305f1dd61","geometry":{"type":"Point","coordinates":[-96.61702310041366,28.291141599781415]},"properties":{"substrate":"Solid Reef","lease_number":null,"poll_year":2025}},{"type":"Feature","id":"a4fe72f8-855f-4f67-941d-240d67a0d14e","geometry":{"type":"Point","coordinates":[-96.61720579977614,28.291093999826693]},"properties":{"substrate":"Solid Reef","lease_number":null,"poll_year":2025}},{"type":"Feature","id":"ab8d0e42-d534-452d-82b4-f4a9b0ec05c8","geometry":{"type":"Point","coordinates":[-96.620306399658,28.29005139996644]},"properties":{"substrate":"Solid Reef","lease_number":null,"poll_year":2025}},{"type":"Feature","id":"ad2a40f6-9cb3-423c-842b-02159d8bd98e","geometry":{"type":"Point","coordinates":[-96.61710610025435,28.29111299994411]},"properties":{"substrate":"Solid Reef","lease_number":null,"poll_year":2025}},{"type":"Feature","id":"ae2819c4-2eb9-4c8c-af05-099d2585f8df","geometry":{"type":"Point","coordinates":[-96.61799709965881,28.29312289974712]},"properties":{"substrate":"Solid Reef","lease_number":null,"poll_year":2025}},{"type":"Feature","id":"afc72be6-50ce-4a0e-b8af-d49ecefad958","geometry":{"type":"Point","coordinates":[-96.61416589995638,28.2922480000569]},"properties":{"substrate":"Solid Reef","lease_number":null,"poll_year":2025}},{"type":"Feature","id":"b0faf046-3dd4-49d4-8014-3de049230da9","geometry":{"type":"Point","coordinates":[-96.62037250039154,28.291805499703038]},"properties":{"substrate":"Solid Reef","lease_number":null,"poll_year":2025}},{"type":"Feature","id":"b21fad20-2b81-41e1-b67e-f427ad3d98f3","geometry":{"type":"Point","coordinates":[-96.61505630018453,28.293054200020848]},"properties":{"substrate":"Solid Reef","lease_number":null,"poll_year":2025}},{"type":"Feature","id":"b35bba39-ba9e-4275-b9d5-af93800f9402","geometry":{"type":"Point","coordinates":[-96.61748779980847,28.29300059961758]},"properties":{"substrate":"Solid Reef","lease_number":null,"poll_year":2025}},{"type":"Feature","id":"b61396ac-850a-4858-9d76-1de438c56e26","geometry":{"type":"Point","coordinates":[-96.61965450034116,28.28957420014071]},"properties":{"substrate":"Solid Reef","lease_number":null,"poll_year":2025}},{"type":"Feature","id":"b757aa96-6067-467e-a044-537242270203","geometry":{"type":"Point","coordinates":[-96.61918959972373,28.29288070003005]},"properties":{"substrate":"Solid Reef","lease_number":null,"poll_year":2025}},{"type":"Feature","id":"b7a59854-2375-4459-8399-9ce1b17f36c0","geometry":{"type":"Point","coordinates":[-96.61590439964428,28.292332299679785]},"properties":{"substrate":"Solid Reef","lease_number":null,"poll_year":2025}},{"type":"Feature","id":"b9e58786-6e57-46c6-9d87-9cc5e48ab4ee","geometry":{"type":"Point","coordinates":[-96.61828330021336,28.289851500272945]},"properties":{"substrate":"Solid Reef","lease_number":null,"poll_year":2025}},{"type":"Feature","id":"bacba228-96f0-4638-ae33-790ae08abd0b","geometry":{"type":"Point","coordinates":[-96.61670469974774,28.291474099616]},"properties":{"substrate":"Solid Reef","lease_number":null,"poll_year":2025}},{"type":"Feature","id":"bcbabd48-b942-40a0-a55a-3cdc316e1336","geometry":{"type":"Point","coordinates":[-96.61775440002185,28.290018699977352]},"properties":{"substrate":"Solid Reef","lease_number":null,"poll_year":2025}},{"type":"Feature","id":"c136dbe3-c931-4b27-85a1-60748d9e5989","geometry":{"type":"Point","coordinates":[-96.61897440021258,28.290379699737993]},"properties":{"substrate":"Solid Reef","lease_number":null,"poll_year":2025}},{"type":"Feature","id":"c30b237b-d2d5-43cf-88c6-b34a1f8a9bad","geometry":{"type":"Point","coordinates":[-96.61983050006825,28.289594099923246]},"properties":{"substrate":"Solid Reef","lease_number":null,"poll_year":2025}},{"type":"Feature","id":"c3ae8a41-2635-46e8-843d-d07fdb3ed279","geometry":{"type":"Point","coordinates":[-96.61449450009405,28.293223500327834]},"properties":{"substrate":"Solid Reef","lease_number":null,"poll_year":2025}},{"type":"Feature","id":"c475fd06-ff31-4db5-9052-b6417686ddae","geometry":{"type":"Point","coordinates":[-96.61837669985009,28.289820099871488]},"properties":{"substrate":"Solid Reef","lease_number":null,"poll_year":2025}},{"type":"Feature","id":"c5a3f403-995f-4ad0-843b-ee4546557b26","geometry":{"type":"Point","coordinates":[-96.62080360009976,28.291181400338747]},"properties":{"substrate":"Buried Shell","lease_number":null,"poll_year":2025}},{"type":"Feature","id":"c6c96bfb-b9f4-46df-8f78-4be28e2cfd1f","geometry":{"type":"Point","coordinates":[-96.61527450006872,28.292950099902104]},"properties":{"substrate":"Solid Reef","lease_number":null,"poll_year":2025}},{"type":"Feature","id":"ca6a1ff7-6fa3-42f3-8102-b5927a4c968c","geometry":{"type":"Point","coordinates":[-96.61380889958099,28.292304299743027]},"properties":{"substrate":"Solid Reef","lease_number":null,"poll_year":2025}},{"type":"Feature","id":"ca7108ba-f0eb-444d-badc-8537828915f3","geometry":{"type":"Point","coordinates":[-96.6167866997635,28.291395200331372]},"properties":{"substrate":"Solid Reef","lease_number":null,"poll_year":2025}},{"type":"Feature","id":"cb75e1a6-dcd4-4029-8b25-7226cb17edff","geometry":{"type":"Point","coordinates":[-96.61816910008625,28.289884799907632]},"properties":{"substrate":"Solid Reef","lease_number":null,"poll_year":2025}},{"type":"Feature","id":"cc46fbda-96a1-4107-9c5d-22c3c16b1057","geometry":{"type":"Point","coordinates":[-96.61813520036236,28.290698099730864]},"properties":{"substrate":"Solid Reef","lease_number":null,"poll_year":2025}},{"type":"Feature","id":"ce276b50-831c-4f54-ba58-c8e761dd112b","geometry":{"type":"Point","coordinates":[-96.61869270021758,28.290485499892945]},"properties":{"substrate":"Solid Reef","lease_number":null,"poll_year":2025}},{"type":"Feature","id":"cff17a57-6381-42df-a450-53e0a77c994e","geometry":{"type":"Point","coordinates":[-96.62006120000962,28.292128900118474]},"properties":{"substrate":"Solid Reef","lease_number":null,"poll_year":2025}},{"type":"Feature","id":"d0d0a0b8-e423-4268-8ef9-f32e19676501","geometry":{"type":"Point","coordinates":[-96.62022649990337,28.291959099736683]},"properties":{"substrate":"Solid Reef","lease_number":null,"poll_year":2025}},{"type":"Feature","id":"d3904a0c-fd64-4350-b148-ccae55fd30ab","geometry":{"type":"Point","coordinates":[-96.61795900031098,28.289948500053978]},"properties":{"substrate":"Solid Reef","lease_number":null,"poll_year":2025}},{"type":"Feature","id":"d717dab0-aba3-4343-9637-bddd012836fd","geometry":{"type":"Point","coordinates":[-96.61734659991716,28.29047029970965]},"properties":{"substrate":"Solid Reef","lease_number":null,"poll_year":2025}},{"type":"Feature","id":"d8e28f3c-e8dc-4480-8964-4f7f2ad1de9c","geometry":{"type":"Point","coordinates":[-96.61859929968256,28.290516299716426]},"properties":{"substrate":"Solid Reef","lease_number":null,"poll_year":2025}},{"type":"Feature","id":"da4931fe-de0b-4654-95ae-790b66712ce5","geometry":{"type":"Point","coordinates":[-96.61504600010149,28.292460900119654]},"properties":{"substrate":"Solid Reef","lease_number":null,"poll_year":2025}},{"type":"Feature","id":"debe3304-82c3-4183-8307-c5ea6ca32e72","geometry":{"type":"Point","coordinates":[-96.61643119957465,28.291760000170108]},"properties":{"substrate":"Solid Reef","lease_number":null,"poll_year":2025}},{"type":"Feature","id":"e1dea53c-deff-43e3-b0a4-9d6ba3d52347","geometry":{"type":"Point","coordinates":[-96.61521229982013,28.292497600246826]},"properties":{"substrate":"Solid Reef","lease_number":null,"poll_year":2025}},{"type":"Feature","id":"e4143481-27f4-4722-a438-e23cd1e748cd","geometry":{"type":"Point","coordinates":[-96.61884499969254,28.28967109971446]},"properties":{"substrate":"Solid Reef","lease_number":null,"poll_year":2025}},{"type":"Feature","id":"eb7b5ed5-ae8e-4a1d-9c25-f1719ae951cf","geometry":{"type":"Point","coordinates":[-96.61891389957651,28.29297160003451]},"properties":{"substrate":"Solid Reef","lease_number":null,"poll_year":2025}},{"type":"Feature","id":"ee4af080-d58f-4554-96d8-e0978572554a","geometry":{"type":"Point","coordinates":[-96.6192787000235,28.292850800257003]},"properties":{"substrate":"Solid Reef","lease_number":null,"poll_year":2025}},{"type":"Feature","id":"f07439e5-9a1d-44dc-b870-ed6a4a84ba1e","geometry":{"type":"Point","coordinates":[-96.61877079974838,28.29301680005221]},"properties":{"substrate":"Solid Reef","lease_number":null,"poll_year":2025}},{"type":"Feature","id":"f2c1bde4-e53e-492a-9af7-d10304f53265","geometry":{"type":"Point","coordinates":[-96.6147236001359,28.293221999807223]},"properties":{"substrate":"Solid Reef","lease_number":null,"poll_year":2025}},{"type":"Feature","id":"f4e11e2d-c0f9-4019-93ee-c01521721778","geometry":{"type":"Point","coordinates":[-96.62076440031571,28.291016600021038]},"properties":{"substrate":"Buried Shell","lease_number":null,"poll_year":2025}},{"type":"Feature","id":"f6eea67c-a151-4368-a4f2-d3594b02bcd6","geometry":{"type":"Point","coordinates":[-96.6186667999913,28.293055499630384]},"properties":{"substrate":"Solid Reef","lease_number":null,"poll_year":2025}},{"type":"Feature","id":"f8bc95ec-3cba-4ed1-ae15-7a595625ee18","geometry":{"type":"Point","coordinates":[-96.61721459967268,28.29082549980307]},"properties":{"substrate":"Solid Reef","lease_number":null,"poll_year":2025}},{"type":"Feature","id":"f9ec8226-2444-47db-ade7-b681f15f7519","geometry":{"type":"Point","coordinates":[-96.61651240008982,28.29167699972037]},"properties":{"substrate":"Solid Reef","lease_number":null,"poll_year":2025}}]}