{"type":"FeatureCollection","features":[{"type":"Feature","id":"05b0dc3a-4cb4-4828-9b9e-020fce92a0fd","geometry":{"type":"Point","coordinates":[-96.61033017543988,28.689912690107175]},"properties":{"substrate":"Mud","lease_number":null,"poll_year":2025}},{"type":"Feature","id":"0bec0bf5-5038-47d2-87ff-5de935862654","geometry":{"type":"Point","coordinates":[-96.61097978225612,28.690507318325636]},"properties":{"substrate":"Firm/Hard Bottom","lease_number":null,"poll_year":2025}},{"type":"Feature","id":"0d8e3cc8-5c59-411c-844d-0cab85376fb6","geometry":{"type":"Point","coordinates":[-96.61110718851624,28.68849089906721]},"properties":{"substrate":"Firm/Hard Bottom","lease_number":null,"poll_year":2025}},{"type":"Feature","id":"19fc8242-326c-41ca-8d53-65264c767cad","geometry":{"type":"Point","coordinates":[-96.61179563938367,28.689664404493808]},"properties":{"substrate":"Mud","lease_number":null,"poll_year":2025}},{"type":"Feature","id":"1d1a67a3-bea7-4250-907c-881adf43b238","geometry":{"type":"Point","coordinates":[-96.61026987512813,28.689249261525624]},"properties":{"substrate":"Mud","lease_number":null,"poll_year":2025}},{"type":"Feature","id":"1e1cad09-f15b-4f09-982d-9bd7ba08b192","geometry":{"type":"Point","coordinates":[-96.6112227433028,28.68962293432203]},"properties":{"substrate":"Firm/Hard Bottom","lease_number":null,"poll_year":2025}},{"type":"Feature","id":"22337e27-d289-45bd-9e46-96d514cdbb7a","geometry":{"type":"Point","coordinates":[-96.61188927707396,28.69047569250281]},"properties":{"substrate":"Mud","lease_number":null,"poll_year":2025}},{"type":"Feature","id":"22673f27-8d3f-4853-ba4c-46bf32a3e02d","geometry":{"type":"Point","coordinates":[-96.61088278037512,28.6895613764022]},"properties":{"substrate":"Firm/Hard Bottom","lease_number":null,"poll_year":2025}},{"type":"Feature","id":"2bd489c7-5827-4220-810c-bcb4641fae0a","geometry":{"type":"Point","coordinates":[-96.61084595843163,28.689219779565924]},"properties":{"substrate":"Firm/Hard Bottom","lease_number":null,"poll_year":2025}},{"type":"Feature","id":"32689216-e440-4be3-87aa-d12130593f10","geometry":{"type":"Point","coordinates":[-96.61023117301075,28.688677359514685]},"properties":{"substrate":"Mud","lease_number":null,"poll_year":2025}},{"type":"Feature","id":"362b3078-97ad-446e-a4bd-edeb94c9ea5d","geometry":{"type":"Point","coordinates":[-96.61091685347384,28.689954295705252]},"properties":{"substrate":"Firm/Hard Bottom","lease_number":null,"poll_year":2025}},{"type":"Feature","id":"3a253992-b1a7-4ac4-9c84-636183fac91c","geometry":{"type":"Point","coordinates":[-96.6102503250926,28.68899072907447]},"properties":{"substrate":"Mud","lease_number":null,"poll_year":2025}},{"type":"Feature","id":"40a48fda-081a-466d-bfc9-1cc57f0733bb","geometry":{"type":"Point","coordinates":[-96.61021783033381,28.688446042219475]},"properties":{"substrate":"Mud","lease_number":null,"poll_year":2025}},{"type":"Feature","id":"487c2e3a-02a4-44a7-b11d-0bdf2bfba606","geometry":{"type":"Point","coordinates":[-96.61095727137341,28.690308078555738]},"properties":{"substrate":"Mud","lease_number":null,"poll_year":2025}},{"type":"Feature","id":"51054dc2-e328-469a-aa6e-203d19017977","geometry":{"type":"Point","coordinates":[-96.61125338573547,28.689961630682912]},"properties":{"substrate":"Firm/Hard Bottom","lease_number":null,"poll_year":2025}},{"type":"Feature","id":"5e4bc528-db8c-4f92-9aa7-8ad0cd1dd8e2","geometry":{"type":"Point","coordinates":[-96.61106783601859,28.68815347536624]},"properties":{"substrate":"Mud","lease_number":null,"poll_year":2025}},{"type":"Feature","id":"5ead31c2-08e7-4b42-b9f1-06fb530a706a","geometry":{"type":"Point","coordinates":[-96.61128537653937,28.690298641146757]},"properties":{"substrate":"Firm/Hard Bottom","lease_number":null,"poll_year":2025}},{"type":"Feature","id":"6219a86e-2a7e-47a9-9c65-6edfa1710714","geometry":{"type":"Point","coordinates":[-96.61077309158733,28.68861708239116]},"properties":{"substrate":"Mud","lease_number":null,"poll_year":2025}},{"type":"Feature","id":"66de6f60-e5a3-45f9-a715-f933407b23d9","geometry":{"type":"Point","coordinates":[-96.6113044271116,28.69045180350693]},"properties":{"substrate":"Firm/Hard Bottom","lease_number":null,"poll_year":2025}},{"type":"Feature","id":"68e90126-2a70-41be-8c8a-5d9bdb008bf9","geometry":{"type":"Point","coordinates":[-96.61127073939012,28.69014376696574]},"properties":{"substrate":"Firm/Hard Bottom","lease_number":null,"poll_year":2025}},{"type":"Feature","id":"72a461b2-6715-4b3f-b54e-8b99264bfbeb","geometry":{"type":"Point","coordinates":[-96.61118769732863,28.68931443040194]},"properties":{"substrate":"Firm/Hard Bottom","lease_number":null,"poll_year":2025}},{"type":"Feature","id":"7c2b3bca-346f-45c6-87f1-80a1de473d68","geometry":{"type":"Point","coordinates":[-96.61123637793219,28.68977516070211]},"properties":{"substrate":"Firm/Hard Bottom","lease_number":null,"poll_year":2025}},{"type":"Feature","id":"8877f50a-1815-4b08-ac3d-6edd442ff873","geometry":{"type":"Point","coordinates":[-96.61081635175648,28.68902341998308]},"properties":{"substrate":"Mud","lease_number":null,"poll_year":2025}},{"type":"Feature","id":"931d4d97-e07a-49d5-9a5d-275382813abb","geometry":{"type":"Point","coordinates":[-96.61035451888576,28.690481574325062]},"properties":{"substrate":"Mud","lease_number":null,"poll_year":2025}},{"type":"Feature","id":"933950b7-f775-41b9-a478-93316484237a","geometry":{"type":"Point","coordinates":[-96.61116915340622,28.68914066791853]},"properties":{"substrate":"Firm/Hard Bottom","lease_number":null,"poll_year":2025}},{"type":"Feature","id":"96c5063e-5c03-40f2-9c33-1b9aaade3e08","geometry":{"type":"Point","coordinates":[-96.61177500597994,28.6894792610312]},"properties":{"substrate":"Mud","lease_number":null,"poll_year":2025}},{"type":"Feature","id":"9f24dcfc-f5ca-454c-a5a5-3701d3397ef2","geometry":{"type":"Point","coordinates":[-96.61089994089198,28.689774986547295]},"properties":{"substrate":"Firm/Hard Bottom","lease_number":null,"poll_year":2025}},{"type":"Feature","id":"a056e166-120c-4635-a3c6-46704b483692","geometry":{"type":"Point","coordinates":[-96.61079137589664,28.688790209796608]},"properties":{"substrate":"Firm/Hard Bottom","lease_number":null,"poll_year":2025}},{"type":"Feature","id":"a1dbfe57-e3ff-4e7e-ba65-9c50ce5a4597","geometry":{"type":"Point","coordinates":[-96.61112562014924,28.68867355959038]},"properties":{"substrate":"Firm/Hard Bottom","lease_number":null,"poll_year":2025}},{"type":"Feature","id":"a2e0fb7e-6328-4eda-87c6-4f63c278da14","geometry":{"type":"Point","coordinates":[-96.61187686145841,28.69032496596797]},"properties":{"substrate":"Mud","lease_number":null,"poll_year":2025}},{"type":"Feature","id":"a40308f2-0010-4325-82a4-c5436b99d649","geometry":{"type":"Point","coordinates":[-96.61021430444632,28.68824716260244]},"properties":{"substrate":"Mud","lease_number":null,"poll_year":2025}},{"type":"Feature","id":"aacdaac1-97f5-4ba2-828b-d416c755d0c5","geometry":{"type":"Point","coordinates":[-96.61162926061327,28.68871488750319]},"properties":{"substrate":"Mud","lease_number":null,"poll_year":2025}},{"type":"Feature","id":"afcb021f-43fa-4d73-b4d3-6985cb8a10cf","geometry":{"type":"Point","coordinates":[-96.61086055874993,28.689398270907766]},"properties":{"substrate":"Firm/Hard Bottom","lease_number":null,"poll_year":2025}},{"type":"Feature","id":"b1e3d685-0214-4355-8143-9784d2fc6fbb","geometry":{"type":"Point","coordinates":[-96.61181774332955,28.68984317482843]},"properties":{"substrate":"Mud","lease_number":null,"poll_year":2025}},{"type":"Feature","id":"b3effc4f-cc69-4a0d-8659-acfb63d2e394","geometry":{"type":"Point","coordinates":[-96.6102895751823,28.689414218342804]},"properties":{"substrate":"Mud","lease_number":null,"poll_year":2025}},{"type":"Feature","id":"b97ac1a2-dda8-4f74-b034-2911eaf5242b","geometry":{"type":"Point","coordinates":[-96.61186055344274,28.69014094897753]},"properties":{"substrate":"Mud","lease_number":null,"poll_year":2025}},{"type":"Feature","id":"bcf2ac2c-4174-4e94-b177-184a7da26646","geometry":{"type":"Point","coordinates":[-96.61034500662522,28.69027459135295]},"properties":{"substrate":"Mud","lease_number":null,"poll_year":2025}},{"type":"Feature","id":"c1e2df66-42dd-4e9a-bde1-10e672e382fa","geometry":{"type":"Point","coordinates":[-96.61034285516011,28.69011436169667]},"properties":{"substrate":"Mud","lease_number":null,"poll_year":2025}},{"type":"Feature","id":"c6f2f136-d3d8-4634-8f5d-f4f688b36534","geometry":{"type":"Point","coordinates":[-96.61171346329813,28.689138267562207]},"properties":{"substrate":"Mud","lease_number":null,"poll_year":2025}},{"type":"Feature","id":"ccc1f62b-931a-4b48-a2bd-68c1456662a2","geometry":{"type":"Point","coordinates":[-96.61113950271364,28.688815935300195]},"properties":{"substrate":"Firm/Hard Bottom","lease_number":null,"poll_year":2025}},{"type":"Feature","id":"d02e2b2e-2f34-480d-a69f-3993ad24df50","geometry":{"type":"Point","coordinates":[-96.6117370072434,28.689286849199714]},"properties":{"substrate":"Mud","lease_number":null,"poll_year":2025}},{"type":"Feature","id":"d101a50c-69a0-460f-9dab-5d50eccef099","geometry":{"type":"Point","coordinates":[-96.61115473275096,28.68899543680552]},"properties":{"substrate":"Firm/Hard Bottom","lease_number":null,"poll_year":2025}},{"type":"Feature","id":"d6e7b646-5835-414e-a27d-8575b59a0e9b","geometry":{"type":"Point","coordinates":[-96.61093422689143,28.690110081915243]},"properties":{"substrate":"Mud","lease_number":null,"poll_year":2025}},{"type":"Feature","id":"e35eca6a-5f8f-4755-94e0-bdce6ecaced3","geometry":{"type":"Point","coordinates":[-96.61183179747218,28.689957793767807]},"properties":{"substrate":"Mud","lease_number":null,"poll_year":2025}},{"type":"Feature","id":"e5a46d6d-cd9f-4837-a182-38a193d93665","geometry":{"type":"Point","coordinates":[-96.61086674005739,28.688090516229256]},"properties":{"substrate":"Mud","lease_number":null,"poll_year":2025}},{"type":"Feature","id":"e89d14da-d07c-4bcd-a507-453ea8f169f2","geometry":{"type":"Point","coordinates":[-96.61121103915298,28.689463199341276]},"properties":{"substrate":"Firm/Hard Bottom","lease_number":null,"poll_year":2025}},{"type":"Feature","id":"f2281420-33e6-4aa1-9ad9-13e387e10833","geometry":{"type":"Point","coordinates":[-96.61021704879953,28.68809583000615]},"properties":{"substrate":"Mud","lease_number":null,"poll_year":2025}},{"type":"Feature","id":"fd167d69-af5c-4aa8-9c0a-84fb1f4abe1e","geometry":{"type":"Point","coordinates":[-96.610308983284,28.689763499422007]},"properties":{"substrate":"Mud","lease_number":null,"poll_year":2025}}]}