{"type":"FeatureCollection","features":[{"type":"Feature","id":"004eeeff-4c77-4183-a194-87e0766c1f54","geometry":{"type":"Point","coordinates":[-96.59912358087938,28.661870172241294]},"properties":{"substrate":"Mud","lease_number":null,"poll_year":2025}},{"type":"Feature","id":"0070bdda-e105-4f24-91c0-bc0a1ff592aa","geometry":{"type":"Point","coordinates":[-96.60000694101066,28.667685237116245]},"properties":{"substrate":"Mud","lease_number":null,"poll_year":2025}},{"type":"Feature","id":"01c11f56-be24-41d0-8521-20e0c18f3a85","geometry":{"type":"Point","coordinates":[-96.60173255346749,28.663253393938827]},"properties":{"substrate":"Mud","lease_number":null,"poll_year":2025}},{"type":"Feature","id":"02b0c8b2-b49f-4961-854b-2bc9b95c568b","geometry":{"type":"Point","coordinates":[-96.60091804830444,28.657558044229397]},"properties":{"substrate":"Mud","lease_number":null,"poll_year":2025}},{"type":"Feature","id":"02b77384-6daf-4ca0-839b-69f85545a59d","geometry":{"type":"Point","coordinates":[-96.59827499902434,28.66369426599209]},"properties":{"substrate":"Mud","lease_number":null,"poll_year":2025}},{"type":"Feature","id":"0311934d-15f7-42d8-99bf-5d0c134c993a","geometry":{"type":"Point","coordinates":[-96.6020679269024,28.659045752613014]},"properties":{"substrate":"Mud","lease_number":null,"poll_year":2025}},{"type":"Feature","id":"03814b60-2dba-4113-9f36-1495cc9a3152","geometry":{"type":"Point","coordinates":[-96.59377923106464,28.661484786457347]},"properties":{"substrate":"Mud","lease_number":null,"poll_year":2025}},{"type":"Feature","id":"04e0f822-f141-4fce-a108-87514061dfc9","geometry":{"type":"Point","coordinates":[-96.59809297250001,28.666786773039316]},"properties":{"substrate":"Firm/Hard Bottom","lease_number":null,"poll_year":2025}},{"type":"Feature","id":"06182474-8825-43a9-8cf9-050af838eb96","geometry":{"type":"Point","coordinates":[-96.59884866675804,28.667137331584797]},"properties":{"substrate":"Mud","lease_number":null,"poll_year":2025}},{"type":"Feature","id":"0641d51f-9006-42a2-a667-1084353ed05d","geometry":{"type":"Point","coordinates":[-96.60168102430617,28.663850520055078]},"properties":{"substrate":"Mud","lease_number":null,"poll_year":2025}},{"type":"Feature","id":"076f2305-8baa-403e-b259-fe9eddab991a","geometry":{"type":"Point","coordinates":[-96.59849874510711,28.663210961915876]},"properties":{"substrate":"Mud","lease_number":null,"poll_year":2025}},{"type":"Feature","id":"0c1146de-6e39-4d15-a012-6cf4e0f349dd","geometry":{"type":"Point","coordinates":[-96.60170192271292,28.663640557766957]},"properties":{"substrate":"Mud","lease_number":null,"poll_year":2025}},{"type":"Feature","id":"0d91ae99-18eb-4544-a114-f9c550f080ee","geometry":{"type":"Point","coordinates":[-96.59881532668459,28.66252282643004]},"properties":{"substrate":"Mud","lease_number":null,"poll_year":2025}},{"type":"Feature","id":"0f2c675e-c9c6-44dc-9787-93ec080e0dbd","geometry":{"type":"Point","coordinates":[-96.59934307164266,28.661402243129768]},"properties":{"substrate":"Mud","lease_number":null,"poll_year":2025}},{"type":"Feature","id":"102651b8-8429-41c1-94e1-0c9680009231","geometry":{"type":"Point","coordinates":[-96.6016653864337,28.664030335493702]},"properties":{"substrate":"Firm/Hard Bottom","lease_number":null,"poll_year":2025}},{"type":"Feature","id":"10ff7d34-dea7-45f9-9030-af68df7ee889","geometry":{"type":"Point","coordinates":[-96.59865263190517,28.66705248879524]},"properties":{"substrate":"Mud","lease_number":null,"poll_year":2025}},{"type":"Feature","id":"1381c684-df99-4011-a35b-c40089df0b1a","geometry":{"type":"Point","coordinates":[-96.59941058722278,28.661255209464397]},"properties":{"substrate":"Mud","lease_number":null,"poll_year":2025}},{"type":"Feature","id":"16088c4e-713e-4c43-be0f-c70f48331140","geometry":{"type":"Point","coordinates":[-96.5929339352469,28.66206244683517]},"properties":{"substrate":"Mud","lease_number":null,"poll_year":2025}},{"type":"Feature","id":"17634204-ac88-4dd4-a27f-c9109d589ad5","geometry":{"type":"Point","coordinates":[-96.60177426583938,28.662838908513383]},"properties":{"substrate":"Firm/Hard Bottom","lease_number":null,"poll_year":2025}},{"type":"Feature","id":"1aede621-2948-48de-8180-38c27c8ce7b5","geometry":{"type":"Point","coordinates":[-96.59784996204597,28.666668162496624]},"properties":{"substrate":"Firm/Hard Bottom","lease_number":null,"poll_year":2025}},{"type":"Feature","id":"1eadff42-2cf0-41af-a237-257f03e42d6f","geometry":{"type":"Point","coordinates":[-96.59679738985791,28.65948891412516]},"properties":{"substrate":"Mud","lease_number":null,"poll_year":2025}},{"type":"Feature","id":"1f96655b-a9b0-4d30-9425-ee714418da05","geometry":{"type":"Point","coordinates":[-96.60223209312225,28.656475914615143]},"properties":{"substrate":"Solid Reef","lease_number":null,"poll_year":2025}},{"type":"Feature","id":"23706c8a-ebaf-4bb9-b707-2e78634302fc","geometry":{"type":"Point","coordinates":[-96.5981215541974,28.664032939787372]},"properties":{"substrate":"Mud","lease_number":null,"poll_year":2025}},{"type":"Feature","id":"278c3508-c875-4d12-b9b4-c46bcffa5e22","geometry":{"type":"Point","coordinates":[-96.60193741965793,28.660826931247303]},"properties":{"substrate":"Mud","lease_number":null,"poll_year":2025}},{"type":"Feature","id":"2ae9d7fb-80bb-4de0-8d65-66ffa25bedf8","geometry":{"type":"Point","coordinates":[-96.59535954282087,28.6654807097235]},"properties":{"substrate":"Mud","lease_number":null,"poll_year":2025}},{"type":"Feature","id":"2c050349-b559-427b-a2ad-db9f10b59a8b","geometry":{"type":"Point","coordinates":[-96.59954942005331,28.660959797552742]},"properties":{"substrate":"Mud","lease_number":null,"poll_year":2025}},{"type":"Feature","id":"2c6e567d-feca-4c49-9094-6abbda906f50","geometry":{"type":"Point","coordinates":[-96.60038976884877,28.659169444241602]},"properties":{"substrate":"Mud","lease_number":null,"poll_year":2025}},{"type":"Feature","id":"2e09c552-6e76-4f36-b53a-c53e44a66b19","geometry":{"type":"Point","coordinates":[-96.59853104403315,28.65827558947438]},"properties":{"substrate":"Mud","lease_number":null,"poll_year":2025}},{"type":"Feature","id":"2ee7396b-c6c1-46c3-a1c1-4e5aa8001543","geometry":{"type":"Point","coordinates":[-96.60198326428012,28.660193995693454]},"properties":{"substrate":"Mud","lease_number":null,"poll_year":2025}},{"type":"Feature","id":"30834daa-38de-4fb7-9020-48b790516097","geometry":{"type":"Point","coordinates":[-96.59659808423908,28.659625440430087]},"properties":{"substrate":"Mud","lease_number":null,"poll_year":2025}},{"type":"Feature","id":"3140e483-a7cf-427a-8cd5-7fd2f49d4097","geometry":{"type":"Point","coordinates":[-96.59262371553825,28.662272320060737]},"properties":{"substrate":"Mud","lease_number":null,"poll_year":2025}},{"type":"Feature","id":"31e3e182-7b72-4793-b4d0-eafb9c4b3fc9","geometry":{"type":"Point","coordinates":[-96.59192185012867,28.662755306077386]},"properties":{"substrate":"Mud","lease_number":null,"poll_year":2025}},{"type":"Feature","id":"323482b2-6f86-4940-9c2e-831291fea6f4","geometry":{"type":"Point","coordinates":[-96.59986365163802,28.66029789215947]},"properties":{"substrate":"Mud","lease_number":null,"poll_year":2025}},{"type":"Feature","id":"340491b5-5f02-4b61-bacd-963f1c0c5023","geometry":{"type":"Point","coordinates":[-96.5992817086239,28.667347447660315]},"properties":{"substrate":"Firm/Hard Bottom","lease_number":null,"poll_year":2025}},{"type":"Feature","id":"35aa46d9-5276-4f70-a473-9269f86783ba","geometry":{"type":"Point","coordinates":[-96.59694207700915,28.659396301578436]},"properties":{"substrate":"Firm/Hard Bottom","lease_number":null,"poll_year":2025}},{"type":"Feature","id":"36461d9e-410b-4849-bf6b-bf677f0e40e4","geometry":{"type":"Point","coordinates":[-96.59364365103374,28.661579080845737]},"properties":{"substrate":"Mud","lease_number":null,"poll_year":2025}},{"type":"Feature","id":"36dcd113-1089-4dff-8da9-031cc7adeaa4","geometry":{"type":"Point","coordinates":[-96.59865267861757,28.662879284975006]},"properties":{"substrate":"Mud","lease_number":null,"poll_year":2025}},{"type":"Feature","id":"3776064f-9532-44f5-a5b2-335f062c9fe6","geometry":{"type":"Point","coordinates":[-96.59609936923773,28.6658391586879]},"properties":{"substrate":"Mud","lease_number":null,"poll_year":2025}},{"type":"Feature","id":"380c164d-5191-4e3e-bdca-eadec63ed3cd","geometry":{"type":"Point","coordinates":[-96.59666099415674,28.666104999018874]},"properties":{"substrate":"Mud","lease_number":null,"poll_year":2025}},{"type":"Feature","id":"3a059355-2450-426d-8b25-ff5795af2236","geometry":{"type":"Point","coordinates":[-96.60201299671941,28.659802005253823]},"properties":{"substrate":"Mud","lease_number":null,"poll_year":2025}},{"type":"Feature","id":"3bc2a376-de48-409b-9fd0-f2279e2131bf","geometry":{"type":"Point","coordinates":[-96.59575672573723,28.66017906302143]},"properties":{"substrate":"Mud","lease_number":null,"poll_year":2025}},{"type":"Feature","id":"3d97b692-dfc4-4abc-8b80-ee5cce83a13b","geometry":{"type":"Point","coordinates":[-96.60194733256708,28.6606752271838]},"properties":{"substrate":"Mud","lease_number":null,"poll_year":2025}},{"type":"Feature","id":"3dd8ec62-ee6b-4a00-b29b-c42b1114b5af","geometry":{"type":"Point","coordinates":[-96.59889939462214,28.66234412927832]},"properties":{"substrate":"Mud","lease_number":null,"poll_year":2025}},{"type":"Feature","id":"3e118078-e792-43ef-b8b5-ac5863ecb2d5","geometry":{"type":"Point","coordinates":[-96.59968971354449,28.667540949676884]},"properties":{"substrate":"Mud","lease_number":null,"poll_year":2025}},{"type":"Feature","id":"3fef7d53-7485-4c31-9436-5ea267f9e0c2","geometry":{"type":"Point","coordinates":[-96.59848027035497,28.666958896890186]},"properties":{"substrate":"Mud","lease_number":null,"poll_year":2025}},{"type":"Feature","id":"41953076-e754-4f9d-89d0-c7b65fc90d03","geometry":{"type":"Point","coordinates":[-96.60171899609323,28.6634327414057]},"properties":{"substrate":"Mud","lease_number":null,"poll_year":2025}},{"type":"Feature","id":"432fa1b3-dfde-44b1-8c40-8fed5a889d6b","geometry":{"type":"Point","coordinates":[-96.60155676125123,28.656048349188794]},"properties":{"substrate":"Solid Reef","lease_number":null,"poll_year":2025}},{"type":"Feature","id":"457f61b0-ec95-4f62-9577-e1e200cd7f74","geometry":{"type":"Point","coordinates":[-96.60215318690433,28.657830420624496]},"properties":{"substrate":"Solid Reef","lease_number":null,"poll_year":2025}},{"type":"Feature","id":"491cc028-3c78-46ef-9ccf-0f2dfd552774","geometry":{"type":"Point","coordinates":[-96.5990846020809,28.657860136075755]},"properties":{"substrate":"Mud","lease_number":null,"poll_year":2025}},{"type":"Feature","id":"495ff84f-629d-4814-b15a-46b1cb593b3c","geometry":{"type":"Point","coordinates":[-96.59728307389774,28.659158958792894]},"properties":{"substrate":"Firm/Hard Bottom","lease_number":null,"poll_year":2025}},{"type":"Feature","id":"497da7b0-315b-4087-a4fb-5acf74966ccb","geometry":{"type":"Point","coordinates":[-96.59823921643164,28.65849805022088]},"properties":{"substrate":"Mud","lease_number":null,"poll_year":2025}},{"type":"Feature","id":"4b908509-5c8e-486f-b686-128208cea44f","geometry":{"type":"Point","coordinates":[-96.59642617903306,28.659737443104103]},"properties":{"substrate":"Mud","lease_number":null,"poll_year":2025}},{"type":"Feature","id":"4bf2ff5e-f403-4f50-8394-464e98a07fc9","geometry":{"type":"Point","coordinates":[-96.59465738096726,28.660896614761906]},"properties":{"substrate":"Mud","lease_number":null,"poll_year":2025}},{"type":"Feature","id":"4c510cc9-526f-4d66-8285-8244ceb6ad59","geometry":{"type":"Point","coordinates":[-96.60020105346882,28.66777363337082]},"properties":{"substrate":"Mud","lease_number":null,"poll_year":2025}},{"type":"Feature","id":"4c57a9de-b66c-4c71-9897-3c69bdf5d0f5","geometry":{"type":"Point","coordinates":[-96.59837613315567,28.658398597007803]},"properties":{"substrate":"Mud","lease_number":null,"poll_year":2025}},{"type":"Feature","id":"4d2face1-e5b4-438a-a732-e0e4c5a2f1fc","geometry":{"type":"Point","coordinates":[-96.59971332666005,28.660627638961817]},"properties":{"substrate":"Mud","lease_number":null,"poll_year":2025}},{"type":"Feature","id":"50248848-7539-4f27-b63b-0d9156be3da7","geometry":{"type":"Point","coordinates":[-96.60199551101239,28.66004236323335]},"properties":{"substrate":"Mud","lease_number":null,"poll_year":2025}},{"type":"Feature","id":"5058b7fe-ff56-4ded-8c04-6d426388da40","geometry":{"type":"Point","coordinates":[-96.59743528354116,28.665157912124968]},"properties":{"substrate":"Mud","lease_number":null,"poll_year":2025}},{"type":"Feature","id":"5152b271-fea5-4308-992b-ecb4110e9538","geometry":{"type":"Point","coordinates":[-96.59455145342558,28.665092365638895]},"properties":{"substrate":"Firm/Hard Bottom","lease_number":null,"poll_year":2025}},{"type":"Feature","id":"524a0c78-32a8-4955-9c07-b09e5aedbeb2","geometry":{"type":"Point","coordinates":[-96.6021246267665,28.658163560013875]},"properties":{"substrate":"Solid Reef","lease_number":null,"poll_year":2025}},{"type":"Feature","id":"52836b17-a628-460e-afbe-c7bb5ce5af84","geometry":{"type":"Point","coordinates":[-96.6005889325338,28.658724959459576]},"properties":{"substrate":"Mud","lease_number":null,"poll_year":2025}},{"type":"Feature","id":"53b9b2ed-ff8f-47bd-9e09-01b6d53daa33","geometry":{"type":"Point","coordinates":[-96.60214225979722,28.658012891035423]},"properties":{"substrate":"Solid Reef","lease_number":null,"poll_year":2025}},{"type":"Feature","id":"562ecd28-ecae-4aa6-ad42-07229550d631","geometry":{"type":"Point","coordinates":[-96.60182084348686,28.662298353183868]},"properties":{"substrate":"Mud","lease_number":null,"poll_year":2025}},{"type":"Feature","id":"573028c6-bc7a-40e7-9fb4-8344741860ba","geometry":{"type":"Point","coordinates":[-96.5996589166016,28.6572978057756]},"properties":{"substrate":"Mud","lease_number":null,"poll_year":2025}},{"type":"Feature","id":"57c420f9-99c4-4c16-8719-c5e462a9874e","geometry":{"type":"Point","coordinates":[-96.59717817582538,28.666358826402078]},"properties":{"substrate":"Mud","lease_number":null,"poll_year":2025}},{"type":"Feature","id":"59385285-b4a1-423d-a663-613d2229adb8","geometry":{"type":"Point","coordinates":[-96.59325009102294,28.661844507908643]},"properties":{"substrate":"Mud","lease_number":null,"poll_year":2025}},{"type":"Feature","id":"5a066d9a-a5a1-41fb-977d-b57f6a0e222a","geometry":{"type":"Point","coordinates":[-96.59555968117797,28.660318250355875]},"properties":{"substrate":"Mud","lease_number":null,"poll_year":2025}},{"type":"Feature","id":"5b7ae3b3-742b-4e83-8a8c-67dfbca882c9","geometry":{"type":"Point","coordinates":[-96.59735160637075,28.66537770119483]},"properties":{"substrate":"Mud","lease_number":null,"poll_year":2025}},{"type":"Feature","id":"5ba01200-5a2d-4b99-8459-52d297e6663d","geometry":{"type":"Point","coordinates":[-96.59510233269715,28.665362349931225]},"properties":{"substrate":"Mud","lease_number":null,"poll_year":2025}},{"type":"Feature","id":"5d03508c-2190-4144-b818-e98b3e8983cd","geometry":{"type":"Point","coordinates":[-96.60072012429451,28.658436079088517]},"properties":{"substrate":"Mud","lease_number":null,"poll_year":2025}},{"type":"Feature","id":"5ea29719-1a65-4062-a57b-5743d228622c","geometry":{"type":"Point","coordinates":[-96.6004538339999,28.659023536235697]},"properties":{"substrate":"Mud","lease_number":null,"poll_year":2025}},{"type":"Feature","id":"5fa50d2f-1d95-4ebf-a14a-2ce2b1cc55aa","geometry":{"type":"Point","coordinates":[-96.6009883414754,28.65723490613337]},"properties":{"substrate":"Mud","lease_number":null,"poll_year":2025}},{"type":"Feature","id":"5fdf2fa5-1c20-43a3-97f2-210b2ef87fd7","geometry":{"type":"Point","coordinates":[-96.60209018176525,28.658745667950768]},"properties":{"substrate":"Mud","lease_number":null,"poll_year":2025}},{"type":"Feature","id":"60d9a125-2773-4615-aef2-bfdadcafa05f","geometry":{"type":"Point","coordinates":[-96.599280261438,28.661545962814767]},"properties":{"substrate":"Mud","lease_number":null,"poll_year":2025}},{"type":"Feature","id":"62ef5d29-58e4-4317-9a35-0d82a898dbfa","geometry":{"type":"Point","coordinates":[-96.59748260948527,28.665004295809275]},"properties":{"substrate":"Mud","lease_number":null,"poll_year":2025}},{"type":"Feature","id":"64469c39-3b15-4601-9de1-e151b3fea32b","geometry":{"type":"Point","coordinates":[-96.59808702026294,28.658620522261277]},"properties":{"substrate":"Mud","lease_number":null,"poll_year":2025}},{"type":"Feature","id":"64a5ed8f-fbee-4924-8375-51ea60d835d2","geometry":{"type":"Point","coordinates":[-96.60168471817862,28.655888813686495]},"properties":{"substrate":"Mud","lease_number":null,"poll_year":2025}},{"type":"Feature","id":"66974c01-1f1d-4387-ab3c-2bef179aba07","geometry":{"type":"Point","coordinates":[-96.60122780448238,28.65647188807432]},"properties":{"substrate":"Mud","lease_number":null,"poll_year":2025}},{"type":"Feature","id":"66feb8d1-f6b5-49ef-82dd-da6f0eb68ac2","geometry":{"type":"Point","coordinates":[-96.6021854516944,28.65725650251706]},"properties":{"substrate":"Mud","lease_number":null,"poll_year":2025}},{"type":"Feature","id":"677ae681-a3e1-4c40-bc0a-40a320d668f8","geometry":{"type":"Point","coordinates":[-96.60022511214876,28.659504173234517]},"properties":{"substrate":"Mud","lease_number":null,"poll_year":2025}},{"type":"Feature","id":"67e15a10-1605-4917-bb33-7d3cc919b34e","geometry":{"type":"Point","coordinates":[-96.59203720099768,28.663641931647312]},"properties":{"substrate":"Mud","lease_number":null,"poll_year":2025}},{"type":"Feature","id":"681a6d47-a7fb-4d29-806a-b586a0e874b1","geometry":{"type":"Point","coordinates":[-96.60211551156131,28.655684891073683]},"properties":{"substrate":"Mud","lease_number":null,"poll_year":2025}},{"type":"Feature","id":"695451fc-acd9-4e86-a401-44591cf27ba1","geometry":{"type":"Point","coordinates":[-96.5924365856848,28.662408767858]},"properties":{"substrate":"Mud","lease_number":null,"poll_year":2025}},{"type":"Feature","id":"69707d39-dd41-4edc-aa96-975be98ae96e","geometry":{"type":"Point","coordinates":[-96.59738846604351,28.666457077141963]},"properties":{"substrate":"Firm/Hard Bottom","lease_number":null,"poll_year":2025}},{"type":"Feature","id":"697c35da-1c9b-47c3-8950-779893a3a465","geometry":{"type":"Point","coordinates":[-96.59414374854231,28.661237427436173]},"properties":{"substrate":"Mud","lease_number":null,"poll_year":2025}},{"type":"Feature","id":"69994526-cd2a-45db-9f6f-7beeaaa70e2d","geometry":{"type":"Point","coordinates":[-96.60196245570488,28.660491823388167]},"properties":{"substrate":"Mud","lease_number":null,"poll_year":2025}},{"type":"Feature","id":"6a5acdc9-73d8-4af1-8e9d-c37acaa7b6df","geometry":{"type":"Point","coordinates":[-96.59215847445935,28.66376541133702]},"properties":{"substrate":"Mud","lease_number":null,"poll_year":2025}},{"type":"Feature","id":"6ba10785-274d-45fe-b7b9-4e623ba0267f","geometry":{"type":"Point","coordinates":[-96.59591068260389,28.665747355727728]},"properties":{"substrate":"Firm/Hard Bottom","lease_number":null,"poll_year":2025}},{"type":"Feature","id":"6c31e62c-8ec9-4c2a-b152-4d1bad7be0da","geometry":{"type":"Point","coordinates":[-96.6020248742441,28.659650164914954]},"properties":{"substrate":"Mud","lease_number":null,"poll_year":2025}},{"type":"Feature","id":"6d004237-25d1-4c64-bd0f-25b57dea795c","geometry":{"type":"Point","coordinates":[-96.60029936868678,28.659349246427652]},"properties":{"substrate":"Mud","lease_number":null,"poll_year":2025}},{"type":"Feature","id":"6e67f472-90b3-4d84-95c7-4d646de43e32","geometry":{"type":"Point","coordinates":[-96.59553652799985,28.66556701986156]},"properties":{"substrate":"Firm/Hard Bottom","lease_number":null,"poll_year":2025}},{"type":"Feature","id":"6ea0dd4b-2d0a-4424-848e-cf95471f1dd2","geometry":{"type":"Point","coordinates":[-96.59788631776385,28.658751642205065]},"properties":{"substrate":"Mud","lease_number":null,"poll_year":2025}},{"type":"Feature","id":"73cbc386-3072-4f67-960e-6df1980bc3f7","geometry":{"type":"Point","coordinates":[-96.59276621439346,28.662175062519527]},"properties":{"substrate":"Mud","lease_number":null,"poll_year":2025}},{"type":"Feature","id":"7488ecf6-3769-481f-9637-8f9fff4cd8c1","geometry":{"type":"Point","coordinates":[-96.59794374436501,28.664418185357473]},"properties":{"substrate":"Mud","lease_number":null,"poll_year":2025}},{"type":"Feature","id":"75979eeb-863c-4533-a9e0-03d927086268","geometry":{"type":"Point","coordinates":[-96.60083717387772,28.657904610308965]},"properties":{"substrate":"Mud","lease_number":null,"poll_year":2025}},{"type":"Feature","id":"79fdcf89-f067-423a-93f0-6d1f2b16443f","geometry":{"type":"Point","coordinates":[-96.5987524149703,28.662664863273854]},"properties":{"substrate":"Mud","lease_number":null,"poll_year":2025}},{"type":"Feature","id":"7a4a05d9-531f-4bd9-87ad-e6b983b24406","geometry":{"type":"Point","coordinates":[-96.60075556552741,28.658252569688806]},"properties":{"substrate":"Mud","lease_number":null,"poll_year":2025}},{"type":"Feature","id":"7b235c1e-2408-4cf0-9cae-2b92377f6654","geometry":{"type":"Point","coordinates":[-96.59575870292916,28.66567227066763]},"properties":{"substrate":"Firm/Hard Bottom","lease_number":null,"poll_year":2025}},{"type":"Feature","id":"7b62c29d-2bcf-41a9-a51c-616667bf02be","geometry":{"type":"Point","coordinates":[-96.60065649841957,28.658579511182026]},"properties":{"substrate":"Mud","lease_number":null,"poll_year":2025}},{"type":"Feature","id":"7d165e58-d011-4518-9f5d-73ce4119d121","geometry":{"type":"Point","coordinates":[-96.60211242315337,28.658370302166343]},"properties":{"substrate":"Solid Reef","lease_number":null,"poll_year":2025}},{"type":"Feature","id":"7f0eb2d4-80a3-4b57-82ab-b72dfc0b89ed","geometry":{"type":"Point","coordinates":[-96.59538000105316,28.66042882397787]},"properties":{"substrate":"Mud","lease_number":null,"poll_year":2025}},{"type":"Feature","id":"7f2310cb-068b-47fc-905d-0c13e1751fa2","geometry":{"type":"Point","coordinates":[-96.59827398213145,28.66687489102785]},"properties":{"substrate":"Mud","lease_number":null,"poll_year":2025}},{"type":"Feature","id":"8085942f-b8a1-4943-850b-29567b5df065","geometry":{"type":"Point","coordinates":[-96.60186452227093,28.661729680850968]},"properties":{"substrate":"Firm/Hard Bottom","lease_number":null,"poll_year":2025}},{"type":"Feature","id":"818e2134-7056-4815-91e6-bdcd4a21e4fb","geometry":{"type":"Point","coordinates":[-96.60015841403556,28.65964417415847]},"properties":{"substrate":"Mud","lease_number":null,"poll_year":2025}},{"type":"Feature","id":"81ad6518-0d70-472d-adc0-7ff7235536f9","geometry":{"type":"Point","coordinates":[-96.60134742414562,28.65630848511416]},"properties":{"substrate":"Solid Reef","lease_number":null,"poll_year":2025}},{"type":"Feature","id":"83800861-bd17-4d83-933b-9844a6e9f4a1","geometry":{"type":"Point","coordinates":[-96.60216484613841,28.657679767721003]},"properties":{"substrate":"Mud","lease_number":null,"poll_year":2025}},{"type":"Feature","id":"893bb9c6-f1d8-4620-b3af-1a37f824dd93","geometry":{"type":"Point","coordinates":[-96.60220907918298,28.656831793842663]},"properties":{"substrate":"Solid Reef","lease_number":null,"poll_year":2025}},{"type":"Feature","id":"8ebea979-4a05-4eb5-970a-fe1e6cf343bb","geometry":{"type":"Point","coordinates":[-96.59999293178382,28.660005299501936]},"properties":{"substrate":"Mud","lease_number":null,"poll_year":2025}},{"type":"Feature","id":"91fcceb4-790a-44c7-a699-8492a72cc9a0","geometry":{"type":"Point","coordinates":[-96.59625157977948,28.65985181830879]},"properties":{"substrate":"Mud","lease_number":null,"poll_year":2025}},{"type":"Feature","id":"9361fdab-ead3-42b4-9388-20fc7e1ff226","geometry":{"type":"Point","coordinates":[-96.59436885647105,28.665004720658345]},"properties":{"substrate":"Mud","lease_number":null,"poll_year":2025}},{"type":"Feature","id":"95cd192e-076c-4a76-9f4a-f64b5a7230fb","geometry":{"type":"Point","coordinates":[-96.60203885652149,28.659470746338773]},"properties":{"substrate":"Mud","lease_number":null,"poll_year":2025}},{"type":"Feature","id":"9633f4ea-9c86-4542-8c83-bbd90196446d","geometry":{"type":"Point","coordinates":[-96.59397909363895,28.66135224399766]},"properties":{"substrate":"Mud","lease_number":null,"poll_year":2025}},{"type":"Feature","id":"969ef800-a9a7-449e-b362-75ca5b8d8861","geometry":{"type":"Point","coordinates":[-96.59194369356312,28.663512879825976]},"properties":{"substrate":"Mud","lease_number":null,"poll_year":2025}},{"type":"Feature","id":"98667795-7a7e-4672-910c-cc2f77347a85","geometry":{"type":"Point","coordinates":[-96.59946637350025,28.667435629809688]},"properties":{"substrate":"Mud","lease_number":null,"poll_year":2025}},{"type":"Feature","id":"9929e363-b0e2-4eb1-8db4-2598476b7660","geometry":{"type":"Point","coordinates":[-96.59723918850115,28.665675889349437]},"properties":{"substrate":"Mud","lease_number":null,"poll_year":2025}},{"type":"Feature","id":"9964cb80-ad4b-4ea2-9a36-08d61ebbf830","geometry":{"type":"Point","coordinates":[-96.59937386858554,28.65759637715706]},"properties":{"substrate":"Mud","lease_number":null,"poll_year":2025}},{"type":"Feature","id":"9a0a16d6-6574-40a3-a28e-ffcdb12be2e5","geometry":{"type":"Point","coordinates":[-96.59974604060774,28.65720257579406]},"properties":{"substrate":"Mud","lease_number":null,"poll_year":2025}},{"type":"Feature","id":"9e2f66bb-19fe-4bc4-b456-246e01caccad","geometry":{"type":"Point","coordinates":[-96.5949473050387,28.660710953019013]},"properties":{"substrate":"Mud","lease_number":null,"poll_year":2025}},{"type":"Feature","id":"9f881b14-95cf-4038-8873-6ea88904eb85","geometry":{"type":"Point","coordinates":[-96.5990534107776,28.66202216937706]},"properties":{"substrate":"Mud","lease_number":null,"poll_year":2025}},{"type":"Feature","id":"a1d09b50-d3b3-48e7-a91b-46439bbc9555","geometry":{"type":"Point","coordinates":[-96.59765803608721,28.658913110113076]},"properties":{"substrate":"Mud","lease_number":null,"poll_year":2025}},{"type":"Feature","id":"a3823065-fd48-4848-8aeb-5342a076e2c8","geometry":{"type":"Point","coordinates":[-96.59948737521327,28.657481110318894]},"properties":{"substrate":"Mud","lease_number":null,"poll_year":2025}},{"type":"Feature","id":"a4d6d3f3-c9fd-447c-8c79-77552bf45793","geometry":{"type":"Point","coordinates":[-96.60179436474554,28.66259810686406]},"properties":{"substrate":"Firm/Hard Bottom","lease_number":null,"poll_year":2025}},{"type":"Feature","id":"a7138378-aa21-4a33-bb76-853a7296392f","geometry":{"type":"Point","coordinates":[-96.5948051430517,28.660802492385983]},"properties":{"substrate":"Mud","lease_number":null,"poll_year":2025}},{"type":"Feature","id":"a7357059-e1d1-44a3-add4-aeffd0e2c19a","geometry":{"type":"Point","coordinates":[-96.59985057755736,28.667610033638585]},"properties":{"substrate":"Mud","lease_number":null,"poll_year":2025}},{"type":"Feature","id":"a85785c1-e1f5-4bfb-9866-9a17291376e5","geometry":{"type":"Point","coordinates":[-96.59856542255908,28.663060284427537]},"properties":{"substrate":"Mud","lease_number":null,"poll_year":2025}},{"type":"Feature","id":"a8f73db1-7a65-4347-ad7f-433a25e5f1e5","geometry":{"type":"Point","coordinates":[-96.59978943372755,28.66045509009295]},"properties":{"substrate":"Mud","lease_number":null,"poll_year":2025}},{"type":"Feature","id":"aa4678c6-8a70-46b7-b3d0-0ad431bab00f","geometry":{"type":"Point","coordinates":[-96.60192926205681,28.6609753756882]},"properties":{"substrate":"Mud","lease_number":null,"poll_year":2025}},{"type":"Feature","id":"aae2878d-1e7f-4f03-8b9d-1ea46638ab2a","geometry":{"type":"Point","coordinates":[-96.59879439234521,28.658079350823034]},"properties":{"substrate":"Mud","lease_number":null,"poll_year":2025}},{"type":"Feature","id":"ab518a9c-6f7e-411b-a3bf-7d8a379d1234","geometry":{"type":"Point","coordinates":[-96.597029995126,28.666277287936705]},"properties":{"substrate":"Mud","lease_number":null,"poll_year":2025}},{"type":"Feature","id":"ad92291c-f021-42ce-ac8a-ce672d5ec5d8","geometry":{"type":"Point","coordinates":[-96.60087510793552,28.657719867121582]},"properties":{"substrate":"Mud","lease_number":null,"poll_year":2025}},{"type":"Feature","id":"af7c1b71-f9ee-4640-b3c5-1b8c497fccd4","geometry":{"type":"Point","coordinates":[-96.59182329236559,28.663358407446566]},"properties":{"substrate":"Mud","lease_number":null,"poll_year":2025}},{"type":"Feature","id":"af91d22b-6c74-40f1-9e10-6f8dda97fd3c","geometry":{"type":"Point","coordinates":[-96.59948250903938,28.661106922280837]},"properties":{"substrate":"Mud","lease_number":null,"poll_year":2025}},{"type":"Feature","id":"b08498bd-595c-4d5b-a882-43b38935d6f0","geometry":{"type":"Point","coordinates":[-96.59902902690753,28.667231980307207]},"properties":{"substrate":"Firm/Hard Bottom","lease_number":null,"poll_year":2025}},{"type":"Feature","id":"b2a40ec0-2b3a-44e3-9441-b2da9fac1678","geometry":{"type":"Point","coordinates":[-96.59760170902396,28.66656036993998]},"properties":{"substrate":"Mud","lease_number":null,"poll_year":2025}},{"type":"Feature","id":"b52bce8e-3829-4364-8f1f-eeba83121deb","geometry":{"type":"Point","coordinates":[-96.60079520728257,28.658092617393223]},"properties":{"substrate":"Mud","lease_number":null,"poll_year":2025}},{"type":"Feature","id":"b5e4b36b-8fef-4e26-a3b7-d8bc0ef28634","geometry":{"type":"Point","coordinates":[-96.60175598153009,28.663016213591863]},"properties":{"substrate":"Mud","lease_number":null,"poll_year":2025}},{"type":"Feature","id":"b7d2ccda-3dc2-4630-832c-d42460d004ca","geometry":{"type":"Point","coordinates":[-96.59212800989312,28.66261860097841]},"properties":{"substrate":"Mud","lease_number":null,"poll_year":2025}},{"type":"Feature","id":"b9b731fe-1d03-4e56-9cbc-ff59738e9bb8","geometry":{"type":"Point","coordinates":[-96.59611514455244,28.659948917989805]},"properties":{"substrate":"Mud","lease_number":null,"poll_year":2025}},{"type":"Feature","id":"ba95d261-b896-4a61-af83-d18a1e4b253e","geometry":{"type":"Point","coordinates":[-96.60220137523112,28.65701441024642]},"properties":{"substrate":"Mud","lease_number":null,"poll_year":2025}},{"type":"Feature","id":"bd402cd4-66cd-470a-ad8a-8ecbbc38c3bd","geometry":{"type":"Point","coordinates":[-96.60225201865357,28.656144322782072]},"properties":{"substrate":"Mud","lease_number":null,"poll_year":2025}},{"type":"Feature","id":"bd848b2b-98ae-4115-a0f5-052d795b458d","geometry":{"type":"Point","coordinates":[-96.59310712684042,28.661945411367387]},"properties":{"substrate":"Mud","lease_number":null,"poll_year":2025}},{"type":"Feature","id":"bf5805d8-9cde-4ebc-8081-6ffc2fb80290","geometry":{"type":"Point","coordinates":[-96.59963721420266,28.660778529621336]},"properties":{"substrate":"Mud","lease_number":null,"poll_year":2025}},{"type":"Feature","id":"bfdf0511-1e3c-4f22-858e-7cfafde5f1b8","geometry":{"type":"Point","coordinates":[-96.59341906861945,28.66173427708864]},"properties":{"substrate":"Mud","lease_number":null,"poll_year":2025}},{"type":"Feature","id":"bff49b6e-5fcd-4620-b0aa-5755b1718931","geometry":{"type":"Point","coordinates":[-96.60191078730469,28.6611884127445]},"properties":{"substrate":"Mud","lease_number":null,"poll_year":2025}},{"type":"Feature","id":"c0ed9230-8de4-4b00-bd51-3c53873df100","geometry":{"type":"Point","coordinates":[-96.59805057561186,28.664183106685105]},"properties":{"substrate":"Mud","lease_number":null,"poll_year":2025}},{"type":"Feature","id":"c1fa3cdc-3316-4dc8-a1a5-8c02fc6fce87","geometry":{"type":"Point","coordinates":[-96.59769792667572,28.66457802237924]},"properties":{"substrate":"Mud","lease_number":null,"poll_year":2025}},{"type":"Feature","id":"c3b9c037-9b06-43a3-8545-04e90d1811ac","geometry":{"type":"Point","coordinates":[-96.59517734382001,28.660557457094065]},"properties":{"substrate":"Mud","lease_number":null,"poll_year":2025}},{"type":"Feature","id":"c76dd9a4-a5c0-4dd0-805f-efc723c71686","geometry":{"type":"Point","coordinates":[-96.59226699184399,28.66252143755851]},"properties":{"substrate":"Mud","lease_number":null,"poll_year":2025}},{"type":"Feature","id":"c840a86b-3db9-43a5-8584-d928d7ded8fe","geometry":{"type":"Point","coordinates":[-96.60051779674308,28.658877832975083]},"properties":{"substrate":"Mud","lease_number":null,"poll_year":2025}},{"type":"Feature","id":"c87e0608-7ced-4101-ac29-6b720987a548","geometry":{"type":"Point","coordinates":[-96.599259009095,28.657711842513056]},"properties":{"substrate":"Mud","lease_number":null,"poll_year":2025}},{"type":"Feature","id":"ca4d8a77-f22a-49e5-a981-93aa4bd77e44","geometry":{"type":"Point","coordinates":[-96.59918769184459,28.661725442474875]},"properties":{"substrate":"Mud","lease_number":null,"poll_year":2025}},{"type":"Feature","id":"ca4fc6be-fafb-4407-9ced-4678caab98b4","geometry":{"type":"Point","coordinates":[-96.60164446467073,28.66420766141521]},"properties":{"substrate":"Mud","lease_number":null,"poll_year":2025}},{"type":"Feature","id":"ca56ffbb-4804-4d22-a415-38faa55fe06f","geometry":{"type":"Point","coordinates":[-96.59836089772844,28.66351057741085]},"properties":{"substrate":"Mud","lease_number":null,"poll_year":2025}},{"type":"Feature","id":"cce0fbe3-350e-4da4-8629-17034946bec8","geometry":{"type":"Point","coordinates":[-96.60107236000562,28.65692094496174]},"properties":{"substrate":"Mud","lease_number":null,"poll_year":2025}},{"type":"Feature","id":"cd99b812-3eaf-416e-a42b-ac422a8e2773","geometry":{"type":"Point","coordinates":[-96.59473960196858,28.665182475297097]},"properties":{"substrate":"Mud","lease_number":null,"poll_year":2025}},{"type":"Feature","id":"d02d7c59-26ae-45e6-9225-504551de52ba","geometry":{"type":"Point","coordinates":[-96.5999280788102,28.66015213706888]},"properties":{"substrate":"Mud","lease_number":null,"poll_year":2025}},{"type":"Feature","id":"d1f84b93-01a9-4c65-9aef-71e0600e7c8e","geometry":{"type":"Point","coordinates":[-96.59683560688502,28.66619565088177]},"properties":{"substrate":"Mud","lease_number":null,"poll_year":2025}},{"type":"Feature","id":"d2f5ccae-8986-4c61-b4d2-d1a3f6c4bc94","geometry":{"type":"Point","coordinates":[-96.60101844042732,28.65708767822465]},"properties":{"substrate":"Mud","lease_number":null,"poll_year":2025}},{"type":"Feature","id":"d4223483-080c-420c-920c-c4b7ec710fac","geometry":{"type":"Point","coordinates":[-96.60227956459345,28.655813130349646]},"properties":{"substrate":"Mud","lease_number":null,"poll_year":2025}},{"type":"Feature","id":"d69b0c54-7121-42a3-af89-3821793e02b6","geometry":{"type":"Point","coordinates":[-96.60204703837711,28.65931790521832]},"properties":{"substrate":"Mud","lease_number":null,"poll_year":2025}},{"type":"Feature","id":"d7cf8a99-fefe-414c-a56a-9da3fe4d1747","geometry":{"type":"Point","coordinates":[-96.59650068260777,28.666024989482313]},"properties":{"substrate":"Firm/Hard Bottom","lease_number":null,"poll_year":2025}},{"type":"Feature","id":"db2c878a-ff0f-4514-9f93-628fc32c5f46","geometry":{"type":"Point","coordinates":[-96.6018353800248,28.66209394487176]},"properties":{"substrate":"Firm/Hard Bottom","lease_number":null,"poll_year":2025}},{"type":"Feature","id":"dc6f4e26-e8cf-4971-ae21-a28c4b3adb7d","geometry":{"type":"Point","coordinates":[-96.60210359810402,28.658600919681582]},"properties":{"substrate":"Mud","lease_number":null,"poll_year":2025}},{"type":"Feature","id":"df44604d-c32a-4451-b5cc-09c32c519792","geometry":{"type":"Point","coordinates":[-96.59896585108855,28.6621965956146]},"properties":{"substrate":"Mud","lease_number":null,"poll_year":2025}},{"type":"Feature","id":"e2133a23-44d2-48b5-b04c-dc3d2127b9ee","geometry":{"type":"Point","coordinates":[-96.59820222470654,28.66386497769214]},"properties":{"substrate":"Mud","lease_number":null,"poll_year":2025}},{"type":"Feature","id":"e3c44aac-1dd8-41bc-87c3-d4ad9fd12f1d","geometry":{"type":"Point","coordinates":[-96.59628679553524,28.665922936799507]},"properties":{"substrate":"Firm/Hard Bottom","lease_number":null,"poll_year":2025}},{"type":"Feature","id":"e4e758d7-c8c3-4bd7-83d7-98ad9f878e2c","geometry":{"type":"Point","coordinates":[-96.59431244137289,28.661121420496933]},"properties":{"substrate":"Mud","lease_number":null,"poll_year":2025}},{"type":"Feature","id":"e5724bdb-81ac-4454-a8ad-902d8d094756","geometry":{"type":"Point","coordinates":[-96.6009525229501,28.65740308695684]},"properties":{"substrate":"Mud","lease_number":null,"poll_year":2025}},{"type":"Feature","id":"e975c7e2-972d-4a95-a121-d3de1ead399a","geometry":{"type":"Point","coordinates":[-96.60217264980326,28.657433837533112]},"properties":{"substrate":"Solid Reef","lease_number":null,"poll_year":2025}},{"type":"Feature","id":"e97b6afb-fca6-4270-9cbb-6fe97e5e8e33","geometry":{"type":"Point","coordinates":[-96.60180629527083,28.662449987898224]},"properties":{"substrate":"Mud","lease_number":null,"poll_year":2025}},{"type":"Feature","id":"ea67182f-ae62-4feb-a414-607a2ff15f2f","geometry":{"type":"Point","coordinates":[-96.59448887947784,28.661005453629947]},"properties":{"substrate":"Mud","lease_number":null,"poll_year":2025}},{"type":"Feature","id":"ead91fbf-003e-45f7-be2f-aa3ba3f82be8","geometry":{"type":"Point","coordinates":[-96.59729743885744,28.665518862405936]},"properties":{"substrate":"Mud","lease_number":null,"poll_year":2025}},{"type":"Feature","id":"ec62b9ac-a23c-468e-9f37-e02932a768d6","geometry":{"type":"Point","coordinates":[-96.59895575582138,28.657960717025983]},"properties":{"substrate":"Mud","lease_number":null,"poll_year":2025}},{"type":"Feature","id":"ec89b802-3de9-4247-9163-353ba2ab7172","geometry":{"type":"Point","coordinates":[-96.60188204570717,28.661580891439733]},"properties":{"substrate":"Mud","lease_number":null,"poll_year":2025}},{"type":"Feature","id":"ed815045-9695-44fe-9d53-97ef395e08bd","geometry":{"type":"Point","coordinates":[-96.59843603461543,28.663365343077945]},"properties":{"substrate":"Mud","lease_number":null,"poll_year":2025}},{"type":"Feature","id":"efe62f26-4abb-42fb-888a-cfe0c6d25356","geometry":{"type":"Point","coordinates":[-96.59491831460782,28.665272884399474]},"properties":{"substrate":"Mud","lease_number":null,"poll_year":2025}},{"type":"Feature","id":"f01d0182-f2ea-4b57-92b9-db3e74b7b99a","geometry":{"type":"Point","coordinates":[-96.60185219019871,28.661911175727248]},"properties":{"substrate":"Firm/Hard Bottom","lease_number":null,"poll_year":2025}},{"type":"Feature","id":"f0398fa3-ebe8-49e9-ac1f-8cf31d497b57","geometry":{"type":"Point","coordinates":[-96.59755820271643,28.664797100903762]},"properties":{"substrate":"Mud","lease_number":null,"poll_year":2025}},{"type":"Feature","id":"f0ef9d6e-8d39-445e-93c1-7a0b44a9631d","geometry":{"type":"Point","coordinates":[-96.59748384377048,28.659027712448324]},"properties":{"substrate":"Solid Reef","lease_number":null,"poll_year":2025}},{"type":"Feature","id":"f266ede2-c2b5-4e50-bdc8-b2d781dd4888","geometry":{"type":"Point","coordinates":[-96.60222408823475,28.656626499091626]},"properties":{"substrate":"Solid Reef","lease_number":null,"poll_year":2025}},{"type":"Feature","id":"f7d352ce-7ee5-4851-b1c7-62bc6ea650ee","geometry":{"type":"Point","coordinates":[-96.60189826748459,28.66136690298172]},"properties":{"substrate":"Mud","lease_number":null,"poll_year":2025}},{"type":"Feature","id":"f8175a11-3f8c-4d44-b7b4-f263085515af","geometry":{"type":"Point","coordinates":[-96.59708171113691,28.659293838063967]},"properties":{"substrate":"Firm/Hard Bottom","lease_number":null,"poll_year":2025}},{"type":"Feature","id":"fa0e4dbd-28e1-41f4-89a6-c03bf429e948","geometry":{"type":"Point","coordinates":[-96.60005962181218,28.659857361324075]},"properties":{"substrate":"Mud","lease_number":null,"poll_year":2025}},{"type":"Feature","id":"fa1299f8-545b-4242-9140-0c0aa73444ba","geometry":{"type":"Point","coordinates":[-96.60197249617482,28.660341674849473]},"properties":{"substrate":"Mud","lease_number":null,"poll_year":2025}},{"type":"Feature","id":"fba3d491-4e52-4071-8889-c187e80a690a","geometry":{"type":"Point","coordinates":[-96.5986638132355,28.65817712453889]},"properties":{"substrate":"Mud","lease_number":null,"poll_year":2025}},{"type":"Feature","id":"fe7c5788-acad-4425-8359-89d3b537c4bf","geometry":{"type":"Point","coordinates":[-96.60195011375119,28.655725557227267]},"properties":{"substrate":"Mud","lease_number":null,"poll_year":2025}},{"type":"Feature","id":"ff0469f8-933e-42a3-9b97-5971def1a751","geometry":{"type":"Point","coordinates":[-96.59296751517053,28.66432314392378]},"properties":{"substrate":"Mud","lease_number":null,"poll_year":2025}}]}