{"type":"FeatureCollection","features":[{"type":"Feature","id":"004e8ae1-00c7-45f3-b9f8-095265c16ef1","geometry":{"type":"Point","coordinates":[-96.60155768831258,28.643942594504292]},"properties":{"substrate":"Mud","lease_number":null,"poll_year":2025}},{"type":"Feature","id":"0b532009-8012-4f5c-b9d2-96a0148c0310","geometry":{"type":"Point","coordinates":[-96.6030049622702,28.642996740680278]},"properties":{"substrate":"Mud","lease_number":null,"poll_year":2025}},{"type":"Feature","id":"0cf548af-cba2-4f87-830d-f56b4dc7208b","geometry":{"type":"Point","coordinates":[-96.60021961805249,28.643903546258688]},"properties":{"substrate":"Mud","lease_number":null,"poll_year":2025}},{"type":"Feature","id":"13a638df-b609-4d84-921d-7cb13ae2d920","geometry":{"type":"Point","coordinates":[-96.60363897523143,28.642557300814527]},"properties":{"substrate":"Mud","lease_number":null,"poll_year":2025}},{"type":"Feature","id":"1c429b09-ce0d-4018-83d2-d675c292a2ee","geometry":{"type":"Point","coordinates":[-96.59915853163216,28.64322846262795]},"properties":{"substrate":"Mud","lease_number":null,"poll_year":2025}},{"type":"Feature","id":"315f7579-33be-4bb2-9482-89bedc99d691","geometry":{"type":"Point","coordinates":[-96.59965119019184,28.64354475897673]},"properties":{"substrate":"Mud","lease_number":null,"poll_year":2025}},{"type":"Feature","id":"37d5d6e9-6a6a-4c14-a3b4-c7d29677e952","geometry":{"type":"Point","coordinates":[-96.60042853923812,28.644027061809286]},"properties":{"substrate":"Mud","lease_number":null,"poll_year":2025}},{"type":"Feature","id":"56139bae-4d01-42ca-b6ab-88b6733a5bba","geometry":{"type":"Point","coordinates":[-96.60348757766504,28.642664159374387]},"properties":{"substrate":"Mud","lease_number":null,"poll_year":2025}},{"type":"Feature","id":"65107b5b-b11e-491c-b1af-122146752aba","geometry":{"type":"Point","coordinates":[-96.5989426386216,28.64308928650826]},"properties":{"substrate":"Mud","lease_number":null,"poll_year":2025}},{"type":"Feature","id":"6864cf81-1af0-4198-b5f9-aaf29b82ab30","geometry":{"type":"Point","coordinates":[-96.60140994688939,28.64401360976818]},"properties":{"substrate":"Mud","lease_number":null,"poll_year":2025}},{"type":"Feature","id":"6889e9e9-33b9-4dca-8e05-cc4e785b759d","geometry":{"type":"Point","coordinates":[-96.59948587412843,28.643433259336504]},"properties":{"substrate":"Mud","lease_number":null,"poll_year":2025}},{"type":"Feature","id":"6f065d19-493a-4ec7-9c3b-78b357633322","geometry":{"type":"Point","coordinates":[-96.59979583063068,28.643634347904467]},"properties":{"substrate":"Mud","lease_number":null,"poll_year":2025}},{"type":"Feature","id":"7eaa710c-9b74-43f8-aed0-8ee5cdb754e4","geometry":{"type":"Point","coordinates":[-96.60079474105696,28.644278256660364]},"properties":{"substrate":"Mud","lease_number":null,"poll_year":2025}},{"type":"Feature","id":"887a3ccb-9554-4513-9f5a-67eab066efff","geometry":{"type":"Point","coordinates":[-96.60269390084014,28.643198123362776]},"properties":{"substrate":"Mud","lease_number":null,"poll_year":2025}},{"type":"Feature","id":"9291118c-5320-4473-9fd1-20f3ae991b40","geometry":{"type":"Point","coordinates":[-96.59934722185928,28.643340788708066]},"properties":{"substrate":"Mud","lease_number":null,"poll_year":2025}},{"type":"Feature","id":"93432df4-c6e4-421e-9f5d-7c6790c11aba","geometry":{"type":"Point","coordinates":[-96.60284763402629,28.643097217630007]},"properties":{"substrate":"Mud","lease_number":null,"poll_year":2025}},{"type":"Feature","id":"a19c345c-64ce-4033-ad45-9beecedae711","geometry":{"type":"Point","coordinates":[-96.60379627203433,28.642454114451073]},"properties":{"substrate":"Mud","lease_number":null,"poll_year":2025}},{"type":"Feature","id":"a626dda1-a37b-44ce-b5c5-52aa3396ad2f","geometry":{"type":"Point","coordinates":[-96.59991304999548,28.643710519364372]},"properties":{"substrate":"Mud","lease_number":null,"poll_year":2025}},{"type":"Feature","id":"a7bdc973-887d-495b-9420-6c28a55147ac","geometry":{"type":"Point","coordinates":[-96.60409407433079,28.642118134255846]},"properties":{"substrate":"Mud","lease_number":null,"poll_year":2025}},{"type":"Feature","id":"b88ea2d7-67db-4dde-b084-02acbf7c9ed6","geometry":{"type":"Point","coordinates":[-96.60233400699124,28.643431436603528]},"properties":{"substrate":"Mud","lease_number":null,"poll_year":2025}},{"type":"Feature","id":"c63d1f4f-b6ea-4960-aa10-6e56d2a6042c","geometry":{"type":"Point","coordinates":[-96.60065596482029,28.64418518840118]},"properties":{"substrate":"Mud","lease_number":null,"poll_year":2025}},{"type":"Feature","id":"c88d24e3-ec54-423e-8a1d-394372c390f0","geometry":{"type":"Point","coordinates":[-96.60398530362123,28.64224975653996]},"properties":{"substrate":"Mud","lease_number":null,"poll_year":2025}},{"type":"Feature","id":"cdecd79f-5244-4784-be58-b6d4f8f91d4a","geometry":{"type":"Point","coordinates":[-96.60170560580559,28.643859374342274]},"properties":{"substrate":"Mud","lease_number":null,"poll_year":2025}},{"type":"Feature","id":"d39fe5a3-9c47-40db-a52e-0a3ff3115666","geometry":{"type":"Point","coordinates":[-96.60125804896138,28.64408406050792]},"properties":{"substrate":"Mud","lease_number":null,"poll_year":2025}},{"type":"Feature","id":"d44c9139-dfd2-41b6-9d20-e9166d7b8269","geometry":{"type":"Point","coordinates":[-96.60111234132397,28.64415939517653]},"properties":{"substrate":"Mud","lease_number":null,"poll_year":2025}},{"type":"Feature","id":"d81ac4be-d031-40fb-ad11-98c8719f9f49","geometry":{"type":"Point","coordinates":[-96.60316120984083,28.64289163345872]},"properties":{"substrate":"Mud","lease_number":null,"poll_year":2025}},{"type":"Feature","id":"daf049ba-34cb-418b-88c0-17cd8ed70126","geometry":{"type":"Point","coordinates":[-96.60331116830616,28.642780912047925]},"properties":{"substrate":"Mud","lease_number":null,"poll_year":2025}},{"type":"Feature","id":"db39e6b5-905d-427b-85d5-70a9104cebb6","geometry":{"type":"Point","coordinates":[-96.60005421934407,28.643803365722516]},"properties":{"substrate":"Mud","lease_number":null,"poll_year":2025}},{"type":"Feature","id":"de6b4346-e06a-46bf-bd9e-89da6755256a","geometry":{"type":"Point","coordinates":[-96.60255906641093,28.643281471767015]},"properties":{"substrate":"Mud","lease_number":null,"poll_year":2025}},{"type":"Feature","id":"e0801abc-e6e7-47da-af0e-8132ae2d1501","geometry":{"type":"Point","coordinates":[-96.60186410814758,28.643752174844327]},"properties":{"substrate":"Mud","lease_number":null,"poll_year":2025}},{"type":"Feature","id":"e3fa50b7-5c47-4f4b-9a8e-ce1870336ced","geometry":{"type":"Point","coordinates":[-96.60244755943305,28.643358935637764]},"properties":{"substrate":"Mud","lease_number":null,"poll_year":2025}},{"type":"Feature","id":"f07a8c3a-0169-453d-b8a3-34d0ff93004e","geometry":{"type":"Point","coordinates":[-96.60220143451993,28.643523974952597]},"properties":{"substrate":"Mud","lease_number":null,"poll_year":2025}},{"type":"Feature","id":"fce9d337-a066-42e2-97aa-fe067392c1fb","geometry":{"type":"Point","coordinates":[-96.60202111748957,28.643645073784064]},"properties":{"substrate":"Mud","lease_number":null,"poll_year":2025}}]}