{"type":"FeatureCollection","features":[{"type":"Feature","id":"00009f28-690d-4d52-8259-057dd3bac857","geometry":{"type":"Point","coordinates":[-96.61168460132636,28.693321930225203]},"properties":{"substrate":"Mud","lease_number":null,"poll_year":2025}},{"type":"Feature","id":"032fdf43-63ee-46bc-afb9-3f3bac8f7589","geometry":{"type":"Point","coordinates":[-96.61288685170538,28.700743029685924]},"properties":{"substrate":"Mud","lease_number":null,"poll_year":2025}},{"type":"Feature","id":"08b906fa-4e30-47a7-8aec-88ca39a66661","geometry":{"type":"Point","coordinates":[-96.61115156349466,28.69330531042983]},"properties":{"substrate":"Mud","lease_number":null,"poll_year":2025}},{"type":"Feature","id":"0c97c30c-5782-4e84-a8ad-981d97626077","geometry":{"type":"Point","coordinates":[-96.6106076093356,28.693598233247325]},"properties":{"substrate":"Mud","lease_number":null,"poll_year":2025}},{"type":"Feature","id":"0d75e25d-11f0-4af9-bcd5-1a5e89687541","geometry":{"type":"Point","coordinates":[-96.61120969437499,28.693125749333472]},"properties":{"substrate":"Mud","lease_number":null,"poll_year":2025}},{"type":"Feature","id":"0e5083ae-fed6-4200-ad71-c384d6c18cb2","geometry":{"type":"Point","coordinates":[-96.61195683936647,28.691670446614655]},"properties":{"substrate":"Mud","lease_number":null,"poll_year":2025}},{"type":"Feature","id":"1007e25c-df0b-4d92-a72c-aae5ec19d553","geometry":{"type":"Point","coordinates":[-96.61183076890119,28.692385895393322]},"properties":{"substrate":"Firm/Hard Bottom","lease_number":null,"poll_year":2025}},{"type":"Feature","id":"12429fc7-c175-4791-abac-4179796d08ee","geometry":{"type":"Point","coordinates":[-96.61109468666243,28.693469139527988]},"properties":{"substrate":"Mud","lease_number":null,"poll_year":2025}},{"type":"Feature","id":"133cec52-1473-479e-a92c-9854fa3b54fb","geometry":{"type":"Point","coordinates":[-96.61139227336322,28.692450984304152]},"properties":{"substrate":"Mud","lease_number":null,"poll_year":2025}},{"type":"Feature","id":"15779ec7-3a26-4b93-9f7f-1fc49c51a85d","geometry":{"type":"Point","coordinates":[-96.61173753724943,28.69294124160967]},"properties":{"substrate":"Mud","lease_number":null,"poll_year":2025}},{"type":"Feature","id":"16f471e4-ccb0-4087-afa5-34fbb9fc3e8d","geometry":{"type":"Point","coordinates":[-96.61223831657928,28.69983713116254]},"properties":{"substrate":"Mud","lease_number":null,"poll_year":2025}},{"type":"Feature","id":"18f378eb-3522-4e3a-9c9c-549cb38d824a","geometry":{"type":"Point","coordinates":[-96.61193960698436,28.69112992105328]},"properties":{"substrate":"Mud","lease_number":null,"poll_year":2025}},{"type":"Feature","id":"225141d1-e5b6-46ab-80c4-4dfe4db9caab","geometry":{"type":"Point","coordinates":[-96.61248738257666,28.700377365920925]},"properties":{"substrate":"Mud","lease_number":null,"poll_year":2025}},{"type":"Feature","id":"22a57e92-4074-4b24-9a41-4f1b184068d3","geometry":{"type":"Point","coordinates":[-96.61179771449198,28.692562845506284]},"properties":{"substrate":"Firm/Hard Bottom","lease_number":null,"poll_year":2025}},{"type":"Feature","id":"2308a28a-3820-41f7-8a34-79e1b42bcf9a","geometry":{"type":"Point","coordinates":[-96.61040621513372,28.691149334726457]},"properties":{"substrate":"Mud","lease_number":null,"poll_year":2025}},{"type":"Feature","id":"24377be4-fb4c-487d-bdd9-5be7a994de55","geometry":{"type":"Point","coordinates":[-96.61144715413889,28.69874774456745]},"properties":{"substrate":"Mud","lease_number":null,"poll_year":2025}},{"type":"Feature","id":"24e353dc-1e0c-4658-8d1e-4aa51597d439","geometry":{"type":"Point","coordinates":[-96.611148957482,28.692195159490414]},"properties":{"substrate":"Mud","lease_number":null,"poll_year":2025}},{"type":"Feature","id":"282d801a-88a1-4477-9be3-fe12ab131914","geometry":{"type":"Point","coordinates":[-96.61118619893874,28.698554188311824]},"properties":{"substrate":"Mud","lease_number":null,"poll_year":2025}},{"type":"Feature","id":"2a094cdd-fa8c-49b3-ac42-c4773829ae20","geometry":{"type":"Point","coordinates":[-96.61184597558231,28.693546198310287]},"properties":{"substrate":"Mud","lease_number":null,"poll_year":2025}},{"type":"Feature","id":"2a1eb888-3839-42bf-8aee-415c673ad148","geometry":{"type":"Point","coordinates":[-96.61137375549195,28.691328511507415]},"properties":{"substrate":"Firm/Hard Bottom","lease_number":null,"poll_year":2025}},{"type":"Feature","id":"2cc5ce49-06fa-441b-8e50-1bcdbc2becd0","geometry":{"type":"Point","coordinates":[-96.61145063690725,28.691636423996254]},"properties":{"substrate":"Firm/Hard Bottom","lease_number":null,"poll_year":2025}},{"type":"Feature","id":"332574a3-5a2d-4410-8c0d-924daeef1e14","geometry":{"type":"Point","coordinates":[-96.6110421100655,28.69117178227415]},"properties":{"substrate":"Mud","lease_number":null,"poll_year":2025}},{"type":"Feature","id":"37cb7090-001b-48cf-9eb5-14864f19b2de","geometry":{"type":"Point","coordinates":[-96.61100772525135,28.690780717818846]},"properties":{"substrate":"Firm/Hard Bottom","lease_number":null,"poll_year":2025}},{"type":"Feature","id":"3d338905-9684-4fa6-b89d-b1ce997d0719","geometry":{"type":"Point","coordinates":[-96.61134883083609,28.691147980907385]},"properties":{"substrate":"Firm/Hard Bottom","lease_number":null,"poll_year":2025}},{"type":"Feature","id":"3e51bf36-f26c-47a4-abc2-9ff250e277d5","geometry":{"type":"Point","coordinates":[-96.61113808337548,28.69200090239345]},"properties":{"substrate":"Mud","lease_number":null,"poll_year":2025}},{"type":"Feature","id":"4270e935-7f51-46d1-8956-06bdb7f8b996","geometry":{"type":"Point","coordinates":[-96.61056425574166,28.69323776111153]},"properties":{"substrate":"Mud","lease_number":null,"poll_year":2025}},{"type":"Feature","id":"507220bf-d554-4a33-9922-d4b8ef2d70fa","geometry":{"type":"Point","coordinates":[-96.61045233284378,28.691666661771322]},"properties":{"substrate":"Mud","lease_number":null,"poll_year":2025}},{"type":"Feature","id":"516dcac4-99a6-4d86-9620-beb5cdb4aa97","geometry":{"type":"Point","coordinates":[-96.61170842824095,28.69312915903346]},"properties":{"substrate":"Mud","lease_number":null,"poll_year":2025}},{"type":"Feature","id":"53c89473-9f77-4c5e-9b4f-93bdeb15ba01","geometry":{"type":"Point","coordinates":[-96.61040136153626,28.690980564254016]},"properties":{"substrate":"Mud","lease_number":null,"poll_year":2025}},{"type":"Feature","id":"56c215b0-6ee7-4905-b370-52f68feaf1cb","geometry":{"type":"Point","coordinates":[-96.6110093278458,28.693831088367507]},"properties":{"substrate":"Mud","lease_number":null,"poll_year":2025}},{"type":"Feature","id":"572546d2-6277-49dd-8ac5-6b950e7df012","geometry":{"type":"Point","coordinates":[-96.61116620603377,28.69242400754455]},"properties":{"substrate":"Mud","lease_number":null,"poll_year":2025}},{"type":"Feature","id":"580b6ed3-9a85-49d8-8b82-385dde9cee93","geometry":{"type":"Point","coordinates":[-96.61052583210201,28.69274181262178]},"properties":{"substrate":"Mud","lease_number":null,"poll_year":2025}},{"type":"Feature","id":"5d6723b4-9211-4f30-832d-cdeabfbceb92","geometry":{"type":"Point","coordinates":[-96.6113423845256,28.69372408181919]},"properties":{"substrate":"Mud","lease_number":null,"poll_year":2025}},{"type":"Feature","id":"5e0c194a-cd71-4779-a00a-a141453c9ae1","geometry":{"type":"Point","coordinates":[-96.61352224358058,28.701566734896534]},"properties":{"substrate":"Mud","lease_number":null,"poll_year":2025}},{"type":"Feature","id":"66fdca22-fbd6-42e0-ad59-a124e94ffbe8","geometry":{"type":"Point","coordinates":[-96.61166121458625,28.69905309405835]},"properties":{"substrate":"Mud","lease_number":null,"poll_year":2025}},{"type":"Feature","id":"67200bbc-4e13-4bc6-a2b4-5128d94140ed","geometry":{"type":"Point","coordinates":[-96.61107071422077,28.691410572630804]},"properties":{"substrate":"Mud","lease_number":null,"poll_year":2025}},{"type":"Feature","id":"6b5424a2-c56f-47b5-8829-99c146fcb165","geometry":{"type":"Point","coordinates":[-96.61050748940224,28.692551707775245]},"properties":{"substrate":"Mud","lease_number":null,"poll_year":2025}},{"type":"Feature","id":"6eaefd1d-71be-48cb-a916-5d6666a91e1f","geometry":{"type":"Point","coordinates":[-96.6120731550261,28.69964291818999]},"properties":{"substrate":"Mud","lease_number":null,"poll_year":2025}},{"type":"Feature","id":"73a573e9-e388-4ed3-95cb-87ff165a8109","geometry":{"type":"Point","coordinates":[-96.61134084930481,28.690985342817516]},"properties":{"substrate":"Firm/Hard Bottom","lease_number":null,"poll_year":2025}},{"type":"Feature","id":"7620c00e-7fd9-44e9-a35c-fb6fe932b315","geometry":{"type":"Point","coordinates":[-96.61193274744886,28.691856213462355]},"properties":{"substrate":"Mud","lease_number":null,"poll_year":2025}},{"type":"Feature","id":"789d9b32-24e6-4997-94a6-252c17348a7e","geometry":{"type":"Point","coordinates":[-96.611226898011,28.69319539324145]},"properties":{"substrate":"Mud","lease_number":null,"poll_year":2025}},{"type":"Feature","id":"7c316ee8-a5fd-4197-bd20-da2a10dfb5bc","geometry":{"type":"Point","coordinates":[-96.6131678465229,28.701140065792835]},"properties":{"substrate":"Mud","lease_number":null,"poll_year":2025}},{"type":"Feature","id":"822d407c-4f9e-4eaf-bf36-57e3c536059d","geometry":{"type":"Point","coordinates":[-96.61109000374485,28.691604193317424]},"properties":{"substrate":"Mud","lease_number":null,"poll_year":2025}},{"type":"Feature","id":"83402ea1-7c87-4d65-ba1d-3f399c35aef0","geometry":{"type":"Point","coordinates":[-96.61047461106283,28.69203648752471]},"properties":{"substrate":"Mud","lease_number":null,"poll_year":2025}},{"type":"Feature","id":"846fae80-d506-4c49-b73b-20cf6b481efa","geometry":{"type":"Point","coordinates":[-96.61047036652312,28.691853409704585]},"properties":{"substrate":"Mud","lease_number":null,"poll_year":2025}},{"type":"Feature","id":"89d5ceeb-5787-4fa7-901b-74c4c0402112","geometry":{"type":"Point","coordinates":[-96.61194951091038,28.691320499717065]},"properties":{"substrate":"Mud","lease_number":null,"poll_year":2025}},{"type":"Feature","id":"905560f1-6a70-4563-b6e0-9f3fffcd1d8f","geometry":{"type":"Point","coordinates":[-96.61132803573558,28.690827362478203]},"properties":{"substrate":"Firm/Hard Bottom","lease_number":null,"poll_year":2025}},{"type":"Feature","id":"9076c4f3-0972-45f9-9bf4-b5aefbda6216","geometry":{"type":"Point","coordinates":[-96.61144048145296,28.69223585402725]},"properties":{"substrate":"Mud","lease_number":null,"poll_year":2025}},{"type":"Feature","id":"91f1a20f-c940-4057-aa9b-107ee9561d3d","geometry":{"type":"Point","coordinates":[-96.6104806396567,28.69220877792266]},"properties":{"substrate":"Mud","lease_number":null,"poll_year":2025}},{"type":"Feature","id":"a12e0b26-0af2-4cb7-b305-1b4743f7c6ff","geometry":{"type":"Point","coordinates":[-96.61146458954023,28.692014999175345]},"properties":{"substrate":"Mud","lease_number":null,"poll_year":2025}},{"type":"Feature","id":"a6098702-5548-4c31-b7b4-ebcdd148810f","geometry":{"type":"Point","coordinates":[-96.61214564727288,28.69299820425227]},"properties":{"substrate":"Mud","lease_number":null,"poll_year":2025}},{"type":"Feature","id":"aa92eff7-251f-43ba-ad05-18826814e584","geometry":{"type":"Point","coordinates":[-96.61102547416473,28.690967426355343]},"properties":{"substrate":"Firm/Hard Bottom","lease_number":null,"poll_year":2025}},{"type":"Feature","id":"ae956d85-a3b8-45bc-8ce2-c2190b56216f","geometry":{"type":"Point","coordinates":[-96.61234907615886,28.700073558378584]},"properties":{"substrate":"Mud","lease_number":null,"poll_year":2025}},{"type":"Feature","id":"ae9b18ff-d0b0-41de-a7ae-740b00e05ff9","geometry":{"type":"Point","coordinates":[-96.61041971411751,28.69130620662482]},"properties":{"substrate":"Mud","lease_number":null,"poll_year":2025}},{"type":"Feature","id":"af233eb7-f99a-4127-9183-7e647c4d4e57","geometry":{"type":"Point","coordinates":[-96.61175982804488,28.69278174179017]},"properties":{"substrate":"Firm/Hard Bottom","lease_number":null,"poll_year":2025}},{"type":"Feature","id":"b26dc7c0-83c0-4d1f-981e-5cabc0bc17d8","geometry":{"type":"Point","coordinates":[-96.61104477446861,28.693650056974068]},"properties":{"substrate":"Mud","lease_number":null,"poll_year":2025}},{"type":"Feature","id":"b578f00f-bd2d-4624-8030-06e14376c8e0","geometry":{"type":"Point","coordinates":[-96.61199949946099,28.693245974484345]},"properties":{"substrate":"Mud","lease_number":null,"poll_year":2025}},{"type":"Feature","id":"b729b47e-70c5-4a0f-bf0a-145f1aa115e2","geometry":{"type":"Point","coordinates":[-96.61227178601013,28.692759144078146]},"properties":{"substrate":"Mud","lease_number":null,"poll_year":2025}},{"type":"Feature","id":"b8789a4b-0bfa-4669-9816-5c322565abf1","geometry":{"type":"Point","coordinates":[-96.61132137832101,28.69064417458427]},"properties":{"substrate":"Firm/Hard Bottom","lease_number":null,"poll_year":2025}},{"type":"Feature","id":"bc1ecdd3-c890-4db2-af79-f4aea22845c6","geometry":{"type":"Point","coordinates":[-96.61111226938748,28.691839117473073]},"properties":{"substrate":"Mud","lease_number":null,"poll_year":2025}},{"type":"Feature","id":"bcbfa7d3-e4a7-4cac-a297-53a944f97073","geometry":{"type":"Point","coordinates":[-96.61147046631882,28.691857464042368]},"properties":{"substrate":"Firm/Hard Bottom","lease_number":null,"poll_year":2025}},{"type":"Feature","id":"bf7ec1b9-169a-4092-b609-2fa0e99ea700","geometry":{"type":"Point","coordinates":[-96.61164112106998,28.693469125343928]},"properties":{"substrate":"Mud","lease_number":null,"poll_year":2025}},{"type":"Feature","id":"c0b870ee-dee2-4624-a949-1e8555c8174d","geometry":{"type":"Point","coordinates":[-96.61239595025039,28.692102233855824]},"properties":{"substrate":"Mud","lease_number":null,"poll_year":2025}},{"type":"Feature","id":"c43781d9-d02b-4b7c-8f5e-aa9733c73207","geometry":{"type":"Point","coordinates":[-96.61127011685764,28.69291210347276]},"properties":{"substrate":"Mud","lease_number":null,"poll_year":2025}},{"type":"Feature","id":"c73ae0e5-7117-4697-b61e-2053bca5c68f","geometry":{"type":"Point","coordinates":[-96.6113274141014,28.692699011146164]},"properties":{"substrate":"Mud","lease_number":null,"poll_year":2025}},{"type":"Feature","id":"c8e6fea2-803b-425f-ae18-9fa5cf4cd9b8","geometry":{"type":"Point","coordinates":[-96.61043381497251,28.69147508689486]},"properties":{"substrate":"Mud","lease_number":null,"poll_year":2025}},{"type":"Feature","id":"cfef22f4-7134-446d-990a-9b9f8f1d59c5","geometry":{"type":"Point","coordinates":[-96.6103710245308,28.6906359625834]},"properties":{"substrate":"Mud","lease_number":null,"poll_year":2025}},{"type":"Feature","id":"d0553284-fb69-4ceb-8916-cd5e4ee0d419","geometry":{"type":"Point","coordinates":[-96.61191010361549,28.69201240818555]},"properties":{"substrate":"Firm/Hard Bottom","lease_number":null,"poll_year":2025}},{"type":"Feature","id":"d0d8f4a4-8d0a-4e8c-8e09-01b8e557c293","geometry":{"type":"Point","coordinates":[-96.61049523817839,28.692370494502768]},"properties":{"substrate":"Mud","lease_number":null,"poll_year":2025}},{"type":"Feature","id":"d4a6fcb1-1415-478f-9d95-81280259f0c0","geometry":{"type":"Point","coordinates":[-96.6118678279999,28.699385837612677]},"properties":{"substrate":"Mud","lease_number":null,"poll_year":2025}},{"type":"Feature","id":"d815a8c6-ff3f-4703-a4e1-50eb88346a54","geometry":{"type":"Point","coordinates":[-96.61192295311733,28.69084635697948]},"properties":{"substrate":"Mud","lease_number":null,"poll_year":2025}},{"type":"Feature","id":"ded65a4b-6964-49b9-93f1-5f4c57a69329","geometry":{"type":"Point","coordinates":[-96.6123693798809,28.692431884500607]},"properties":{"substrate":"Mud","lease_number":null,"poll_year":2025}},{"type":"Feature","id":"e32e2d15-d622-4374-8181-f30091ad896c","geometry":{"type":"Point","coordinates":[-96.61155545862279,28.69370953374271]},"properties":{"substrate":"Mud","lease_number":null,"poll_year":2025}},{"type":"Feature","id":"e78b3f67-c6b6-4995-a088-55a6c4fe3343","geometry":{"type":"Point","coordinates":[-96.61090883511162,28.69848169789902]},"properties":{"substrate":"Mud","lease_number":null,"poll_year":2025}},{"type":"Feature","id":"eb91c490-0ce1-412f-b421-e80433347e92","geometry":{"type":"Point","coordinates":[-96.61039081711144,28.690802903033855]},"properties":{"substrate":"Mud","lease_number":null,"poll_year":2025}},{"type":"Feature","id":"ed0f469b-676f-4a2c-8bd0-2c7d0fdbc12d","geometry":{"type":"Point","coordinates":[-96.61055552681205,28.693074829190007]},"properties":{"substrate":"Mud","lease_number":null,"poll_year":2025}},{"type":"Feature","id":"eda52c51-f114-4a25-aeb8-e48f51f06be2","geometry":{"type":"Point","coordinates":[-96.6119587563713,28.691474457268523]},"properties":{"substrate":"Mud","lease_number":null,"poll_year":2025}},{"type":"Feature","id":"f28fc33e-df16-490a-89f3-f9a300e6c2ce","geometry":{"type":"Point","coordinates":[-96.61058605426035,28.693431969421173]},"properties":{"substrate":"Mud","lease_number":null,"poll_year":2025}},{"type":"Feature","id":"f4d2949a-6b8e-4eea-a9ce-58700568b85d","geometry":{"type":"Point","coordinates":[-96.61190968320396,28.690660797166235]},"properties":{"substrate":"Mud","lease_number":null,"poll_year":2025}},{"type":"Feature","id":"f83e6c11-2abf-43f7-a61c-4f66481c4e1f","geometry":{"type":"Point","coordinates":[-96.61187166739944,28.692200978963026]},"properties":{"substrate":"Firm/Hard Bottom","lease_number":null,"poll_year":2025}},{"type":"Feature","id":"f89452a8-9eef-46fe-adf3-920ebf0ceb87","geometry":{"type":"Point","coordinates":[-96.61141833259131,28.69148008292878]},"properties":{"substrate":"Firm/Hard Bottom","lease_number":null,"poll_year":2025}}]}