{"type":"FeatureCollection","features":[{"type":"Feature","id":"015c8b71-f15d-403a-bc62-dcbd0a65d85f","geometry":{"type":"Point","coordinates":[-96.61326269963375,28.292783899879904]},"properties":{"substrate":"Solid Reef","lease_number":null,"poll_year":2025}},{"type":"Feature","id":"06cd6a7c-2901-4cde-9664-907a9c4fdf81","geometry":{"type":"Point","coordinates":[-96.61343560017312,28.2925749997666]},"properties":{"substrate":"Solid Reef","lease_number":null,"poll_year":2025}},{"type":"Feature","id":"667862b1-abc1-4ea3-8b80-6feec1ce495e","geometry":{"type":"Point","coordinates":[-96.61370459978663,28.29317189965028]},"properties":{"substrate":"Solid Reef","lease_number":null,"poll_year":2025}},{"type":"Feature","id":"6842a023-a0e5-472a-9df3-95d9c730b7de","geometry":{"type":"Point","coordinates":[-96.61340020026272,28.293132200293858]},"properties":{"substrate":"Solid Reef","lease_number":null,"poll_year":2025}},{"type":"Feature","id":"73073cb3-2bf7-468a-bfa5-7a238e17fcc4","geometry":{"type":"Point","coordinates":[-96.6136053997281,28.292427999956104]},"properties":{"substrate":"Solid Reef","lease_number":null,"poll_year":2025}},{"type":"Feature","id":"8afaea13-8224-49c0-b084-552e2451adf8","geometry":{"type":"Point","coordinates":[-96.61329339955859,28.29271800007624]},"properties":{"substrate":"Solid Reef","lease_number":null,"poll_year":2025}},{"type":"Feature","id":"9f91f08d-e418-4162-afb0-11b7ffe354cf","geometry":{"type":"Point","coordinates":[-96.61372969961397,28.292344900360817]},"properties":{"substrate":"Solid Reef","lease_number":null,"poll_year":2025}},{"type":"Feature","id":"b2c0538f-ac4f-4761-a1af-fb6ee39fc43e","geometry":{"type":"Point","coordinates":[-96.61330579990276,28.293003099963112]},"properties":{"substrate":"Solid Reef","lease_number":null,"poll_year":2025}},{"type":"Feature","id":"b67c40f9-0262-4c17-b6cb-f6b9f994fd49","geometry":{"type":"Point","coordinates":[-96.61324150029135,28.29289659990329]},"properties":{"substrate":"Solid Reef","lease_number":null,"poll_year":2025}},{"type":"Feature","id":"b772fe57-e336-4c62-af68-a84ed25fa40a","geometry":{"type":"Point","coordinates":[-96.61364280018665,28.29316540002765]},"properties":{"substrate":"Solid Reef","lease_number":null,"poll_year":2025}},{"type":"Feature","id":"e0716740-73d6-41e5-af71-bfb7c7ed06ab","geometry":{"type":"Point","coordinates":[-96.61352279963775,28.29315719976079]},"properties":{"substrate":"Solid Reef","lease_number":null,"poll_year":2025}},{"type":"Feature","id":"fe97909c-e451-4bfd-b5e9-a18f103524ee","geometry":{"type":"Point","coordinates":[-96.61336200030357,28.29264790001706]},"properties":{"substrate":"Solid Reef","lease_number":null,"poll_year":2025}}]}