{"type":"FeatureCollection","features":[{"type":"Feature","id":"07845a4d-bf9c-4a1d-8070-f338b8e75cf4","geometry":{"type":"Point","coordinates":[-96.47695988876141,28.614166207051685]},"properties":{"substrate":"Firm/Hard Bottom","lease_number":null,"poll_year":2025}},{"type":"Feature","id":"0990012f-a435-49cd-ab28-3ed3ee0efc44","geometry":{"type":"Point","coordinates":[-96.4776864758076,28.613642387413538]},"properties":{"substrate":"Firm/Hard Bottom","lease_number":null,"poll_year":2025}},{"type":"Feature","id":"0b785b11-123f-43b7-822d-3490f2308662","geometry":{"type":"Point","coordinates":[-96.47702989087826,28.614349338548415]},"properties":{"substrate":"Firm/Hard Bottom","lease_number":null,"poll_year":2025}},{"type":"Feature","id":"0c1affc6-c7bb-4553-b144-103c729767b9","geometry":{"type":"Point","coordinates":[-96.47752643644817,28.613494650402128]},"properties":{"substrate":"Firm/Hard Bottom","lease_number":null,"poll_year":2025}},{"type":"Feature","id":"15c7d08b-7439-4d7e-9c69-bd196c274ecd","geometry":{"type":"Point","coordinates":[-96.47561455382561,28.61559309818115]},"properties":{"substrate":"Firm/Hard Bottom","lease_number":null,"poll_year":2025}},{"type":"Feature","id":"15e66dd5-0896-4a73-a8f5-d4dc4335cfc1","geometry":{"type":"Point","coordinates":[-96.47591719804146,28.615250276134287]},"properties":{"substrate":"Firm/Hard Bottom","lease_number":null,"poll_year":2025}},{"type":"Feature","id":"180c68b5-d820-4599-8040-b977e7548784","geometry":{"type":"Point","coordinates":[-96.47631946632063,28.615148506045273]},"properties":{"substrate":"Firm/Hard Bottom","lease_number":null,"poll_year":2025}},{"type":"Feature","id":"1e7abdc9-35e4-4820-a834-fd402e5b5ac1","geometry":{"type":"Point","coordinates":[-96.47558221806864,28.61599767009773]},"properties":{"substrate":"Mud","lease_number":null,"poll_year":2025}},{"type":"Feature","id":"2266c1a4-4deb-4f36-9125-ff83623252a1","geometry":{"type":"Point","coordinates":[-96.4767228808501,28.614473397527707]},"properties":{"substrate":"Mud","lease_number":null,"poll_year":2025}},{"type":"Feature","id":"27f11598-55b0-4895-86be-a968d052e7bf","geometry":{"type":"Point","coordinates":[-96.47727279443275,28.613757376725246]},"properties":{"substrate":"Firm/Hard Bottom","lease_number":null,"poll_year":2025}},{"type":"Feature","id":"2d530203-f3f0-45f6-bfd5-ae815074a141","geometry":{"type":"Point","coordinates":[-96.47592672916663,28.615592865547548]},"properties":{"substrate":"Mud","lease_number":null,"poll_year":2025}},{"type":"Feature","id":"2f51e626-0692-470d-a23e-ca8e1b1cc8e8","geometry":{"type":"Point","coordinates":[-96.47651621623248,28.614678530300935]},"properties":{"substrate":"Firm/Hard Bottom","lease_number":null,"poll_year":2025}},{"type":"Feature","id":"3cd97ff3-c0ba-4b53-9088-22ad2169e68e","geometry":{"type":"Point","coordinates":[-96.47606518560305,28.61511440890726]},"properties":{"substrate":"Firm/Hard Bottom","lease_number":null,"poll_year":2025}},{"type":"Feature","id":"4a4a1cda-530c-491f-8a66-88f4a6a13174","geometry":{"type":"Point","coordinates":[-96.4752488002661,28.616109983528883]},"properties":{"substrate":"Mud","lease_number":null,"poll_year":2025}},{"type":"Feature","id":"59382a98-23ea-4eac-a32c-b5ea2bb17e24","geometry":{"type":"Point","coordinates":[-96.47579448637701,28.615748317511695]},"properties":{"substrate":"Mud","lease_number":null,"poll_year":2025}},{"type":"Feature","id":"5c5fdce0-c6d8-4b51-aca5-f7a8b777fe44","geometry":{"type":"Point","coordinates":[-96.47684864319326,28.61432640927608]},"properties":{"substrate":"Mud","lease_number":null,"poll_year":2025}},{"type":"Feature","id":"6019ae9e-91f3-421c-9302-ac9dd95b54a0","geometry":{"type":"Point","coordinates":[-96.47617092449852,28.615322153028803]},"properties":{"substrate":"Firm/Hard Bottom","lease_number":null,"poll_year":2025}},{"type":"Feature","id":"6a500b4f-40bf-4a66-8327-5aaec7562a98","geometry":{"type":"Point","coordinates":[-96.4775323626341,28.613814184461635]},"properties":{"substrate":"Firm/Hard Bottom","lease_number":null,"poll_year":2025}},{"type":"Feature","id":"78b888b5-d1d1-4345-88d4-8aab40423a0e","geometry":{"type":"Point","coordinates":[-96.47630005013409,28.61489233089609]},"properties":{"substrate":"Firm/Hard Bottom","lease_number":null,"poll_year":2025}},{"type":"Feature","id":"7b0d4681-be09-4ce6-bb30-1c446180993c","geometry":{"type":"Point","coordinates":[-96.47730276492557,28.614059801310184]},"properties":{"substrate":"Firm/Hard Bottom","lease_number":null,"poll_year":2025}},{"type":"Feature","id":"7b8d3dec-9d97-4083-a0dc-95017896ba59","geometry":{"type":"Point","coordinates":[-96.47738533986313,28.61363516538599]},"properties":{"substrate":"Firm/Hard Bottom","lease_number":null,"poll_year":2025}},{"type":"Feature","id":"82cb231a-09de-4724-b369-88813663b7ec","geometry":{"type":"Point","coordinates":[-96.47644119792311,28.61502262305986]},"properties":{"substrate":"Firm/Hard Bottom","lease_number":null,"poll_year":2025}},{"type":"Feature","id":"94437853-81ed-45d4-8615-0cef0455d425","geometry":{"type":"Point","coordinates":[-96.47670292926765,28.614720398396077]},"properties":{"substrate":"Firm/Hard Bottom","lease_number":null,"poll_year":2025}},{"type":"Feature","id":"966789fa-84b6-432d-abf0-63c839887eb1","geometry":{"type":"Point","coordinates":[-96.47687676944479,28.614520748816414]},"properties":{"substrate":"Firm/Hard Bottom","lease_number":null,"poll_year":2025}},{"type":"Feature","id":"ac844789-b8b7-47e6-8627-5ab00eec625a","geometry":{"type":"Point","coordinates":[-96.47536095852259,28.615877618937652]},"properties":{"substrate":"Mud","lease_number":null,"poll_year":2025}},{"type":"Feature","id":"b5ceb080-c743-42fb-8d6e-1ffa3e6b81dd","geometry":{"type":"Point","coordinates":[-96.4771644055072,28.614205823901298]},"properties":{"substrate":"Firm/Hard Bottom","lease_number":null,"poll_year":2025}},{"type":"Feature","id":"b8b67eff-b240-4613-90f6-ecc8dc7e4c0b","geometry":{"type":"Point","coordinates":[-96.47619029037942,28.6150034018984]},"properties":{"substrate":"Firm/Hard Bottom","lease_number":null,"poll_year":2025}},{"type":"Feature","id":"bbc9ecb6-619e-4b77-8057-795c58c47510","geometry":{"type":"Point","coordinates":[-96.47742172073383,28.613937869487643]},"properties":{"substrate":"Firm/Hard Bottom","lease_number":null,"poll_year":2025}},{"type":"Feature","id":"c2039cfa-b1c4-487c-ba5c-1f62b887ba6b","geometry":{"type":"Point","coordinates":[-96.47783952178256,28.613467006666]},"properties":{"substrate":"Firm/Hard Bottom","lease_number":null,"poll_year":2025}},{"type":"Feature","id":"c954e946-3733-42b8-8aab-866e76bd344f","geometry":{"type":"Point","coordinates":[-96.47569249255798,28.61586865823075]},"properties":{"substrate":"Mud","lease_number":null,"poll_year":2025}},{"type":"Feature","id":"ccb43ba4-28c4-4c46-ab4f-9a9ebe0fe738","geometry":{"type":"Point","coordinates":[-96.47708745402333,28.613984545975704]},"properties":{"substrate":"Firm/Hard Bottom","lease_number":null,"poll_year":2025}},{"type":"Feature","id":"e9383256-4cb4-43d8-8769-da7448f2f8f6","geometry":{"type":"Point","coordinates":[-96.47578373444138,28.615392514204164]},"properties":{"substrate":"Firm/Hard Bottom","lease_number":null,"poll_year":2025}},{"type":"Feature","id":"ea310cc2-884f-459f-a40e-ccf88c0c510f","geometry":{"type":"Point","coordinates":[-96.47605418932565,28.615448249362935]},"properties":{"substrate":"Firm/Hard Bottom","lease_number":null,"poll_year":2025}},{"type":"Feature","id":"f50a2d5a-9119-4813-99c3-994baa345121","geometry":{"type":"Point","coordinates":[-96.47550524682184,28.61575241974275]},"properties":{"substrate":"Mud","lease_number":null,"poll_year":2025}},{"type":"Feature","id":"fccdfd06-1ef1-4403-a2a0-bcf35dc85e56","geometry":{"type":"Point","coordinates":[-96.47543163527419,28.61613306224286]},"properties":{"substrate":"Mud","lease_number":null,"poll_year":2025}}]}