{"type":"FeatureCollection","features":[{"type":"Feature","id":"013103e6-38a2-477e-a43c-e6ffecfe7592","geometry":{"type":"Point","coordinates":[-96.4801168444526,28.608963680731694]},"properties":{"substrate":"Firm/Hard Bottom","lease_number":null,"poll_year":2025}},{"type":"Feature","id":"038bf43a-b548-444b-b86a-38fe8be78427","geometry":{"type":"Point","coordinates":[-96.48050256576424,28.609076650733257]},"properties":{"substrate":"Firm/Hard Bottom","lease_number":null,"poll_year":2025}},{"type":"Feature","id":"0474c208-6d45-47df-8c26-f605302c280b","geometry":{"type":"Point","coordinates":[-96.47985472413752,28.60970930951836]},"properties":{"substrate":"Firm/Hard Bottom","lease_number":null,"poll_year":2025}},{"type":"Feature","id":"054af64a-2e0f-4e8e-b9c5-f639ce9437bf","geometry":{"type":"Point","coordinates":[-96.48120751149693,28.6083528250097]},"properties":{"substrate":"Firm/Hard Bottom","lease_number":null,"poll_year":2025}},{"type":"Feature","id":"0612b011-4207-44fb-a6bf-1bd792c1208e","geometry":{"type":"Point","coordinates":[-96.47782571018507,28.60962694942452]},"properties":{"substrate":"Mud","lease_number":null,"poll_year":2025}},{"type":"Feature","id":"06966392-9744-4437-b760-90198da54f5f","geometry":{"type":"Point","coordinates":[-96.48053271142854,28.606484250125547]},"properties":{"substrate":"Firm/Hard Bottom","lease_number":null,"poll_year":2025}},{"type":"Feature","id":"06d2a89b-346c-4c00-9c67-8c50f8561100","geometry":{"type":"Point","coordinates":[-96.48008719914992,28.607886820449544]},"properties":{"substrate":"Firm/Hard Bottom","lease_number":null,"poll_year":2025}},{"type":"Feature","id":"06ed4ad9-558e-4947-b8ab-9ab200c50512","geometry":{"type":"Point","coordinates":[-96.48021601486671,28.607732936511038]},"properties":{"substrate":"Firm/Hard Bottom","lease_number":null,"poll_year":2025}},{"type":"Feature","id":"08e3ca5d-492c-48ba-bbdb-7060987ce6b7","geometry":{"type":"Point","coordinates":[-96.47877090854388,28.60782360648422]},"properties":{"substrate":"Mud","lease_number":null,"poll_year":2025}},{"type":"Feature","id":"08f5013a-ff75-42b0-b76d-258941d46e61","geometry":{"type":"Point","coordinates":[-96.4818262162674,28.60838854500328]},"properties":{"substrate":"Firm/Hard Bottom","lease_number":null,"poll_year":2025}},{"type":"Feature","id":"09c620e0-6818-487d-bef7-3521e0943df6","geometry":{"type":"Point","coordinates":[-96.47977770617833,28.609364059774663]},"properties":{"substrate":"Firm/Hard Bottom","lease_number":null,"poll_year":2025}},{"type":"Feature","id":"0a2787ba-2ec3-4f77-b05b-44ac05999745","geometry":{"type":"Point","coordinates":[-96.47824637685957,28.610028230498372]},"properties":{"substrate":"Mud","lease_number":null,"poll_year":2025}},{"type":"Feature","id":"0a2a6873-ce18-4b2d-b7e7-3228299dae19","geometry":{"type":"Point","coordinates":[-96.480587269709,28.60685283220365]},"properties":{"substrate":"Firm/Hard Bottom","lease_number":null,"poll_year":2025}},{"type":"Feature","id":"0a8e57c5-d1dd-4dc2-923c-5b286b02ab4e","geometry":{"type":"Point","coordinates":[-96.47989258094024,28.611263267104583]},"properties":{"substrate":"Firm/Hard Bottom","lease_number":null,"poll_year":2025}},{"type":"Feature","id":"0ae34dea-52be-40aa-ae79-2328fea4fd04","geometry":{"type":"Point","coordinates":[-96.48165029738868,28.60670741217559]},"properties":{"substrate":"Firm/Hard Bottom","lease_number":null,"poll_year":2025}},{"type":"Feature","id":"0b8c04e0-6d66-49a8-8830-5e07e02a2e5a","geometry":{"type":"Point","coordinates":[-96.48114823885786,28.609574987943212]},"properties":{"substrate":"Firm/Hard Bottom","lease_number":null,"poll_year":2025}},{"type":"Feature","id":"0bd5f2e5-8fca-447c-9c35-9590aafd62c5","geometry":{"type":"Point","coordinates":[-96.48026403610685,28.60983231642308]},"properties":{"substrate":"Firm/Hard Bottom","lease_number":null,"poll_year":2025}},{"type":"Feature","id":"0c57d609-e9d5-41da-b551-395dae2e15a6","geometry":{"type":"Point","coordinates":[-96.48135511368126,28.606736198085716]},"properties":{"substrate":"Firm/Hard Bottom","lease_number":null,"poll_year":2025}},{"type":"Feature","id":"0d482715-b666-417c-8571-d36cf63a4b22","geometry":{"type":"Point","coordinates":[-96.47855459602007,28.60842454416404]},"properties":{"substrate":"Mud","lease_number":null,"poll_year":2025}},{"type":"Feature","id":"0e549e41-3d78-485d-b922-276128c2a896","geometry":{"type":"Point","coordinates":[-96.48167843711497,28.608079777580354]},"properties":{"substrate":"Firm/Hard Bottom","lease_number":null,"poll_year":2025}},{"type":"Feature","id":"0f2b7fcb-5f10-4c2a-aed0-cf82f4cd38ab","geometry":{"type":"Point","coordinates":[-96.47856250388953,28.609672774527517]},"properties":{"substrate":"Firm/Hard Bottom","lease_number":null,"poll_year":2025}},{"type":"Feature","id":"1054316f-eba7-4962-ad44-7dc99ba59bc7","geometry":{"type":"Point","coordinates":[-96.48000859656254,28.609087483455937]},"properties":{"substrate":"Firm/Hard Bottom","lease_number":null,"poll_year":2025}},{"type":"Feature","id":"105a7792-45d0-4df6-88e7-d341c9ed3680","geometry":{"type":"Point","coordinates":[-96.47924961806383,28.610504173296466]},"properties":{"substrate":"Mud","lease_number":null,"poll_year":2025}},{"type":"Feature","id":"1177c241-62d0-4ae8-a6f0-9f24fda617e4","geometry":{"type":"Point","coordinates":[-96.48047684520103,28.609951439176953]},"properties":{"substrate":"Mud","lease_number":null,"poll_year":2025}},{"type":"Feature","id":"13b45ec6-14ce-4d45-a9c8-2087502458fc","geometry":{"type":"Point","coordinates":[-96.48124163490131,28.608633105930963]},"properties":{"substrate":"Firm/Hard Bottom","lease_number":null,"poll_year":2025}},{"type":"Feature","id":"146e627d-f5ed-47ed-80ff-bbd829bf8b61","geometry":{"type":"Point","coordinates":[-96.48166103045969,28.606264101854297]},"properties":{"substrate":"Firm/Hard Bottom","lease_number":null,"poll_year":2025}},{"type":"Feature","id":"15985cdd-ca41-49e2-ac74-84eb3db0264b","geometry":{"type":"Point","coordinates":[-96.47893311463977,28.608756416933524]},"properties":{"substrate":"Mud","lease_number":null,"poll_year":2025}},{"type":"Feature","id":"15a077a9-3469-4e20-b342-d15465565def","geometry":{"type":"Point","coordinates":[-96.47926740111319,28.608410298128742]},"properties":{"substrate":"Mud","lease_number":null,"poll_year":2025}},{"type":"Feature","id":"15ba455c-c408-4b2c-95a0-bf0c0402eab9","geometry":{"type":"Point","coordinates":[-96.48033416847939,28.608719428931852]},"properties":{"substrate":"Firm/Hard Bottom","lease_number":null,"poll_year":2025}},{"type":"Feature","id":"162b1c43-489f-4500-8aeb-0f9b6ad2c368","geometry":{"type":"Point","coordinates":[-96.48108735014958,28.606684959948865]},"properties":{"substrate":"Firm/Hard Bottom","lease_number":null,"poll_year":2025}},{"type":"Feature","id":"164fa1d2-cf93-4d3e-8d94-7de80190daf9","geometry":{"type":"Point","coordinates":[-96.48116136414247,28.60552932665809]},"properties":{"substrate":"Firm/Hard Bottom","lease_number":null,"poll_year":2025}},{"type":"Feature","id":"173de83b-2048-41c1-beb3-75e6f6269d30","geometry":{"type":"Point","coordinates":[-96.47779627688479,28.609235256634346]},"properties":{"substrate":"Mud","lease_number":null,"poll_year":2025}},{"type":"Feature","id":"18ae71f5-f34d-4804-98f4-deb992093f7b","geometry":{"type":"Point","coordinates":[-96.47915281291387,28.60985492728072]},"properties":{"substrate":"Mud","lease_number":null,"poll_year":2025}},{"type":"Feature","id":"19c31b09-6b81-4937-8f17-fe198bc20b3f","geometry":{"type":"Point","coordinates":[-96.481781260079,28.603768986996002]},"properties":{"substrate":"Firm/Hard Bottom","lease_number":null,"poll_year":2025}},{"type":"Feature","id":"1b2422da-a204-41e7-910d-6c1b0103bfd8","geometry":{"type":"Point","coordinates":[-96.47955033719003,28.61000363469526]},"properties":{"substrate":"Mud","lease_number":null,"poll_year":2025}},{"type":"Feature","id":"1b3bebff-812a-4ed1-8eeb-4e6a4dc896ef","geometry":{"type":"Point","coordinates":[-96.47926357249347,28.611677376683986]},"properties":{"substrate":"Mud","lease_number":null,"poll_year":2025}},{"type":"Feature","id":"1b63c4db-b94b-4225-9626-024871edba56","geometry":{"type":"Point","coordinates":[-96.48000367738807,28.60671118431324]},"properties":{"substrate":"Firm/Hard Bottom","lease_number":null,"poll_year":2025}},{"type":"Feature","id":"1b74b50b-2577-4e82-9c2c-82923daceff2","geometry":{"type":"Point","coordinates":[-96.47827946630308,28.61272704548071]},"properties":{"substrate":"Mud","lease_number":null,"poll_year":2025}},{"type":"Feature","id":"1bbf4317-83b5-4eeb-9b63-54b4eaef8580","geometry":{"type":"Point","coordinates":[-96.47929156399769,28.60882190240738]},"properties":{"substrate":"Firm/Hard Bottom","lease_number":null,"poll_year":2025}},{"type":"Feature","id":"1bfc3c78-c04b-4bcb-b6de-76300062aecb","geometry":{"type":"Point","coordinates":[-96.4815727691864,28.60410348814017]},"properties":{"substrate":"Firm/Hard Bottom","lease_number":null,"poll_year":2025}},{"type":"Feature","id":"1dc3568d-5d7a-4273-afca-079fc28d7767","geometry":{"type":"Point","coordinates":[-96.47942660144616,28.607092261791472]},"properties":{"substrate":"Firm/Hard Bottom","lease_number":null,"poll_year":2025}},{"type":"Feature","id":"20453558-d538-4706-9faf-b0365e3d5921","geometry":{"type":"Point","coordinates":[-96.48072472093064,28.60576638381155]},"properties":{"substrate":"Firm/Hard Bottom","lease_number":null,"poll_year":2025}},{"type":"Feature","id":"21cbcf59-deef-4068-8260-b5b0383805ae","geometry":{"type":"Point","coordinates":[-96.48166658474311,28.608541835711698]},"properties":{"substrate":"Firm/Hard Bottom","lease_number":null,"poll_year":2025}},{"type":"Feature","id":"2257f310-86ad-430f-b86e-52a2e3afe263","geometry":{"type":"Point","coordinates":[-96.4793948945099,28.61153435679307]},"properties":{"substrate":"Mud","lease_number":null,"poll_year":2025}},{"type":"Feature","id":"23355962-50d7-4f9e-ba74-750a59cc85b4","geometry":{"type":"Point","coordinates":[-96.48187816134872,28.608748597569654]},"properties":{"substrate":"Firm/Hard Bottom","lease_number":null,"poll_year":2025}},{"type":"Feature","id":"2431e397-9d34-4d05-87bd-695950c2a1f8","geometry":{"type":"Point","coordinates":[-96.48060569146054,28.607274870916182]},"properties":{"substrate":"Firm/Hard Bottom","lease_number":null,"poll_year":2025}},{"type":"Feature","id":"249d88aa-9ea4-4023-bae2-e4501a77042f","geometry":{"type":"Point","coordinates":[-96.48011996070831,28.60944512671386]},"properties":{"substrate":"Firm/Hard Bottom","lease_number":null,"poll_year":2025}},{"type":"Feature","id":"2514fce2-ce63-4e7a-b1db-aba78f82814a","geometry":{"type":"Point","coordinates":[-96.47780098944676,28.61321835623994]},"properties":{"substrate":"Firm/Hard Bottom","lease_number":null,"poll_year":2025}},{"type":"Feature","id":"265ddec2-81a1-460c-b17d-bbc6f6adef61","geometry":{"type":"Point","coordinates":[-96.48012215259762,28.607454142947176]},"properties":{"substrate":"Firm/Hard Bottom","lease_number":null,"poll_year":2025}},{"type":"Feature","id":"26a74eb0-72b9-44f8-9c84-03ad2042c79b","geometry":{"type":"Point","coordinates":[-96.48058535000925,28.60934280763019]},"properties":{"substrate":"Firm/Hard Bottom","lease_number":null,"poll_year":2025}},{"type":"Feature","id":"287867a5-2f55-4173-8aaf-777724e7e3ed","geometry":{"type":"Point","coordinates":[-96.47974836360788,28.610343637961602]},"properties":{"substrate":"Mud","lease_number":null,"poll_year":2025}},{"type":"Feature","id":"2880f9c7-ac5f-4c28-9234-40f5631e2b74","geometry":{"type":"Point","coordinates":[-96.47740522856351,28.610066204615315]},"properties":{"substrate":"Mud","lease_number":null,"poll_year":2025}},{"type":"Feature","id":"29df4746-c1e8-4c5c-a3e9-fe5a91ebb81a","geometry":{"type":"Point","coordinates":[-96.48075908059194,28.6085856676034]},"properties":{"substrate":"Firm/Hard Bottom","lease_number":null,"poll_year":2025}},{"type":"Feature","id":"2b398756-d969-4670-b0d1-d9f203e362e0","geometry":{"type":"Point","coordinates":[-96.4797756643077,28.606997564324928]},"properties":{"substrate":"Firm/Hard Bottom","lease_number":null,"poll_year":2025}},{"type":"Feature","id":"2b5352f8-b9f2-407c-a2c1-bee94ae82250","geometry":{"type":"Point","coordinates":[-96.47795103145542,28.61334533676081]},"properties":{"substrate":"Firm/Hard Bottom","lease_number":null,"poll_year":2025}},{"type":"Feature","id":"2b6bf66d-a661-4208-96c6-4413ed1a6aaf","geometry":{"type":"Point","coordinates":[-96.48035512527666,28.610082019010818]},"properties":{"substrate":"Mud","lease_number":null,"poll_year":2025}},{"type":"Feature","id":"2bb80a47-e081-4806-b4dd-2b56d22c6d3d","geometry":{"type":"Point","coordinates":[-96.48131657595557,28.606335246714192]},"properties":{"substrate":"Firm/Hard Bottom","lease_number":null,"poll_year":2025}},{"type":"Feature","id":"2c4f8091-08e2-46cf-aa16-9dd24c4bc251","geometry":{"type":"Point","coordinates":[-96.47979504995152,28.607410689135314]},"properties":{"substrate":"Firm/Hard Bottom","lease_number":null,"poll_year":2025}},{"type":"Feature","id":"2c9781da-07ee-48bc-b037-61f800117009","geometry":{"type":"Point","coordinates":[-96.48154784542885,28.60865071627688]},"properties":{"substrate":"Firm/Hard Bottom","lease_number":null,"poll_year":2025}},{"type":"Feature","id":"2dd702f1-a4af-4e9b-914f-f733afe5981e","geometry":{"type":"Point","coordinates":[-96.48115602006484,28.604733754080183]},"properties":{"substrate":"Solid Reef","lease_number":null,"poll_year":2025}},{"type":"Feature","id":"2ddf65af-4a4f-4528-8465-5c5bab20a1af","geometry":{"type":"Point","coordinates":[-96.48117725444152,28.608047577993744]},"properties":{"substrate":"Firm/Hard Bottom","lease_number":null,"poll_year":2025}},{"type":"Feature","id":"2e4cff09-4e72-4e38-b730-d1967724db34","geometry":{"type":"Point","coordinates":[-96.47869543389032,28.607557292740346]},"properties":{"substrate":"Mud","lease_number":null,"poll_year":2025}},{"type":"Feature","id":"2edf31f3-16b8-4c1f-9229-3bc7a3925c58","geometry":{"type":"Point","coordinates":[-96.48117520987594,28.605102188509303]},"properties":{"substrate":"Firm/Hard Bottom","lease_number":null,"poll_year":2025}},{"type":"Feature","id":"2f9e43bc-e66e-4805-8d44-dee904e88dbf","geometry":{"type":"Point","coordinates":[-96.48066832110382,28.609450218927524]},"properties":{"substrate":"Firm/Hard Bottom","lease_number":null,"poll_year":2025}},{"type":"Feature","id":"31a860a0-12dc-4a8b-a3f7-fb17b95be2ea","geometry":{"type":"Point","coordinates":[-96.47905239563815,28.609979847232765]},"properties":{"substrate":"Mud","lease_number":null,"poll_year":2025}},{"type":"Feature","id":"31bca9e3-709a-4bdd-9916-58fc57874dea","geometry":{"type":"Point","coordinates":[-96.4812733607022,28.607918570557192]},"properties":{"substrate":"Firm/Hard Bottom","lease_number":null,"poll_year":2025}},{"type":"Feature","id":"32b0b673-9d12-4d30-93e4-ee6c19cd52e1","geometry":{"type":"Point","coordinates":[-96.48049636199889,28.610306887107196]},"properties":{"substrate":"Firm/Hard Bottom","lease_number":null,"poll_year":2025}},{"type":"Feature","id":"33f95aa5-b689-4166-a394-ea088b32d141","geometry":{"type":"Point","coordinates":[-96.48139374752668,28.607765395659072]},"properties":{"substrate":"Firm/Hard Bottom","lease_number":null,"poll_year":2025}},{"type":"Feature","id":"342cc2ee-5463-468c-84b2-a2160f100fd9","geometry":{"type":"Point","coordinates":[-96.481814026129,28.607906792127192]},"properties":{"substrate":"Firm/Hard Bottom","lease_number":null,"poll_year":2025}},{"type":"Feature","id":"34d69ec9-e483-4913-a75a-712511daa2d6","geometry":{"type":"Point","coordinates":[-96.48073911463644,28.605347164038665]},"properties":{"substrate":"Firm/Hard Bottom","lease_number":null,"poll_year":2025}},{"type":"Feature","id":"355b1994-43e1-4c46-b9e0-4f8926aa566b","geometry":{"type":"Point","coordinates":[-96.47946561707559,28.60861075506183]},"properties":{"substrate":"Firm/Hard Bottom","lease_number":null,"poll_year":2025}},{"type":"Feature","id":"3562c239-b9d7-433e-b9e2-89774d69013b","geometry":{"type":"Point","coordinates":[-96.48002983093924,28.611120890165363]},"properties":{"substrate":"Firm/Hard Bottom","lease_number":null,"poll_year":2025}},{"type":"Feature","id":"35718020-7e62-44aa-92cc-8a2b647773e0","geometry":{"type":"Point","coordinates":[-96.47998451991631,28.607175735871454]},"properties":{"substrate":"Firm/Hard Bottom","lease_number":null,"poll_year":2025}},{"type":"Feature","id":"357a40b7-e17c-4902-a039-71e686b59e71","geometry":{"type":"Point","coordinates":[-96.47911682281033,28.612112265416293]},"properties":{"substrate":"Firm/Hard Bottom","lease_number":null,"poll_year":2025}},{"type":"Feature","id":"36147dfd-b581-4e41-99f8-4a24c8179c33","geometry":{"type":"Point","coordinates":[-96.47790838663225,28.609959569960484]},"properties":{"substrate":"Mud","lease_number":null,"poll_year":2025}},{"type":"Feature","id":"361dd95e-79f2-4376-a8c8-bd624c26e98c","geometry":{"type":"Point","coordinates":[-96.48043336674127,28.610669351024068]},"properties":{"substrate":"Firm/Hard Bottom","lease_number":null,"poll_year":2025}},{"type":"Feature","id":"382d7f70-ecf5-454f-8630-dffb7f16f886","geometry":{"type":"Point","coordinates":[-96.47839992768772,28.609849380046235]},"properties":{"substrate":"Mud","lease_number":null,"poll_year":2025}},{"type":"Feature","id":"384b9715-db8b-4eb3-b979-b072bab10cb7","geometry":{"type":"Point","coordinates":[-96.48073482787588,28.60884252138004]},"properties":{"substrate":"Firm/Hard Bottom","lease_number":null,"poll_year":2025}},{"type":"Feature","id":"39c270b7-a20b-4e3f-8a69-7adf58d6fa76","geometry":{"type":"Point","coordinates":[-96.47869772639093,28.612542317371762]},"properties":{"substrate":"Firm/Hard Bottom","lease_number":null,"poll_year":2025}},{"type":"Feature","id":"3b93ce1e-1178-49c2-9011-6829c51a46ae","geometry":{"type":"Point","coordinates":[-96.4788362852353,28.608520406745118]},"properties":{"substrate":"Firm/Hard Bottom","lease_number":null,"poll_year":2025}},{"type":"Feature","id":"3c006dc9-8dd8-4043-b470-26cfb8b8d9ce","geometry":{"type":"Point","coordinates":[-96.47817751650147,28.613100795478804]},"properties":{"substrate":"Firm/Hard Bottom","lease_number":null,"poll_year":2025}},{"type":"Feature","id":"3e0c3ca6-5d61-451d-b495-a44e37a00da9","geometry":{"type":"Point","coordinates":[-96.47869558121404,28.60900871748617]},"properties":{"substrate":"Mud","lease_number":null,"poll_year":2025}},{"type":"Feature","id":"3f14fd0d-9c20-479a-832c-0f2cffcfd730","geometry":{"type":"Point","coordinates":[-96.480330471912,28.609608920477953]},"properties":{"substrate":"Firm/Hard Bottom","lease_number":null,"poll_year":2025}},{"type":"Feature","id":"3f806fa6-5d43-46ae-8f01-f1afc30ae483","geometry":{"type":"Point","coordinates":[-96.47941375284265,28.60953494900503]},"properties":{"substrate":"Mud","lease_number":null,"poll_year":2025}},{"type":"Feature","id":"3fc51aee-5063-49b3-9338-893303307451","geometry":{"type":"Point","coordinates":[-96.48145902001355,28.60889153292596]},"properties":{"substrate":"Firm/Hard Bottom","lease_number":null,"poll_year":2025}},{"type":"Feature","id":"3fe40053-e51c-4594-85af-05b9c908d202","geometry":{"type":"Point","coordinates":[-96.479512066264,28.611670365082286]},"properties":{"substrate":"Firm/Hard Bottom","lease_number":null,"poll_year":2025}},{"type":"Feature","id":"407a2539-8bf3-4f76-97ed-094b7332f094","geometry":{"type":"Point","coordinates":[-96.48107239140347,28.60786189133622]},"properties":{"substrate":"Firm/Hard Bottom","lease_number":null,"poll_year":2025}},{"type":"Feature","id":"4093e692-8092-4291-ad78-2388512aef2c","geometry":{"type":"Point","coordinates":[-96.48178913560909,28.606073889868515]},"properties":{"substrate":"Firm/Hard Bottom","lease_number":null,"poll_year":2025}},{"type":"Feature","id":"409fe211-21a9-41e3-9ea6-dc3d083db005","geometry":{"type":"Point","coordinates":[-96.48140810799482,28.60619677799919]},"properties":{"substrate":"Firm/Hard Bottom","lease_number":null,"poll_year":2025}},{"type":"Feature","id":"40b1ed78-bfe8-4bbb-9d30-01ff9faf702f","geometry":{"type":"Point","coordinates":[-96.48073728656483,28.60965834648724]},"properties":{"substrate":"Firm/Hard Bottom","lease_number":null,"poll_year":2025}},{"type":"Feature","id":"417c3084-9e3e-4548-882e-83b37df3ba74","geometry":{"type":"Point","coordinates":[-96.4813348854177,28.605845779198358]},"properties":{"substrate":"Firm/Hard Bottom","lease_number":null,"poll_year":2025}},{"type":"Feature","id":"423686a5-36dd-40ec-a419-dba2da79f5c1","geometry":{"type":"Point","coordinates":[-96.4817180303611,28.604717962539656]},"properties":{"substrate":"Firm/Hard Bottom","lease_number":null,"poll_year":2025}},{"type":"Feature","id":"42da5cc5-fb78-44ed-bb57-9601717ec88c","geometry":{"type":"Point","coordinates":[-96.48060130498702,28.60981025996877]},"properties":{"substrate":"Mud","lease_number":null,"poll_year":2025}},{"type":"Feature","id":"44140694-c005-4581-9484-d98c8aa0d676","geometry":{"type":"Point","coordinates":[-96.48015994831488,28.608279369213744]},"properties":{"substrate":"Firm/Hard Bottom","lease_number":null,"poll_year":2025}},{"type":"Feature","id":"44fa233c-b63c-40e5-8c36-cb447b61c50e","geometry":{"type":"Point","coordinates":[-96.47874280744516,28.6082271815138]},"properties":{"substrate":"Mud","lease_number":null,"poll_year":2025}},{"type":"Feature","id":"467f7fac-2846-4ec8-a9a1-c6f03640e2c1","geometry":{"type":"Point","coordinates":[-96.48185973241065,28.605482132203665]},"properties":{"substrate":"Firm/Hard Bottom","lease_number":null,"poll_year":2025}},{"type":"Feature","id":"47747c25-e8c6-4f9e-9175-780cbdce34e0","geometry":{"type":"Point","coordinates":[-96.48013556893639,28.609943877784293]},"properties":{"substrate":"Firm/Hard Bottom","lease_number":null,"poll_year":2025}},{"type":"Feature","id":"47d21bec-679b-4cc0-9c4a-49a248d2341b","geometry":{"type":"Point","coordinates":[-96.47855356116088,28.607996638604472]},"properties":{"substrate":"Mud","lease_number":null,"poll_year":2025}},{"type":"Feature","id":"48778aa6-58f3-4a97-b01f-448c56692080","geometry":{"type":"Point","coordinates":[-96.47888666634971,28.608071996809727]},"properties":{"substrate":"Mud","lease_number":null,"poll_year":2025}},{"type":"Feature","id":"48f7fe4d-1822-48d4-8c0b-981334be7578","geometry":{"type":"Point","coordinates":[-96.47761211237008,28.609856173318565]},"properties":{"substrate":"Mud","lease_number":null,"poll_year":2025}},{"type":"Feature","id":"499f6ec9-3340-416f-a64c-1c7782fe8472","geometry":{"type":"Point","coordinates":[-96.48100056929987,28.60890775285862]},"properties":{"substrate":"Firm/Hard Bottom","lease_number":null,"poll_year":2025}},{"type":"Feature","id":"49e42716-37d6-4b54-9d68-fe1e6e9b9c00","geometry":{"type":"Point","coordinates":[-96.47816805813986,28.609247071981333]},"properties":{"substrate":"Mud","lease_number":null,"poll_year":2025}},{"type":"Feature","id":"4afb70cc-340c-4c99-a899-6e2f0997a11f","geometry":{"type":"Point","coordinates":[-96.47824861096969,28.608762342772817]},"properties":{"substrate":"Mud","lease_number":null,"poll_year":2025}},{"type":"Feature","id":"4b3bc57c-3655-4b00-9649-3081157c696a","geometry":{"type":"Point","coordinates":[-96.47924632394168,28.611961068172626]},"properties":{"substrate":"Firm/Hard Bottom","lease_number":null,"poll_year":2025}},{"type":"Feature","id":"4eea5534-9d51-4fef-920a-3fadb1e34497","geometry":{"type":"Point","coordinates":[-96.4811907300691,28.606978412673723]},"properties":{"substrate":"Firm/Hard Bottom","lease_number":null,"poll_year":2025}},{"type":"Feature","id":"50d0ef2c-33cb-4738-ac8f-c89dbc522d0b","geometry":{"type":"Point","coordinates":[-96.48168983943084,28.60932503099821]},"properties":{"substrate":"Firm/Hard Bottom","lease_number":null,"poll_year":2025}},{"type":"Feature","id":"521a1d02-6478-4671-bf09-6ca8d0c9f06c","geometry":{"type":"Point","coordinates":[-96.48158169394874,28.605922280927697]},"properties":{"substrate":"Firm/Hard Bottom","lease_number":null,"poll_year":2025}},{"type":"Feature","id":"524626a8-b426-42fb-89d7-ed98654cbe28","geometry":{"type":"Point","coordinates":[-96.48183895168319,28.608482639482222]},"properties":{"substrate":"Firm/Hard Bottom","lease_number":null,"poll_year":2025}},{"type":"Feature","id":"545999bb-6073-40f2-91df-4896e19a4f69","geometry":{"type":"Point","coordinates":[-96.47988192332771,28.609236458515927]},"properties":{"substrate":"Firm/Hard Bottom","lease_number":null,"poll_year":2025}},{"type":"Feature","id":"55765372-834b-4eb4-96af-1981c8ee87e2","geometry":{"type":"Point","coordinates":[-96.48143543025418,28.609610576608024]},"properties":{"substrate":"Firm/Hard Bottom","lease_number":null,"poll_year":2025}},{"type":"Feature","id":"562b2451-442f-4658-af7f-30456f9567a0","geometry":{"type":"Point","coordinates":[-96.4815842128248,28.604905154801845]},"properties":{"substrate":"Firm/Hard Bottom","lease_number":null,"poll_year":2025}},{"type":"Feature","id":"568e5937-086a-4238-a92c-e71fe38bd4cc","geometry":{"type":"Point","coordinates":[-96.48026748653585,28.608152860487145]},"properties":{"substrate":"Firm/Hard Bottom","lease_number":null,"poll_year":2025}},{"type":"Feature","id":"579c102a-37bb-49c4-b13c-180ccc2d2d84","geometry":{"type":"Point","coordinates":[-96.48147444049371,28.608072040185174]},"properties":{"substrate":"Firm/Hard Bottom","lease_number":null,"poll_year":2025}},{"type":"Feature","id":"580712e5-07ad-4c16-98a0-891ffa34d46e","geometry":{"type":"Point","coordinates":[-96.47933163245264,28.60673260418502]},"properties":{"substrate":"Firm/Hard Bottom","lease_number":null,"poll_year":2025}},{"type":"Feature","id":"58aa7a0d-522f-4e38-a37f-d2218962fae7","geometry":{"type":"Point","coordinates":[-96.48052212747785,28.609583384525376]},"properties":{"substrate":"Firm/Hard Bottom","lease_number":null,"poll_year":2025}},{"type":"Feature","id":"58cd2232-efe3-4837-a0c3-d89b7eea2aca","geometry":{"type":"Point","coordinates":[-96.48009102776966,28.60869326500546]},"properties":{"substrate":"Firm/Hard Bottom","lease_number":null,"poll_year":2025}},{"type":"Feature","id":"58d67bdc-8b76-47d1-8efc-705334f17349","geometry":{"type":"Point","coordinates":[-96.48084756195249,28.608728638670264]},"properties":{"substrate":"Firm/Hard Bottom","lease_number":null,"poll_year":2025}},{"type":"Feature","id":"5a6175f5-6056-4663-90d2-2579706656d6","geometry":{"type":"Point","coordinates":[-96.47992185703534,28.61094883714116]},"properties":{"substrate":"Firm/Hard Bottom","lease_number":null,"poll_year":2025}},{"type":"Feature","id":"5c8463f2-07c5-492d-9c93-a282b63ce32c","geometry":{"type":"Point","coordinates":[-96.48005057483579,28.608411186928716]},"properties":{"substrate":"Firm/Hard Bottom","lease_number":null,"poll_year":2025}},{"type":"Feature","id":"5d453855-0c5f-4dff-808a-690e66eb314d","geometry":{"type":"Point","coordinates":[-96.48148091285533,28.608325263516523]},"properties":{"substrate":"Firm/Hard Bottom","lease_number":null,"poll_year":2025}},{"type":"Feature","id":"5e23b090-aae1-47cb-9ebe-4ef6b23d43cc","geometry":{"type":"Point","coordinates":[-96.48037840871051,28.60971927546862]},"properties":{"substrate":"Firm/Hard Bottom","lease_number":null,"poll_year":2025}},{"type":"Feature","id":"5ebafa67-d260-41f5-a8fa-e39df8baf07a","geometry":{"type":"Point","coordinates":[-96.47746618734038,28.60958661713443]},"properties":{"substrate":"Mud","lease_number":null,"poll_year":2025}},{"type":"Feature","id":"6103cea2-2fc4-4216-a981-81b98f112aa0","geometry":{"type":"Point","coordinates":[-96.48067798428134,28.61041029592355]},"properties":{"substrate":"Firm/Hard Bottom","lease_number":null,"poll_year":2025}},{"type":"Feature","id":"611857b7-1aa1-4a24-8ca1-f84201249e98","geometry":{"type":"Point","coordinates":[-96.48164445833933,28.609012091279066]},"properties":{"substrate":"Firm/Hard Bottom","lease_number":null,"poll_year":2025}},{"type":"Feature","id":"614712ec-84f4-479b-9046-a500132dcda8","geometry":{"type":"Point","coordinates":[-96.48020747368498,28.60689398889783]},"properties":{"substrate":"Solid Reef","lease_number":null,"poll_year":2025}},{"type":"Feature","id":"6185ec0a-ae2a-44e2-87ac-e463243a42c9","geometry":{"type":"Point","coordinates":[-96.48094825860426,28.60686933321183]},"properties":{"substrate":"Firm/Hard Bottom","lease_number":null,"poll_year":2025}},{"type":"Feature","id":"61992add-21d4-4dc9-bda2-3fbd35df985b","geometry":{"type":"Point","coordinates":[-96.4786942274529,28.609512973717624]},"properties":{"substrate":"Firm/Hard Bottom","lease_number":null,"poll_year":2025}},{"type":"Feature","id":"61a7f5de-b62e-423d-8ee4-6bd00e5f240f","geometry":{"type":"Point","coordinates":[-96.48119433680498,28.606518052741595]},"properties":{"substrate":"Firm/Hard Bottom","lease_number":null,"poll_year":2025}},{"type":"Feature","id":"61f187ed-015e-49b1-8d9f-9f9d3c2bc9aa","geometry":{"type":"Point","coordinates":[-96.48158445716656,28.608759510767428]},"properties":{"substrate":"Firm/Hard Bottom","lease_number":null,"poll_year":2025}},{"type":"Feature","id":"628050a2-1503-4db2-9a75-a707eeddeade","geometry":{"type":"Point","coordinates":[-96.479029641312,28.609128218142477]},"properties":{"substrate":"Firm/Hard Bottom","lease_number":null,"poll_year":2025}},{"type":"Feature","id":"63e74a06-69cb-4bba-80bf-fa215f832079","geometry":{"type":"Point","coordinates":[-96.48087813790981,28.60843352443335]},"properties":{"substrate":"Firm/Hard Bottom","lease_number":null,"poll_year":2025}},{"type":"Feature","id":"64284ba6-6fb3-44b9-ba23-fa61cc327c4d","geometry":{"type":"Point","coordinates":[-96.47881436364742,28.612424080013188]},"properties":{"substrate":"Firm/Hard Bottom","lease_number":null,"poll_year":2025}},{"type":"Feature","id":"6433ed1d-63f0-4c03-99dd-2b685de84115","geometry":{"type":"Point","coordinates":[-96.48143669059054,28.605118432686957]},"properties":{"substrate":"Firm/Hard Bottom","lease_number":null,"poll_year":2025}},{"type":"Feature","id":"6511557a-9466-4894-a3a8-4cf291a97d9e","geometry":{"type":"Point","coordinates":[-96.48125817288569,28.60891914158892]},"properties":{"substrate":"Firm/Hard Bottom","lease_number":null,"poll_year":2025}},{"type":"Feature","id":"6558c78a-8c61-40b3-aeab-a8d53fb46e85","geometry":{"type":"Point","coordinates":[-96.4797460243949,28.6102109315209]},"properties":{"substrate":"Mud","lease_number":null,"poll_year":2025}},{"type":"Feature","id":"65f6abac-5659-4547-8575-106837960cd1","geometry":{"type":"Point","coordinates":[-96.47957476148429,28.60809189195363]},"properties":{"substrate":"Firm/Hard Bottom","lease_number":null,"poll_year":2025}},{"type":"Feature","id":"66191864-1895-48af-b863-59cfa4315218","geometry":{"type":"Point","coordinates":[-96.4816956434459,28.607015061379013]},"properties":{"substrate":"Firm/Hard Bottom","lease_number":null,"poll_year":2025}},{"type":"Feature","id":"6964029e-3ada-47e8-a2ba-7e4a4f15fefa","geometry":{"type":"Point","coordinates":[-96.48134686265537,28.604853177577688]},"properties":{"substrate":"Firm/Hard Bottom","lease_number":null,"poll_year":2025}},{"type":"Feature","id":"69c6165f-5fbe-4b52-9f97-2aa918e260b0","geometry":{"type":"Point","coordinates":[-96.47952067481936,28.606503593510435]},"properties":{"substrate":"Firm/Hard Bottom","lease_number":null,"poll_year":2025}},{"type":"Feature","id":"6a835c46-7d78-4351-94cc-45edbd449df0","geometry":{"type":"Point","coordinates":[-96.48103773889139,28.609696850699084]},"properties":{"substrate":"Firm/Hard Bottom","lease_number":null,"poll_year":2025}},{"type":"Feature","id":"6ad7d907-84b1-4ef9-be49-a201cdb0773d","geometry":{"type":"Point","coordinates":[-96.48128747772688,28.605337855420665]},"properties":{"substrate":"Firm/Hard Bottom","lease_number":null,"poll_year":2025}},{"type":"Feature","id":"6b6efb95-f959-475e-ba87-700c341141db","geometry":{"type":"Point","coordinates":[-96.47964796429848,28.611526294741328]},"properties":{"substrate":"Firm/Hard Bottom","lease_number":null,"poll_year":2025}},{"type":"Feature","id":"6e04565f-7cdb-4ad7-8274-54935d51d23f","geometry":{"type":"Point","coordinates":[-96.47875167561364,28.60988354198401]},"properties":{"substrate":"Mud","lease_number":null,"poll_year":2025}},{"type":"Feature","id":"6e1a7192-eb05-4931-9935-48db9b35a2f9","geometry":{"type":"Point","coordinates":[-96.48139059893163,28.604375202794294]},"properties":{"substrate":"Solid Reef","lease_number":null,"poll_year":2025}},{"type":"Feature","id":"6e50e4ec-ce56-4389-afcd-ea39beaefdcb","geometry":{"type":"Point","coordinates":[-96.48155384258168,28.606836562268533]},"properties":{"substrate":"Firm/Hard Bottom","lease_number":null,"poll_year":2025}},{"type":"Feature","id":"6ed371c9-9c58-48ad-9e64-e5a4007edea5","geometry":{"type":"Point","coordinates":[-96.47921958379062,28.606871810373875]},"properties":{"substrate":"Mud","lease_number":null,"poll_year":2025}},{"type":"Feature","id":"6eff5404-027a-46ef-a61a-a1fa38121e13","geometry":{"type":"Point","coordinates":[-96.48132150950312,28.609028707089212]},"properties":{"substrate":"Firm/Hard Bottom","lease_number":null,"poll_year":2025}},{"type":"Feature","id":"6fe33e0c-909c-4de7-8e19-3b11706f4793","geometry":{"type":"Point","coordinates":[-96.4797691883528,28.61111956764618]},"properties":{"substrate":"Firm/Hard Bottom","lease_number":null,"poll_year":2025}},{"type":"Feature","id":"702214ba-f651-491c-b5ac-7e1781c0de67","geometry":{"type":"Point","coordinates":[-96.47838803758661,28.608605729841962]},"properties":{"substrate":"Mud","lease_number":null,"poll_year":2025}},{"type":"Feature","id":"723b901e-f41c-421e-868d-9e77352c723c","geometry":{"type":"Point","coordinates":[-96.48117577491627,28.607737516186884]},"properties":{"substrate":"Firm/Hard Bottom","lease_number":null,"poll_year":2025}},{"type":"Feature","id":"72bd1a30-1a1a-4eb8-bcce-a5a9a54a595b","geometry":{"type":"Point","coordinates":[-96.47996688778392,28.608849932221887]},"properties":{"substrate":"Firm/Hard Bottom","lease_number":null,"poll_year":2025}},{"type":"Feature","id":"72f0f611-1e1e-466b-bd96-fda4b1a02331","geometry":{"type":"Point","coordinates":[-96.47913169621648,28.61182235372709]},"properties":{"substrate":"Mud","lease_number":null,"poll_year":2025}},{"type":"Feature","id":"72f37aa6-df2d-41e0-b96e-9d05329694d8","geometry":{"type":"Point","coordinates":[-96.48157859116775,28.60820094096628]},"properties":{"substrate":"Firm/Hard Bottom","lease_number":null,"poll_year":2025}},{"type":"Feature","id":"731130df-ca55-492e-9d2b-c5fdb84c31a6","geometry":{"type":"Point","coordinates":[-96.48050434712344,28.607865791193134]},"properties":{"substrate":"Firm/Hard Bottom","lease_number":null,"poll_year":2025}},{"type":"Feature","id":"733da025-eafd-4502-9fc7-c7d47a9c1e56","geometry":{"type":"Point","coordinates":[-96.48054782917646,28.608847357315213]},"properties":{"substrate":"Firm/Hard Bottom","lease_number":null,"poll_year":2025}},{"type":"Feature","id":"737ab0d1-3006-460a-9d99-4da70d3cbd44","geometry":{"type":"Point","coordinates":[-96.4793460764641,28.61021879415054]},"properties":{"substrate":"Mud","lease_number":null,"poll_year":2025}},{"type":"Feature","id":"764af443-6b04-42ee-8959-d0636c8a0834","geometry":{"type":"Point","coordinates":[-96.48125062973224,28.607222192964766]},"properties":{"substrate":"Firm/Hard Bottom","lease_number":null,"poll_year":2025}},{"type":"Feature","id":"76fdb7c2-c762-4747-bac3-8e7353e57d00","geometry":{"type":"Point","coordinates":[-96.47962055580085,28.609273483401484]},"properties":{"substrate":"Firm/Hard Bottom","lease_number":null,"poll_year":2025}},{"type":"Feature","id":"781fd29e-27ad-4345-93ba-1a8afc4c6118","geometry":{"type":"Point","coordinates":[-96.48168696572027,28.607387447620123]},"properties":{"substrate":"Firm/Hard Bottom","lease_number":null,"poll_year":2025}},{"type":"Feature","id":"78a466b3-644b-4b81-8785-4eb90ba0d826","geometry":{"type":"Point","coordinates":[-96.47924756092182,28.60729942319378]},"properties":{"substrate":"Firm/Hard Bottom","lease_number":null,"poll_year":2025}},{"type":"Feature","id":"7a584680-9f2a-4010-8273-a60ea3fbeb6b","geometry":{"type":"Point","coordinates":[-96.47835026073398,28.6093926359686]},"properties":{"substrate":"Mud","lease_number":null,"poll_year":2025}},{"type":"Feature","id":"7aa14fa6-42ca-4d54-8c7f-ccf856336141","geometry":{"type":"Point","coordinates":[-96.48083677318591,28.609073467004038]},"properties":{"substrate":"Firm/Hard Bottom","lease_number":null,"poll_year":2025}},{"type":"Feature","id":"7ca6470c-7c0c-43a9-b82b-8e35383e06fa","geometry":{"type":"Point","coordinates":[-96.47808925702482,28.6089366485752]},"properties":{"substrate":"Mud","lease_number":null,"poll_year":2025}},{"type":"Feature","id":"7d078cdb-8842-4ba9-889a-7ffc5251dae8","geometry":{"type":"Point","coordinates":[-96.48021912842748,28.609728351840463]},"properties":{"substrate":"Firm/Hard Bottom","lease_number":null,"poll_year":2025}},{"type":"Feature","id":"7d2ce660-d49f-40f9-bef1-a6c292c5c731","geometry":{"type":"Point","coordinates":[-96.47811932723064,28.6101363406092]},"properties":{"substrate":"Mud","lease_number":null,"poll_year":2025}},{"type":"Feature","id":"7dbf8e76-bee4-481c-9860-0605a516f8af","geometry":{"type":"Point","coordinates":[-96.47897324418015,28.612254604735465]},"properties":{"substrate":"Firm/Hard Bottom","lease_number":null,"poll_year":2025}},{"type":"Feature","id":"7dc3c628-697b-4a45-9d3d-e6a034c1ab0c","geometry":{"type":"Point","coordinates":[-96.48180524150382,28.603554780462584]},"properties":{"substrate":"Firm/Hard Bottom","lease_number":null,"poll_year":2025}},{"type":"Feature","id":"7dcde0ca-6553-4b6f-940b-c70d37905f70","geometry":{"type":"Point","coordinates":[-96.47844899007528,28.60788396870441]},"properties":{"substrate":"Mud","lease_number":null,"poll_year":2025}},{"type":"Feature","id":"8246e23d-8a60-48bf-ac57-2d4f6e253fbf","geometry":{"type":"Point","coordinates":[-96.48134143952602,28.60821155138174]},"properties":{"substrate":"Firm/Hard Bottom","lease_number":null,"poll_year":2025}},{"type":"Feature","id":"8257cc08-78b1-48ca-979b-604efea6fdec","geometry":{"type":"Point","coordinates":[-96.47729947709163,28.60975143432261]},"properties":{"substrate":"Mud","lease_number":null,"poll_year":2025}},{"type":"Feature","id":"840caba1-63cb-4a5f-a249-14a61df3bbda","geometry":{"type":"Point","coordinates":[-96.48059279883958,28.60556927406064]},"properties":{"substrate":"Firm/Hard Bottom","lease_number":null,"poll_year":2025}},{"type":"Feature","id":"84ef159a-e721-4dca-842a-b08d3c7b99cd","geometry":{"type":"Point","coordinates":[-96.48101000161036,28.604952892907917]},"properties":{"substrate":"Solid Reef","lease_number":null,"poll_year":2025}},{"type":"Feature","id":"85fcfd94-5161-4017-8a25-b95342c373a6","geometry":{"type":"Point","coordinates":[-96.4780304290518,28.60978742118687]},"properties":{"substrate":"Mud","lease_number":null,"poll_year":2025}},{"type":"Feature","id":"890e3fa5-9a7d-49fb-9e54-d8eea65bb7fd","geometry":{"type":"Point","coordinates":[-96.48102505378125,28.607513800327332]},"properties":{"substrate":"Firm/Hard Bottom","lease_number":null,"poll_year":2025}},{"type":"Feature","id":"89c75821-ff6e-48a5-93ae-15ab3e0cb9d3","geometry":{"type":"Point","coordinates":[-96.48125761413358,28.609450565926746]},"properties":{"substrate":"Firm/Hard Bottom","lease_number":null,"poll_year":2025}},{"type":"Feature","id":"8a044a0f-cf9b-4f1d-92a0-410357784385","geometry":{"type":"Point","coordinates":[-96.48003555680086,28.61044262806395]},"properties":{"substrate":"Mud","lease_number":null,"poll_year":2025}},{"type":"Feature","id":"8a0780da-e4ab-4422-b325-51e957737970","geometry":{"type":"Point","coordinates":[-96.48177379418068,28.605620503277663]},"properties":{"substrate":"Firm/Hard Bottom","lease_number":null,"poll_year":2025}},{"type":"Feature","id":"8a3aa2af-9204-4e51-acfd-40e95bd4cad1","geometry":{"type":"Point","coordinates":[-96.47962913022023,28.610332468624264]},"properties":{"substrate":"Mud","lease_number":null,"poll_year":2025}},{"type":"Feature","id":"8a7894a8-5e53-4094-b4d4-86297596520e","geometry":{"type":"Point","coordinates":[-96.4808559207762,28.609537573578802]},"properties":{"substrate":"Firm/Hard Bottom","lease_number":null,"poll_year":2025}},{"type":"Feature","id":"8afddec7-8398-439f-a94e-9efa3e8ec588","geometry":{"type":"Point","coordinates":[-96.48024904502138,28.60729412188338]},"properties":{"substrate":"Firm/Hard Bottom","lease_number":null,"poll_year":2025}},{"type":"Feature","id":"8b5bfc90-d03f-48e8-9e2a-e192f27d7863","geometry":{"type":"Point","coordinates":[-96.48032334018696,28.60760186558377]},"properties":{"substrate":"Firm/Hard Bottom","lease_number":null,"poll_year":2025}},{"type":"Feature","id":"8bcaa01e-052a-4ce3-9fb5-8709f2147fab","geometry":{"type":"Point","coordinates":[-96.48062407009294,28.610162130365925]},"properties":{"substrate":"Firm/Hard Bottom","lease_number":null,"poll_year":2025}},{"type":"Feature","id":"8bec9484-f985-4935-b143-d267d583f5b4","geometry":{"type":"Point","coordinates":[-96.47915497426044,28.60897481235989]},"properties":{"substrate":"Firm/Hard Bottom","lease_number":null,"poll_year":2025}},{"type":"Feature","id":"8c4768e3-770f-4e5b-ad6a-fa7505868355","geometry":{"type":"Point","coordinates":[-96.47951970733378,28.609403876382924]},"properties":{"substrate":"Firm/Hard Bottom","lease_number":null,"poll_year":2025}},{"type":"Feature","id":"8cb3412b-e5c5-4a64-9e45-de7df3851324","geometry":{"type":"Point","coordinates":[-96.48042592509746,28.60826835028784]},"properties":{"substrate":"Firm/Hard Bottom","lease_number":null,"poll_year":2025}},{"type":"Feature","id":"8cd7f9c3-c15a-4db8-8538-8c16b81d6a4e","geometry":{"type":"Point","coordinates":[-96.47984814128313,28.610216105714827]},"properties":{"substrate":"Mud","lease_number":null,"poll_year":2025}},{"type":"Feature","id":"8cf9136a-d512-48cb-8054-0b6da0280f86","geometry":{"type":"Point","coordinates":[-96.48035259292588,28.606712571557676]},"properties":{"substrate":"Firm/Hard Bottom","lease_number":null,"poll_year":2025}},{"type":"Feature","id":"8e3c9ff8-559a-459c-8b87-1b813b395298","geometry":{"type":"Point","coordinates":[-96.47944010671814,28.61052127387597]},"properties":{"substrate":"Mud","lease_number":null,"poll_year":2025}},{"type":"Feature","id":"8f1614df-0254-4906-9334-f156b3a96796","geometry":{"type":"Point","coordinates":[-96.48149350364237,28.609182623040986]},"properties":{"substrate":"Firm/Hard Bottom","lease_number":null,"poll_year":2025}},{"type":"Feature","id":"8f2adae6-d742-436c-82fe-f76badb9031e","geometry":{"type":"Point","coordinates":[-96.479976438672,28.609589326879313]},"properties":{"substrate":"Firm/Hard Bottom","lease_number":null,"poll_year":2025}},{"type":"Feature","id":"8f4b043d-d4f4-4169-8dbe-27574c6d4660","geometry":{"type":"Point","coordinates":[-96.4806212107554,28.608961371598873]},"properties":{"substrate":"Firm/Hard Bottom","lease_number":null,"poll_year":2025}},{"type":"Feature","id":"90a83a21-fa86-457b-b70e-25918000be8a","geometry":{"type":"Point","coordinates":[-96.47988249555455,28.606866307935203]},"properties":{"substrate":"Firm/Hard Bottom","lease_number":null,"poll_year":2025}},{"type":"Feature","id":"90c0cc2f-d37d-450b-83c4-ad069303ade8","geometry":{"type":"Point","coordinates":[-96.47901820306349,28.609572489551784]},"properties":{"substrate":"Firm/Hard Bottom","lease_number":null,"poll_year":2025}},{"type":"Feature","id":"90cf4eb1-8370-4dcb-8e77-ee726729eb39","geometry":{"type":"Point","coordinates":[-96.48015923595085,28.60624818987903]},"properties":{"substrate":"Firm/Hard Bottom","lease_number":null,"poll_year":2025}},{"type":"Feature","id":"91141f24-dd15-4885-b2b4-ca806952ec74","geometry":{"type":"Point","coordinates":[-96.47864676316824,28.612341842705693]},"properties":{"substrate":"Mud","lease_number":null,"poll_year":2025}},{"type":"Feature","id":"944559b9-5031-4b25-97cb-a2360b82b825","geometry":{"type":"Point","coordinates":[-96.48062897399608,28.607708000263365]},"properties":{"substrate":"Firm/Hard Bottom","lease_number":null,"poll_year":2025}},{"type":"Feature","id":"94af9fa7-c583-430c-ac1d-4e5a44b5e6e1","geometry":{"type":"Point","coordinates":[-96.48179999624088,28.607688933126944]},"properties":{"substrate":"Firm/Hard Bottom","lease_number":null,"poll_year":2025}},{"type":"Feature","id":"957aab0b-993b-47c3-86b6-dbfdd107b40f","geometry":{"type":"Point","coordinates":[-96.48135831617526,28.608480539328937]},"properties":{"substrate":"Firm/Hard Bottom","lease_number":null,"poll_year":2025}},{"type":"Feature","id":"95f5c4ca-fd2a-466a-a4fd-8c991852f483","geometry":{"type":"Point","coordinates":[-96.48086849000364,28.607718852843345]},"properties":{"substrate":"Firm/Hard Bottom","lease_number":null,"poll_year":2025}},{"type":"Feature","id":"9670f506-936c-46db-940e-f8dbcd690adb","geometry":{"type":"Point","coordinates":[-96.48091729098147,28.610152184173447]},"properties":{"substrate":"Firm/Hard Bottom","lease_number":null,"poll_year":2025}},{"type":"Feature","id":"98a10640-1ae7-4e91-81d9-22aef4e61891","geometry":{"type":"Point","coordinates":[-96.47842519100847,28.612592017226024]},"properties":{"substrate":"Mud","lease_number":null,"poll_year":2025}},{"type":"Feature","id":"991ef8da-ed5e-4f89-854d-40ee8e244ea5","geometry":{"type":"Point","coordinates":[-96.48102675968198,28.606269482871166]},"properties":{"substrate":"Firm/Hard Bottom","lease_number":null,"poll_year":2025}},{"type":"Feature","id":"9a68bd25-c945-4472-beea-f7b8b720e468","geometry":{"type":"Point","coordinates":[-96.48096068769452,28.60941731077824]},"properties":{"substrate":"Firm/Hard Bottom","lease_number":null,"poll_year":2025}},{"type":"Feature","id":"9ac60e7b-3da9-4fcb-8765-ef77dc6218c2","geometry":{"type":"Point","coordinates":[-96.48107616163271,28.608176434640754]},"properties":{"substrate":"Firm/Hard Bottom","lease_number":null,"poll_year":2025}},{"type":"Feature","id":"9bcbe0aa-1a85-4e12-b347-87be1ababec5","geometry":{"type":"Point","coordinates":[-96.48142913396237,28.607407596839014]},"properties":{"substrate":"Firm/Hard Bottom","lease_number":null,"poll_year":2025}},{"type":"Feature","id":"9d17a175-f9cb-4bff-86b4-ae61ba77494a","geometry":{"type":"Point","coordinates":[-96.47955770157873,28.60964162825441]},"properties":{"substrate":"Firm/Hard Bottom","lease_number":null,"poll_year":2025}},{"type":"Feature","id":"9df071d8-da5b-4daa-bdd9-4914c97c8abe","geometry":{"type":"Point","coordinates":[-96.48072942001788,28.60826885580833]},"properties":{"substrate":"Firm/Hard Bottom","lease_number":null,"poll_year":2025}},{"type":"Feature","id":"9e01ee5a-b9ea-4400-b7f0-34f9dc145a7c","geometry":{"type":"Point","coordinates":[-96.48118343215573,28.60986643025989]},"properties":{"substrate":"Solid Reef","lease_number":null,"poll_year":2025}},{"type":"Feature","id":"9eaca155-17f6-4f24-a07f-b90572314a16","geometry":{"type":"Point","coordinates":[-96.48041859125148,28.605837043981563]},"properties":{"substrate":"Firm/Hard Bottom","lease_number":null,"poll_year":2025}},{"type":"Feature","id":"9ec188fb-0b4a-460f-bc4a-882ae4f09e2d","geometry":{"type":"Point","coordinates":[-96.4794025301898,28.61178975940187]},"properties":{"substrate":"Firm/Hard Bottom","lease_number":null,"poll_year":2025}},{"type":"Feature","id":"9ecdc1db-3479-43b2-8c7b-3312df69b91a","geometry":{"type":"Point","coordinates":[-96.48172406254824,28.608603923854204]},"properties":{"substrate":"Firm/Hard Bottom","lease_number":null,"poll_year":2025}},{"type":"Feature","id":"9f37a633-e5ca-4d8d-9993-2ef0ce349947","geometry":{"type":"Point","coordinates":[-96.48084044909204,28.60699948627232]},"properties":{"substrate":"Firm/Hard Bottom","lease_number":null,"poll_year":2025}},{"type":"Feature","id":"9f5f97ec-b8a5-48a9-889f-60953b115682","geometry":{"type":"Point","coordinates":[-96.4805496707228,28.61055073459378]},"properties":{"substrate":"Firm/Hard Bottom","lease_number":null,"poll_year":2025}},{"type":"Feature","id":"a04ed489-0037-4eda-8df2-0317eaf841ba","geometry":{"type":"Point","coordinates":[-96.48034155442765,28.610482182439316]},"properties":{"substrate":"Firm/Hard Bottom","lease_number":null,"poll_year":2025}},{"type":"Feature","id":"a0936259-fe73-43cf-97ca-185f69a7f62b","geometry":{"type":"Point","coordinates":[-96.47945586226993,28.609805950884034]},"properties":{"substrate":"Mud","lease_number":null,"poll_year":2025}},{"type":"Feature","id":"a1a420ac-8e7d-4c08-96a7-72b853a7c93d","geometry":{"type":"Point","coordinates":[-96.47821693367783,28.60954978242004]},"properties":{"substrate":"Mud","lease_number":null,"poll_year":2025}},{"type":"Feature","id":"a1dc6d79-f8a5-48bf-a065-845f164bd472","geometry":{"type":"Point","coordinates":[-96.48109648332107,28.608472607957367]},"properties":{"substrate":"Firm/Hard Bottom","lease_number":null,"poll_year":2025}},{"type":"Feature","id":"a1dcf099-6a0f-465c-a111-c6961bfc71eb","geometry":{"type":"Point","coordinates":[-96.4796308918165,28.609927717158996]},"properties":{"substrate":"Mud","lease_number":null,"poll_year":2025}},{"type":"Feature","id":"a4d9a9a0-d551-4ee9-8a05-6d5052632f35","geometry":{"type":"Point","coordinates":[-96.48185820257972,28.606412330904988]},"properties":{"substrate":"Firm/Hard Bottom","lease_number":null,"poll_year":2025}},{"type":"Feature","id":"a51c2b56-ac19-4204-b011-d13dfea7fc46","geometry":{"type":"Point","coordinates":[-96.48093326931541,28.60588048740309]},"properties":{"substrate":"Firm/Hard Bottom","lease_number":null,"poll_year":2025}},{"type":"Feature","id":"a51f8688-11eb-4ce5-b706-c8b391448e5f","geometry":{"type":"Point","coordinates":[-96.48057727235822,28.608087861978692]},"properties":{"substrate":"Firm/Hard Bottom","lease_number":null,"poll_year":2025}},{"type":"Feature","id":"a550e095-5d65-490a-b1a9-defa53a9bc4d","geometry":{"type":"Point","coordinates":[-96.48145404065191,28.606967891251568]},"properties":{"substrate":"Firm/Hard Bottom","lease_number":null,"poll_year":2025}},{"type":"Feature","id":"a72ae176-c712-4b4e-9856-a6aad5a6aaf1","geometry":{"type":"Point","coordinates":[-96.48071379112858,28.607144384597163]},"properties":{"substrate":"Firm/Hard Bottom","lease_number":null,"poll_year":2025}},{"type":"Feature","id":"a759f912-ba6d-4ca3-b1b5-7693d4ab073a","geometry":{"type":"Point","coordinates":[-96.47897764772168,28.607170651434007]},"properties":{"substrate":"Mud","lease_number":null,"poll_year":2025}},{"type":"Feature","id":"a827a9b7-13b8-45b2-a508-630145f04643","geometry":{"type":"Point","coordinates":[-96.48095910396468,28.608614452998925]},"properties":{"substrate":"Firm/Hard Bottom","lease_number":null,"poll_year":2025}},{"type":"Feature","id":"a89bc329-60a6-4435-a69a-0b51e945e70e","geometry":{"type":"Point","coordinates":[-96.4796745202949,28.609496469181504]},"properties":{"substrate":"Firm/Hard Bottom","lease_number":null,"poll_year":2025}},{"type":"Feature","id":"aa1da9c2-338f-41c1-beae-cb9485ed665a","geometry":{"type":"Point","coordinates":[-96.48184297074577,28.60917469487696]},"properties":{"substrate":"Firm/Hard Bottom","lease_number":null,"poll_year":2025}},{"type":"Feature","id":"ad0c716c-79fb-4e30-9d5b-c9e84a933802","geometry":{"type":"Point","coordinates":[-96.48036031664068,28.609214202411536]},"properties":{"substrate":"Firm/Hard Bottom","lease_number":null,"poll_year":2025}},{"type":"Feature","id":"ae1b6eb2-f564-49de-8ece-005f06d7ad07","geometry":{"type":"Point","coordinates":[-96.48110653187584,28.60878168494965]},"properties":{"substrate":"Firm/Hard Bottom","lease_number":null,"poll_year":2025}},{"type":"Feature","id":"ae4f60c2-d2b5-4c4f-9c3c-e09848c7095f","geometry":{"type":"Point","coordinates":[-96.48185625952377,28.605081153963525]},"properties":{"substrate":"Firm/Hard Bottom","lease_number":null,"poll_year":2025}},{"type":"Feature","id":"afbb7556-aa03-4857-bf3d-4e16c43ddfe4","geometry":{"type":"Point","coordinates":[-96.4815901965029,28.607512529024923]},"properties":{"substrate":"Firm/Hard Bottom","lease_number":null,"poll_year":2025}},{"type":"Feature","id":"b0fa1c68-4b4a-49ec-bcb8-ea89b3f653d4","geometry":{"type":"Point","coordinates":[-96.48072051951004,28.60790382760618]},"properties":{"substrate":"Firm/Hard Bottom","lease_number":null,"poll_year":2025}},{"type":"Feature","id":"b45401d6-6652-47e5-ab9e-7d916988868f","geometry":{"type":"Point","coordinates":[-96.48075219680192,28.60615924334406]},"properties":{"substrate":"Firm/Hard Bottom","lease_number":null,"poll_year":2025}},{"type":"Feature","id":"b54e81cc-b622-4fe5-8486-c121722b91a7","geometry":{"type":"Point","coordinates":[-96.48134732618605,28.60710076504017]},"properties":{"substrate":"Firm/Hard Bottom","lease_number":null,"poll_year":2025}},{"type":"Feature","id":"b73f6ac6-b318-4ece-b65a-7dfaa55cea23","geometry":{"type":"Point","coordinates":[-96.47919071732728,28.607738407358475]},"properties":{"substrate":"Firm/Hard Bottom","lease_number":null,"poll_year":2025}},{"type":"Feature","id":"b7c6c416-8c0a-4d39-8633-f2f8d0addb53","geometry":{"type":"Point","coordinates":[-96.47845453537553,28.612813190046005]},"properties":{"substrate":"Firm/Hard Bottom","lease_number":null,"poll_year":2025}},{"type":"Feature","id":"b89e347f-640e-4018-b65a-35273d03dfcd","geometry":{"type":"Point","coordinates":[-96.48178604720115,28.606886576340727]},"properties":{"substrate":"Firm/Hard Bottom","lease_number":null,"poll_year":2025}},{"type":"Feature","id":"b89f5fa1-8874-422d-af67-330f236d66b9","geometry":{"type":"Point","coordinates":[-96.4807987223471,28.609965095896108]},"properties":{"substrate":"Firm/Hard Bottom","lease_number":null,"poll_year":2025}},{"type":"Feature","id":"ba028e92-f4f7-4f72-8d52-403f1a7856bd","geometry":{"type":"Point","coordinates":[-96.48106482130056,28.6090946072165]},"properties":{"substrate":"Firm/Hard Bottom","lease_number":null,"poll_year":2025}},{"type":"Feature","id":"bc313981-dc58-4ca9-818c-a3a30f7af0f9","geometry":{"type":"Point","coordinates":[-96.47963771901266,28.61126801460275]},"properties":{"substrate":"Mud","lease_number":null,"poll_year":2025}},{"type":"Feature","id":"bc86735f-86c5-411d-ab6b-7099cd59ff12","geometry":{"type":"Point","coordinates":[-96.47974965808022,28.609111850768798]},"properties":{"substrate":"Firm/Hard Bottom","lease_number":null,"poll_year":2025}},{"type":"Feature","id":"bd3051af-6751-4931-adc7-4045b86ce4a2","geometry":{"type":"Point","coordinates":[-96.47806702012828,28.613222934099454]},"properties":{"substrate":"Firm/Hard Bottom","lease_number":null,"poll_year":2025}},{"type":"Feature","id":"bdcb8281-68fa-441e-a365-c8e74e4ab2ed","geometry":{"type":"Point","coordinates":[-96.48144193046359,28.606598448364785]},"properties":{"substrate":"Firm/Hard Bottom","lease_number":null,"poll_year":2025}},{"type":"Feature","id":"be9a191d-cb88-44e2-8aa0-ab753b5009d8","geometry":{"type":"Point","coordinates":[-96.48191549982349,28.607538810754065]},"properties":{"substrate":"Firm/Hard Bottom","lease_number":null,"poll_year":2025}},{"type":"Feature","id":"bf2d4ddc-3e7e-49ae-a234-cecc56747bf2","geometry":{"type":"Point","coordinates":[-96.4806541250274,28.608719434452304]},"properties":{"substrate":"Firm/Hard Bottom","lease_number":null,"poll_year":2025}},{"type":"Feature","id":"bf8d1104-194e-45fc-91d1-bf8264fe29a8","geometry":{"type":"Point","coordinates":[-96.48186092986492,28.604528705201915]},"properties":{"substrate":"Firm/Hard Bottom","lease_number":null,"poll_year":2025}},{"type":"Feature","id":"c18e801a-5a12-4d01-88fa-f70ff9a90447","geometry":{"type":"Point","coordinates":[-96.4802289802512,28.61060660244522]},"properties":{"substrate":"Firm/Hard Bottom","lease_number":null,"poll_year":2025}},{"type":"Feature","id":"c2cde552-b815-4327-9535-74bf73c592a2","geometry":{"type":"Point","coordinates":[-96.48109776252204,28.60926829575427]},"properties":{"substrate":"Firm/Hard Bottom","lease_number":null,"poll_year":2025}},{"type":"Feature","id":"c2f1ed3f-b685-4dbf-8cd2-6e294fd0ad9e","geometry":{"type":"Point","coordinates":[-96.4794588707278,28.607826970062774]},"properties":{"substrate":"Firm/Hard Bottom","lease_number":null,"poll_year":2025}},{"type":"Feature","id":"c351a58b-fbfd-4705-9a54-499d1b2a55e6","geometry":{"type":"Point","coordinates":[-96.48030016185601,28.60842579968253]},"properties":{"substrate":"Firm/Hard Bottom","lease_number":null,"poll_year":2025}},{"type":"Feature","id":"c3bc3256-0365-4abf-a010-6311a102600e","geometry":{"type":"Point","coordinates":[-96.47893424022884,28.607647045667342]},"properties":{"substrate":"Mud","lease_number":null,"poll_year":2025}},{"type":"Feature","id":"c5872972-f7d3-4d4f-9b73-93ebb6461b4e","geometry":{"type":"Point","coordinates":[-96.48097607583534,28.608304626303596]},"properties":{"substrate":"Firm/Hard Bottom","lease_number":null,"poll_year":2025}},{"type":"Feature","id":"c58b4dda-e149-4839-a073-ebfbe8099260","geometry":{"type":"Point","coordinates":[-96.4791547595631,28.609423881683508]},"properties":{"substrate":"Firm/Hard Bottom","lease_number":null,"poll_year":2025}},{"type":"Feature","id":"c67dd9e7-d5af-43e8-a657-3f3c9b4ccca4","geometry":{"type":"Point","coordinates":[-96.48120879608778,28.60915331414631]},"properties":{"substrate":"Firm/Hard Bottom","lease_number":null,"poll_year":2025}},{"type":"Feature","id":"c700f794-b9b2-422f-9f12-f24991d54408","geometry":{"type":"Point","coordinates":[-96.47895725865968,28.612014443249514]},"properties":{"substrate":"Firm/Hard Bottom","lease_number":null,"poll_year":2025}},{"type":"Feature","id":"c7b35c25-75ef-4d5b-b169-7b5144d2481c","geometry":{"type":"Point","coordinates":[-96.48070035233191,28.609218141650082]},"properties":{"substrate":"Firm/Hard Bottom","lease_number":null,"poll_year":2025}},{"type":"Feature","id":"c9d2471e-6c28-4aef-8d52-0d45b70d5586","geometry":{"type":"Point","coordinates":[-96.47886036727145,28.609754285228448]},"properties":{"substrate":"Firm/Hard Bottom","lease_number":null,"poll_year":2025}},{"type":"Feature","id":"ca21e16f-223f-46ff-a915-6cb6d8158a02","geometry":{"type":"Point","coordinates":[-96.48046361211858,28.60857578829618]},"properties":{"substrate":"Firm/Hard Bottom","lease_number":null,"poll_year":2025}},{"type":"Feature","id":"ca917d23-9451-4b0f-ad7b-b2ba08248239","geometry":{"type":"Point","coordinates":[-96.48038811410883,28.607111105847665]},"properties":{"substrate":"Firm/Hard Bottom","lease_number":null,"poll_year":2025}},{"type":"Feature","id":"ca96bd9a-dc9d-40bd-9354-ff37b6eee954","geometry":{"type":"Point","coordinates":[-96.47986504847508,28.60814512625192]},"properties":{"substrate":"Mud","lease_number":null,"poll_year":2025}},{"type":"Feature","id":"cae57269-3d2a-417e-9c71-f1812e7fc653","geometry":{"type":"Point","coordinates":[-96.48091672414452,28.607340742174976]},"properties":{"substrate":"Firm/Hard Bottom","lease_number":null,"poll_year":2025}},{"type":"Feature","id":"cb27bf0c-3c02-43ca-9448-e7413dcf02dc","geometry":{"type":"Point","coordinates":[-96.47926305506385,28.609723746226557]},"properties":{"substrate":"Mud","lease_number":null,"poll_year":2025}},{"type":"Feature","id":"cbbb7d28-16b9-43b2-a1a4-d93eab260fec","geometry":{"type":"Point","coordinates":[-96.48167022112338,28.605783917349108]},"properties":{"substrate":"Firm/Hard Bottom","lease_number":null,"poll_year":2025}},{"type":"Feature","id":"cce96752-00f1-48cd-a39b-eac21d978e50","geometry":{"type":"Point","coordinates":[-96.4803003019932,28.610809575630764]},"properties":{"substrate":"Firm/Hard Bottom","lease_number":null,"poll_year":2025}},{"type":"Feature","id":"cd75e01b-95bd-4a09-be2e-a0b97f589f59","geometry":{"type":"Point","coordinates":[-96.47856094980409,28.612688705621963]},"properties":{"substrate":"Firm/Hard Bottom","lease_number":null,"poll_year":2025}},{"type":"Feature","id":"cd962232-ce1f-4f5a-ac37-2ee51c33040b","geometry":{"type":"Point","coordinates":[-96.47795436959501,28.61306639721651]},"properties":{"substrate":"Mud","lease_number":null,"poll_year":2025}},{"type":"Feature","id":"cdf29f64-1ea5-48c9-95c6-2a185772ccda","geometry":{"type":"Point","coordinates":[-96.48022314030354,28.61023112041821]},"properties":{"substrate":"Mud","lease_number":null,"poll_year":2025}},{"type":"Feature","id":"cf1d0837-a986-4cc7-813a-ecfb5f38959f","geometry":{"type":"Point","coordinates":[-96.48024056851837,28.609331071157563]},"properties":{"substrate":"Firm/Hard Bottom","lease_number":null,"poll_year":2025}},{"type":"Feature","id":"cff231dd-32a8-4fae-9730-6356ae8537c0","geometry":{"type":"Point","coordinates":[-96.47975931586784,28.61140843871969]},"properties":{"substrate":"Firm/Hard Bottom","lease_number":null,"poll_year":2025}},{"type":"Feature","id":"d1dcd879-d91a-43d2-8d89-2d08bff8c095","geometry":{"type":"Point","coordinates":[-96.48134089514693,28.607538775264903]},"properties":{"substrate":"Firm/Hard Bottom","lease_number":null,"poll_year":2025}},{"type":"Feature","id":"d1e1ba01-53c6-409b-9a2b-f136b99516aa","geometry":{"type":"Point","coordinates":[-96.47881600307282,28.6073879902114]},"properties":{"substrate":"Mud","lease_number":null,"poll_year":2025}},{"type":"Feature","id":"d2ec4ca2-82f2-4119-9459-356aa7a1fb67","geometry":{"type":"Point","coordinates":[-96.48156828030493,28.606409672340828]},"properties":{"substrate":"Firm/Hard Bottom","lease_number":null,"poll_year":2025}},{"type":"Feature","id":"d3986099-f994-49a6-b52e-9ccbdaaab5a7","geometry":{"type":"Point","coordinates":[-96.48078967810883,28.610290795937036]},"properties":{"substrate":"Firm/Hard Bottom","lease_number":null,"poll_year":2025}},{"type":"Feature","id":"d4f3b8bf-1166-487e-b960-c8742c03ab5c","geometry":{"type":"Point","coordinates":[-96.48149581141432,28.60605917268444]},"properties":{"substrate":"Firm/Hard Bottom","lease_number":null,"poll_year":2025}},{"type":"Feature","id":"d5a95dbc-af12-4a66-93df-dc3bd11e4de5","geometry":{"type":"Point","coordinates":[-96.48085924544107,28.608118837576594]},"properties":{"substrate":"Firm/Hard Bottom","lease_number":null,"poll_year":2025}},{"type":"Feature","id":"d8557ff1-1be7-4ce7-85ad-4ec0b6e83541","geometry":{"type":"Point","coordinates":[-96.48061156823914,28.60840169719442]},"properties":{"substrate":"Firm/Hard Bottom","lease_number":null,"poll_year":2025}},{"type":"Feature","id":"d9b8c8b4-7f95-4f02-8ab3-680352faeb83","geometry":{"type":"Point","coordinates":[-96.4809662527577,28.60799429553866]},"properties":{"substrate":"Firm/Hard Bottom","lease_number":null,"poll_year":2025}},{"type":"Feature","id":"d9efd703-b36a-422c-b874-c4a9edfb4ef6","geometry":{"type":"Point","coordinates":[-96.48022913655807,28.60884150561283]},"properties":{"substrate":"Firm/Hard Bottom","lease_number":null,"poll_year":2025}},{"type":"Feature","id":"dabb7c4f-5ee1-4599-8301-36461068d01b","geometry":{"type":"Point","coordinates":[-96.47959984334534,28.608456998366513]},"properties":{"substrate":"Mud","lease_number":null,"poll_year":2025}},{"type":"Feature","id":"db27c31a-b376-4723-8e8f-40b5345ee10b","geometry":{"type":"Point","coordinates":[-96.48039519283329,28.60799645485007]},"properties":{"substrate":"Firm/Hard Bottom","lease_number":null,"poll_year":2025}},{"type":"Feature","id":"db650b4d-4a35-4c09-ad03-b28363cc46f1","geometry":{"type":"Point","coordinates":[-96.48019724995875,28.60856107303983]},"properties":{"substrate":"Firm/Hard Bottom","lease_number":null,"poll_year":2025}},{"type":"Feature","id":"dbfbcb39-85da-4ad9-a019-3c40d27073af","geometry":{"type":"Point","coordinates":[-96.48007421849405,28.609872361556956]},"properties":{"substrate":"Firm/Hard Bottom","lease_number":null,"poll_year":2025}},{"type":"Feature","id":"dc422f72-779b-46cc-b500-6c21a492f685","geometry":{"type":"Point","coordinates":[-96.47877514140548,28.610324986910516]},"properties":{"substrate":"Mud","lease_number":null,"poll_year":2025}},{"type":"Feature","id":"dce343b9-780d-4603-886c-aafce9110aea","geometry":{"type":"Point","coordinates":[-96.48131416757231,28.60973242512728]},"properties":{"substrate":"Firm/Hard Bottom","lease_number":null,"poll_year":2025}},{"type":"Feature","id":"dd69df73-a77f-49c9-9721-3153eb5e23a8","geometry":{"type":"Point","coordinates":[-96.47964912043025,28.60758941597838]},"properties":{"substrate":"Firm/Hard Bottom","lease_number":null,"poll_year":2025}},{"type":"Feature","id":"ddca200f-6ad0-43b1-aa9a-87a372742e45","geometry":{"type":"Point","coordinates":[-96.47987583634335,28.610494310730765]},"properties":{"substrate":"Mud","lease_number":null,"poll_year":2025}},{"type":"Feature","id":"de10cc92-0aaa-4cce-a10f-32f361cfe6e3","geometry":{"type":"Point","coordinates":[-96.47862185198709,28.6100300640637]},"properties":{"substrate":"Mud","lease_number":null,"poll_year":2025}},{"type":"Feature","id":"e02009c3-7510-4f3a-b0a2-aa04b9a1d536","geometry":{"type":"Point","coordinates":[-96.47764298656807,28.613375194143543]},"properties":{"substrate":"Firm/Hard Bottom","lease_number":null,"poll_year":2025}},{"type":"Feature","id":"e0b439bf-e0c1-4619-b906-72540f57a0e6","geometry":{"type":"Point","coordinates":[-96.47997536069367,28.608016797958836]},"properties":{"substrate":"Firm/Hard Bottom","lease_number":null,"poll_year":2025}},{"type":"Feature","id":"e2e9e30a-aa0b-425e-9d52-00d2e5edf465","geometry":{"type":"Point","coordinates":[-96.48174912913792,28.608892652004418]},"properties":{"substrate":"Firm/Hard Bottom","lease_number":null,"poll_year":2025}},{"type":"Feature","id":"e519617d-48d1-4541-b646-351c222bc950","geometry":{"type":"Point","coordinates":[-96.47796701607759,28.609066989924727]},"properties":{"substrate":"Mud","lease_number":null,"poll_year":2025}},{"type":"Feature","id":"e56230fe-ca7a-4dc8-9d0d-4e580f3bb21b","geometry":{"type":"Point","coordinates":[-96.48076692018944,28.606614653666963]},"properties":{"substrate":"Firm/Hard Bottom","lease_number":null,"poll_year":2025}},{"type":"Feature","id":"e5c854c1-2389-4080-b89c-6d36742b1750","geometry":{"type":"Point","coordinates":[-96.48027847921999,28.606373970602277]},"properties":{"substrate":"Firm/Hard Bottom","lease_number":null,"poll_year":2025}},{"type":"Feature","id":"e6dd28ca-eb2f-43d9-bf38-de81d1260c58","geometry":{"type":"Point","coordinates":[-96.47938149613744,28.607500562850877]},"properties":{"substrate":"Firm/Hard Bottom","lease_number":null,"poll_year":2025}},{"type":"Feature","id":"e6f5a041-5d61-4e4a-8312-591c8ee2b449","geometry":{"type":"Point","coordinates":[-96.48007622712703,28.610779494337933]},"properties":{"substrate":"Firm/Hard Bottom","lease_number":null,"poll_year":2025}},{"type":"Feature","id":"e9817355-d385-46fa-a0e7-68ca7205fc67","geometry":{"type":"Point","coordinates":[-96.48045016613541,28.60745078882046]},"properties":{"substrate":"Firm/Hard Bottom","lease_number":null,"poll_year":2025}},{"type":"Feature","id":"e983cb3c-bcd6-4655-808e-a031cd878cff","geometry":{"type":"Point","coordinates":[-96.48101313493407,28.60720815260446]},"properties":{"substrate":"Firm/Hard Bottom","lease_number":null,"poll_year":2025}},{"type":"Feature","id":"ea4eceda-705d-409e-bc47-eabe2a2d6879","geometry":{"type":"Point","coordinates":[-96.47993271407387,28.610016583217536]},"properties":{"substrate":"Mud","lease_number":null,"poll_year":2025}},{"type":"Feature","id":"eafb8eb9-5172-4359-a227-85fbb76cad9a","geometry":{"type":"Point","coordinates":[-96.48154288493184,28.609479248562774]},"properties":{"substrate":"Firm/Hard Bottom","lease_number":null,"poll_year":2025}},{"type":"Feature","id":"eb02d7fc-0cf8-4a27-bdc8-a5306c371531","geometry":{"type":"Point","coordinates":[-96.47964978248862,28.60715169539997]},"properties":{"substrate":"Firm/Hard Bottom","lease_number":null,"poll_year":2025}},{"type":"Feature","id":"eb9e0960-ef2a-4694-a1e3-14ba6a74de46","geometry":{"type":"Point","coordinates":[-96.4801258904875,28.60655702893224]},"properties":{"substrate":"Firm/Hard Bottom","lease_number":null,"poll_year":2025}},{"type":"Feature","id":"ebb7beda-16ac-447b-86ff-c80e4a18a43e","geometry":{"type":"Point","coordinates":[-96.48151518717668,28.607281016872665]},"properties":{"substrate":"Firm/Hard Bottom","lease_number":null,"poll_year":2025}},{"type":"Feature","id":"ec207ad5-9e5d-47c4-ab24-070aff35df99","geometry":{"type":"Point","coordinates":[-96.48093089686475,28.60981759897687]},"properties":{"substrate":"Firm/Hard Bottom","lease_number":null,"poll_year":2025}},{"type":"Feature","id":"ed595d02-1a2d-4274-98a9-83e985a780d4","geometry":{"type":"Point","coordinates":[-96.48166345052107,28.605387021602652]},"properties":{"substrate":"Firm/Hard Bottom","lease_number":null,"poll_year":2025}},{"type":"Feature","id":"ed6a5869-a209-4625-9e2c-dbd6bb70e8ec","geometry":{"type":"Point","coordinates":[-96.47891218389366,28.6092587911133]},"properties":{"substrate":"Firm/Hard Bottom","lease_number":null,"poll_year":2025}},{"type":"Feature","id":"ed706abc-82b9-4fbb-a6da-e22093b1391f","geometry":{"type":"Point","coordinates":[-96.4791602671341,28.608159455919466]},"properties":{"substrate":"Firm/Hard Bottom","lease_number":null,"poll_year":2025}},{"type":"Feature","id":"eea9e0a1-c648-4958-9dd3-7c01fd2353b8","geometry":{"type":"Point","coordinates":[-96.48094188685394,28.609206944590856]},"properties":{"substrate":"Firm/Hard Bottom","lease_number":null,"poll_year":2025}},{"type":"Feature","id":"ef169e64-c041-457d-b0a1-b4360345e73c","geometry":{"type":"Point","coordinates":[-96.47970978635632,28.608328247741767]},"properties":{"substrate":"Mud","lease_number":null,"poll_year":2025}},{"type":"Feature","id":"f0b534fc-ff76-4050-8e4d-78e23a146a74","geometry":{"type":"Point","coordinates":[-96.4804482554188,28.60948589438445]},"properties":{"substrate":"Firm/Hard Bottom","lease_number":null,"poll_year":2025}},{"type":"Feature","id":"f208bbb9-5f50-4311-a2c5-935965f50bcb","geometry":{"type":"Point","coordinates":[-96.48078739908296,28.60933707661661]},"properties":{"substrate":"Firm/Hard Bottom","lease_number":null,"poll_year":2025}},{"type":"Feature","id":"f24e44bc-ab3f-442a-9572-1063411f435f","geometry":{"type":"Point","coordinates":[-96.48073226677901,28.607573516822207]},"properties":{"substrate":"Firm/Hard Bottom","lease_number":null,"poll_year":2025}},{"type":"Feature","id":"f57a4f7e-4e3e-4d0c-874d-f51240af2a2e","geometry":{"type":"Point","coordinates":[-96.48149083295102,28.607641467559002]},"properties":{"substrate":"Firm/Hard Bottom","lease_number":null,"poll_year":2025}},{"type":"Feature","id":"f5cb568a-3538-4b79-be6c-5153b4f6e97e","geometry":{"type":"Point","coordinates":[-96.47894419805377,28.61011827547307]},"properties":{"substrate":"Mud","lease_number":null,"poll_year":2025}},{"type":"Feature","id":"f61cf309-ccde-4a83-a3e0-7efff5b3b7e6","geometry":{"type":"Point","coordinates":[-96.48104905047744,28.61001328043366]},"properties":{"substrate":"Firm/Hard Bottom","lease_number":null,"poll_year":2025}},{"type":"Feature","id":"f7119474-df3b-4949-a862-02c635a01b1e","geometry":{"type":"Point","coordinates":[-96.4818618569263,28.60712449242837]},"properties":{"substrate":"Firm/Hard Bottom","lease_number":null,"poll_year":2025}},{"type":"Feature","id":"f72c6171-2217-4477-9cc4-8e0a4b42469c","geometry":{"type":"Point","coordinates":[-96.47965022266311,28.606342378548046]},"properties":{"substrate":"Firm/Hard Bottom","lease_number":null,"poll_year":2025}},{"type":"Feature","id":"f7a0562a-f439-4632-a74f-36b9705c7abc","geometry":{"type":"Point","coordinates":[-96.48168248761857,28.607834723248978]},"properties":{"substrate":"Firm/Hard Bottom","lease_number":null,"poll_year":2025}},{"type":"Feature","id":"f849b55c-26b0-4c01-9bd5-9f9142509651","geometry":{"type":"Point","coordinates":[-96.48177304768068,28.607256650712394]},"properties":{"substrate":"Firm/Hard Bottom","lease_number":null,"poll_year":2025}},{"type":"Feature","id":"f899008b-40d3-4219-a0b6-61e3c84085ac","geometry":{"type":"Point","coordinates":[-96.48138621425471,28.609304345086265]},"properties":{"substrate":"Firm/Hard Bottom","lease_number":null,"poll_year":2025}},{"type":"Feature","id":"f8a4de9d-b976-4665-b23d-3d01d737a289","geometry":{"type":"Point","coordinates":[-96.4814032112782,28.60878832608354]},"properties":{"substrate":"Firm/Hard Bottom","lease_number":null,"poll_year":2025}},{"type":"Feature","id":"f8a7bac2-677a-4f7d-b335-91d7c9929b8e","geometry":{"type":"Point","coordinates":[-96.47996196681278,28.61010401468355]},"properties":{"substrate":"Firm/Hard Bottom","lease_number":null,"poll_year":2025}},{"type":"Feature","id":"f8c13e8b-f53c-49a1-8b3c-0940ffb5c93b","geometry":{"type":"Point","coordinates":[-96.4798553224155,28.60898042352026]},"properties":{"substrate":"Firm/Hard Bottom","lease_number":null,"poll_year":2025}},{"type":"Feature","id":"f8d2498d-c413-4175-a46c-7259e847d1b2","geometry":{"type":"Point","coordinates":[-96.47853304992799,28.609188224726587]},"properties":{"substrate":"Mud","lease_number":null,"poll_year":2025}},{"type":"Feature","id":"f96f777c-3817-4b23-b5ca-b14b55c7f6a1","geometry":{"type":"Point","coordinates":[-96.48187693874159,28.606752551633793]},"properties":{"substrate":"Firm/Hard Bottom","lease_number":null,"poll_year":2025}},{"type":"Feature","id":"fafe1b58-012e-4a95-a051-67b85ff9f6e4","geometry":{"type":"Point","coordinates":[-96.48160591881702,28.60714805103974]},"properties":{"substrate":"Firm/Hard Bottom","lease_number":null,"poll_year":2025}},{"type":"Feature","id":"fb8351e3-f8ab-4b92-970d-d8c75dce9bf7","geometry":{"type":"Point","coordinates":[-96.47952896626941,28.61139069240487]},"properties":{"substrate":"Mud","lease_number":null,"poll_year":2025}},{"type":"Feature","id":"fc289bc2-c2fa-4cec-889a-bc5fcf5b447b","geometry":{"type":"Point","coordinates":[-96.47763070300488,28.609410854224635]},"properties":{"substrate":"Mud","lease_number":null,"poll_year":2025}},{"type":"Feature","id":"fdd794ec-5eb4-4201-9ac2-70d3305cdbbf","geometry":{"type":"Point","coordinates":[-96.47911450605521,28.607451546712745]},"properties":{"substrate":"Firm/Hard Bottom","lease_number":null,"poll_year":2025}},{"type":"Feature","id":"fed17830-3cc1-4c6f-88cc-02311960d296","geometry":{"type":"Point","coordinates":[-96.48174779064816,28.606575742956142]},"properties":{"substrate":"Firm/Hard Bottom","lease_number":null,"poll_year":2025}},{"type":"Feature","id":"ff1e0229-6cb2-4adf-a76f-2f2390e029dd","geometry":{"type":"Point","coordinates":[-96.48149626686016,28.605640081843255]},"properties":{"substrate":"Firm/Hard Bottom","lease_number":null,"poll_year":2025}},{"type":"Feature","id":"ff4371c0-7cdb-42af-aa5d-565685c38cd9","geometry":{"type":"Point","coordinates":[-96.47967840101693,28.609878996312855]},"properties":{"substrate":"Firm/Hard Bottom","lease_number":null,"poll_year":2025}},{"type":"Feature","id":"ff5b0f53-c9ee-423d-962c-730266d538c8","geometry":{"type":"Point","coordinates":[-96.48158308633744,28.607952034382706]},"properties":{"substrate":"Firm/Hard Bottom","lease_number":null,"poll_year":2025}},{"type":"Feature","id":"ff89553b-49ac-458b-af08-8498edd7ab47","geometry":{"type":"Point","coordinates":[-96.48112652837406,28.60738435690048]},"properties":{"substrate":"Firm/Hard Bottom","lease_number":null,"poll_year":2025}},{"type":"Feature","id":"fff2374b-2069-4ee6-b3e1-32a872516363","geometry":{"type":"Point","coordinates":[-96.47833611136994,28.61293238985743]},"properties":{"substrate":"Firm/Hard Bottom","lease_number":null,"poll_year":2025}}]}