{"type":"FeatureCollection","features":[{"type":"Feature","id":"002816fb-ff10-4a56-9c73-c239267f4569","geometry":{"type":"Point","coordinates":[-94.94025793853712,29.247395966040298]},"properties":{"substrate":"Firm/Hard Bottom","lease_number":null,"poll_year":2025}},{"type":"Feature","id":"004ff13c-3fed-48d9-96bf-3e2b849decad","geometry":{"type":"Point","coordinates":[-94.9359476628021,29.247176865698364]},"properties":{"substrate":"Firm/Hard Bottom","lease_number":null,"poll_year":2025}},{"type":"Feature","id":"01021204-0ad8-49de-bc19-5d5000e27777","geometry":{"type":"Point","coordinates":[-94.93940729415016,29.247182786509185]},"properties":{"substrate":"Firm/Hard Bottom","lease_number":null,"poll_year":2025}},{"type":"Feature","id":"01b6054e-c155-49c9-a216-7b886bd77c07","geometry":{"type":"Point","coordinates":[-94.93864320064422,29.248007658553878]},"properties":{"substrate":"Firm/Hard Bottom","lease_number":null,"poll_year":2025}},{"type":"Feature","id":"029d9c34-a99a-4924-9f5c-58c0eec1c52c","geometry":{"type":"Point","coordinates":[-94.93754896459326,29.246698487502716]},"properties":{"substrate":"Firm/Hard Bottom","lease_number":null,"poll_year":2025}},{"type":"Feature","id":"02c21128-943a-4d0f-b943-6ed266a12216","geometry":{"type":"Point","coordinates":[-94.93897317250934,29.24711509846843]},"properties":{"substrate":"Firm/Hard Bottom","lease_number":null,"poll_year":2025}},{"type":"Feature","id":"04c1631b-0dee-4e42-a359-e691b9a057cb","geometry":{"type":"Point","coordinates":[-94.93631997316486,29.246603645090808]},"properties":{"substrate":"Firm/Hard Bottom","lease_number":null,"poll_year":2025}},{"type":"Feature","id":"04fb5f12-7592-4725-a5e7-f036e105e1b2","geometry":{"type":"Point","coordinates":[-94.9400467149694,29.247366499992417]},"properties":{"substrate":"Firm/Hard Bottom","lease_number":null,"poll_year":2025}},{"type":"Feature","id":"053110a1-ee2e-47cd-9b1e-21241bbdd788","geometry":{"type":"Point","coordinates":[-94.93923533504521,29.247177153352247]},"properties":{"substrate":"Firm/Hard Bottom","lease_number":null,"poll_year":2025}},{"type":"Feature","id":"05e27276-1d12-4808-94ed-675f46cae8e6","geometry":{"type":"Point","coordinates":[-94.93812493381074,29.24679113361612]},"properties":{"substrate":"Firm/Hard Bottom","lease_number":null,"poll_year":2025}},{"type":"Feature","id":"0661800c-f72b-401f-ba6f-0efa4703a072","geometry":{"type":"Point","coordinates":[-94.93739952984575,29.246559569514414]},"properties":{"substrate":"Firm/Hard Bottom","lease_number":null,"poll_year":2025}},{"type":"Feature","id":"07b2974d-abbc-45ac-808a-24d702afb832","geometry":{"type":"Point","coordinates":[-94.93574412881321,29.247470160185053]},"properties":{"substrate":"Firm/Hard Bottom","lease_number":null,"poll_year":2025}},{"type":"Feature","id":"07ea0bf8-5e97-4c55-8673-3fdccb87fdee","geometry":{"type":"Point","coordinates":[-94.93994208549331,29.246845523910025]},"properties":{"substrate":"Mud","lease_number":null,"poll_year":2025}},{"type":"Feature","id":"08338b16-e576-4606-8f5d-82f4995a7ceb","geometry":{"type":"Point","coordinates":[-94.94192047488794,29.247562150346997]},"properties":{"substrate":"Firm/Hard Bottom","lease_number":null,"poll_year":2025}},{"type":"Feature","id":"09224e2b-1c5c-4280-bb16-613fa6a17c64","geometry":{"type":"Point","coordinates":[-94.9373093722289,29.246638080664745]},"properties":{"substrate":"Firm/Hard Bottom","lease_number":null,"poll_year":2025}},{"type":"Feature","id":"0a61ef44-83d5-42f8-a49b-f9157deececc","geometry":{"type":"Point","coordinates":[-94.93736791992754,29.24802501326962]},"properties":{"substrate":"Firm/Hard Bottom","lease_number":null,"poll_year":2025}},{"type":"Feature","id":"0a8cae35-40b5-443b-a81e-14ff0c15ae85","geometry":{"type":"Point","coordinates":[-94.94172909330823,29.247842301088657]},"properties":{"substrate":"Firm/Hard Bottom","lease_number":null,"poll_year":2025}},{"type":"Feature","id":"0b7a0f21-6ae1-404f-820b-fb57743541a3","geometry":{"type":"Point","coordinates":[-94.93681689602721,29.24676892539389]},"properties":{"substrate":"Firm/Hard Bottom","lease_number":null,"poll_year":2025}},{"type":"Feature","id":"0bf821eb-fafe-40f8-ae76-9673a772e9e5","geometry":{"type":"Point","coordinates":[-94.93831145550475,29.247404913076323]},"properties":{"substrate":"Firm/Hard Bottom","lease_number":null,"poll_year":2025}},{"type":"Feature","id":"0c4970cd-20d1-4098-a2a3-3fd5d8c01a50","geometry":{"type":"Point","coordinates":[-94.940230238087,29.245403598779102]},"properties":{"substrate":"Firm/Hard Bottom","lease_number":null,"poll_year":2025}},{"type":"Feature","id":"0f23868e-1ae8-461e-b5f9-047e0cb928db","geometry":{"type":"Point","coordinates":[-94.9376681135393,29.247226108587537]},"properties":{"substrate":"Firm/Hard Bottom","lease_number":null,"poll_year":2025}},{"type":"Feature","id":"0fbcaba7-d8a2-485d-95b1-75a18e33f95c","geometry":{"type":"Point","coordinates":[-94.93620964387829,29.247497641632457]},"properties":{"substrate":"Firm/Hard Bottom","lease_number":null,"poll_year":2025}},{"type":"Feature","id":"0fbce319-dba2-4920-a37a-20f0f658219d","geometry":{"type":"Point","coordinates":[-94.94241101072862,29.247528147739096]},"properties":{"substrate":"Firm/Hard Bottom","lease_number":null,"poll_year":2025}},{"type":"Feature","id":"10129480-a1cf-46c6-b2cb-e5215da4c2dc","geometry":{"type":"Point","coordinates":[-94.94034758231764,29.24486388577631]},"properties":{"substrate":"Firm/Hard Bottom","lease_number":null,"poll_year":2025}},{"type":"Feature","id":"102706f7-a1df-4441-a2e1-603969c29913","geometry":{"type":"Point","coordinates":[-94.93765431541654,29.247615982169194]},"properties":{"substrate":"Firm/Hard Bottom","lease_number":null,"poll_year":2025}},{"type":"Feature","id":"10861643-136e-43f6-b81b-fe20d0909601","geometry":{"type":"Point","coordinates":[-94.93597115644172,29.247869589623086]},"properties":{"substrate":"Firm/Hard Bottom","lease_number":null,"poll_year":2025}},{"type":"Feature","id":"10c3e460-8e9d-4e01-94ec-e20bc8861f23","geometry":{"type":"Point","coordinates":[-94.93664806755102,29.247972719462584]},"properties":{"substrate":"Firm/Hard Bottom","lease_number":null,"poll_year":2025}},{"type":"Feature","id":"127c26cd-aa33-4d9e-8dce-74043ee59d79","geometry":{"type":"Point","coordinates":[-94.94132091231785,29.246794999322955]},"properties":{"substrate":"Firm/Hard Bottom","lease_number":null,"poll_year":2025}},{"type":"Feature","id":"1290c5df-ca4a-4006-9c88-a02f87d54e63","geometry":{"type":"Point","coordinates":[-94.93968940108199,29.24721031898069]},"properties":{"substrate":"Firm/Hard Bottom","lease_number":null,"poll_year":2025}},{"type":"Feature","id":"12bee59b-e8b9-4772-b623-a60c23ee8b43","geometry":{"type":"Point","coordinates":[-94.93689323306342,29.246701440084003]},"properties":{"substrate":"Firm/Hard Bottom","lease_number":null,"poll_year":2025}},{"type":"Feature","id":"1314175f-aca3-483b-9ed1-c854b82297ea","geometry":{"type":"Point","coordinates":[-94.94011582955072,29.247567893214054]},"properties":{"substrate":"Firm/Hard Bottom","lease_number":null,"poll_year":2025}},{"type":"Feature","id":"137a6a1b-73b4-4bc5-8674-b75dcc094db3","geometry":{"type":"Point","coordinates":[-94.93773077013205,29.247511227945683]},"properties":{"substrate":"Firm/Hard Bottom","lease_number":null,"poll_year":2025}},{"type":"Feature","id":"1546b3c5-b42d-44b5-8e18-6fc6c2972b75","geometry":{"type":"Point","coordinates":[-94.9417916852223,29.247744519726538]},"properties":{"substrate":"Firm/Hard Bottom","lease_number":null,"poll_year":2025}},{"type":"Feature","id":"1556aa87-350b-43e0-a888-7a920ca63e4f","geometry":{"type":"Point","coordinates":[-94.94167511174619,29.247914656132625]},"properties":{"substrate":"Firm/Hard Bottom","lease_number":null,"poll_year":2025}},{"type":"Feature","id":"159b3873-fbf9-4452-a8be-79affa807f67","geometry":{"type":"Point","coordinates":[-94.93943729877897,29.24756446411031]},"properties":{"substrate":"Firm/Hard Bottom","lease_number":null,"poll_year":2025}},{"type":"Feature","id":"169ef4a5-e737-4d1f-991f-813e0b83a331","geometry":{"type":"Point","coordinates":[-94.93832801954028,29.248029115634928]},"properties":{"substrate":"Firm/Hard Bottom","lease_number":null,"poll_year":2025}},{"type":"Feature","id":"16dfb950-8dde-4aba-a416-3e98a239674c","geometry":{"type":"Point","coordinates":[-94.94220213805201,29.247872951310395]},"properties":{"substrate":"Firm/Hard Bottom","lease_number":null,"poll_year":2025}},{"type":"Feature","id":"17b7b2fb-c379-4d3e-b1c4-79488a252c3e","geometry":{"type":"Point","coordinates":[-94.93754832589111,29.24740288304372]},"properties":{"substrate":"Firm/Hard Bottom","lease_number":null,"poll_year":2025}},{"type":"Feature","id":"180d8e12-36d7-4298-9fa8-409238a31d56","geometry":{"type":"Point","coordinates":[-94.93749211560883,29.24747620952149]},"properties":{"substrate":"Firm/Hard Bottom","lease_number":null,"poll_year":2025}},{"type":"Feature","id":"18c62bd8-cb0c-4e89-8eb7-5a3c3704dff5","geometry":{"type":"Point","coordinates":[-94.93759486580933,29.247699352816404]},"properties":{"substrate":"Firm/Hard Bottom","lease_number":null,"poll_year":2025}},{"type":"Feature","id":"18cc9553-056c-45e9-8f28-41014af7b27b","geometry":{"type":"Point","coordinates":[-94.94028002721163,29.245203215552014]},"properties":{"substrate":"Firm/Hard Bottom","lease_number":null,"poll_year":2025}},{"type":"Feature","id":"19df292e-07ed-4b87-8ac0-960e1fc017c5","geometry":{"type":"Point","coordinates":[-94.93788772377849,29.247300319315176]},"properties":{"substrate":"Firm/Hard Bottom","lease_number":null,"poll_year":2025}},{"type":"Feature","id":"1a22c4d6-1819-4f18-ba18-fda00393b8e3","geometry":{"type":"Point","coordinates":[-94.93952581786876,29.247714926020596]},"properties":{"substrate":"Firm/Hard Bottom","lease_number":null,"poll_year":2025}},{"type":"Feature","id":"1a577bd2-5519-488f-9deb-b5f6e9210d09","geometry":{"type":"Point","coordinates":[-94.93957936913779,29.247365642518876]},"properties":{"substrate":"Firm/Hard Bottom","lease_number":null,"poll_year":2025}},{"type":"Feature","id":"1ae5d10a-1c08-4de6-baa8-845784d6aae5","geometry":{"type":"Point","coordinates":[-94.93563969786481,29.247972804112155]},"properties":{"substrate":"Firm/Hard Bottom","lease_number":null,"poll_year":2025}},{"type":"Feature","id":"1b3c266c-2ef3-4a88-b11b-d8fc6f67000f","geometry":{"type":"Point","coordinates":[-94.93693108178128,29.246588944873555]},"properties":{"substrate":"Firm/Hard Bottom","lease_number":null,"poll_year":2025}},{"type":"Feature","id":"1bba270e-2ad1-4fe9-925a-c6a7044f7b78","geometry":{"type":"Point","coordinates":[-94.93790653090728,29.247641119247874]},"properties":{"substrate":"Firm/Hard Bottom","lease_number":null,"poll_year":2025}},{"type":"Feature","id":"1bd83934-a6f6-48f2-a5fe-e6718c7a8393","geometry":{"type":"Point","coordinates":[-94.93629232391872,29.24701153118822]},"properties":{"substrate":"Firm/Hard Bottom","lease_number":null,"poll_year":2025}},{"type":"Feature","id":"1c5bd2ec-7ed6-4f76-a33e-09d4841fd137","geometry":{"type":"Point","coordinates":[-94.93977917421991,29.247317505634477]},"properties":{"substrate":"Firm/Hard Bottom","lease_number":null,"poll_year":2025}},{"type":"Feature","id":"1d5b999b-9f19-4f6d-83ff-58ed9d7dfe8e","geometry":{"type":"Point","coordinates":[-94.93791652107154,29.246845278580402]},"properties":{"substrate":"Firm/Hard Bottom","lease_number":null,"poll_year":2025}},{"type":"Feature","id":"1ee03f7d-03ff-4dd4-845d-70880ec0eb07","geometry":{"type":"Point","coordinates":[-94.93692110688836,29.246873754838436]},"properties":{"substrate":"Firm/Hard Bottom","lease_number":null,"poll_year":2025}},{"type":"Feature","id":"1fdcd235-b26c-479f-811d-9a08e7ee0620","geometry":{"type":"Point","coordinates":[-94.93911338605047,29.248025884062077]},"properties":{"substrate":"Firm/Hard Bottom","lease_number":null,"poll_year":2025}},{"type":"Feature","id":"2068ce2b-4d00-4f0d-8db7-816faee9c75b","geometry":{"type":"Point","coordinates":[-94.93602279250257,29.247792824141808]},"properties":{"substrate":"Firm/Hard Bottom","lease_number":null,"poll_year":2025}},{"type":"Feature","id":"220fab90-588e-48e4-a05b-493999a888cb","geometry":{"type":"Point","coordinates":[-94.93960335685081,29.24698981132098]},"properties":{"substrate":"Firm/Hard Bottom","lease_number":null,"poll_year":2025}},{"type":"Feature","id":"22536813-c87d-4b52-a862-19138ef029af","geometry":{"type":"Point","coordinates":[-94.93985764205998,29.24723202077377]},"properties":{"substrate":"Firm/Hard Bottom","lease_number":null,"poll_year":2025}},{"type":"Feature","id":"230d54f6-998d-4fa0-b407-36aa97ef7007","geometry":{"type":"Point","coordinates":[-94.93967333561146,29.24696432842659]},"properties":{"substrate":"Firm/Hard Bottom","lease_number":null,"poll_year":2025}},{"type":"Feature","id":"246f2241-32c4-4c41-88cb-b4ef9b0ce939","geometry":{"type":"Point","coordinates":[-94.93934044691662,29.24799500658652]},"properties":{"substrate":"Firm/Hard Bottom","lease_number":null,"poll_year":2025}},{"type":"Feature","id":"267483a2-d9c0-463d-9687-7373649776ef","geometry":{"type":"Point","coordinates":[-94.9358936965114,29.247261872488725]},"properties":{"substrate":"Firm/Hard Bottom","lease_number":null,"poll_year":2025}},{"type":"Feature","id":"2721cbec-8a13-4f54-baba-87a09fcd33f4","geometry":{"type":"Point","coordinates":[-94.93918245481771,29.247246064076226]},"properties":{"substrate":"Mud","lease_number":null,"poll_year":2025}},{"type":"Feature","id":"29ffc347-e21d-4b69-9167-ddb122eb1848","geometry":{"type":"Point","coordinates":[-94.93852450714405,29.2470833655935]},"properties":{"substrate":"Firm/Hard Bottom","lease_number":null,"poll_year":2025}},{"type":"Feature","id":"2b8575f3-96f9-40dd-976d-7bd771b959c9","geometry":{"type":"Point","coordinates":[-94.9368447959033,29.247706138905702]},"properties":{"substrate":"Firm/Hard Bottom","lease_number":null,"poll_year":2025}},{"type":"Feature","id":"2b8f238d-bb1e-49d9-8914-56e4cc7b9ca6","geometry":{"type":"Point","coordinates":[-94.93836009119255,29.247735172201548]},"properties":{"substrate":"Mud","lease_number":null,"poll_year":2025}},{"type":"Feature","id":"2caf3fd9-cfc1-451f-8349-48e3edff5ac0","geometry":{"type":"Point","coordinates":[-94.93799722571667,29.246634231411832]},"properties":{"substrate":"Firm/Hard Bottom","lease_number":null,"poll_year":2025}},{"type":"Feature","id":"2ed04c1c-a20c-40c6-88ed-ff1f593fe51a","geometry":{"type":"Point","coordinates":[-94.93749819271173,29.246773191624037]},"properties":{"substrate":"Firm/Hard Bottom","lease_number":null,"poll_year":2025}},{"type":"Feature","id":"2f98f9e7-0d75-4d19-a7dc-3e2d90a79371","geometry":{"type":"Point","coordinates":[-94.94196707678992,29.24779319722748]},"properties":{"substrate":"Firm/Hard Bottom","lease_number":null,"poll_year":2025}},{"type":"Feature","id":"300462f0-4e2d-43db-b108-15bd405c2013","geometry":{"type":"Point","coordinates":[-94.93936509129811,29.24724821795201]},"properties":{"substrate":"Firm/Hard Bottom","lease_number":null,"poll_year":2025}},{"type":"Feature","id":"3130120d-873d-4c23-8c1b-ff14287bd73b","geometry":{"type":"Point","coordinates":[-94.93644273244001,29.247565911779986]},"properties":{"substrate":"Firm/Hard Bottom","lease_number":null,"poll_year":2025}},{"type":"Feature","id":"324014ab-4ffa-4f71-88ad-01d43143587c","geometry":{"type":"Point","coordinates":[-94.93547093316903,29.24783336192877]},"properties":{"substrate":"Firm/Hard Bottom","lease_number":null,"poll_year":2025}},{"type":"Feature","id":"326f1726-eaa2-4ea7-9dcb-ca7a0ddf928d","geometry":{"type":"Point","coordinates":[-94.93624526746922,29.246765841135918]},"properties":{"substrate":"Firm/Hard Bottom","lease_number":null,"poll_year":2025}},{"type":"Feature","id":"3385b678-17a5-4498-b34d-1a321ec7521a","geometry":{"type":"Point","coordinates":[-94.93907063342945,29.246956379129166]},"properties":{"substrate":"Firm/Hard Bottom","lease_number":null,"poll_year":2025}},{"type":"Feature","id":"33e76e09-7569-4356-9791-57eeef881762","geometry":{"type":"Point","coordinates":[-94.93958539952828,29.24763174898336]},"properties":{"substrate":"Firm/Hard Bottom","lease_number":null,"poll_year":2025}},{"type":"Feature","id":"35c6a2e3-aaf0-4503-a0da-d10c417baa4b","geometry":{"type":"Point","coordinates":[-94.94050937339186,29.24720463801353]},"properties":{"substrate":"Firm/Hard Bottom","lease_number":null,"poll_year":2025}},{"type":"Feature","id":"35d9c836-157c-492e-82b1-e2dcbf40b3aa","geometry":{"type":"Point","coordinates":[-94.93882373506688,29.247325863262095]},"properties":{"substrate":"Mud","lease_number":null,"poll_year":2025}},{"type":"Feature","id":"3603e504-9546-4812-a2c2-bbd96d0e0edb","geometry":{"type":"Point","coordinates":[-94.9361896662447,29.24685426563844]},"properties":{"substrate":"Firm/Hard Bottom","lease_number":null,"poll_year":2025}},{"type":"Feature","id":"3769127d-fede-4eb7-a650-0ac85fc7e123","geometry":{"type":"Point","coordinates":[-94.93582696785546,29.247355834870564]},"properties":{"substrate":"Firm/Hard Bottom","lease_number":null,"poll_year":2025}},{"type":"Feature","id":"384dd49a-d3fe-4e1c-9fd9-7a87c695b342","geometry":{"type":"Point","coordinates":[-94.93541903839336,29.247910213596796]},"properties":{"substrate":"Firm/Hard Bottom","lease_number":null,"poll_year":2025}},{"type":"Feature","id":"38bdc2ec-fa29-490c-8f5d-954a29115698","geometry":{"type":"Point","coordinates":[-94.9385906186574,29.247405738413924]},"properties":{"substrate":"Mud","lease_number":null,"poll_year":2025}},{"type":"Feature","id":"3ade0936-bab5-4fc7-add7-587fc38a7631","geometry":{"type":"Point","coordinates":[-94.93972745641237,29.24783703556694]},"properties":{"substrate":"Firm/Hard Bottom","lease_number":null,"poll_year":2025}},{"type":"Feature","id":"3b514db9-7ddc-4fb4-a41a-9f01f0e6d485","geometry":{"type":"Point","coordinates":[-94.93895515949126,29.247848426430963]},"properties":{"substrate":"Firm/Hard Bottom","lease_number":null,"poll_year":2025}},{"type":"Feature","id":"3ed04dc5-ec9e-4403-a77d-bb76c167660c","geometry":{"type":"Point","coordinates":[-94.93761627984908,29.246885337056945]},"properties":{"substrate":"Firm/Hard Bottom","lease_number":null,"poll_year":2025}},{"type":"Feature","id":"3f499a50-43c6-4d1e-92ba-4cce54b23124","geometry":{"type":"Point","coordinates":[-94.9372390772613,29.247419283981948]},"properties":{"substrate":"Firm/Hard Bottom","lease_number":null,"poll_year":2025}},{"type":"Feature","id":"3f9429c2-453c-470b-bdc9-553c10eb022d","geometry":{"type":"Point","coordinates":[-94.93993623835912,29.247535227763024]},"properties":{"substrate":"Firm/Hard Bottom","lease_number":null,"poll_year":2025}},{"type":"Feature","id":"40c11633-b46e-4f26-bb44-c3fa2326892f","geometry":{"type":"Point","coordinates":[-94.93764044722518,29.248038575999022]},"properties":{"substrate":"Firm/Hard Bottom","lease_number":null,"poll_year":2025}},{"type":"Feature","id":"4118ec36-15d6-41ca-9b2f-65dcf47f3afc","geometry":{"type":"Point","coordinates":[-94.93705931988136,29.247687088005218]},"properties":{"substrate":"Firm/Hard Bottom","lease_number":null,"poll_year":2025}},{"type":"Feature","id":"4144de4e-4d38-4c5e-b8c4-0db0573f3045","geometry":{"type":"Point","coordinates":[-94.93768877928241,29.246788819835324]},"properties":{"substrate":"Firm/Hard Bottom","lease_number":null,"poll_year":2025}},{"type":"Feature","id":"41905f96-9d8c-4b37-be55-043b290579bd","geometry":{"type":"Point","coordinates":[-94.93790559037117,29.24660099035168]},"properties":{"substrate":"Firm/Hard Bottom","lease_number":null,"poll_year":2025}},{"type":"Feature","id":"431bc7bc-804a-4210-b558-e1586878dbfa","geometry":{"type":"Point","coordinates":[-94.93742720154978,29.2468820835016]},"properties":{"substrate":"Firm/Hard Bottom","lease_number":null,"poll_year":2025}},{"type":"Feature","id":"44014bd3-5309-4074-abf5-a9f21705f7f1","geometry":{"type":"Point","coordinates":[-94.93774987550152,29.24786482886539]},"properties":{"substrate":"Firm/Hard Bottom","lease_number":null,"poll_year":2025}},{"type":"Feature","id":"4608b894-2df9-468d-b227-b2b21e764f43","geometry":{"type":"Point","coordinates":[-94.93695226136074,29.247844322490845]},"properties":{"substrate":"Firm/Hard Bottom","lease_number":null,"poll_year":2025}},{"type":"Feature","id":"467ac339-a882-4520-92e0-af0f573c98a6","geometry":{"type":"Point","coordinates":[-94.9419194076894,29.247904071798505]},"properties":{"substrate":"Firm/Hard Bottom","lease_number":null,"poll_year":2025}},{"type":"Feature","id":"478b8536-38a3-41dd-bc93-fd0a05681d5e","geometry":{"type":"Point","coordinates":[-94.9377786799811,29.247440267773467]},"properties":{"substrate":"Firm/Hard Bottom","lease_number":null,"poll_year":2025}},{"type":"Feature","id":"47a05307-5684-4b79-ac83-907692493195","geometry":{"type":"Point","coordinates":[-94.93994348596684,29.247126574063103]},"properties":{"substrate":"Firm/Hard Bottom","lease_number":null,"poll_year":2025}},{"type":"Feature","id":"48b7c614-9566-4d5a-813a-fd033bfb24d3","geometry":{"type":"Point","coordinates":[-94.93699529605274,29.24677722036221]},"properties":{"substrate":"Firm/Hard Bottom","lease_number":null,"poll_year":2025}},{"type":"Feature","id":"49af8056-3756-474b-a325-9a92675ae6f6","geometry":{"type":"Point","coordinates":[-94.93678324603498,29.24779333752648]},"properties":{"substrate":"Firm/Hard Bottom","lease_number":null,"poll_year":2025}},{"type":"Feature","id":"4b2938ea-1a58-4732-a977-91283266e312","geometry":{"type":"Point","coordinates":[-94.93897187713868,29.247540726871264]},"properties":{"substrate":"Mud","lease_number":null,"poll_year":2025}},{"type":"Feature","id":"4b462c21-1ec8-4156-bc2e-1eac0fdc5dac","geometry":{"type":"Point","coordinates":[-94.93752725321116,29.24696650425466]},"properties":{"substrate":"Firm/Hard Bottom","lease_number":null,"poll_year":2025}},{"type":"Feature","id":"4b4d6975-707f-4aef-b7b1-bc1a91254125","geometry":{"type":"Point","coordinates":[-94.93933040644667,29.247030396454065]},"properties":{"substrate":"Firm/Hard Bottom","lease_number":null,"poll_year":2025}},{"type":"Feature","id":"4d897f6f-7eaa-44b8-a7e5-ea6676c4eb60","geometry":{"type":"Point","coordinates":[-94.93776065618323,29.24670348188758]},"properties":{"substrate":"Firm/Hard Bottom","lease_number":null,"poll_year":2025}},{"type":"Feature","id":"4f7f30fd-f69f-4ad0-b740-5ef9aa5c9de9","geometry":{"type":"Point","coordinates":[-94.93733089406648,29.247258861922543]},"properties":{"substrate":"Firm/Hard Bottom","lease_number":null,"poll_year":2025}},{"type":"Feature","id":"524beb76-17c8-4eb6-9cb0-e4cd5a89333a","geometry":{"type":"Point","coordinates":[-94.93748429846923,29.247861380960533]},"properties":{"substrate":"Firm/Hard Bottom","lease_number":null,"poll_year":2025}},{"type":"Feature","id":"5417218f-fcf4-4f5b-a531-8b9ff0420271","geometry":{"type":"Point","coordinates":[-94.93819144417604,29.246680735958257]},"properties":{"substrate":"Firm/Hard Bottom","lease_number":null,"poll_year":2025}},{"type":"Feature","id":"54815bef-ac53-4e1f-b916-8c50b70a6f66","geometry":{"type":"Point","coordinates":[-94.9392897711548,29.248061558331518]},"properties":{"substrate":"Firm/Hard Bottom","lease_number":null,"poll_year":2025}},{"type":"Feature","id":"548a633a-e7bd-4a87-b207-f7cd3f176ebd","geometry":{"type":"Point","coordinates":[-94.93740763175131,29.24715298415047]},"properties":{"substrate":"Firm/Hard Bottom","lease_number":null,"poll_year":2025}},{"type":"Feature","id":"56f4667f-4055-4b9a-935e-a43580cea220","geometry":{"type":"Point","coordinates":[-94.93825086413884,29.247133313946247]},"properties":{"substrate":"Firm/Hard Bottom","lease_number":null,"poll_year":2025}},{"type":"Feature","id":"583d8d84-3085-4005-8d74-2d57eeb0b85a","geometry":{"type":"Point","coordinates":[-94.93691925815551,29.247209705266958]},"properties":{"substrate":"Firm/Hard Bottom","lease_number":null,"poll_year":2025}},{"type":"Feature","id":"5dc78d2b-4217-48db-bb8b-9dc7d19c498c","geometry":{"type":"Point","coordinates":[-94.936067480993,29.24733493414415]},"properties":{"substrate":"Firm/Hard Bottom","lease_number":null,"poll_year":2025}},{"type":"Feature","id":"5e5179e5-fbaa-40a4-aa6b-fd310a0d31e9","geometry":{"type":"Point","coordinates":[-94.93945831037348,29.247811848373583]},"properties":{"substrate":"Firm/Hard Bottom","lease_number":null,"poll_year":2025}},{"type":"Feature","id":"61f09fba-96ac-417c-a374-974f422dd002","geometry":{"type":"Point","coordinates":[-94.93613127215795,29.247243990147762]},"properties":{"substrate":"Firm/Hard Bottom","lease_number":null,"poll_year":2025}},{"type":"Feature","id":"62354093-6650-4339-bf02-961c5d9ca0b6","geometry":{"type":"Point","coordinates":[-94.93659704234457,29.24805127342096]},"properties":{"substrate":"Firm/Hard Bottom","lease_number":null,"poll_year":2025}},{"type":"Feature","id":"634b9fd6-c863-4946-96c9-9bc7e70e3723","geometry":{"type":"Point","coordinates":[-94.93611672573857,29.248015741014193]},"properties":{"substrate":"Firm/Hard Bottom","lease_number":null,"poll_year":2025}},{"type":"Feature","id":"63cf60db-48c7-446b-a7d3-8e6c57537925","geometry":{"type":"Point","coordinates":[-94.93718806013968,29.247226765410005]},"properties":{"substrate":"Firm/Hard Bottom","lease_number":null,"poll_year":2025}},{"type":"Feature","id":"65a8bc2a-061b-4183-930b-780da83a67e3","geometry":{"type":"Point","coordinates":[-94.93873813370514,29.247851686225907]},"properties":{"substrate":"Firm/Hard Bottom","lease_number":null,"poll_year":2025}},{"type":"Feature","id":"65b22637-4f00-4896-9853-ad3cb563f49f","geometry":{"type":"Point","coordinates":[-94.936591595859,29.247697791498464]},"properties":{"substrate":"Firm/Hard Bottom","lease_number":null,"poll_year":2025}},{"type":"Feature","id":"6714248c-359e-471f-ab52-546c096a867b","geometry":{"type":"Point","coordinates":[-94.93713569015523,29.247575402754908]},"properties":{"substrate":"Firm/Hard Bottom","lease_number":null,"poll_year":2025}},{"type":"Feature","id":"67bf89d9-67b6-4e5e-9fb0-2e592912d942","geometry":{"type":"Point","coordinates":[-94.93769304178844,29.24795675205016]},"properties":{"substrate":"Firm/Hard Bottom","lease_number":null,"poll_year":2025}},{"type":"Feature","id":"6886c578-c82f-4664-a7e0-3c8c90b29667","geometry":{"type":"Point","coordinates":[-94.93601016218967,29.247418542510687]},"properties":{"substrate":"Firm/Hard Bottom","lease_number":null,"poll_year":2025}},{"type":"Feature","id":"698ab073-0054-4ff1-a8d8-5f65801e3a22","geometry":{"type":"Point","coordinates":[-94.93983139598232,29.24745110375408]},"properties":{"substrate":"Firm/Hard Bottom","lease_number":null,"poll_year":2025}},{"type":"Feature","id":"699282fc-685f-4d74-b320-472d7f644070","geometry":{"type":"Point","coordinates":[-94.93836085296391,29.247325783314796]},"properties":{"substrate":"Firm/Hard Bottom","lease_number":null,"poll_year":2025}},{"type":"Feature","id":"69be7be1-d1b6-40d0-b4fc-519a479c030f","geometry":{"type":"Point","coordinates":[-94.9363934849995,29.247240988202915]},"properties":{"substrate":"Firm/Hard Bottom","lease_number":null,"poll_year":2025}},{"type":"Feature","id":"6a43b4b7-5dc7-4483-984a-378fdc26089b","geometry":{"type":"Point","coordinates":[-94.93809708603693,29.246983359866604]},"properties":{"substrate":"Firm/Hard Bottom","lease_number":null,"poll_year":2025}},{"type":"Feature","id":"6dcd1b54-5e1a-4efa-a8ff-c867ef67bee2","geometry":{"type":"Point","coordinates":[-94.93595799163123,29.247500014181902]},"properties":{"substrate":"Firm/Hard Bottom","lease_number":null,"poll_year":2025}},{"type":"Feature","id":"6f7f08c3-2ea1-4036-b749-49c73d315d7e","geometry":{"type":"Point","coordinates":[-94.93820569504972,29.247210738312518]},"properties":{"substrate":"Firm/Hard Bottom","lease_number":null,"poll_year":2025}},{"type":"Feature","id":"6fa19931-7ba5-4edb-8fb0-574749b60019","geometry":{"type":"Point","coordinates":[-94.9365260799287,29.246677690887694]},"properties":{"substrate":"Firm/Hard Bottom","lease_number":null,"poll_year":2025}},{"type":"Feature","id":"70ce7897-820c-4124-b1ec-255341ae5784","geometry":{"type":"Point","coordinates":[-94.93835462135077,29.246999370539935]},"properties":{"substrate":"Firm/Hard Bottom","lease_number":null,"poll_year":2025}},{"type":"Feature","id":"722f4ef1-114e-4e51-aee2-fdf722297e50","geometry":{"type":"Point","coordinates":[-94.9385601388198,29.246985268418644]},"properties":{"substrate":"Firm/Hard Bottom","lease_number":null,"poll_year":2025}},{"type":"Feature","id":"725fc6b9-1f28-49c5-a461-6ed5b3fef605","geometry":{"type":"Point","coordinates":[-94.93938845198709,29.24792171967018]},"properties":{"substrate":"Firm/Hard Bottom","lease_number":null,"poll_year":2025}},{"type":"Feature","id":"72793392-54ab-4ffc-bf72-7758d7d418e8","geometry":{"type":"Point","coordinates":[-94.9391943907329,29.24791399304418]},"properties":{"substrate":"Firm/Hard Bottom","lease_number":null,"poll_year":2025}},{"type":"Feature","id":"7435ae8b-dbe2-4328-aaa4-154a438ec860","geometry":{"type":"Point","coordinates":[-94.93655852528015,29.246367991457777]},"properties":{"substrate":"Firm/Hard Bottom","lease_number":null,"poll_year":2025}},{"type":"Feature","id":"74bf09b2-c064-4d52-99fb-015821cc069e","geometry":{"type":"Point","coordinates":[-94.93798483794892,29.24675176328029]},"properties":{"substrate":"Firm/Hard Bottom","lease_number":null,"poll_year":2025}},{"type":"Feature","id":"74ff0607-5780-4323-b3b6-f491365a1eec","geometry":{"type":"Point","coordinates":[-94.93655806893597,29.247028466740286]},"properties":{"substrate":"Firm/Hard Bottom","lease_number":null,"poll_year":2025}},{"type":"Feature","id":"75900b78-d780-46cb-9512-5b8858346122","geometry":{"type":"Point","coordinates":[-94.93740974458885,29.247600351732817]},"properties":{"substrate":"Firm/Hard Bottom","lease_number":null,"poll_year":2025}},{"type":"Feature","id":"7692f82f-21ae-4b9c-8c3d-b737ed2e0ad4","geometry":{"type":"Point","coordinates":[-94.93996566986277,29.246713226110522]},"properties":{"substrate":"Firm/Hard Bottom","lease_number":null,"poll_year":2025}},{"type":"Feature","id":"7c04fce4-e64b-4e19-88c9-c6d32c75eac0","geometry":{"type":"Point","coordinates":[-94.93729045370902,29.24706803135182]},"properties":{"substrate":"Firm/Hard Bottom","lease_number":null,"poll_year":2025}},{"type":"Feature","id":"7ccfb345-4b3a-4099-82c4-785f8936b627","geometry":{"type":"Point","coordinates":[-94.93848711477037,29.246805973320875]},"properties":{"substrate":"Firm/Hard Bottom","lease_number":null,"poll_year":2025}},{"type":"Feature","id":"7cec6f7b-3617-427e-9f17-3645dfb86ea0","geometry":{"type":"Point","coordinates":[-94.93611081392567,29.24695942732663]},"properties":{"substrate":"Firm/Hard Bottom","lease_number":null,"poll_year":2025}},{"type":"Feature","id":"7ef85c2d-5c17-4ea0-a2cd-5c5f5ea6d97b","geometry":{"type":"Point","coordinates":[-94.93743019293966,29.247933805748538]},"properties":{"substrate":"Firm/Hard Bottom","lease_number":null,"poll_year":2025}},{"type":"Feature","id":"813a5ec3-b518-44b8-922b-af2dd0a72b2c","geometry":{"type":"Point","coordinates":[-94.9388038400783,29.247774216884654]},"properties":{"substrate":"Firm/Hard Bottom","lease_number":null,"poll_year":2025}},{"type":"Feature","id":"820cb52d-5447-4138-a0fb-b780c501416f","geometry":{"type":"Point","coordinates":[-94.9387973533436,29.247107896926693]},"properties":{"substrate":"Mud","lease_number":null,"poll_year":2025}},{"type":"Feature","id":"843fc392-c948-4da5-ac07-a5cf9c357f82","geometry":{"type":"Point","coordinates":[-94.93664701203056,29.2465252287542]},"properties":{"substrate":"Firm/Hard Bottom","lease_number":null,"poll_year":2025}},{"type":"Feature","id":"86a3fb24-0924-4ec6-bc3b-32406443be51","geometry":{"type":"Point","coordinates":[-94.93997454431947,29.24777535495287]},"properties":{"substrate":"Firm/Hard Bottom","lease_number":null,"poll_year":2025}},{"type":"Feature","id":"87cae6d2-ef7d-4b84-a135-04e7d1699ce3","geometry":{"type":"Point","coordinates":[-94.93890441725412,29.247921833320078]},"properties":{"substrate":"Firm/Hard Bottom","lease_number":null,"poll_year":2025}},{"type":"Feature","id":"87d1e22a-f472-4742-8fe2-85f7b2b60c21","geometry":{"type":"Point","coordinates":[-94.93954287418106,29.247031355824348]},"properties":{"substrate":"Firm/Hard Bottom","lease_number":null,"poll_year":2025}},{"type":"Feature","id":"89395593-163e-4c38-9c8a-89b724d339d5","geometry":{"type":"Point","coordinates":[-94.93793429244282,29.247933545529516]},"properties":{"substrate":"Firm/Hard Bottom","lease_number":null,"poll_year":2025}},{"type":"Feature","id":"8c1e1a3f-dd86-4250-ae98-cadb106673cf","geometry":{"type":"Point","coordinates":[-94.93886730156152,29.247697968635958]},"properties":{"substrate":"Mud","lease_number":null,"poll_year":2025}},{"type":"Feature","id":"8d6959db-3017-4cb8-8090-fbf21d778e21","geometry":{"type":"Point","coordinates":[-94.93686830840755,29.24797654280005]},"properties":{"substrate":"Firm/Hard Bottom","lease_number":null,"poll_year":2025}},{"type":"Feature","id":"8e8117d0-5f5a-4b99-b228-e2c8a9ce1c70","geometry":{"type":"Point","coordinates":[-94.93674443432313,29.246827728498193]},"properties":{"substrate":"Firm/Hard Bottom","lease_number":null,"poll_year":2025}},{"type":"Feature","id":"8ef04822-e60e-48ae-8228-e68be4f6fe94","geometry":{"type":"Point","coordinates":[-94.93665827600591,29.246904993200427]},"properties":{"substrate":"Firm/Hard Bottom","lease_number":null,"poll_year":2025}},{"type":"Feature","id":"8f42a90b-3add-4480-879d-6a58a5655663","geometry":{"type":"Point","coordinates":[-94.93807634573365,29.24739454815252]},"properties":{"substrate":"Firm/Hard Bottom","lease_number":null,"poll_year":2025}},{"type":"Feature","id":"8fa923cb-d2a5-4d7f-9078-1fdf42af0e23","geometry":{"type":"Point","coordinates":[-94.93931481259166,29.247729846322162]},"properties":{"substrate":"Firm/Hard Bottom","lease_number":null,"poll_year":2025}},{"type":"Feature","id":"8fc96c72-61ce-4abc-b1e6-a8edcbe4f5f6","geometry":{"type":"Point","coordinates":[-94.93711338139347,29.248039130923413]},"properties":{"substrate":"Firm/Hard Bottom","lease_number":null,"poll_year":2025}},{"type":"Feature","id":"918a3065-33b3-4023-8663-1d0acc8607aa","geometry":{"type":"Point","coordinates":[-94.94186979643119,29.24763966060618]},"properties":{"substrate":"Firm/Hard Bottom","lease_number":null,"poll_year":2025}},{"type":"Feature","id":"91ec8df5-6cbf-4453-8834-f51b3ef37297","geometry":{"type":"Point","coordinates":[-94.93713083476112,29.24657066267564]},"properties":{"substrate":"Firm/Hard Bottom","lease_number":null,"poll_year":2025}},{"type":"Feature","id":"9312fbfd-1a52-4043-aeb9-7bd7adb4017f","geometry":{"type":"Point","coordinates":[-94.93784816556663,29.247722223142524]},"properties":{"substrate":"Firm/Hard Bottom","lease_number":null,"poll_year":2025}},{"type":"Feature","id":"9399d518-ba95-466c-981a-d3df4be28a19","geometry":{"type":"Point","coordinates":[-94.93706534398366,29.246990544957395]},"properties":{"substrate":"Firm/Hard Bottom","lease_number":null,"poll_year":2025}},{"type":"Feature","id":"953b4df9-b802-4d55-a1b8-50f7e6cc3d50","geometry":{"type":"Point","coordinates":[-94.93978073908514,29.24775863428392]},"properties":{"substrate":"Firm/Hard Bottom","lease_number":null,"poll_year":2025}},{"type":"Feature","id":"95c1bac1-4338-4d23-9f40-60fb2b6faa55","geometry":{"type":"Point","coordinates":[-94.939716226573,29.24800202622615]},"properties":{"substrate":"Firm/Hard Bottom","lease_number":null,"poll_year":2025}},{"type":"Feature","id":"95dca286-a941-4d13-a489-bfcaa4a1fad7","geometry":{"type":"Point","coordinates":[-94.93734109713148,29.247712671045246]},"properties":{"substrate":"Scattered Shell","lease_number":null,"poll_year":2025}},{"type":"Feature","id":"96391daf-8644-40e0-85f6-c73ca6d14649","geometry":{"type":"Point","coordinates":[-94.94035112706972,29.247311602858737]},"properties":{"substrate":"Firm/Hard Bottom","lease_number":null,"poll_year":2025}},{"type":"Feature","id":"9761094f-9cc8-4a4e-8981-750a8c83ab03","geometry":{"type":"Point","coordinates":[-94.9385641893234,29.247694806026598]},"properties":{"substrate":"Mud","lease_number":null,"poll_year":2025}},{"type":"Feature","id":"99393036-d93a-4b95-8310-29f99a5c70e0","geometry":{"type":"Point","coordinates":[-94.9392407411066,29.24783727932662]},"properties":{"substrate":"Firm/Hard Bottom","lease_number":null,"poll_year":2025}},{"type":"Feature","id":"995a0aee-8f9a-4124-a0ae-3cb52fc5c5a2","geometry":{"type":"Point","coordinates":[-94.94002873698562,29.244299944400048]},"properties":{"substrate":"Firm/Hard Bottom","lease_number":null,"poll_year":2025}},{"type":"Feature","id":"9974b4c7-c85d-41cf-a226-9db0b396ac4c","geometry":{"type":"Point","coordinates":[-94.94007803922337,29.246176607426257]},"properties":{"substrate":"Firm/Hard Bottom","lease_number":null,"poll_year":2025}},{"type":"Feature","id":"9ae01ffa-7205-4894-868a-10715c69820a","geometry":{"type":"Point","coordinates":[-94.93679972922213,29.247387004111356]},"properties":{"substrate":"Firm/Hard Bottom","lease_number":null,"poll_year":2025}},{"type":"Feature","id":"9b18375d-3112-4f46-b767-844431683e9b","geometry":{"type":"Point","coordinates":[-94.94031549988556,29.245029726965537]},"properties":{"substrate":"Firm/Hard Bottom","lease_number":null,"poll_year":2025}},{"type":"Feature","id":"9cec3702-6b13-49b4-bf8e-cc3020be9598","geometry":{"type":"Point","coordinates":[-94.93802341430215,29.2474699979393]},"properties":{"substrate":"Firm/Hard Bottom","lease_number":null,"poll_year":2025}},{"type":"Feature","id":"9e2527ee-50c9-4eab-9e3a-831825f941aa","geometry":{"type":"Point","coordinates":[-94.94005740851455,29.247653656825044]},"properties":{"substrate":"Firm/Hard Bottom","lease_number":null,"poll_year":2025}},{"type":"Feature","id":"9e3db13f-b5df-4717-98cd-96514177df47","geometry":{"type":"Point","coordinates":[-94.93603695623965,29.2470536337477]},"properties":{"substrate":"Firm/Hard Bottom","lease_number":null,"poll_year":2025}},{"type":"Feature","id":"a168a574-46b2-43e5-857c-56b9823af31b","geometry":{"type":"Point","coordinates":[-94.93921067988393,29.246876704279472]},"properties":{"substrate":"Firm/Hard Bottom","lease_number":null,"poll_year":2025}},{"type":"Feature","id":"a33bbe62-eeda-4a0c-9d94-48806dee83b2","geometry":{"type":"Point","coordinates":[-94.93783171741377,29.24737223346491]},"properties":{"substrate":"Firm/Hard Bottom","lease_number":null,"poll_year":2025}},{"type":"Feature","id":"a3af1dc2-bf5a-4044-af85-3981f6c40f00","geometry":{"type":"Point","coordinates":[-94.93933935007365,29.246934644357996]},"properties":{"substrate":"Firm/Hard Bottom","lease_number":null,"poll_year":2025}},{"type":"Feature","id":"a55af881-0c84-4095-a31a-47a0f94505bc","geometry":{"type":"Point","coordinates":[-94.94226185266221,29.24778255801526]},"properties":{"substrate":"Firm/Hard Bottom","lease_number":null,"poll_year":2025}},{"type":"Feature","id":"a58b62c2-0233-42ca-a820-67c3cb88a6b6","geometry":{"type":"Point","coordinates":[-94.93999310800483,29.247444028427132]},"properties":{"substrate":"Firm/Hard Bottom","lease_number":null,"poll_year":2025}},{"type":"Feature","id":"a5ed9df7-e725-440b-9e22-bf6c44689087","geometry":{"type":"Point","coordinates":[-94.93976848067477,29.246990427387463]},"properties":{"substrate":"Firm/Hard Bottom","lease_number":null,"poll_year":2025}},{"type":"Feature","id":"a6bf513e-42d0-4c10-94fb-a4fead883f48","geometry":{"type":"Point","coordinates":[-94.94063335527412,29.247128713833025]},"properties":{"substrate":"Firm/Hard Bottom","lease_number":null,"poll_year":2025}},{"type":"Feature","id":"a7f4e04a-a92e-459b-be6c-d3110ec57b48","geometry":{"type":"Point","coordinates":[-94.93636269973472,29.246532633342]},"properties":{"substrate":"Firm/Hard Bottom","lease_number":null,"poll_year":2025}},{"type":"Feature","id":"a848bff4-4e07-45ea-aa02-bb516c2de18c","geometry":{"type":"Point","coordinates":[-94.94233262194028,29.247695943311896]},"properties":{"substrate":"Firm/Hard Bottom","lease_number":null,"poll_year":2025}},{"type":"Feature","id":"a87f8b36-a23a-4f03-8b0f-626faee7d145","geometry":{"type":"Point","coordinates":[-94.93814411284205,29.246730900836827]},"properties":{"substrate":"Firm/Hard Bottom","lease_number":null,"poll_year":2025}},{"type":"Feature","id":"aa4e81d5-b691-4bc8-ac71-3eae9c22ae7e","geometry":{"type":"Point","coordinates":[-94.93718386051572,29.24680104086129]},"properties":{"substrate":"Firm/Hard Bottom","lease_number":null,"poll_year":2025}},{"type":"Feature","id":"aafce107-ac3d-461e-a2a0-1c8c94a76ded","geometry":{"type":"Point","coordinates":[-94.93619673778261,29.247152175270646]},"properties":{"substrate":"Firm/Hard Bottom","lease_number":null,"poll_year":2025}},{"type":"Feature","id":"ab9901a6-0f8f-43bc-9d28-21d4a38144fb","geometry":{"type":"Point","coordinates":[-94.93989232960637,29.24713171342978]},"properties":{"substrate":"Mud","lease_number":null,"poll_year":2025}},{"type":"Feature","id":"ac60dbb7-df11-4368-aefd-a2afdae2dd92","geometry":{"type":"Point","coordinates":[-94.93975581802253,29.24712066735734]},"properties":{"substrate":"Firm/Hard Bottom","lease_number":null,"poll_year":2025}},{"type":"Feature","id":"acff6f92-7df6-4570-9ca3-fbd38e87d9a3","geometry":{"type":"Point","coordinates":[-94.94015302968498,29.245752417909156]},"properties":{"substrate":"Firm/Hard Bottom","lease_number":null,"poll_year":2025}},{"type":"Feature","id":"ae5ca60e-4c54-412e-8781-30216207d040","geometry":{"type":"Point","coordinates":[-94.93757161920641,29.246546924422226]},"properties":{"substrate":"Firm/Hard Bottom","lease_number":null,"poll_year":2025}},{"type":"Feature","id":"aed8ed8b-bdb8-4cf5-92a5-1fe43954e0d8","geometry":{"type":"Point","coordinates":[-94.93782847269898,29.246636128213325]},"properties":{"substrate":"Firm/Hard Bottom","lease_number":null,"poll_year":2025}},{"type":"Feature","id":"aefae2ff-0345-48bf-a88f-eb29179f95b0","geometry":{"type":"Point","coordinates":[-94.93645840444846,29.24716083153887]},"properties":{"substrate":"Firm/Hard Bottom","lease_number":null,"poll_year":2025}},{"type":"Feature","id":"afff6962-74be-4665-a273-214432badc90","geometry":{"type":"Point","coordinates":[-94.93912807799691,29.247583374734266]},"properties":{"substrate":"Firm/Hard Bottom","lease_number":null,"poll_year":2025}},{"type":"Feature","id":"b03c0aa0-eaaf-410d-945e-81d1106d12a6","geometry":{"type":"Point","coordinates":[-94.93903123062616,29.247025971123435]},"properties":{"substrate":"Firm/Hard Bottom","lease_number":null,"poll_year":2025}},{"type":"Feature","id":"b100f427-0e45-4c79-b18d-a3239adf73a5","geometry":{"type":"Point","coordinates":[-94.93859225179457,29.24690431834847]},"properties":{"substrate":"Firm/Hard Bottom","lease_number":null,"poll_year":2025}},{"type":"Feature","id":"b5f64d24-7924-4e44-8df5-a9d714f3d962","geometry":{"type":"Point","coordinates":[-94.93641627885152,29.24646965239532]},"properties":{"substrate":"Firm/Hard Bottom","lease_number":null,"poll_year":2025}},{"type":"Feature","id":"b7b25d2c-6f99-49d4-9160-d976be53cc30","geometry":{"type":"Point","coordinates":[-94.93645490640874,29.246780625978314]},"properties":{"substrate":"Firm/Hard Bottom","lease_number":null,"poll_year":2025}},{"type":"Feature","id":"b7ed9394-3cdc-4636-8caf-1573eb46547d","geometry":{"type":"Point","coordinates":[-94.93823661775674,29.247904421370006]},"properties":{"substrate":"Scattered Shell","lease_number":null,"poll_year":2025}},{"type":"Feature","id":"b8903301-83dd-4ddb-8d85-bcf5e4d718fb","geometry":{"type":"Point","coordinates":[-94.9395806339657,29.248043923808464]},"properties":{"substrate":"Firm/Hard Bottom","lease_number":null,"poll_year":2025}},{"type":"Feature","id":"b94c5753-6514-4948-a32d-2572226bf2f5","geometry":{"type":"Point","coordinates":[-94.93724752861148,29.24672450344842]},"properties":{"substrate":"Firm/Hard Bottom","lease_number":null,"poll_year":2025}},{"type":"Feature","id":"b968bc3c-3c1a-4693-bda1-30f5432cedaa","geometry":{"type":"Point","coordinates":[-94.93867943688616,29.247539370905315]},"properties":{"substrate":"Mud","lease_number":null,"poll_year":2025}},{"type":"Feature","id":"bb9a0ba7-9831-4959-a76e-d6811f844686","geometry":{"type":"Point","coordinates":[-94.93889662077578,29.24723478052544]},"properties":{"substrate":"Firm/Hard Bottom","lease_number":null,"poll_year":2025}},{"type":"Feature","id":"bbdaf6f7-833a-4bef-814a-9a4be5891e55","geometry":{"type":"Point","coordinates":[-94.93984207695105,29.247671422309008]},"properties":{"substrate":"Firm/Hard Bottom","lease_number":null,"poll_year":2025}},{"type":"Feature","id":"bd51cc91-d9da-4972-8f45-9abd7b887fd7","geometry":{"type":"Point","coordinates":[-94.9396731218124,29.247908422630896]},"properties":{"substrate":"Firm/Hard Bottom","lease_number":null,"poll_year":2025}},{"type":"Feature","id":"beee36a3-f9b4-453d-b332-519729b56297","geometry":{"type":"Point","coordinates":[-94.93786582734343,29.24693081392746]},"properties":{"substrate":"Firm/Hard Bottom","lease_number":null,"poll_year":2025}},{"type":"Feature","id":"bfb46c0d-f993-4922-9fdb-d4559ddb2a8b","geometry":{"type":"Point","coordinates":[-94.93702463143666,29.247450984617117]},"properties":{"substrate":"Firm/Hard Bottom","lease_number":null,"poll_year":2025}},{"type":"Feature","id":"c0f0130d-acc3-4ecf-9dec-ab3929baae84","geometry":{"type":"Point","coordinates":[-94.93569889684203,29.247873763319753]},"properties":{"substrate":"Firm/Hard Bottom","lease_number":null,"poll_year":2025}},{"type":"Feature","id":"c19f202d-ad2e-4512-9ab6-6d67e3a32150","geometry":{"type":"Point","coordinates":[-94.93582962417376,29.247692941380247]},"properties":{"substrate":"Firm/Hard Bottom","lease_number":null,"poll_year":2025}},{"type":"Feature","id":"c29d58be-f091-4b71-a42e-6027511989ca","geometry":{"type":"Point","coordinates":[-94.93971709344726,29.2474262801472]},"properties":{"substrate":"Firm/Hard Bottom","lease_number":null,"poll_year":2025}},{"type":"Feature","id":"c34488fa-a14c-4dfc-868c-f01a0d078850","geometry":{"type":"Point","coordinates":[-94.94017240544733,29.244534616752187]},"properties":{"substrate":"Firm/Hard Bottom","lease_number":null,"poll_year":2025}},{"type":"Feature","id":"c4fc81f4-7c2e-4d98-80e2-54ab0302ac40","geometry":{"type":"Point","coordinates":[-94.93669557225986,29.247213459658663]},"properties":{"substrate":"Firm/Hard Bottom","lease_number":null,"poll_year":2025}},{"type":"Feature","id":"c55bd616-fc00-4195-a15c-779750276c35","geometry":{"type":"Point","coordinates":[-94.93906023722668,29.24741355835001]},"properties":{"substrate":"Mud","lease_number":null,"poll_year":2025}},{"type":"Feature","id":"c7f754d4-0665-49e8-ad92-947716f954e7","geometry":{"type":"Point","coordinates":[-94.9362879554115,29.24778066437019]},"properties":{"substrate":"Firm/Hard Bottom","lease_number":null,"poll_year":2025}},{"type":"Feature","id":"c8bbd4c1-25cd-4f04-990a-b1d4e6d70794","geometry":{"type":"Point","coordinates":[-94.93697162993656,29.246512471573883]},"properties":{"substrate":"Firm/Hard Bottom","lease_number":null,"poll_year":2025}},{"type":"Feature","id":"ca666bce-53b2-4c3d-be06-81c33485a76b","geometry":{"type":"Point","coordinates":[-94.9380574936891,29.247055729626357]},"properties":{"substrate":"Firm/Hard Bottom","lease_number":null,"poll_year":2025}},{"type":"Feature","id":"cf85507e-5e3a-411b-a29d-de649ac1cc7d","geometry":{"type":"Point","coordinates":[-94.93812664330471,29.246885250055094]},"properties":{"substrate":"Firm/Hard Bottom","lease_number":null,"poll_year":2025}},{"type":"Feature","id":"cffc593b-e6e1-42a1-b233-b85cd9edc0f2","geometry":{"type":"Point","coordinates":[-94.93754564172504,29.24777854499252]},"properties":{"substrate":"Firm/Hard Bottom","lease_number":null,"poll_year":2025}},{"type":"Feature","id":"d1611860-9a6c-49c8-95e7-7a75190c7e8d","geometry":{"type":"Point","coordinates":[-94.94043208234481,29.24725107097516]},"properties":{"substrate":"Firm/Hard Bottom","lease_number":null,"poll_year":2025}},{"type":"Feature","id":"d2506dc2-f40a-484d-b0df-652cf5c91982","geometry":{"type":"Point","coordinates":[-94.9386509216641,29.247313969925937]},"properties":{"substrate":"Mud","lease_number":null,"poll_year":2025}},{"type":"Feature","id":"d363e49f-ccd7-491f-bb16-ead66ff0ae5a","geometry":{"type":"Point","coordinates":[-94.9359126105397,29.247945246764516]},"properties":{"substrate":"Firm/Hard Bottom","lease_number":null,"poll_year":2025}},{"type":"Feature","id":"d42bfa85-b7a4-4fd4-92ed-b00667432ae9","geometry":{"type":"Point","coordinates":[-94.93904071863217,29.24771642228338]},"properties":{"substrate":"Firm/Hard Bottom","lease_number":null,"poll_year":2025}},{"type":"Feature","id":"d4445f43-cf94-42e4-93bf-9ca728c96b0c","geometry":{"type":"Point","coordinates":[-94.93725741097792,29.24782189581894]},"properties":{"substrate":"Scattered Shell","lease_number":null,"poll_year":2025}},{"type":"Feature","id":"d7177a1e-4136-4013-a22b-24e654daeec1","geometry":{"type":"Point","coordinates":[-94.93636742666975,29.24766052443197]},"properties":{"substrate":"Firm/Hard Bottom","lease_number":null,"poll_year":2025}},{"type":"Feature","id":"d98985cc-ec86-4585-82d3-68a5fe68b10f","geometry":{"type":"Point","coordinates":[-94.93964860858493,29.247533742470736]},"properties":{"substrate":"Firm/Hard Bottom","lease_number":null,"poll_year":2025}},{"type":"Feature","id":"da4bd065-c660-46df-8bf8-f10e074dc2f7","geometry":{"type":"Point","coordinates":[-94.93779014607738,29.247035386903733]},"properties":{"substrate":"Firm/Hard Bottom","lease_number":null,"poll_year":2025}},{"type":"Feature","id":"daa3d11e-5de0-4b72-a0ad-e5d1e19c8fcb","geometry":{"type":"Point","coordinates":[-94.94187746984035,29.24797104998555]},"properties":{"substrate":"Firm/Hard Bottom","lease_number":null,"poll_year":2025}},{"type":"Feature","id":"dab947d9-d148-4bf3-a6bd-dc605483cc49","geometry":{"type":"Point","coordinates":[-94.9401282056404,29.245877287234425]},"properties":{"substrate":"Firm/Hard Bottom","lease_number":null,"poll_year":2025}},{"type":"Feature","id":"dbb6df02-08a8-4af1-be7e-6671d510673c","geometry":{"type":"Point","coordinates":[-94.93634422408427,29.24731690994874]},"properties":{"substrate":"Firm/Hard Bottom","lease_number":null,"poll_year":2025}},{"type":"Feature","id":"dccd621f-9389-4eac-8f80-4c8a8b67b7a6","geometry":{"type":"Point","coordinates":[-94.93871985029416,29.24721998869454]},"properties":{"substrate":"Mud","lease_number":null,"poll_year":2025}},{"type":"Feature","id":"dda681fb-822d-41db-9d77-f879b1a52bd0","geometry":{"type":"Point","coordinates":[-94.93652519508815,29.24780163084414]},"properties":{"substrate":"Firm/Hard Bottom","lease_number":null,"poll_year":2025}},{"type":"Feature","id":"df06aa83-0844-4b13-b418-1461b878b014","geometry":{"type":"Point","coordinates":[-94.93937242873737,29.247653713258202]},"properties":{"substrate":"Firm/Hard Bottom","lease_number":null,"poll_year":2025}},{"type":"Feature","id":"e0b3c8aa-3dff-48bd-87a9-f73c94a9e1ce","geometry":{"type":"Point","coordinates":[-94.94018856973254,29.247035581285953]},"properties":{"substrate":"Firm/Hard Bottom","lease_number":null,"poll_year":2025}},{"type":"Feature","id":"e540610d-d8a5-4d54-91ea-c07fd419c362","geometry":{"type":"Point","coordinates":[-94.93568138508388,29.24755253317978]},"properties":{"substrate":"Firm/Hard Bottom","lease_number":null,"poll_year":2025}},{"type":"Feature","id":"e5a6d092-4300-421f-a119-97866161520c","geometry":{"type":"Point","coordinates":[-94.9385169630923,29.24750213043016]},"properties":{"substrate":"Mud","lease_number":null,"poll_year":2025}},{"type":"Feature","id":"e5e56e1d-1bf9-4290-81d0-62a60ff5d5a2","geometry":{"type":"Point","coordinates":[-94.93912998871353,29.246892653833026]},"properties":{"substrate":"Firm/Hard Bottom","lease_number":null,"poll_year":2025}},{"type":"Feature","id":"e687c49e-5dad-4968-b5a6-3a1478c6e6ce","geometry":{"type":"Point","coordinates":[-94.94011398530945,29.247018391784113]},"properties":{"substrate":"Firm/Hard Bottom","lease_number":null,"poll_year":2025}},{"type":"Feature","id":"e707dfa5-5f17-4dea-b2c8-be87619db8de","geometry":{"type":"Point","coordinates":[-94.9388688098329,29.24700109489878]},"properties":{"substrate":"Firm/Hard Bottom","lease_number":null,"poll_year":2025}},{"type":"Feature","id":"e97d7a0d-abfa-4f48-9a39-36e2cc3340c8","geometry":{"type":"Point","coordinates":[-94.9402904629403,29.24473769134785]},"properties":{"substrate":"Firm/Hard Bottom","lease_number":null,"poll_year":2025}},{"type":"Feature","id":"e9ba0d5d-c1f9-431d-a27e-e875e42445b8","geometry":{"type":"Point","coordinates":[-94.93577361241918,29.247768418379824]},"properties":{"substrate":"Firm/Hard Bottom","lease_number":null,"poll_year":2025}},{"type":"Feature","id":"e9dc2eda-b7dc-4364-a029-629cdefe929d","geometry":{"type":"Point","coordinates":[-94.93814649158091,29.247281845997794]},"properties":{"substrate":"Firm/Hard Bottom","lease_number":null,"poll_year":2025}},{"type":"Feature","id":"ec0bfbd4-8bab-497b-a09a-1073d8d9ab01","geometry":{"type":"Point","coordinates":[-94.9401100911127,29.24727868259175]},"properties":{"substrate":"Firm/Hard Bottom","lease_number":null,"poll_year":2025}},{"type":"Feature","id":"edbe1bfb-6fc8-4d9f-b5d1-42fa485e11bb","geometry":{"type":"Point","coordinates":[-94.94001559283639,29.247063977543515]},"properties":{"substrate":"Firm/Hard Bottom","lease_number":null,"poll_year":2025}},{"type":"Feature","id":"edf9e19e-96d7-4c1d-9767-741e24e2ab01","geometry":{"type":"Point","coordinates":[-94.93800069950187,29.247143566029564]},"properties":{"substrate":"Firm/Hard Bottom","lease_number":null,"poll_year":2025}},{"type":"Feature","id":"ef56fa4a-e08e-4906-a537-c1f6496505d8","geometry":{"type":"Point","coordinates":[-94.93817655999011,29.247994253362517]},"properties":{"substrate":"Scattered Shell","lease_number":null,"poll_year":2025}},{"type":"Feature","id":"effe4984-4e6a-4cb7-9442-b90e84e9b2bd","geometry":{"type":"Point","coordinates":[-94.93718102363604,29.247507950896377]},"properties":{"substrate":"Firm/Hard Bottom","lease_number":null,"poll_year":2025}},{"type":"Feature","id":"f0e81c76-7d11-444f-874c-fde316a47636","geometry":{"type":"Point","coordinates":[-94.9366799451672,29.24756788067336]},"properties":{"substrate":"Firm/Hard Bottom","lease_number":null,"poll_year":2025}},{"type":"Feature","id":"f28fa918-a8c0-4acd-bbe8-f154a3bc43cd","geometry":{"type":"Point","coordinates":[-94.93843319968363,29.246892068334212]},"properties":{"substrate":"Firm/Hard Bottom","lease_number":null,"poll_year":2025}},{"type":"Feature","id":"f30b4f4f-ac54-4379-b485-311ea5f8ddf3","geometry":{"type":"Point","coordinates":[-94.93826542942284,29.246642179950463]},"properties":{"substrate":"Firm/Hard Bottom","lease_number":null,"poll_year":2025}},{"type":"Feature","id":"f39124ad-4aff-47ae-819c-01356f5b8f50","geometry":{"type":"Point","coordinates":[-94.93646362366026,29.247889762096836]},"properties":{"substrate":"Firm/Hard Bottom","lease_number":null,"poll_year":2025}},{"type":"Feature","id":"f43116c0-a868-4956-811a-308d41bb480a","geometry":{"type":"Point","coordinates":[-94.93842424887013,29.24788659479062]},"properties":{"substrate":"Firm/Hard Bottom","lease_number":null,"poll_year":2025}},{"type":"Feature","id":"f68fc9eb-9c8a-41cd-b009-453248ca075d","geometry":{"type":"Point","coordinates":[-94.9379487211829,29.247215115039694]},"properties":{"substrate":"Firm/Hard Bottom","lease_number":null,"poll_year":2025}},{"type":"Feature","id":"f754a190-ef8a-4b88-ad7b-912342330c91","geometry":{"type":"Point","coordinates":[-94.93712084998674,29.246908875362806]},"properties":{"substrate":"Firm/Hard Bottom","lease_number":null,"poll_year":2025}},{"type":"Feature","id":"f8182417-d166-46df-88ca-887e1c3aba0c","geometry":{"type":"Point","coordinates":[-94.93700417679764,29.247777560547842]},"properties":{"substrate":"Firm/Hard Bottom","lease_number":null,"poll_year":2025}},{"type":"Feature","id":"f87845e0-0152-4885-b5c2-a3a467d2bebe","geometry":{"type":"Point","coordinates":[-94.94018471236672,29.247169605376044]},"properties":{"substrate":"Firm/Hard Bottom","lease_number":null,"poll_year":2025}},{"type":"Feature","id":"f943631c-1132-4c97-a87b-7619cac9cd8b","geometry":{"type":"Point","coordinates":[-94.93787360046561,29.248031541469842]},"properties":{"substrate":"Firm/Hard Bottom","lease_number":null,"poll_year":2025}},{"type":"Feature","id":"fb4c5f7b-bc44-44d8-b11f-21ee017785e3","geometry":{"type":"Point","coordinates":[-94.93658930156177,29.24736555630124]},"properties":{"substrate":"Firm/Hard Bottom","lease_number":null,"poll_year":2025}},{"type":"Feature","id":"fea5896e-d306-4055-8e1a-ee4f7a0246e4","geometry":{"type":"Point","coordinates":[-94.93923619922452,29.247427346893854]},"properties":{"substrate":"Firm/Hard Bottom","lease_number":null,"poll_year":2025}}]}