{"type":"FeatureCollection","features":[{"type":"Feature","id":"01261728-0bfa-4a45-aa3d-bf7101e8275b","geometry":{"type":"Point","coordinates":[-94.90050488210049,29.474414464273476]},"properties":{"substrate":"Firm/Hard Bottom","lease_number":null,"poll_year":2023}},{"type":"Feature","id":"0148095b-0937-4dcc-8ad6-dad14ca19ec2","geometry":{"type":"Point","coordinates":[-94.90017616787678,29.47521237319456]},"properties":{"substrate":"Mud","lease_number":null,"poll_year":2023}},{"type":"Feature","id":"13198698-66dc-4ba5-b36c-723bbe1d2cea","geometry":{"type":"Point","coordinates":[-94.90012111821785,29.475547244363465]},"properties":{"substrate":"Mud","lease_number":null,"poll_year":2023}},{"type":"Feature","id":"17557f04-8aa0-4392-8293-0fc756ef7052","geometry":{"type":"Point","coordinates":[-94.90030382566518,29.475770310022057]},"properties":{"substrate":"Firm/Hard Bottom","lease_number":null,"poll_year":2023}},{"type":"Feature","id":"1cbb1137-7652-4697-b520-8a721e461180","geometry":{"type":"Point","coordinates":[-94.90069930986732,29.475441253300527]},"properties":{"substrate":"Firm/Hard Bottom","lease_number":null,"poll_year":2023}},{"type":"Feature","id":"1eddca61-0f8f-4bba-8e9d-7a43144a4363","geometry":{"type":"Point","coordinates":[-94.90009696611313,29.473727440845416]},"properties":{"substrate":"Solid Reef","lease_number":null,"poll_year":2023}},{"type":"Feature","id":"24a5d7b5-2fe0-44b7-88c2-4471d3bc68f6","geometry":{"type":"Point","coordinates":[-94.90002615641085,29.475012526058485]},"properties":{"substrate":"Mud","lease_number":null,"poll_year":2023}},{"type":"Feature","id":"28b6dd46-b10d-44c0-b549-8a01cd6fa77d","geometry":{"type":"Point","coordinates":[-94.9001337503274,29.47300877835353]},"properties":{"substrate":"Firm/Hard Bottom","lease_number":null,"poll_year":2023}},{"type":"Feature","id":"2bab969f-2961-4751-a72a-a9c63fce74ce","geometry":{"type":"Point","coordinates":[-94.89995525687705,29.47349191328418]},"properties":{"substrate":"Solid Reef","lease_number":null,"poll_year":2023}},{"type":"Feature","id":"3023bebb-f606-4b99-82e1-de939123d63d","geometry":{"type":"Point","coordinates":[-94.9025897344327,29.466599299818885]},"properties":{"substrate":"Scattered Shell","lease_number":null,"poll_year":2024}},{"type":"Feature","id":"35b7749e-f909-4a53-902e-861f098518ef","geometry":{"type":"Point","coordinates":[-94.90042437238978,29.4750607102882]},"properties":{"substrate":"Firm/Hard Bottom","lease_number":null,"poll_year":2023}},{"type":"Feature","id":"375e2a56-1e53-4429-9277-dbcc3bcf415c","geometry":{"type":"Point","coordinates":[-94.90084655631881,29.474158024642335]},"properties":{"substrate":"Firm/Hard Bottom","lease_number":null,"poll_year":2023}},{"type":"Feature","id":"437b43c6-a689-4a51-811c-7506a22e7405","geometry":{"type":"Point","coordinates":[-94.9002243633901,29.473946151334474]},"properties":{"substrate":"Firm/Hard Bottom","lease_number":null,"poll_year":2023}},{"type":"Feature","id":"4a34e6cd-2fe3-4f0e-a76a-4da00c6760ac","geometry":{"type":"Point","coordinates":[-94.90030346813569,29.474680223719037]},"properties":{"substrate":"Firm/Hard Bottom","lease_number":null,"poll_year":2023}},{"type":"Feature","id":"89ba88cd-0848-48db-b135-e6e85a7bc1fe","geometry":{"type":"Point","coordinates":[-94.90072339280178,29.474728052274514]},"properties":{"substrate":"Firm/Hard Bottom","lease_number":null,"poll_year":2023}},{"type":"Feature","id":"9efa7018-9b03-424c-9839-9333c74dfa48","geometry":{"type":"Point","coordinates":[-94.90076400563576,29.475232144857454]},"properties":{"substrate":"Firm/Hard Bottom","lease_number":null,"poll_year":2023}},{"type":"Feature","id":"b40814c9-d726-47fb-a7e6-4aade8450f23","geometry":{"type":"Point","coordinates":[-94.90039845240058,29.47546765508082]},"properties":{"substrate":"Mud","lease_number":null,"poll_year":2023}},{"type":"Feature","id":"bd52dc3b-7b3a-4f58-bad8-0d6a2f5ea23b","geometry":{"type":"Point","coordinates":[-94.89996353215746,29.472748660247408]},"properties":{"substrate":"Firm/Hard Bottom","lease_number":null,"poll_year":2023}},{"type":"Feature","id":"be63f7b1-7bc6-4da2-9280-0d5a6250c607","geometry":{"type":"Point","coordinates":[-94.90054605188998,29.47495099304404]},"properties":{"substrate":"Firm/Hard Bottom","lease_number":null,"poll_year":2023}},{"type":"Feature","id":"ccfaa627-6e85-4a14-92a6-8e6e57edb069","geometry":{"type":"Point","coordinates":[-94.90027803683,29.475340902229195]},"properties":{"substrate":"Mud","lease_number":null,"poll_year":2023}},{"type":"Feature","id":"d8e4af05-444f-4d8c-b2ea-fe4d37d4b8d1","geometry":{"type":"Point","coordinates":[-94.9003001066399,29.47328566394185]},"properties":{"substrate":"Firm/Hard Bottom","lease_number":null,"poll_year":2023}},{"type":"Feature","id":"dcebaf0e-62e9-4715-9a33-89f03b7ac322","geometry":{"type":"Point","coordinates":[-94.90100247959762,29.474432481169252]},"properties":{"substrate":"Firm/Hard Bottom","lease_number":null,"poll_year":2023}},{"type":"Feature","id":"decdc599-78fb-472b-848f-a98df37bbeb4","geometry":{"type":"Point","coordinates":[-94.90087346714978,29.475066514635643]},"properties":{"substrate":"Firm/Hard Bottom","lease_number":null,"poll_year":2023}},{"type":"Feature","id":"e3a29e10-0846-451f-8ff7-a9c5f97ffb8f","geometry":{"type":"Point","coordinates":[-94.90049757161071,29.47359388504513]},"properties":{"substrate":"Firm/Hard Bottom","lease_number":null,"poll_year":2023}},{"type":"Feature","id":"ead7c69d-039a-473e-b741-312757a66dc1","geometry":{"type":"Point","coordinates":[-94.90050952908547,29.47561508809523]},"properties":{"substrate":"Firm/Hard Bottom","lease_number":null,"poll_year":2023}},{"type":"Feature","id":"f0628bc7-4287-4a0b-aa2e-eba24eeaeb28","geometry":{"type":"Point","coordinates":[-94.90065049271983,29.47385761329739]},"properties":{"substrate":"Firm/Hard Bottom","lease_number":null,"poll_year":2023}},{"type":"Feature","id":"fb4ca154-4e6f-4f49-a6ec-107fd0f77fed","geometry":{"type":"Point","coordinates":[-94.89993121077353,29.475318038384344]},"properties":{"substrate":"Mud","lease_number":null,"poll_year":2023}},{"type":"Feature","id":"fbc74fd9-428e-4dc1-928b-13b57489434f","geometry":{"type":"Point","coordinates":[-94.90036077705756,29.474155963149943]},"properties":{"substrate":"Firm/Hard Bottom","lease_number":null,"poll_year":2023}}]}