{"type":"FeatureCollection","features":[{"type":"Feature","id":"02ecf355-27b4-4e27-a17c-ec1c970904f5","geometry":{"type":"Point","coordinates":[-94.90772171622608,29.528723766950016]},"properties":{"substrate":"Mud","lease_number":null,"poll_year":2023}},{"type":"Feature","id":"034965a1-e44a-4c21-81a4-415fc0682f47","geometry":{"type":"Point","coordinates":[-94.90681811705146,29.53283769995476]},"properties":{"substrate":"Scattered Shell","lease_number":null,"poll_year":2023}},{"type":"Feature","id":"07ea3b95-b6ed-404d-a360-d5ce5cf408ce","geometry":{"type":"Point","coordinates":[-94.90484081641497,29.529483500205103]},"properties":{"substrate":"Scattered Shell","lease_number":null,"poll_year":2023}},{"type":"Feature","id":"0d407e4e-26a3-40d9-aaea-896666fb83f6","geometry":{"type":"Point","coordinates":[-94.90488231678447,29.529595933148023]},"properties":{"substrate":"Solid Reef","lease_number":null,"poll_year":2023}},{"type":"Feature","id":"0f884df0-960d-4c56-8f3e-a72a6627c872","geometry":{"type":"Point","coordinates":[-94.9087724163251,29.528586784292216]},"properties":{"substrate":"Scattered Shell","lease_number":null,"poll_year":2023}},{"type":"Feature","id":"1be7636c-836d-446a-b379-a38c46f36453","geometry":{"type":"Point","coordinates":[-94.90707605031899,29.528851333114346]},"properties":{"substrate":"Solid Reef","lease_number":null,"poll_year":2023}},{"type":"Feature","id":"22e2648b-56e5-4fe7-8c61-5c547af378ce","geometry":{"type":"Point","coordinates":[-94.90862813341575,29.528618266902228]},"properties":{"substrate":"Mud","lease_number":null,"poll_year":2023}},{"type":"Feature","id":"238bc263-8cb3-46b6-ad46-5795ce0b7100","geometry":{"type":"Point","coordinates":[-94.90672428442677,29.528976366636574]},"properties":{"substrate":"Mud","lease_number":null,"poll_year":2023}},{"type":"Feature","id":"276a9c8e-c14d-48ef-916b-cd19b1197c5b","geometry":{"type":"Point","coordinates":[-94.9046784665886,29.529140034357372]},"properties":{"substrate":"Mud","lease_number":null,"poll_year":2023}},{"type":"Feature","id":"4c28ecea-a256-4dcb-aa36-65b799c4ebe0","geometry":{"type":"Point","coordinates":[-94.90804938301417,29.52854740014143]},"properties":{"substrate":"Mud","lease_number":null,"poll_year":2023}},{"type":"Feature","id":"5382b7c3-dee4-4f55-a3ce-060b3bfa146e","geometry":{"type":"Point","coordinates":[-94.90792326673481,29.528381417041675]},"properties":{"substrate":"Mud","lease_number":null,"poll_year":2023}},{"type":"Feature","id":"61116ae2-d26d-411b-8c8c-d5a8a70aae84","geometry":{"type":"Point","coordinates":[-94.90596719957668,29.52933876561611]},"properties":{"substrate":"Scattered Shell","lease_number":null,"poll_year":2023}},{"type":"Feature","id":"687021ae-2bf3-466b-93e1-899cdd9f1620","geometry":{"type":"Point","coordinates":[-94.90812188334581,29.52869291671329]},"properties":{"substrate":"Mud","lease_number":null,"poll_year":2023}},{"type":"Feature","id":"87ac0938-1027-4f7a-9f4e-d1748f379246","geometry":{"type":"Point","coordinates":[-94.90728761704312,29.533808599810445]},"properties":{"substrate":"Mud","lease_number":null,"poll_year":2023}},{"type":"Feature","id":"93573900-37b0-472a-b15f-83a46b409deb","geometry":{"type":"Point","coordinates":[-94.90619623314319,29.52914316634368]},"properties":{"substrate":"Mud","lease_number":null,"poll_year":2023}},{"type":"Feature","id":"a41b1be1-a346-4bbf-8958-2d17595cbfe4","geometry":{"type":"Point","coordinates":[-94.90721674984869,29.533664965641997]},"properties":{"substrate":"Mud","lease_number":null,"poll_year":2023}},{"type":"Feature","id":"acdb8f4c-e173-49f0-b34c-8900e2839744","geometry":{"type":"Point","coordinates":[-94.90713621678178,29.528965433195363]},"properties":{"substrate":"Solid Reef","lease_number":null,"poll_year":2023}},{"type":"Feature","id":"b0f4b1e9-3d2d-4a7d-9059-9c49409ba581","geometry":{"type":"Point","coordinates":[-94.90663948256564,29.528808616972313]},"properties":{"substrate":"Mud","lease_number":null,"poll_year":2023}},{"type":"Feature","id":"b183109e-9da3-41c9-abe2-f0b34f5ee87a","geometry":{"type":"Point","coordinates":[-94.90530946660037,29.52944216702717]},"properties":{"substrate":"Mud","lease_number":null,"poll_year":2023}},{"type":"Feature","id":"b3793e28-05e2-4503-8331-89f4fa9890ff","geometry":{"type":"Point","coordinates":[-94.90559076055688,29.529306608685914]},"properties":{"substrate":"Mud","lease_number":null,"poll_year":2023}},{"type":"Feature","id":"dde0b5cd-237f-4778-8cd7-ad07ad2d6c22","geometry":{"type":"Point","coordinates":[-94.90683811624461,29.529095282975145]},"properties":{"substrate":"Mud","lease_number":null,"poll_year":2023}},{"type":"Feature","id":"e360fae3-4f8f-499c-9095-088acc98ca56","geometry":{"type":"Point","coordinates":[-94.90460081711377,29.529619216979174]},"properties":{"substrate":"Solid Reef","lease_number":null,"poll_year":2023}},{"type":"Feature","id":"e3e466a4-dcaf-4b28-83aa-43cf95a96b3c","geometry":{"type":"Point","coordinates":[-94.91057758358349,29.5340801997719]},"properties":{"substrate":"Mud","lease_number":null,"poll_year":2023}},{"type":"Feature","id":"e722c356-698a-486b-ac48-d247d5e5087b","geometry":{"type":"Point","coordinates":[-94.90632408317107,29.529242883360585]},"properties":{"substrate":"Solid Reef","lease_number":null,"poll_year":2023}},{"type":"Feature","id":"ff0a5853-2def-4363-8bc4-84c672cef856","geometry":{"type":"Point","coordinates":[-94.90835441674867,29.534892516875924]},"properties":{"substrate":"Scattered Shell","lease_number":null,"poll_year":2023}}]}