{"type":"FeatureCollection","features":[{"type":"Feature","id":"014aa694-1032-4cc7-8f00-ea818ffbdd5e","geometry":{"type":"Point","coordinates":[-94.90208038337839,29.494488015641473]},"properties":{"substrate":"Buried Shell","lease_number":null,"poll_year":2024}},{"type":"Feature","id":"022f8144-81d2-46a4-a602-d6b347ec1476","geometry":{"type":"Point","coordinates":[-94.9006540168107,29.496703165621927]},"properties":{"substrate":"Firm/Hard Bottom","lease_number":null,"poll_year":2024}},{"type":"Feature","id":"02a1242d-f6a8-4ab6-a0ca-444d070e1ef3","geometry":{"type":"Point","coordinates":[-94.9026796836404,29.494141300301926]},"properties":{"substrate":"Firm/Hard Bottom","lease_number":null,"poll_year":2024}},{"type":"Feature","id":"03af9025-8043-4714-90ba-ea111707a915","geometry":{"type":"Point","coordinates":[-94.90419011634903,29.496673150053947]},"properties":{"substrate":"Solid Reef","lease_number":null,"poll_year":2024}},{"type":"Feature","id":"03e73e4b-d204-4318-95f8-41604cb3eb53","geometry":{"type":"Point","coordinates":[-94.90289521642653,29.495049383625993]},"properties":{"substrate":"Solid Reef","lease_number":null,"poll_year":2024}},{"type":"Feature","id":"06a95d64-0320-47c6-b3d4-b80f7986b547","geometry":{"type":"Point","coordinates":[-94.90342616657354,29.494906483371746]},"properties":{"substrate":"Solid Reef","lease_number":null,"poll_year":2024}},{"type":"Feature","id":"081eb1cb-bb2f-4ebb-a1a6-1ae05f32b20a","geometry":{"type":"Point","coordinates":[-94.90632316688948,29.494236733381964]},"properties":{"substrate":"Solid Reef","lease_number":null,"poll_year":2024}},{"type":"Feature","id":"089acea9-756a-4a93-aec5-ca27fcbad585","geometry":{"type":"Point","coordinates":[-94.90012129967755,29.49584153334029]},"properties":{"substrate":"Firm/Hard Bottom","lease_number":null,"poll_year":2024}},{"type":"Feature","id":"08c4fd38-e482-4b23-b0ea-62bd101ed60b","geometry":{"type":"Point","coordinates":[-94.90486238316831,29.49537629998038]},"properties":{"substrate":"Solid Reef","lease_number":null,"poll_year":2024}},{"type":"Feature","id":"09d67f20-fbc9-44a3-923d-3095365d7fd8","geometry":{"type":"Point","coordinates":[-94.90196516635837,29.494816565620074]},"properties":{"substrate":"Buried Shell","lease_number":null,"poll_year":2024}},{"type":"Feature","id":"0a63909f-d556-4612-a69f-6101274384ab","geometry":{"type":"Point","coordinates":[-94.90138820001096,29.494593316699266]},"properties":{"substrate":"Firm/Hard Bottom","lease_number":null,"poll_year":2024}},{"type":"Feature","id":"0c61351b-a964-48f7-87bb-a53ebee99d1f","geometry":{"type":"Point","coordinates":[-94.90504401623055,29.494300034285995]},"properties":{"substrate":"Solid Reef","lease_number":null,"poll_year":2024}},{"type":"Feature","id":"0d33cba6-a32a-45fc-a8e7-7670648d22c4","geometry":{"type":"Point","coordinates":[-94.90584651630816,29.495032467390274]},"properties":{"substrate":"Solid Reef","lease_number":null,"poll_year":2024}},{"type":"Feature","id":"105ba5f2-df58-4869-bd8a-1dad32f9a3b6","geometry":{"type":"Point","coordinates":[-94.9054014495939,29.494600349849584]},"properties":{"substrate":"Solid Reef","lease_number":null,"poll_year":2024}},{"type":"Feature","id":"113c78b9-8c20-4a6a-85fd-3f95f656340d","geometry":{"type":"Point","coordinates":[-94.90339913267336,29.48543676433256]},"properties":{"substrate":"Solid Reef","lease_number":null,"poll_year":2024}},{"type":"Feature","id":"1193f1e9-1c38-459b-a86e-62de43c0b54d","geometry":{"type":"Point","coordinates":[-94.90671503357598,29.49633584980011]},"properties":{"substrate":"Solid Reef","lease_number":null,"poll_year":2024}},{"type":"Feature","id":"11a2058b-4fe4-4546-9420-2dc090f76de1","geometry":{"type":"Point","coordinates":[-94.90418570023108,29.49609021732745]},"properties":{"substrate":"Solid Reef","lease_number":null,"poll_year":2024}},{"type":"Feature","id":"11adeffc-c918-4ea2-9013-a08a6989116f","geometry":{"type":"Point","coordinates":[-94.90011589002289,29.480384839387312]},"properties":{"substrate":"Firm/Hard Bottom","lease_number":null,"poll_year":2024}},{"type":"Feature","id":"13f174f5-bf8e-412b-9eea-2591770bee90","geometry":{"type":"Point","coordinates":[-94.90369948259199,29.494908933042925]},"properties":{"substrate":"Solid Reef","lease_number":null,"poll_year":2024}},{"type":"Feature","id":"1429bfad-5761-4dbe-b69e-4607db5db893","geometry":{"type":"Point","coordinates":[-94.90528849992164,29.49389576728203]},"properties":{"substrate":"Firm/Hard Bottom","lease_number":null,"poll_year":2024}},{"type":"Feature","id":"147e1177-6c20-43c9-8c55-3f658ece5d94","geometry":{"type":"Point","coordinates":[-94.90494866635134,29.49656556728595]},"properties":{"substrate":"Solid Reef","lease_number":null,"poll_year":2024}},{"type":"Feature","id":"14dfebc4-421e-47f8-915a-2e52ab3859cb","geometry":{"type":"Point","coordinates":[-94.90571046556006,29.494600116844744]},"properties":{"substrate":"Solid Reef","lease_number":null,"poll_year":2024}},{"type":"Feature","id":"14f2f899-4021-4bf2-b4a8-02d2999a3974","geometry":{"type":"Point","coordinates":[-94.90120076742524,29.49562278331431]},"properties":{"substrate":"Solid Reef","lease_number":null,"poll_year":2024}},{"type":"Feature","id":"15d41e96-2c72-47d2-b6cb-65edef6d0066","geometry":{"type":"Point","coordinates":[-94.90303703256212,29.49684020003679]},"properties":{"substrate":"Solid Reef","lease_number":null,"poll_year":2024}},{"type":"Feature","id":"17ae9c35-bfd6-48f2-9eba-d4aed59ef293","geometry":{"type":"Point","coordinates":[-94.9059299500351,29.494522583274325]},"properties":{"substrate":"Solid Reef","lease_number":null,"poll_year":2024}},{"type":"Feature","id":"19a4ffea-a944-4863-a16c-a70eb8036880","geometry":{"type":"Point","coordinates":[-94.90294094965765,29.494367034306762]},"properties":{"substrate":"Firm/Hard Bottom","lease_number":null,"poll_year":2024}},{"type":"Feature","id":"1ac614a5-6a4f-48ad-923b-f774ac88b969","geometry":{"type":"Point","coordinates":[-94.90205565006367,29.494196733020033]},"properties":{"substrate":"Scattered Shell","lease_number":null,"poll_year":2024}},{"type":"Feature","id":"1b429a75-98a4-4f2f-a499-d46e3a6ef878","geometry":{"type":"Point","coordinates":[-94.9033297333261,29.49679571662955]},"properties":{"substrate":"Solid Reef","lease_number":null,"poll_year":2024}},{"type":"Feature","id":"1df40a7e-4905-443e-8361-90b513d0f56f","geometry":{"type":"Point","coordinates":[-94.90348930017169,29.494281982609287]},"properties":{"substrate":"Solid Reef","lease_number":null,"poll_year":2024}},{"type":"Feature","id":"23562bd9-8def-4ee8-a0bd-0adfc3756afa","geometry":{"type":"Point","coordinates":[-94.90042773298727,29.495010650250588]},"properties":{"substrate":"Buried Shell","lease_number":null,"poll_year":2024}},{"type":"Feature","id":"23d2ad13-aeae-4b60-ac16-b879445573d4","geometry":{"type":"Point","coordinates":[-94.90488313335305,29.495067800309517]},"properties":{"substrate":"Solid Reef","lease_number":null,"poll_year":2024}},{"type":"Feature","id":"23fc1f3c-12a3-489d-9400-f3332d3842ec","geometry":{"type":"Point","coordinates":[-94.90287834965876,29.495433116748217]},"properties":{"substrate":"Solid Reef","lease_number":null,"poll_year":2024}},{"type":"Feature","id":"2b1fe067-1cdb-4e34-b677-ad93d3b9fbe0","geometry":{"type":"Point","coordinates":[-94.90470811638289,29.49460128265093]},"properties":{"substrate":"Solid Reef","lease_number":null,"poll_year":2024}},{"type":"Feature","id":"2b6bef67-a51a-403f-b8f4-7fc293c79431","geometry":{"type":"Point","coordinates":[-94.90793898365901,29.49617066690485]},"properties":{"substrate":"Solid Reef","lease_number":null,"poll_year":2024}},{"type":"Feature","id":"2bf64005-dd1c-4968-9746-f800825ddf37","geometry":{"type":"Point","coordinates":[-94.90771933299564,29.496183750158764]},"properties":{"substrate":"Solid Reef","lease_number":null,"poll_year":2024}},{"type":"Feature","id":"2cffeec6-52e4-405c-8cf7-51318e733858","geometry":{"type":"Point","coordinates":[-94.90835390021739,29.496105449990566]},"properties":{"substrate":"Solid Reef","lease_number":null,"poll_year":2024}},{"type":"Feature","id":"2d07f070-c570-4cc0-8aec-623b595b5ad0","geometry":{"type":"Point","coordinates":[-94.90273678325481,29.496223034313033]},"properties":{"substrate":"Solid Reef","lease_number":null,"poll_year":2024}},{"type":"Feature","id":"2da2b572-43f0-4519-8c58-a01d56bc9f16","geometry":{"type":"Point","coordinates":[-94.9047188503522,29.49656268371123]},"properties":{"substrate":"Solid Reef","lease_number":null,"poll_year":2024}},{"type":"Feature","id":"2df187e8-b87b-458b-bb55-da01db1f5f6e","geometry":{"type":"Point","coordinates":[-94.90226933321863,29.49508963307471]},"properties":{"substrate":"Solid Reef","lease_number":null,"poll_year":2024}},{"type":"Feature","id":"2e89f646-f3d8-42f1-a93e-013c78c3ae3e","geometry":{"type":"Point","coordinates":[-94.9038573165874,29.49492434962852]},"properties":{"substrate":"Solid Reef","lease_number":null,"poll_year":2024}},{"type":"Feature","id":"2f118c34-9997-4f6a-8861-ddbcc7a2030f","geometry":{"type":"Point","coordinates":[-94.89991376638902,29.49584285003616]},"properties":{"substrate":"Firm/Hard Bottom","lease_number":null,"poll_year":2024}},{"type":"Feature","id":"30fbeb90-8196-46eb-a4ca-4b340e26ad75","geometry":{"type":"Point","coordinates":[-94.90330084979476,29.496236033116794]},"properties":{"substrate":"Solid Reef","lease_number":null,"poll_year":2024}},{"type":"Feature","id":"32fd7a33-b669-4529-a5d9-163956a0f0f9","geometry":{"type":"Point","coordinates":[-94.90518194984749,29.494293615686587]},"properties":{"substrate":"Solid Reef","lease_number":null,"poll_year":2024}},{"type":"Feature","id":"336efba4-ea74-4b86-907d-b06503a56d6e","geometry":{"type":"Point","coordinates":[-94.9035514662843,29.494656450054936]},"properties":{"substrate":"Solid Reef","lease_number":null,"poll_year":2024}},{"type":"Feature","id":"34697358-c07d-4ea5-847e-2ac435391b9a","geometry":{"type":"Point","coordinates":[-94.90250646689407,29.495076083671975]},"properties":{"substrate":"Solid Reef","lease_number":null,"poll_year":2024}},{"type":"Feature","id":"34df726c-bf54-4008-944c-a340811aec11","geometry":{"type":"Point","coordinates":[-94.90017760877448,29.48036521965651]},"properties":{"substrate":"Firm/Hard Bottom","lease_number":null,"poll_year":2024}},{"type":"Feature","id":"3530a2fa-492e-4fcd-8aec-5f0c820131d0","geometry":{"type":"Point","coordinates":[-94.90076761686322,29.494980549736663]},"properties":{"substrate":"Buried Shell","lease_number":null,"poll_year":2024}},{"type":"Feature","id":"3564108b-f9b6-46b0-88d6-4575726eba72","geometry":{"type":"Point","coordinates":[-94.90472873361696,29.49602285017895]},"properties":{"substrate":"Solid Reef","lease_number":null,"poll_year":2024}},{"type":"Feature","id":"37600e8b-a202-4169-8cfb-8469a4725465","geometry":{"type":"Point","coordinates":[-94.90181756686897,29.49454036671789]},"properties":{"substrate":"Buried Shell","lease_number":null,"poll_year":2024}},{"type":"Feature","id":"38f9083a-3282-4746-878c-542c276a3fc8","geometry":{"type":"Point","coordinates":[-94.90026473367895,29.494417799758782]},"properties":{"substrate":"Solid Reef","lease_number":null,"poll_year":2024}},{"type":"Feature","id":"3a52173b-6479-4925-a0e1-fa1571959b1c","geometry":{"type":"Point","coordinates":[-94.90547424996282,29.494241482632226]},"properties":{"substrate":"Solid Reef","lease_number":null,"poll_year":2024}},{"type":"Feature","id":"3bccb005-cc68-4996-8a1e-317ca6620275","geometry":{"type":"Point","coordinates":[-94.90732705038916,29.495934099991075]},"properties":{"substrate":"Solid Reef","lease_number":null,"poll_year":2024}},{"type":"Feature","id":"3bf7d4a2-0001-4fb4-be86-db74830632a6","geometry":{"type":"Point","coordinates":[-94.9027408669961,29.495069299978166]},"properties":{"substrate":"Solid Reef","lease_number":null,"poll_year":2024}},{"type":"Feature","id":"3c0acdf9-2ad2-49cd-9c7c-99fd7ef3fd3f","geometry":{"type":"Point","coordinates":[-94.90235273370791,29.49474933367406]},"properties":{"substrate":"Solid Reef","lease_number":null,"poll_year":2024}},{"type":"Feature","id":"3c3cf3a1-cffc-4b3a-be28-65475a36f86d","geometry":{"type":"Point","coordinates":[-94.90217003344712,29.496330866865296]},"properties":{"substrate":"Solid Reef","lease_number":null,"poll_year":2024}},{"type":"Feature","id":"3c678233-baab-4336-96ee-7069b6268b57","geometry":{"type":"Point","coordinates":[-94.90569165034643,29.496015616964943]},"properties":{"substrate":"Solid Reef","lease_number":null,"poll_year":2024}},{"type":"Feature","id":"3f052f73-0aad-43f2-abb6-1b8a14157a82","geometry":{"type":"Point","coordinates":[-94.90564434955513,29.49395678368598]},"properties":{"substrate":"Solid Reef","lease_number":null,"poll_year":2024}},{"type":"Feature","id":"3fcddc57-a67e-4f25-806e-2ead2749b49e","geometry":{"type":"Point","coordinates":[-94.90269309997917,29.494444767379903]},"properties":{"substrate":"Firm/Hard Bottom","lease_number":null,"poll_year":2024}},{"type":"Feature","id":"3fd1467a-e719-4a28-9cb1-55761d64a457","geometry":{"type":"Point","coordinates":[-94.90500891635745,29.495379367332934]},"properties":{"substrate":"Solid Reef","lease_number":null,"poll_year":2024}},{"type":"Feature","id":"40333fac-fb46-486f-8282-240fb5b163d3","geometry":{"type":"Point","coordinates":[-94.90535481625086,29.49535191675278]},"properties":{"substrate":"Solid Reef","lease_number":null,"poll_year":2024}},{"type":"Feature","id":"41fd377e-7fa1-4827-8590-44e3499284c1","geometry":{"type":"Point","coordinates":[-94.90513863308448,29.494599083178848]},"properties":{"substrate":"Solid Reef","lease_number":null,"poll_year":2024}},{"type":"Feature","id":"42d0c66c-6501-4896-a803-d6c7d7da0635","geometry":{"type":"Point","coordinates":[-94.90235478366338,29.494159100232242]},"properties":{"substrate":"Firm/Hard Bottom","lease_number":null,"poll_year":2024}},{"type":"Feature","id":"43b32dce-192c-4804-8880-788a2ac57464","geometry":{"type":"Point","coordinates":[-94.90346886709224,29.49621883325569]},"properties":{"substrate":"Solid Reef","lease_number":null,"poll_year":2024}},{"type":"Feature","id":"43debc01-2e5a-492b-adcd-b89af18e1bfc","geometry":{"type":"Point","coordinates":[-94.90314018341125,29.49403259985543]},"properties":{"substrate":"Firm/Hard Bottom","lease_number":null,"poll_year":2024}},{"type":"Feature","id":"441fa9d9-ac41-43f3-b25f-df87faba0790","geometry":{"type":"Point","coordinates":[-94.90819774966481,29.495856333657912]},"properties":{"substrate":"Scattered Shell","lease_number":null,"poll_year":2024}},{"type":"Feature","id":"458cf219-3683-4a2c-b197-4dc1b96437e7","geometry":{"type":"Point","coordinates":[-94.90387095031846,29.49616126632047]},"properties":{"substrate":"Solid Reef","lease_number":null,"poll_year":2024}},{"type":"Feature","id":"46293eff-702a-4c04-a8a8-ceb18984bd71","geometry":{"type":"Point","coordinates":[-94.90100886661929,29.496635666743405]},"properties":{"substrate":"Firm/Hard Bottom","lease_number":null,"poll_year":2024}},{"type":"Feature","id":"463fcb51-72e3-4395-be27-208c418bb140","geometry":{"type":"Point","coordinates":[-94.9035551170376,29.49489955032501]},"properties":{"substrate":"Solid Reef","lease_number":null,"poll_year":2024}},{"type":"Feature","id":"467e66ac-7dfc-4a43-a5c1-bed8215aceb9","geometry":{"type":"Point","coordinates":[-94.90303216638823,29.494667883705947]},"properties":{"substrate":"Solid Reef","lease_number":null,"poll_year":2024}},{"type":"Feature","id":"476abc39-8cc6-4752-bad3-5dd85f8822f1","geometry":{"type":"Point","coordinates":[-94.90409243444334,29.49392776735518]},"properties":{"substrate":"Firm/Hard Bottom","lease_number":null,"poll_year":2024}},{"type":"Feature","id":"499ba110-765d-4436-93c0-e48f694316a6","geometry":{"type":"Point","coordinates":[-94.9082134001137,29.49612981661722]},"properties":{"substrate":"Solid Reef","lease_number":null,"poll_year":2024}},{"type":"Feature","id":"4af05b08-d6ec-4710-a71c-2595f0a1318b","geometry":{"type":"Point","coordinates":[-94.90587814958255,29.49600466667076]},"properties":{"substrate":"Solid Reef","lease_number":null,"poll_year":2024}},{"type":"Feature","id":"4bbdd589-9232-4001-8dcc-85c4ac3bd75d","geometry":{"type":"Point","coordinates":[-94.9044614174463,29.494222366781322]},"properties":{"substrate":"Firm/Hard Bottom","lease_number":null,"poll_year":2024}},{"type":"Feature","id":"4be754e9-6b5e-4144-95d3-3e8b6c723f8c","geometry":{"type":"Point","coordinates":[-94.90645893376995,29.496357517314884]},"properties":{"substrate":"Solid Reef","lease_number":null,"poll_year":2024}},{"type":"Feature","id":"4c298e0a-ccc7-4205-87de-782b72211ce1","geometry":{"type":"Point","coordinates":[-94.90733559965572,29.496253383096498]},"properties":{"substrate":"Solid Reef","lease_number":null,"poll_year":2024}},{"type":"Feature","id":"4c749dfc-69b5-43d8-b45f-e8a091d954c4","geometry":{"type":"Point","coordinates":[-94.90501648376541,29.494599782975353]},"properties":{"substrate":"Solid Reef","lease_number":null,"poll_year":2024}},{"type":"Feature","id":"4e88d4f3-cb2d-4491-aed8-dcb762db82ba","geometry":{"type":"Point","coordinates":[-94.90049116662274,29.496724667299745]},"properties":{"substrate":"Firm/Hard Bottom","lease_number":null,"poll_year":2024}},{"type":"Feature","id":"4f11afd5-513f-4354-b3b9-5f44229d8091","geometry":{"type":"Point","coordinates":[-94.90319676559604,29.49466461694868]},"properties":{"substrate":"Solid Reef","lease_number":null,"poll_year":2024}},{"type":"Feature","id":"4fb90a48-1639-4193-8812-09b89bd12607","geometry":{"type":"Point","coordinates":[-94.90345746657296,29.49399448301047]},"properties":{"substrate":"Scattered Shell","lease_number":null,"poll_year":2024}},{"type":"Feature","id":"5061130f-fe53-48ed-af64-cd2ca4e5da10","geometry":{"type":"Point","coordinates":[-94.90018487614515,29.48058301573771]},"properties":{"substrate":"Buried Shell","lease_number":null,"poll_year":2024}},{"type":"Feature","id":"510d9dc2-8402-4582-9921-3ce096ef0f10","geometry":{"type":"Point","coordinates":[-94.90272605018382,29.496939666625508]},"properties":{"substrate":"Solid Reef","lease_number":null,"poll_year":2024}},{"type":"Feature","id":"524942c9-1d55-4e1b-85b0-7bb1e1ca1146","geometry":{"type":"Point","coordinates":[-94.90238388368871,29.49448394978021]},"properties":{"substrate":"Buried Shell","lease_number":null,"poll_year":2024}},{"type":"Feature","id":"527ec7b7-5c58-4c28-a3dc-782d2816b1cf","geometry":{"type":"Point","coordinates":[-94.901590016421,29.49459405011731]},"properties":{"substrate":"Buried Shell","lease_number":null,"poll_year":2024}},{"type":"Feature","id":"52acae7d-b062-445c-a783-0fcdca7f8882","geometry":{"type":"Point","coordinates":[-94.90705216681053,29.496295866686708]},"properties":{"substrate":"Solid Reef","lease_number":null,"poll_year":2024}},{"type":"Feature","id":"52f7257c-9df8-46b1-b527-cd336ce700e7","geometry":{"type":"Point","coordinates":[-94.90393205013083,29.494634832999445]},"properties":{"substrate":"Solid Reef","lease_number":null,"poll_year":2024}},{"type":"Feature","id":"5300ef4e-7e4e-4468-8189-7e146fbb5c35","geometry":{"type":"Point","coordinates":[-94.90357086630117,29.495439334329976]},"properties":{"substrate":"Solid Reef","lease_number":null,"poll_year":2024}},{"type":"Feature","id":"5302673f-0b21-4a18-b4f1-2077ddd26561","geometry":{"type":"Point","coordinates":[-94.9071442998227,29.49591673431899]},"properties":{"substrate":"Solid Reef","lease_number":null,"poll_year":2024}},{"type":"Feature","id":"548923ad-6dc8-4b7a-9ff2-562b81de6c48","geometry":{"type":"Point","coordinates":[-94.90483768309126,29.493862200268804]},"properties":{"substrate":"Firm/Hard Bottom","lease_number":null,"poll_year":2024}},{"type":"Feature","id":"57651e2f-9314-4eba-a94b-99d7bc0766d5","geometry":{"type":"Point","coordinates":[-94.90156930037222,29.495527149812936]},"properties":{"substrate":"Solid Reef","lease_number":null,"poll_year":2024}},{"type":"Feature","id":"57d6e53f-3e17-4b81-a8df-b53c6aaa4018","geometry":{"type":"Point","coordinates":[-94.90084586910761,29.480415837287374]},"properties":{"substrate":"Firm/Hard Bottom","lease_number":null,"poll_year":2024}},{"type":"Feature","id":"58c6b8c4-f8b5-439a-9d4f-91de06535a9d","geometry":{"type":"Point","coordinates":[-94.90006679080442,29.480437285335668]},"properties":{"substrate":"Firm/Hard Bottom","lease_number":null,"poll_year":2024}},{"type":"Feature","id":"5af7548e-657a-4076-b8aa-9ef73333d6b8","geometry":{"type":"Point","coordinates":[-94.90690898343908,29.49631620031887]},"properties":{"substrate":"Solid Reef","lease_number":null,"poll_year":2024}},{"type":"Feature","id":"5c083589-f814-4360-8bc2-fb0d3a2d9c74","geometry":{"type":"Point","coordinates":[-94.90098708337196,29.494630216689863]},"properties":{"substrate":"Buried Shell","lease_number":null,"poll_year":2024}},{"type":"Feature","id":"5e873e94-78ca-416b-bf29-c7f955ee815d","geometry":{"type":"Point","coordinates":[-94.90249140035012,29.4947328826154]},"properties":{"substrate":"Solid Reef","lease_number":null,"poll_year":2024}},{"type":"Feature","id":"605bb7c1-66dd-40e5-a90c-ca60cb0310b0","geometry":{"type":"Point","coordinates":[-94.90479183307914,29.49424901700377]},"properties":{"substrate":"Solid Reef","lease_number":null,"poll_year":2024}},{"type":"Feature","id":"60606447-5fb8-4cea-b585-44ac4b44710e","geometry":{"type":"Point","coordinates":[-94.9043871501285,29.495395567300058]},"properties":{"substrate":"Solid Reef","lease_number":null,"poll_year":2024}},{"type":"Feature","id":"620e6bf1-9927-4a9e-9275-797473739833","geometry":{"type":"Point","coordinates":[-94.90644336686438,29.495965533335525]},"properties":{"substrate":"Solid Reef","lease_number":null,"poll_year":2024}},{"type":"Feature","id":"62d11a4f-1c16-4566-88eb-17bba5e7737d","geometry":{"type":"Point","coordinates":[-94.90399381559482,29.496128382642464]},"properties":{"substrate":"Solid Reef","lease_number":null,"poll_year":2024}},{"type":"Feature","id":"6304ad99-2863-4d07-b0a4-3e424d1e4cd7","geometry":{"type":"Point","coordinates":[-94.90438656622356,29.49498200014741]},"properties":{"substrate":"Solid Reef","lease_number":null,"poll_year":2024}},{"type":"Feature","id":"64b58fb6-7289-4b5d-8cab-9e489190e963","geometry":{"type":"Point","coordinates":[-94.90103423863617,29.480437376048172]},"properties":{"substrate":"Solid Reef","lease_number":null,"poll_year":2024}},{"type":"Feature","id":"659ef282-f137-4505-90fa-1f89196235de","geometry":{"type":"Point","coordinates":[-94.89997780009911,29.496815865638126]},"properties":{"substrate":"Solid Reef","lease_number":null,"poll_year":2024}},{"type":"Feature","id":"696adf15-aa35-43fd-ac40-0c5ba9aabc61","geometry":{"type":"Point","coordinates":[-94.90429423288708,29.496652066670855]},"properties":{"substrate":"Solid Reef","lease_number":null,"poll_year":2024}},{"type":"Feature","id":"6980e6cb-b692-4901-bac1-8b75a1352b0d","geometry":{"type":"Point","coordinates":[-94.90261278340625,29.494724333380724]},"properties":{"substrate":"Solid Reef","lease_number":null,"poll_year":2024}},{"type":"Feature","id":"6b564eb9-9663-4dfb-9dae-410c02b80d90","geometry":{"type":"Point","coordinates":[-94.90794308356996,29.49594093366759]},"properties":{"substrate":"Solid Reef","lease_number":null,"poll_year":2024}},{"type":"Feature","id":"6b878b85-9d4a-436d-be5f-dae877984f0a","geometry":{"type":"Point","coordinates":[-94.905772333432,29.496521967283236]},"properties":{"substrate":"Solid Reef","lease_number":null,"poll_year":2024}},{"type":"Feature","id":"6bcec35f-cd34-4195-a7dc-8774b8618f9b","geometry":{"type":"Point","coordinates":[-94.90631176637021,29.49503086685698]},"properties":{"substrate":"Solid Reef","lease_number":null,"poll_year":2024}},{"type":"Feature","id":"6be8383e-b1ae-4d78-809f-2f1318ebf33f","geometry":{"type":"Point","coordinates":[-94.90094370013362,29.49531323431589]},"properties":{"substrate":"Solid Reef","lease_number":null,"poll_year":2024}},{"type":"Feature","id":"6e0b63db-7638-4aaa-a0a3-89554bf72e7e","geometry":{"type":"Point","coordinates":[-94.90546590012227,29.496026682976826]},"properties":{"substrate":"Solid Reef","lease_number":null,"poll_year":2024}},{"type":"Feature","id":"6e1bd578-e002-4c3f-a40a-397052df7a1e","geometry":{"type":"Point","coordinates":[-94.90306025041895,29.49500906691863]},"properties":{"substrate":"Solid Reef","lease_number":null,"poll_year":2024}},{"type":"Feature","id":"70243cd1-8d56-4d69-a882-664e3e7a5401","geometry":{"type":"Point","coordinates":[-94.90521683322659,29.4953656498627]},"properties":{"substrate":"Solid Reef","lease_number":null,"poll_year":2024}},{"type":"Feature","id":"705afcf0-cdba-4c96-b3a1-a114142711f8","geometry":{"type":"Point","coordinates":[-94.90175524983941,29.49483606683244]},"properties":{"substrate":"Solid Reef","lease_number":null,"poll_year":2024}},{"type":"Feature","id":"7198bbbe-4335-45ab-b57e-fe88ff63a12a","geometry":{"type":"Point","coordinates":[-94.9032600330432,29.495460116938318]},"properties":{"substrate":"Solid Reef","lease_number":null,"poll_year":2024}},{"type":"Feature","id":"71998be4-b32e-40e9-a5df-17c39d59da91","geometry":{"type":"Point","coordinates":[-94.90122013330613,29.49433450033635]},"properties":{"substrate":"Firm/Hard Bottom","lease_number":null,"poll_year":2024}},{"type":"Feature","id":"724bfced-df45-4bbd-ba25-5ea66f747fcd","geometry":{"type":"Point","coordinates":[-94.90038531633617,29.495788350227418]},"properties":{"substrate":"Firm/Hard Bottom","lease_number":null,"poll_year":2024}},{"type":"Feature","id":"728725cc-b64a-48d1-9ac3-3145198574ac","geometry":{"type":"Point","coordinates":[-94.90436959974278,29.49461673368674]},"properties":{"substrate":"Solid Reef","lease_number":null,"poll_year":2024}},{"type":"Feature","id":"729335fb-e185-440f-9662-88640966bb65","geometry":{"type":"Point","coordinates":[-94.906610016926,29.495948667293423]},"properties":{"substrate":"Solid Reef","lease_number":null,"poll_year":2024}},{"type":"Feature","id":"72c88795-af37-4344-bdf4-e16dc45488eb","geometry":{"type":"Point","coordinates":[-94.90282336557684,29.494108683377675]},"properties":{"substrate":"Firm/Hard Bottom","lease_number":null,"poll_year":2024}},{"type":"Feature","id":"72e44ae9-406b-423c-b114-87c087cc5b0a","geometry":{"type":"Point","coordinates":[-94.90257754968418,29.496235950237207]},"properties":{"substrate":"Solid Reef","lease_number":null,"poll_year":2024}},{"type":"Feature","id":"7643d1e9-42d3-4446-99e8-b19849cda38e","geometry":{"type":"Point","coordinates":[-94.90589235015058,29.49648751683297]},"properties":{"substrate":"Solid Reef","lease_number":null,"poll_year":2024}},{"type":"Feature","id":"76596fec-96ea-4c75-a356-cd486d5ba8db","geometry":{"type":"Point","coordinates":[-94.90466766704228,29.493862250310464]},"properties":{"substrate":"Firm/Hard Bottom","lease_number":null,"poll_year":2024}},{"type":"Feature","id":"77e3e482-e9c7-4da6-8a0b-6d0899f691f6","geometry":{"type":"Point","coordinates":[-94.90450188295658,29.49387721668033]},"properties":{"substrate":"Solid Reef","lease_number":null,"poll_year":2024}},{"type":"Feature","id":"79527753-1ed8-461b-a718-4caee0e91737","geometry":{"type":"Point","coordinates":[-94.90108429995034,29.495657016694057]},"properties":{"substrate":"Buried Shell","lease_number":null,"poll_year":2024}},{"type":"Feature","id":"7ab8ac73-d47e-4776-924b-544798f22727","geometry":{"type":"Point","coordinates":[-94.90293761690795,29.49687716566848]},"properties":{"substrate":"Solid Reef","lease_number":null,"poll_year":2024}},{"type":"Feature","id":"7ac9a83e-1c8b-4018-8cce-ed1471176ac1","geometry":{"type":"Point","coordinates":[-94.90593021683473,29.49393268316473]},"properties":{"substrate":"Solid Reef","lease_number":null,"poll_year":2024}},{"type":"Feature","id":"7b095401-6a10-463d-a72d-764ed9466c52","geometry":{"type":"Point","coordinates":[-94.90136874968842,29.495581983628423]},"properties":{"substrate":"Firm/Hard Bottom","lease_number":null,"poll_year":2024}},{"type":"Feature","id":"7b71485e-4806-4280-a92a-d8e92fa1f1fa","geometry":{"type":"Point","coordinates":[-94.90698980037362,29.495922316980227]},"properties":{"substrate":"Solid Reef","lease_number":null,"poll_year":2024}},{"type":"Feature","id":"7bd573e2-7d9c-43f3-8340-503c2d8c8100","geometry":{"type":"Point","coordinates":[-94.90127821657576,29.494878566655018]},"properties":{"substrate":"Buried Shell","lease_number":null,"poll_year":2024}},{"type":"Feature","id":"7cb1d009-28a6-467a-b49f-ee80f3e55a6e","geometry":{"type":"Point","coordinates":[-94.90207536628753,29.49479728333427]},"properties":{"substrate":"Solid Reef","lease_number":null,"poll_year":2024}},{"type":"Feature","id":"7d3629e2-69e1-4b62-a58b-2b3dede0043b","geometry":{"type":"Point","coordinates":[-94.9040527001617,29.495392116822227]},"properties":{"substrate":"Solid Reef","lease_number":null,"poll_year":2024}},{"type":"Feature","id":"7d833875-9322-4a15-857a-6b8dba68950e","geometry":{"type":"Point","coordinates":[-94.90015813329913,29.49462436733108]},"properties":{"substrate":"Buried Shell","lease_number":null,"poll_year":2024}},{"type":"Feature","id":"7f056c3f-5916-4185-845e-5ebb199ffdcd","geometry":{"type":"Point","coordinates":[-94.90649363299441,29.493837583670132]},"properties":{"substrate":"Solid Reef","lease_number":null,"poll_year":2024}},{"type":"Feature","id":"7f628d39-c82c-4ca4-8ba9-0156d921c006","geometry":{"type":"Point","coordinates":[-94.90355306708214,29.49676745015185]},"properties":{"substrate":"Solid Reef","lease_number":null,"poll_year":2024}},{"type":"Feature","id":"80855d04-4d4f-4844-9398-c5b6d854795e","geometry":{"type":"Point","coordinates":[-94.90607203297033,29.493897484336497]},"properties":{"substrate":"Solid Reef","lease_number":null,"poll_year":2024}},{"type":"Feature","id":"8168d47d-61de-462c-9c3b-b8cbc708702e","geometry":{"type":"Point","coordinates":[-94.89998339570502,29.48576311663295]},"properties":{"substrate":"Scattered Shell","lease_number":null,"poll_year":2024}},{"type":"Feature","id":"823cd048-0ce8-449c-a7da-b9653d98fbb1","geometry":{"type":"Point","coordinates":[-94.90167760036456,29.49652186563877]},"properties":{"substrate":"Solid Reef","lease_number":null,"poll_year":2024}},{"type":"Feature","id":"826bc0c6-f7f8-4564-b6dd-7b11746e5b88","geometry":{"type":"Point","coordinates":[-94.9012229998302,29.495264482680412]},"properties":{"substrate":"Solid Reef","lease_number":null,"poll_year":2024}},{"type":"Feature","id":"82c84251-7665-4611-93b4-2f85f017f641","geometry":{"type":"Point","coordinates":[-94.90312463357368,29.496237166846985]},"properties":{"substrate":"Solid Reef","lease_number":null,"poll_year":2024}},{"type":"Feature","id":"839001d2-6a1a-4135-9a9a-e8faca2d6569","geometry":{"type":"Point","coordinates":[-94.90013013371004,29.49441095034154]},"properties":{"substrate":"Firm/Hard Bottom","lease_number":null,"poll_year":2024}},{"type":"Feature","id":"85e14a2a-bb12-4112-a8ff-1a7ce8bf3e32","geometry":{"type":"Point","coordinates":[-94.9010627170273,29.494347550205852]},"properties":{"substrate":"Firm/Hard Bottom","lease_number":null,"poll_year":2024}},{"type":"Feature","id":"86860633-9785-4fe7-b2e1-d81c883a0321","geometry":{"type":"Point","coordinates":[-94.90549776695866,29.496535217032296]},"properties":{"substrate":"Solid Reef","lease_number":null,"poll_year":2024}},{"type":"Feature","id":"87ffa671-cf39-4f8c-a927-e67bd403c9fd","geometry":{"type":"Point","coordinates":[-94.90501391638031,29.493867916748375]},"properties":{"substrate":"Firm/Hard Bottom","lease_number":null,"poll_year":2024}},{"type":"Feature","id":"88f63ad1-a56f-4a05-b2a3-68a63f14faae","geometry":{"type":"Point","coordinates":[-94.9032241166015,29.494337632617935]},"properties":{"substrate":"Firm/Hard Bottom","lease_number":null,"poll_year":2024}},{"type":"Feature","id":"8a11882a-0fb3-4e5c-a146-4ec13ff71232","geometry":{"type":"Point","coordinates":[-94.907776865598,29.495949249797842]},"properties":{"substrate":"Solid Reef","lease_number":null,"poll_year":2024}},{"type":"Feature","id":"8b2408ca-9900-4669-a426-68e3025859ce","geometry":{"type":"Point","coordinates":[-94.90137081671189,29.49523260031321]},"properties":{"substrate":"Solid Reef","lease_number":null,"poll_year":2024}},{"type":"Feature","id":"8b9ef9a2-2c13-4c56-b9f2-9003c44ade8a","geometry":{"type":"Point","coordinates":[-94.90411958332787,29.49495324995379]},"properties":{"substrate":"Solid Reef","lease_number":null,"poll_year":2024}},{"type":"Feature","id":"8db7e43c-fdd8-499e-a834-63c2edc9443f","geometry":{"type":"Point","coordinates":[-94.90076811632652,29.495702399771424]},"properties":{"substrate":"Buried Shell","lease_number":null,"poll_year":2024}},{"type":"Feature","id":"8df4cde2-cb62-4687-a5ca-e44e7faa730b","geometry":{"type":"Point","coordinates":[-94.90442513359365,29.496617582643964]},"properties":{"substrate":"Solid Reef","lease_number":null,"poll_year":2024}},{"type":"Feature","id":"8f700b06-ea4c-4b24-92a9-8703c363b27a","geometry":{"type":"Point","coordinates":[-94.90028661663928,29.495029182661174]},"properties":{"substrate":"Firm/Hard Bottom","lease_number":null,"poll_year":2024}},{"type":"Feature","id":"8fd1858e-6141-49b3-bc3b-a3b02662a8da","geometry":{"type":"Point","coordinates":[-94.90533873371233,29.49652321672855]},"properties":{"substrate":"Solid Reef","lease_number":null,"poll_year":2024}},{"type":"Feature","id":"8fe61a22-e486-4cde-98cd-ca1feb12006f","geometry":{"type":"Point","coordinates":[-94.9027805168361,29.494703166711126]},"properties":{"substrate":"Solid Reef","lease_number":null,"poll_year":2024}},{"type":"Feature","id":"9004e7dd-e870-4622-b50d-13da24328b4f","geometry":{"type":"Point","coordinates":[-94.90656175044579,29.496348665629]},"properties":{"substrate":"Solid Reef","lease_number":null,"poll_year":2024}},{"type":"Feature","id":"90303ffa-289e-4e6d-93b3-090c0f063197","geometry":{"type":"Point","coordinates":[-94.90760141743648,29.495948983174998]},"properties":{"substrate":"Solid Reef","lease_number":null,"poll_year":2024}},{"type":"Feature","id":"903f1410-1b9a-4e9a-9059-2ab7c5162c89","geometry":{"type":"Point","coordinates":[-94.90458621679545,29.49460726571516]},"properties":{"substrate":"Solid Reef","lease_number":null,"poll_year":2024}},{"type":"Feature","id":"90b49b8d-3f97-4338-a3e2-c0ebe27ed28e","geometry":{"type":"Point","coordinates":[-94.90066748255681,29.495706900312893]},"properties":{"substrate":"Solid Reef","lease_number":null,"poll_year":2024}},{"type":"Feature","id":"911b239c-0ff0-4123-ad14-c89f4f4870ba","geometry":{"type":"Point","coordinates":[-94.90151943309418,29.49520073435561]},"properties":{"substrate":"Solid Reef","lease_number":null,"poll_year":2024}},{"type":"Feature","id":"91fed67b-04bd-4d01-abb9-bfb7d477aed7","geometry":{"type":"Point","coordinates":[-94.90381196693693,29.495395816722787]},"properties":{"substrate":"Solid Reef","lease_number":null,"poll_year":2024}},{"type":"Feature","id":"92c5359b-f6e4-4e43-a51c-6abde81b5827","geometry":{"type":"Point","coordinates":[-94.90141358370593,29.494301916314104]},"properties":{"substrate":"Firm/Hard Bottom","lease_number":null,"poll_year":2024}},{"type":"Feature","id":"97598a57-204c-48bd-931a-d050e6809a72","geometry":{"type":"Point","coordinates":[-94.90290349979176,29.49621963312204]},"properties":{"substrate":"Solid Reef","lease_number":null,"poll_year":2024}},{"type":"Feature","id":"9883ec90-c256-4cf1-a7ed-893f3e2d9e40","geometry":{"type":"Point","coordinates":[-94.90338596696456,29.494659816895037]},"properties":{"substrate":"Solid Reef","lease_number":null,"poll_year":2024}},{"type":"Feature","id":"999f004f-e672-4b99-afe3-bbd738d20bdf","geometry":{"type":"Point","coordinates":[-94.90370503328212,29.494280716716492]},"properties":{"substrate":"Solid Reef","lease_number":null,"poll_year":2024}},{"type":"Feature","id":"99c31160-7177-4da6-9eec-629f60306a42","geometry":{"type":"Point","coordinates":[-94.89993507532587,29.480655928953347]},"properties":{"substrate":"Solid Reef","lease_number":null,"poll_year":2024}},{"type":"Feature","id":"9ba6e58b-f067-4cef-9c7e-4713ae9454c1","geometry":{"type":"Point","coordinates":[-94.90246673440905,29.495391000284137]},"properties":{"substrate":"Solid Reef","lease_number":null,"poll_year":2024}},{"type":"Feature","id":"9bf0f4c5-c523-4017-916c-01a2a6d40a13","geometry":{"type":"Point","coordinates":[-94.90628325024983,29.49386515038203]},"properties":{"substrate":"Solid Reef","lease_number":null,"poll_year":2024}},{"type":"Feature","id":"9cb06edd-c8ad-4dc7-bde2-d4f760b9d95a","geometry":{"type":"Point","coordinates":[-94.90032834967244,29.49464145017866]},"properties":{"substrate":"Firm/Hard Bottom","lease_number":null,"poll_year":2024}},{"type":"Feature","id":"9d12f1dd-f8e5-4301-86ff-b2b4ddaec256","geometry":{"type":"Point","coordinates":[-94.90553698291238,29.494604650274827]},"properties":{"substrate":"Solid Reef","lease_number":null,"poll_year":2024}},{"type":"Feature","id":"9f57b81f-0f8b-4228-99ad-5fa8896cb834","geometry":{"type":"Point","coordinates":[-94.90024408320721,29.49582528262186]},"properties":{"substrate":"Firm/Hard Bottom","lease_number":null,"poll_year":2024}},{"type":"Feature","id":"9fc2014d-f7ea-4caf-b3b4-f78a29248198","geometry":{"type":"Point","coordinates":[-94.9075267674364,29.496211950339276]},"properties":{"substrate":"Solid Reef","lease_number":null,"poll_year":2024}},{"type":"Feature","id":"9fede642-ca33-4f7f-a533-4aa97201cc6d","geometry":{"type":"Point","coordinates":[-94.90512028319817,29.493870299983055]},"properties":{"substrate":"Solid Reef","lease_number":null,"poll_year":2024}},{"type":"Feature","id":"a1552c77-ac80-4dfb-873b-55f3a296de83","geometry":{"type":"Point","coordinates":[-94.90088364955352,29.494954633122113]},"properties":{"substrate":"Buried Shell","lease_number":null,"poll_year":2024}},{"type":"Feature","id":"a198fab5-6c4e-4f5f-bba2-9ca32b1be200","geometry":{"type":"Point","coordinates":[-94.90234418444135,29.49627221630448]},"properties":{"substrate":"Solid Reef","lease_number":null,"poll_year":2024}},{"type":"Feature","id":"a41b132a-b2b6-4dc1-b89b-8595302180a3","geometry":{"type":"Point","coordinates":[-94.90600996657072,29.496002182623084]},"properties":{"substrate":"Solid Reef","lease_number":null,"poll_year":2024}},{"type":"Feature","id":"a4991e78-2958-448b-8b7b-d095ed0ced6c","geometry":{"type":"Point","coordinates":[-94.90065076670601,29.495338267303236]},"properties":{"substrate":"Solid Reef","lease_number":null,"poll_year":2024}},{"type":"Feature","id":"a4e1e4a7-f736-4e8e-a977-1fb61ae2a5d1","geometry":{"type":"Point","coordinates":[-94.9028990163002,29.494687033094294]},"properties":{"substrate":"Solid Reef","lease_number":null,"poll_year":2024}},{"type":"Feature","id":"a760eb49-14f0-4efa-8702-748f804bfcee","geometry":{"type":"Point","coordinates":[-94.90311471707125,29.495457499956267]},"properties":{"substrate":"Solid Reef","lease_number":null,"poll_year":2024}},{"type":"Feature","id":"a7ae9f02-c1e4-4140-9858-b21c36bcba99","geometry":{"type":"Point","coordinates":[-94.90608576641439,29.495317034301262]},"properties":{"substrate":"Solid Reef","lease_number":null,"poll_year":2024}},{"type":"Feature","id":"a94f3c2c-f129-41c6-accb-bce413b32f60","geometry":{"type":"Point","coordinates":[-94.90189803256224,29.494212966797974]},"properties":{"substrate":"Firm/Hard Bottom","lease_number":null,"poll_year":2024}},{"type":"Feature","id":"a9e9a0c9-deb1-4f60-8a25-fe6b16df96e8","geometry":{"type":"Point","coordinates":[-94.90717884992684,29.496283767055537]},"properties":{"substrate":"Solid Reef","lease_number":null,"poll_year":2024}},{"type":"Feature","id":"aa5f31be-127b-47bf-9ff4-b519ad65458c","geometry":{"type":"Point","coordinates":[-94.90432863297256,29.494215750356577]},"properties":{"substrate":"Solid Reef","lease_number":null,"poll_year":2024}},{"type":"Feature","id":"aaa60e20-5742-4077-990d-5c5c6ba01b0f","geometry":{"type":"Point","coordinates":[-94.90464819965175,29.49503050014957]},"properties":{"substrate":"Solid Reef","lease_number":null,"poll_year":2024}},{"type":"Feature","id":"ad763c5d-25f1-4a9a-97d3-3b9cd940272d","geometry":{"type":"Point","coordinates":[-94.90514101631491,29.496545483123697]},"properties":{"substrate":"Solid Reef","lease_number":null,"poll_year":2024}},{"type":"Feature","id":"af0e42cc-c991-4fa2-ad21-3eacb0fbf472","geometry":{"type":"Point","coordinates":[-94.90195394999373,29.49511326731331]},"properties":{"substrate":"Solid Reef","lease_number":null,"poll_year":2024}},{"type":"Feature","id":"af33398f-4712-45ae-a1a2-cef2e9079809","geometry":{"type":"Point","coordinates":[-94.90218429959214,29.495483532943563]},"properties":{"substrate":"Solid Reef","lease_number":null,"poll_year":2024}},{"type":"Feature","id":"af4c3744-8574-4fb4-98b5-b1d6b9a0b041","geometry":{"type":"Point","coordinates":[-94.900784466563,29.495330800255264]},"properties":{"substrate":"Solid Reef","lease_number":null,"poll_year":2024}},{"type":"Feature","id":"b092e699-7c67-4231-b7af-1c1e036e7e85","geometry":{"type":"Point","coordinates":[-94.90425341703383,29.494966584352444]},"properties":{"substrate":"Solid Reef","lease_number":null,"poll_year":2024}},{"type":"Feature","id":"b1357ce6-1ef8-4f3b-8b79-20ecd27afb95","geometry":{"type":"Point","coordinates":[-94.90345508334252,29.495452050190504]},"properties":{"substrate":"Solid Reef","lease_number":null,"poll_year":2024}},{"type":"Feature","id":"b1740380-351f-43cc-bd72-590bd0d09929","geometry":{"type":"Point","coordinates":[-94.90157934982531,29.494849800012304]},"properties":{"substrate":"Solid Reef","lease_number":null,"poll_year":2024}},{"type":"Feature","id":"b425ade6-a070-4c86-89dd-b4e953531aa4","geometry":{"type":"Point","coordinates":[-94.90159216698778,29.494261183339376]},"properties":{"substrate":"Firm/Hard Bottom","lease_number":null,"poll_year":2024}},{"type":"Feature","id":"b5f396fd-c9cd-45ef-b51b-911becc18dac","geometry":{"type":"Point","coordinates":[-94.90143444977335,29.49486815027115]},"properties":{"substrate":"Solid Reef","lease_number":null,"poll_year":2024}},{"type":"Feature","id":"b63d686a-6bbf-48af-93a7-5675bc2db251","geometry":{"type":"Point","coordinates":[-94.90622450043024,29.495991100188952]},"properties":{"substrate":"Solid Reef","lease_number":null,"poll_year":2024}},{"type":"Feature","id":"b65b7060-ef7a-4d5d-807c-0707e8a6153a","geometry":{"type":"Point","coordinates":[-94.90412948366061,29.494206933668977]},"properties":{"substrate":"Solid Reef","lease_number":null,"poll_year":2024}},{"type":"Feature","id":"b7218dcc-beb3-4054-b563-adf2d43c84e6","geometry":{"type":"Point","coordinates":[-94.90461444994652,29.49658010009475]},"properties":{"substrate":"Solid Reef","lease_number":null,"poll_year":2024}},{"type":"Feature","id":"b8388312-e47f-43eb-8880-e4bb52a16f95","geometry":{"type":"Point","coordinates":[-94.90140244998629,29.496568866820912]},"properties":{"substrate":"Buried Shell","lease_number":null,"poll_year":2024}},{"type":"Feature","id":"b8d223d4-8bfd-4f08-a66d-3c2e688e707d","geometry":{"type":"Point","coordinates":[-94.90078538374291,29.494386283052915]},"properties":{"substrate":"Firm/Hard Bottom","lease_number":null,"poll_year":2024}},{"type":"Feature","id":"b8f078c2-1d52-4e62-a52b-ab1c1bb72d6c","geometry":{"type":"Point","coordinates":[-94.90016804980156,29.495378683179574]},"properties":{"substrate":"Solid Reef","lease_number":null,"poll_year":2024}},{"type":"Feature","id":"bab0834c-740e-4b22-abbe-398011958a0a","geometry":{"type":"Point","coordinates":[-94.9004165498603,29.49443461679628]},"properties":{"substrate":"Solid Reef","lease_number":null,"poll_year":2024}},{"type":"Feature","id":"bb869f8c-b5d8-46d3-86e7-2a86d9c290f2","geometry":{"type":"Point","coordinates":[-94.90587441708256,29.495296649645617]},"properties":{"substrate":"Solid Reef","lease_number":null,"poll_year":2024}},{"type":"Feature","id":"bc7e0946-7cab-482e-ba4f-41d92e6d7036","geometry":{"type":"Point","coordinates":[-94.90621786637188,29.49639761690436]},"properties":{"substrate":"Solid Reef","lease_number":null,"poll_year":2024}},{"type":"Feature","id":"bd753fa6-2c5c-4b1c-abfb-9a5db824e3db","geometry":{"type":"Point","coordinates":[-94.90374329971658,29.494652633624998]},"properties":{"substrate":"Solid Reef","lease_number":null,"poll_year":2024}},{"type":"Feature","id":"bd8b58f7-0282-4839-9370-f2c36531ffd1","geometry":{"type":"Point","coordinates":[-94.90517131559113,29.49601241671129]},"properties":{"substrate":"Solid Reef","lease_number":null,"poll_year":2024}},{"type":"Feature","id":"be1f5669-bb9f-4e36-80c6-5910af764620","geometry":{"type":"Point","coordinates":[-94.90549723335937,29.49533613430781]},"properties":{"substrate":"Solid Reef","lease_number":null,"poll_year":2024}},{"type":"Feature","id":"beb368a3-12bc-4beb-9272-3bdb62993b20","geometry":{"type":"Point","coordinates":[-94.90112473312125,29.49460348368672]},"properties":{"substrate":"Firm/Hard Bottom","lease_number":null,"poll_year":2024}},{"type":"Feature","id":"bec6ff78-170d-42bd-ae10-83312f309a00","geometry":{"type":"Point","coordinates":[-94.90092406655478,29.494367233690575]},"properties":{"substrate":"Firm/Hard Bottom","lease_number":null,"poll_year":2024}},{"type":"Feature","id":"bf6c9c56-2947-4454-8cd0-a0a003ef5508","geometry":{"type":"Point","coordinates":[-94.90062534977335,29.495011716751783]},"properties":{"substrate":"Buried Shell","lease_number":null,"poll_year":2024}},{"type":"Feature","id":"c0dc139f-e3c6-47d4-a2cd-223635705085","geometry":{"type":"Point","coordinates":[-94.90261623293695,29.495376683106205]},"properties":{"substrate":"Solid Reef","lease_number":null,"poll_year":2024}},{"type":"Feature","id":"c123cb17-0489-4738-9426-f1ade5ad76cb","geometry":{"type":"Point","coordinates":[-94.9036551336647,29.493988534313647]},"properties":{"substrate":"Firm/Hard Bottom","lease_number":null,"poll_year":2024}},{"type":"Feature","id":"c14e7d1f-e561-4e37-ac6b-4d6f7bbbec8e","geometry":{"type":"Point","coordinates":[-94.90333103318831,29.494003983097244]},"properties":{"substrate":"Firm/Hard Bottom","lease_number":null,"poll_year":2024}},{"type":"Feature","id":"c214a6c3-ff89-40c2-8fc8-d5dc451745be","geometry":{"type":"Point","coordinates":[-94.90254678328402,29.494145349757023]},"properties":{"substrate":"Firm/Hard Bottom","lease_number":null,"poll_year":2024}},{"type":"Feature","id":"c303b1a6-0ca8-469b-8efe-5f50eca947ac","geometry":{"type":"Point","coordinates":[-94.90001098386571,29.48586487430216]},"properties":{"substrate":"Scattered Shell","lease_number":null,"poll_year":2024}},{"type":"Feature","id":"c3746f9f-8bd8-4961-a5bb-42138494cd07","geometry":{"type":"Point","coordinates":[-94.90034615787462,29.48058005428967]},"properties":{"substrate":"Scattered Shell","lease_number":null,"poll_year":2024}},{"type":"Feature","id":"c41c1bd5-4b57-49f5-a514-725644af90b5","geometry":{"type":"Point","coordinates":[-94.904666999594,29.49538581635728]},"properties":{"substrate":"Solid Reef","lease_number":null,"poll_year":2024}},{"type":"Feature","id":"c43795e6-97b2-4268-bc0e-38d53d21ea95","geometry":{"type":"Point","coordinates":[-94.90452344970993,29.49604115018466]},"properties":{"substrate":"Solid Reef","lease_number":null,"poll_year":2024}},{"type":"Feature","id":"c5901130-5db9-49b5-8c7e-467dc6cf5f08","geometry":{"type":"Point","coordinates":[-94.89991886702322,29.494420732654035]},"properties":{"substrate":"Firm/Hard Bottom","lease_number":null,"poll_year":2024}},{"type":"Feature","id":"c6b2c944-f233-4519-94b3-b13665da4d9a","geometry":{"type":"Point","coordinates":[-94.9039283167325,29.494240349661595]},"properties":{"substrate":"Solid Reef","lease_number":null,"poll_year":2024}},{"type":"Feature","id":"c83b30a6-185a-4d2c-8773-18a47013ba09","geometry":{"type":"Point","coordinates":[-94.89994163123083,29.480695096354356]},"properties":{"substrate":"Firm/Hard Bottom","lease_number":null,"poll_year":2024}},{"type":"Feature","id":"ca55f29a-f429-4f4b-bfde-0b7f5e0b2139","geometry":{"type":"Point","coordinates":[-94.9010691166254,29.49491275024511]},"properties":{"substrate":"Buried Shell","lease_number":null,"poll_year":2024}},{"type":"Feature","id":"cacc77b4-bb90-4778-8183-72b147766463","geometry":{"type":"Point","coordinates":[-94.90455216705291,29.495387815648574]},"properties":{"substrate":"Solid Reef","lease_number":null,"poll_year":2024}},{"type":"Feature","id":"cc6da308-8e4b-4ce1-be8a-22f5f08d90ce","geometry":{"type":"Point","coordinates":[-94.90504023342488,29.49508161633844]},"properties":{"substrate":"Solid Reef","lease_number":null,"poll_year":2024}},{"type":"Feature","id":"ccf2c3ab-2d73-48e2-926d-0e3f989ea715","geometry":{"type":"Point","coordinates":[-94.90062370585638,29.48047507336515]},"properties":{"substrate":"Firm/Hard Bottom","lease_number":null,"poll_year":2024}},{"type":"Feature","id":"cda62093-37ed-4280-8be3-fa81c092c5fe","geometry":{"type":"Point","coordinates":[-94.90183008309583,29.49550783325929]},"properties":{"substrate":"Firm/Hard Bottom","lease_number":null,"poll_year":2024}},{"type":"Feature","id":"ce6a2344-e447-4d7d-8dc3-59fd9be04eea","geometry":{"type":"Point","coordinates":[-94.90082230000951,29.49463941568739]},"properties":{"substrate":"Buried Shell","lease_number":null,"poll_year":2024}},{"type":"Feature","id":"d055c8b8-2cf9-4853-abf0-35c6fd50aade","geometry":{"type":"Point","coordinates":[-94.90050189969374,29.495742065673156]},"properties":{"substrate":"Solid Reef","lease_number":null,"poll_year":2024}},{"type":"Feature","id":"d0e67318-d409-41ac-b6bc-bfe5d9fc528f","geometry":{"type":"Point","coordinates":[-94.9027039336615,29.495379583134415]},"properties":{"substrate":"Solid Reef","lease_number":null,"poll_year":2024}},{"type":"Feature","id":"d161c570-9c3c-483a-b682-2acc1bcb860a","geometry":{"type":"Point","coordinates":[-94.90171853299879,29.495165366297613]},"properties":{"substrate":"Solid Reef","lease_number":null,"poll_year":2024}},{"type":"Feature","id":"d181630b-dd6d-4317-8c40-724b7506ceb2","geometry":{"type":"Point","coordinates":[-94.90202495013884,29.495510149994917]},"properties":{"substrate":"Solid Reef","lease_number":null,"poll_year":2024}},{"type":"Feature","id":"d2147056-57f8-4f90-9765-34dd64d8f846","geometry":{"type":"Point","coordinates":[-94.90520773329276,29.495076866345723]},"properties":{"substrate":"Solid Reef","lease_number":null,"poll_year":2024}},{"type":"Feature","id":"d291ea68-f073-4b88-928f-5b1059e7104b","geometry":{"type":"Point","coordinates":[-94.9062081169561,29.494356815690292]},"properties":{"substrate":"Solid Reef","lease_number":null,"poll_year":2024}},{"type":"Feature","id":"d372b0fd-6d32-4a28-b953-51e11c7f3a26","geometry":{"type":"Point","coordinates":[-94.90195736628675,29.49642540028258]},"properties":{"substrate":"Solid Reef","lease_number":null,"poll_year":2024}},{"type":"Feature","id":"d43f51ff-92e6-427e-b9f9-5c63635ff38c","geometry":{"type":"Point","coordinates":[-94.90322103358345,29.49495131633292]},"properties":{"substrate":"Solid Reef","lease_number":null,"poll_year":2024}},{"type":"Feature","id":"d5c66507-3074-4be6-95c9-5ba0f6149452","geometry":{"type":"Point","coordinates":[-94.90572299975321,29.494177700041956]},"properties":{"substrate":"Solid Reef","lease_number":null,"poll_year":2024}},{"type":"Feature","id":"d6405da1-974d-4b5c-ac0e-367e847973fb","geometry":{"type":"Point","coordinates":[-94.90370834986216,29.49618529985138]},"properties":{"substrate":"Solid Reef","lease_number":null,"poll_year":2024}},{"type":"Feature","id":"d889876d-f7d9-4077-817b-514c714a0ca1","geometry":{"type":"Point","coordinates":[-94.90424546694358,29.49390623302567]},"properties":{"substrate":"Firm/Hard Bottom","lease_number":null,"poll_year":2024}},{"type":"Feature","id":"d8bac66e-42aa-4905-abc7-bf1e2f026115","geometry":{"type":"Point","coordinates":[-94.89999136555821,29.495068033313288]},"properties":{"substrate":"Firm/Hard Bottom","lease_number":null,"poll_year":2024}},{"type":"Feature","id":"db056097-a776-4719-b97e-18ff8a624b87","geometry":{"type":"Point","coordinates":[-94.90058048341648,29.494430465706138]},"properties":{"substrate":"Firm/Hard Bottom","lease_number":null,"poll_year":2024}},{"type":"Feature","id":"db67da5e-1e83-460b-9f24-0c2a142a953d","geometry":{"type":"Point","coordinates":[-94.90154415023922,29.49654079965944]},"properties":{"substrate":"Solid Reef","lease_number":null,"poll_year":2024}},{"type":"Feature","id":"dce1f80a-975b-45fd-98eb-731c78aea983","geometry":{"type":"Point","coordinates":[-94.90578433312756,29.493958416294188]},"properties":{"substrate":"Solid Reef","lease_number":null,"poll_year":2024}},{"type":"Feature","id":"ddacbd16-0991-41b4-8e11-7bf1f1821148","geometry":{"type":"Point","coordinates":[-94.90542745043147,29.49504865021131]},"properties":{"substrate":"Solid Reef","lease_number":null,"poll_year":2024}},{"type":"Feature","id":"de2bd210-b0c2-4563-93d0-c153cc8026f1","geometry":{"type":"Point","coordinates":[-94.90405789961055,29.494628516849456]},"properties":{"substrate":"Solid Reef","lease_number":null,"poll_year":2024}},{"type":"Feature","id":"de5e1f89-1d21-49e4-8ee2-b36234d06311","geometry":{"type":"Point","coordinates":[-94.9042014000873,29.49462193329089]},"properties":{"substrate":"Solid Reef","lease_number":null,"poll_year":2024}},{"type":"Feature","id":"e00e3f95-b5f6-489b-b313-be424349af82","geometry":{"type":"Point","coordinates":[-94.9037980664062,29.496734383711]},"properties":{"substrate":"Solid Reef","lease_number":null,"poll_year":2024}},{"type":"Feature","id":"e2db017a-8737-4b30-a29b-473262a10d6c","geometry":{"type":"Point","coordinates":[-94.90298723355603,29.494064017370096]},"properties":{"substrate":"Firm/Hard Bottom","lease_number":null,"poll_year":2024}},{"type":"Feature","id":"e2ec67e2-6f74-41fe-8cb2-16a10eaaf148","geometry":{"type":"Point","coordinates":[-94.90027038138716,29.48041506075645]},"properties":{"substrate":"Firm/Hard Bottom","lease_number":null,"poll_year":2024}},{"type":"Feature","id":"e335d377-0fb6-426b-8ec5-41877b29300d","geometry":{"type":"Point","coordinates":[-94.90116539985416,29.49660745026135]},"properties":{"substrate":"Buried Shell","lease_number":null,"poll_year":2024}},{"type":"Feature","id":"e393dea1-2bec-4151-8d6c-42ff4c005bdd","geometry":{"type":"Point","coordinates":[-94.904894433261,29.494604166281494]},"properties":{"substrate":"Solid Reef","lease_number":null,"poll_year":2024}},{"type":"Feature","id":"e51f24ba-bc5a-4aa6-bd87-2146d3261d12","geometry":{"type":"Point","coordinates":[-94.90036383671942,29.48053864718477]},"properties":{"substrate":"Buried Shell","lease_number":null,"poll_year":2024}},{"type":"Feature","id":"e5430b7f-6a17-48e5-8281-713786b6e380","geometry":{"type":"Point","coordinates":[-94.90406661686207,29.496710117310336]},"properties":{"substrate":"Solid Reef","lease_number":null,"poll_year":2024}},{"type":"Feature","id":"e679faa3-04e6-49dd-a2b1-c573d77b572e","geometry":{"type":"Point","coordinates":[-94.90395906696301,29.493947766809278]},"properties":{"substrate":"Firm/Hard Bottom","lease_number":null,"poll_year":2024}},{"type":"Feature","id":"e7ffc55a-1975-4e96-9c9f-9fb05826edb3","geometry":{"type":"Point","coordinates":[-94.90562396678135,29.496542566709394]},"properties":{"substrate":"Solid Reef","lease_number":null,"poll_year":2024}},{"type":"Feature","id":"eacb8942-7ef2-405e-bda0-ca5d4538c951","geometry":{"type":"Point","coordinates":[-94.90319396644563,29.496813866374968]},"properties":{"substrate":"Solid Reef","lease_number":null,"poll_year":2024}},{"type":"Feature","id":"ebffab16-5fd8-4915-ac57-caf275dd65d6","geometry":{"type":"Point","coordinates":[-94.90082701706305,29.496669283659735]},"properties":{"substrate":"Firm/Hard Bottom","lease_number":null,"poll_year":2024}},{"type":"Feature","id":"ec3d780b-2450-4edb-ba88-88abfafad2b5","geometry":{"type":"Point","coordinates":[-94.90056953295318,29.494625932685494]},"properties":{"substrate":"Buried Shell","lease_number":null,"poll_year":2024}},{"type":"Feature","id":"ec54fd1a-7880-460f-b94a-8d5c931c6cd9","geometry":{"type":"Point","coordinates":[-94.9052935170125,29.494272784361215]},"properties":{"substrate":"Solid Reef","lease_number":null,"poll_year":2024}},{"type":"Feature","id":"ed96d146-1861-48d5-9c00-dfcf556298ba","geometry":{"type":"Point","coordinates":[-94.90570795027726,29.495306100351232]},"properties":{"substrate":"Solid Reef","lease_number":null,"poll_year":2024}},{"type":"Feature","id":"f18633ae-257f-4aff-9483-c030b7557772","geometry":{"type":"Point","coordinates":[-94.90583273255841,29.494557633325122]},"properties":{"substrate":"Solid Reef","lease_number":null,"poll_year":2024}},{"type":"Feature","id":"f1e62730-c4fd-40fe-958b-660fa750c3eb","geometry":{"type":"Point","coordinates":[-94.90035376660508,29.49535741734674]},"properties":{"substrate":"Solid Reef","lease_number":null,"poll_year":2024}},{"type":"Feature","id":"f3b6dbf2-291e-43f8-b687-61cbd616be18","geometry":{"type":"Point","coordinates":[-94.90004496623459,29.495388734368643]},"properties":{"substrate":"Buried Shell","lease_number":null,"poll_year":2024}},{"type":"Feature","id":"f55ac147-806d-4f70-8e68-b67c470b1893","geometry":{"type":"Point","coordinates":[-94.90602524960865,29.496443816715857]},"properties":{"substrate":"Solid Reef","lease_number":null,"poll_year":2024}},{"type":"Feature","id":"f5b2e1f5-5dea-4b80-8991-0ffdefa48367","geometry":{"type":"Point","coordinates":[-94.90421555034968,29.495398482965484]},"properties":{"substrate":"Solid Reef","lease_number":null,"poll_year":2024}},{"type":"Feature","id":"f7839c90-9806-4fb2-bbde-1d5d421357c9","geometry":{"type":"Point","coordinates":[-94.90014785028407,29.496774115668227]},"properties":{"substrate":"Solid Reef","lease_number":null,"poll_year":2024}},{"type":"Feature","id":"f8eff2fd-e106-4c54-86fe-b98e31593eb5","geometry":{"type":"Point","coordinates":[-94.90034454989028,29.4967419843568]},"properties":{"substrate":"Solid Reef","lease_number":null,"poll_year":2024}},{"type":"Feature","id":"fa113531-112e-4342-90a0-90e06838025c","geometry":{"type":"Point","coordinates":[-94.90183504988104,29.496476299968354]},"properties":{"substrate":"Solid Reef","lease_number":null,"poll_year":2024}},{"type":"Feature","id":"fa74de99-53f3-47ef-8ee3-d1a163a5b100","geometry":{"type":"Point","coordinates":[-94.90547065041349,29.49392406661907]},"properties":{"substrate":"Solid Reef","lease_number":null,"poll_year":2024}},{"type":"Feature","id":"fbbb53df-9b5e-47a6-bfc1-6c31a2a42cee","geometry":{"type":"Point","coordinates":[-94.90493438313833,29.496011267340908]},"properties":{"substrate":"Solid Reef","lease_number":null,"poll_year":2024}},{"type":"Feature","id":"fbd74f39-f40e-4b29-a0a5-329ac4e9a330","geometry":{"type":"Point","coordinates":[-94.9052568001719,29.49459326665792]},"properties":{"substrate":"Solid Reef","lease_number":null,"poll_year":2024}},{"type":"Feature","id":"fbf79bf4-560f-4549-bf1b-80d937787056","geometry":{"type":"Point","coordinates":[-94.90299260009154,29.495451499740692]},"properties":{"substrate":"Solid Reef","lease_number":null,"poll_year":2024}},{"type":"Feature","id":"fe7c28bc-13b4-450a-b01e-21a45c3a0d72","geometry":{"type":"Point","coordinates":[-94.90219361691827,29.49477511663726]},"properties":{"substrate":"Solid Reef","lease_number":null,"poll_year":2024}}]}