{"type":"FeatureCollection","features":[{"type":"Feature","id":"01545913-4446-4b5f-a1fa-d6c03cea48cb","geometry":{"type":"Point","coordinates":[-94.90369646694758,29.498404282949547]},"properties":{"substrate":"Solid Reef","lease_number":null,"poll_year":2024}},{"type":"Feature","id":"023de1c9-e2e1-4ee3-85f7-fbfecc08de03","geometry":{"type":"Point","coordinates":[-94.90442238295225,29.50108886686752]},"properties":{"substrate":"Solid Reef","lease_number":null,"poll_year":2024}},{"type":"Feature","id":"02a1b26d-ef2b-4cff-9174-0ea2a07a2fd3","geometry":{"type":"Point","coordinates":[-94.90480414988001,29.50027159977283]},"properties":{"substrate":"Solid Reef","lease_number":null,"poll_year":2024}},{"type":"Feature","id":"02cd9ec3-cb04-4fdc-a48b-879b97f948c1","geometry":{"type":"Point","coordinates":[-94.90541916706624,29.498382866851717]},"properties":{"substrate":"Solid Reef","lease_number":null,"poll_year":2024}},{"type":"Feature","id":"030d56c4-29a8-4379-acaf-e183c38c8795","geometry":{"type":"Point","coordinates":[-94.90492789999693,29.500243434342302]},"properties":{"substrate":"Solid Reef","lease_number":null,"poll_year":2024}},{"type":"Feature","id":"04b2c8da-c9c6-475f-8869-82bb5f38765d","geometry":{"type":"Point","coordinates":[-94.90114553361167,29.500915165685846]},"properties":{"substrate":"Solid Reef","lease_number":null,"poll_year":2024}},{"type":"Feature","id":"051097b7-05a9-4903-bb3f-bf8f31c588c2","geometry":{"type":"Point","coordinates":[-94.90106551707606,29.501887299897156]},"properties":{"substrate":"Solid Reef","lease_number":null,"poll_year":2024}},{"type":"Feature","id":"0749a4d6-f557-4a6f-9c54-8286a2952bdf","geometry":{"type":"Point","coordinates":[-94.90453753259862,29.50104743296112]},"properties":{"substrate":"Solid Reef","lease_number":null,"poll_year":2024}},{"type":"Feature","id":"09846545-3995-4d42-a674-b712fede4bea","geometry":{"type":"Point","coordinates":[-94.9000150325727,29.498933966947668]},"properties":{"substrate":"Solid Reef","lease_number":null,"poll_year":2024}},{"type":"Feature","id":"0a602096-1b3a-4096-9ae0-83fb32b1a2a1","geometry":{"type":"Point","coordinates":[-94.9154526642736,29.500054433967907]},"properties":{"substrate":"Firm/Hard Bottom","lease_number":null,"poll_year":2024}},{"type":"Feature","id":"0b816e3f-bbbd-4ca2-b4a3-6dfcecb84bb7","geometry":{"type":"Point","coordinates":[-94.90602983371154,29.498304666898903]},"properties":{"substrate":"Solid Reef","lease_number":null,"poll_year":2024}},{"type":"Feature","id":"0c0c69a6-1948-4084-9746-59163a9eeb44","geometry":{"type":"Point","coordinates":[-94.90105935014164,29.499287700269882]},"properties":{"substrate":"Solid Reef","lease_number":null,"poll_year":2024}},{"type":"Feature","id":"0c4b783b-e1c1-4ea2-a5f2-d63e30caf1fb","geometry":{"type":"Point","coordinates":[-94.90167224999873,29.50077754961693]},"properties":{"substrate":"Solid Reef","lease_number":null,"poll_year":2024}},{"type":"Feature","id":"0d909385-fbdc-4471-9779-fabb4770970c","geometry":{"type":"Point","coordinates":[-94.9017388169579,29.500393116659094]},"properties":{"substrate":"Solid Reef","lease_number":null,"poll_year":2024}},{"type":"Feature","id":"0dc4e72c-a517-44ab-98d1-e8ea03919ef4","geometry":{"type":"Point","coordinates":[-94.90123318313226,29.50186311682431]},"properties":{"substrate":"Solid Reef","lease_number":null,"poll_year":2024}},{"type":"Feature","id":"0f7908d7-2479-4dd9-a92f-33db0e1ef1ff","geometry":{"type":"Point","coordinates":[-94.9137369674209,29.501513203196694]},"properties":{"substrate":"Solid Reef","lease_number":null,"poll_year":2024}},{"type":"Feature","id":"0fbd6b2a-ef7e-4642-b0f8-528ee856c00f","geometry":{"type":"Point","coordinates":[-94.9030772330694,29.500179449904472]},"properties":{"substrate":"Solid Reef","lease_number":null,"poll_year":2024}},{"type":"Feature","id":"0fbd8909-0904-4f55-b35f-8eb312795d00","geometry":{"type":"Point","coordinates":[-94.90581428295911,29.497939800228153]},"properties":{"substrate":"Solid Reef","lease_number":null,"poll_year":2024}},{"type":"Feature","id":"111e4f7a-d905-42cf-b096-91474a115d05","geometry":{"type":"Point","coordinates":[-94.90517143327044,29.4995118497076]},"properties":{"substrate":"Solid Reef","lease_number":null,"poll_year":2024}},{"type":"Feature","id":"16207b24-a314-4228-b0af-0475c3275aa1","geometry":{"type":"Point","coordinates":[-94.90571811740963,29.498372232687483]},"properties":{"substrate":"Solid Reef","lease_number":null,"poll_year":2024}},{"type":"Feature","id":"167967f7-b5f5-403e-b7eb-0cf7631980d0","geometry":{"type":"Point","coordinates":[-94.90049393343382,29.499410416925667]},"properties":{"substrate":"Solid Reef","lease_number":null,"poll_year":2024}},{"type":"Feature","id":"16ca7fa1-5192-452e-9aaf-0f8cd2bb1127","geometry":{"type":"Point","coordinates":[-94.90307123322162,29.50054070027027]},"properties":{"substrate":"Solid Reef","lease_number":null,"poll_year":2024}},{"type":"Feature","id":"188ad969-6a26-4c6f-aad5-25c65a7dcd6f","geometry":{"type":"Point","coordinates":[-94.90415075666486,29.50245325689584]},"properties":{"substrate":"Solid Reef","lease_number":null,"poll_year":2024}},{"type":"Feature","id":"19d39df5-482e-48c3-b264-985cffbee98d","geometry":{"type":"Point","coordinates":[-94.90636514965428,29.49999291694152]},"properties":{"substrate":"Solid Reef","lease_number":null,"poll_year":2024}},{"type":"Feature","id":"1f76bb67-1cab-441a-b3ed-a773539bd21f","geometry":{"type":"Point","coordinates":[-94.915616703831,29.50002788378652]},"properties":{"substrate":"Firm/Hard Bottom","lease_number":null,"poll_year":2024}},{"type":"Feature","id":"204e2908-a1bc-40f9-8fc5-1cb3a22f8a49","geometry":{"type":"Point","coordinates":[-94.90590886657539,29.49988645027919]},"properties":{"substrate":"Solid Reef","lease_number":null,"poll_year":2024}},{"type":"Feature","id":"20e239b3-95d3-4f67-ad48-1d7e741b162b","geometry":{"type":"Point","coordinates":[-94.90258639988636,29.498577883668105]},"properties":{"substrate":"Solid Reef","lease_number":null,"poll_year":2024}},{"type":"Feature","id":"21571daa-47c0-40ce-88f9-185363284347","geometry":{"type":"Point","coordinates":[-94.9048625825943,29.49964469973524]},"properties":{"substrate":"Solid Reef","lease_number":null,"poll_year":2024}},{"type":"Feature","id":"22710bbc-336e-4dd3-a9db-299d9b301aec","geometry":{"type":"Point","coordinates":[-94.90436996625542,29.498563884377837]},"properties":{"substrate":"Solid Reef","lease_number":null,"poll_year":2024}},{"type":"Feature","id":"25421d86-60e8-46fc-8f18-0d7faa59a67d","geometry":{"type":"Point","coordinates":[-94.90545699961444,29.4980553667632]},"properties":{"substrate":"Solid Reef","lease_number":null,"poll_year":2024}},{"type":"Feature","id":"26170b92-a0da-4dac-bca7-c8107cfed2d7","geometry":{"type":"Point","coordinates":[-94.90463029982139,29.499747716322275]},"properties":{"substrate":"Solid Reef","lease_number":null,"poll_year":2024}},{"type":"Feature","id":"26e53a0d-5c4b-417c-8b46-0ee9dc689adf","geometry":{"type":"Point","coordinates":[-94.90269261668556,29.501479882642847]},"properties":{"substrate":"Solid Reef","lease_number":null,"poll_year":2024}},{"type":"Feature","id":"26ec95ef-5244-49ef-9801-4a5d497b2bda","geometry":{"type":"Point","coordinates":[-94.90410471710824,29.498629600102348]},"properties":{"substrate":"Solid Reef","lease_number":null,"poll_year":2024}},{"type":"Feature","id":"27a1cbb8-e743-43cc-9d3a-daf8a82e58ee","geometry":{"type":"Point","coordinates":[-94.90146478318556,29.500829783292687]},"properties":{"substrate":"Solid Reef","lease_number":null,"poll_year":2024}},{"type":"Feature","id":"2835f3bf-c521-41cb-ae92-9f3c5203fc94","geometry":{"type":"Point","coordinates":[-94.90399361706713,29.49995731678259]},"properties":{"substrate":"Solid Reef","lease_number":null,"poll_year":2024}},{"type":"Feature","id":"291f7a03-ae96-402c-b33e-a615f9011daa","geometry":{"type":"Point","coordinates":[-94.90146821744487,29.501795866882592]},"properties":{"substrate":"Solid Reef","lease_number":null,"poll_year":2024}},{"type":"Feature","id":"2a391748-fc2b-4c8c-a6e6-04efda7889b9","geometry":{"type":"Point","coordinates":[-94.9012950168682,29.498750416845464]},"properties":{"substrate":"Solid Reef","lease_number":null,"poll_year":2024}},{"type":"Feature","id":"2b7fdd25-3edf-4ae6-bf84-b0a9051ebb7e","geometry":{"type":"Point","coordinates":[-94.9047373170195,29.49969694963245]},"properties":{"substrate":"Solid Reef","lease_number":null,"poll_year":2024}},{"type":"Feature","id":"2b9b1778-72c1-4515-8739-acca268bd2b6","geometry":{"type":"Point","coordinates":[-94.90031346638482,29.50058906704175]},"properties":{"substrate":"Solid Reef","lease_number":null,"poll_year":2024}},{"type":"Feature","id":"2c91a5c1-5ffb-42f0-b224-6e69c8954bcd","geometry":{"type":"Point","coordinates":[-94.90156221625789,29.5004152657077]},"properties":{"substrate":"Solid Reef","lease_number":null,"poll_year":2024}},{"type":"Feature","id":"2d1845b1-5f0b-4b1b-9fcf-85a30f1c8dd4","geometry":{"type":"Point","coordinates":[-94.90362628337105,29.501256917363953]},"properties":{"substrate":"Solid Reef","lease_number":null,"poll_year":2024}},{"type":"Feature","id":"2d44e9eb-372a-4e6f-b50d-748ba22ed51c","geometry":{"type":"Point","coordinates":[-94.90628873356631,29.499718283357463]},"properties":{"substrate":"Solid Reef","lease_number":null,"poll_year":2024}},{"type":"Feature","id":"2e1f3ccc-e738-48da-9f9c-9e732f96b619","geometry":{"type":"Point","coordinates":[-94.90355256672052,29.498416683345848]},"properties":{"substrate":"Solid Reef","lease_number":null,"poll_year":2024}},{"type":"Feature","id":"2e31a146-b26c-4e72-8ae8-a07f0fb7d20c","geometry":{"type":"Point","coordinates":[-94.9053050666521,29.499444416813308]},"properties":{"substrate":"Solid Reef","lease_number":null,"poll_year":2024}},{"type":"Feature","id":"2ecb3e39-baa0-442a-9cbb-a62dc7ac5721","geometry":{"type":"Point","coordinates":[-94.90040646627122,29.497690683716066]},"properties":{"substrate":"Firm/Hard Bottom","lease_number":null,"poll_year":2024}},{"type":"Feature","id":"2eea3138-729b-4987-a86f-caed7db3523a","geometry":{"type":"Point","coordinates":[-94.9026965504082,29.49901491700314]},"properties":{"substrate":"Solid Reef","lease_number":null,"poll_year":2024}},{"type":"Feature","id":"2f301c59-81e5-449c-ab2d-bfb9ec0c2d1b","geometry":{"type":"Point","coordinates":[-94.90120838334221,29.49759658307331]},"properties":{"substrate":"Solid Reef","lease_number":null,"poll_year":2024}},{"type":"Feature","id":"33d6f9fe-eb41-4005-b797-0e31953507a2","geometry":{"type":"Point","coordinates":[-94.90233673291608,29.499139566748532]},"properties":{"substrate":"Solid Reef","lease_number":null,"poll_year":2024}},{"type":"Feature","id":"34e0dd90-26cb-47af-a456-70e478bf6636","geometry":{"type":"Point","coordinates":[-94.90016638342671,29.498892800338442]},"properties":{"substrate":"Solid Reef","lease_number":null,"poll_year":2024}},{"type":"Feature","id":"38563680-c0f7-45e6-bc2f-a65b10d7e081","geometry":{"type":"Point","coordinates":[-94.9031579655623,29.50135568299245]},"properties":{"substrate":"Solid Reef","lease_number":null,"poll_year":2024}},{"type":"Feature","id":"3b22067f-5c11-429b-8532-a3c9e2ab5bae","geometry":{"type":"Point","coordinates":[-94.90682361743593,29.499467666925373]},"properties":{"substrate":"Solid Reef","lease_number":null,"poll_year":2024}},{"type":"Feature","id":"3c745598-2feb-4422-be6b-f21e0bb26516","geometry":{"type":"Point","coordinates":[-94.90082549980853,29.500536533011555]},"properties":{"substrate":"Solid Reef","lease_number":null,"poll_year":2024}},{"type":"Feature","id":"3e5568b0-5731-4a77-8276-27dc26baa703","geometry":{"type":"Point","coordinates":[-94.90679153320725,29.499988016281286]},"properties":{"substrate":"Solid Reef","lease_number":null,"poll_year":2024}},{"type":"Feature","id":"3f1a3a39-0a50-4655-8d26-1cd91db24e0c","geometry":{"type":"Point","coordinates":[-94.90193746680659,29.497391465683787]},"properties":{"substrate":"Solid Reef","lease_number":null,"poll_year":2024}},{"type":"Feature","id":"40646277-1c0e-4417-9aa8-62b5be666e68","geometry":{"type":"Point","coordinates":[-94.90535739980562,29.500115100300924]},"properties":{"substrate":"Solid Reef","lease_number":null,"poll_year":2024}},{"type":"Feature","id":"413a1f7c-e48d-4e94-ab2c-80e429545b56","geometry":{"type":"Point","coordinates":[-94.905609699738,29.500585982646296]},"properties":{"substrate":"Solid Reef","lease_number":null,"poll_year":2024}},{"type":"Feature","id":"41efcaa9-adea-400a-ae4f-8ba0a305fa7a","geometry":{"type":"Point","coordinates":[-94.90495555014137,29.498481583680043]},"properties":{"substrate":"Solid Reef","lease_number":null,"poll_year":2024}},{"type":"Feature","id":"428b6935-e9b1-487e-b2aa-5c6b92910717","geometry":{"type":"Point","coordinates":[-94.9010702332313,29.4976319002425]},"properties":{"substrate":"Firm/Hard Bottom","lease_number":null,"poll_year":2024}},{"type":"Feature","id":"4319eec7-fb2c-41ed-8f8b-f8df1343ce97","geometry":{"type":"Point","coordinates":[-94.90566958323147,29.49997788267218]},"properties":{"substrate":"Solid Reef","lease_number":null,"poll_year":2024}},{"type":"Feature","id":"431f97c1-1d54-419f-b605-9781813952e6","geometry":{"type":"Point","coordinates":[-94.90548413322757,29.500659083183905]},"properties":{"substrate":"Solid Reef","lease_number":null,"poll_year":2024}},{"type":"Feature","id":"433f42e6-da97-46c8-b606-980ad82084c8","geometry":{"type":"Point","coordinates":[-94.90369424990544,29.5000361503244]},"properties":{"substrate":"Solid Reef","lease_number":null,"poll_year":2024}},{"type":"Feature","id":"4355a605-fc53-434f-a1b0-faaeb1c721f7","geometry":{"type":"Point","coordinates":[-94.90074468377234,29.4988372497835]},"properties":{"substrate":"Solid Reef","lease_number":null,"poll_year":2024}},{"type":"Feature","id":"4430cf83-a14c-4aca-9c9a-f1ef5964c541","geometry":{"type":"Point","coordinates":[-94.90351646702251,29.500077816854954]},"properties":{"substrate":"Solid Reef","lease_number":null,"poll_year":2024}},{"type":"Feature","id":"46438b6e-a5c3-41ca-8b7b-bd7070f0dd1c","geometry":{"type":"Point","coordinates":[-94.8999756836683,29.502021916890218]},"properties":{"substrate":"Solid Reef","lease_number":null,"poll_year":2024}},{"type":"Feature","id":"487a8ad5-2498-4794-bbf0-5d447142665a","geometry":{"type":"Point","coordinates":[-94.9006754344437,29.50055391665586]},"properties":{"substrate":"Solid Reef","lease_number":null,"poll_year":2024}},{"type":"Feature","id":"48c1e2eb-a02c-4c86-b642-6633d0288940","geometry":{"type":"Point","coordinates":[-94.90135985007889,29.49752990028363]},"properties":{"substrate":"Solid Reef","lease_number":null,"poll_year":2024}},{"type":"Feature","id":"4a29d1f8-6906-4892-aea9-342c811c9c1c","geometry":{"type":"Point","coordinates":[-94.90474903374576,29.498114633185597]},"properties":{"substrate":"Solid Reef","lease_number":null,"poll_year":2024}},{"type":"Feature","id":"4a7ffd03-cfca-4030-a2dc-608ba9499e45","geometry":{"type":"Point","coordinates":[-94.90341971666979,29.49876921675089]},"properties":{"substrate":"Solid Reef","lease_number":null,"poll_year":2024}},{"type":"Feature","id":"4aa05438-6ac1-4068-aeef-dd99e9c6c95a","geometry":{"type":"Point","coordinates":[-94.90313925006167,29.49847919977198]},"properties":{"substrate":"Solid Reef","lease_number":null,"poll_year":2024}},{"type":"Feature","id":"4bc87151-fd89-4264-88c1-3a1e31cb27f6","geometry":{"type":"Point","coordinates":[-94.90162829992344,29.501728350288587]},"properties":{"substrate":"Solid Reef","lease_number":null,"poll_year":2024}},{"type":"Feature","id":"4d1a4146-0d88-4a21-abb4-6687f7331c48","geometry":{"type":"Point","coordinates":[-94.90618638311611,29.49897351665015]},"properties":{"substrate":"Solid Reef","lease_number":null,"poll_year":2024}},{"type":"Feature","id":"4f7921b7-724d-49d0-aa32-cf822a26f584","geometry":{"type":"Point","coordinates":[-94.90504611559336,29.50020349968267]},"properties":{"substrate":"Solid Reef","lease_number":null,"poll_year":2024}},{"type":"Feature","id":"505777ce-a9ef-431b-91d2-feeab021afee","geometry":{"type":"Point","coordinates":[-94.90661423361794,29.4995682669721]},"properties":{"substrate":"Solid Reef","lease_number":null,"poll_year":2024}},{"type":"Feature","id":"5074039f-bcf9-4aaa-9602-57ba61f2ae4c","geometry":{"type":"Point","coordinates":[-94.90159648339272,29.49748255005009]},"properties":{"substrate":"Solid Reef","lease_number":null,"poll_year":2024}},{"type":"Feature","id":"50d5f6e1-e6d7-456b-a427-e2f060ef7d8c","geometry":{"type":"Point","coordinates":[-94.9061266496413,29.50030229995812]},"properties":{"substrate":"Solid Reef","lease_number":null,"poll_year":2024}},{"type":"Feature","id":"52e41ec6-5381-49b1-b7ec-da3fe07c2d93","geometry":{"type":"Point","coordinates":[-94.90355333298345,29.50845999978158]},"properties":{"substrate":"Mud","lease_number":null,"poll_year":2024}},{"type":"Feature","id":"531d93aa-8917-40f2-8f2f-be222a26435e","geometry":{"type":"Point","coordinates":[-94.90209591704628,29.50160069989478]},"properties":{"substrate":"Solid Reef","lease_number":null,"poll_year":2024}},{"type":"Feature","id":"546126f9-9749-4bb6-9cc8-5299cdb2d76b","geometry":{"type":"Point","coordinates":[-94.90137524989781,29.499227650328606]},"properties":{"substrate":"Solid Reef","lease_number":null,"poll_year":2024}},{"type":"Feature","id":"55958d69-83c5-4a6e-b371-6e5974f66a8b","geometry":{"type":"Point","coordinates":[-94.90512878305738,29.49843111737388]},"properties":{"substrate":"Solid Reef","lease_number":null,"poll_year":2024}},{"type":"Feature","id":"55b332bf-5d94-40fb-85e4-c53e9eef5b93","geometry":{"type":"Point","coordinates":[-94.90284689964066,29.49895589973967]},"properties":{"substrate":"Solid Reef","lease_number":null,"poll_year":2024}},{"type":"Feature","id":"5627cf3f-8ccb-422f-944e-422c1a277b8e","geometry":{"type":"Point","coordinates":[-94.90045172159861,29.505466176195796]},"properties":{"substrate":"Scattered Shell","lease_number":null,"poll_year":2024}},{"type":"Feature","id":"575b0924-fb04-427a-88cf-9edeb93c37e2","geometry":{"type":"Point","coordinates":[-94.90064004980468,29.497659832619696]},"properties":{"substrate":"Firm/Hard Bottom","lease_number":null,"poll_year":2024}},{"type":"Feature","id":"591655a4-0ffb-4c93-ae74-aa072cf9db3f","geometry":{"type":"Point","coordinates":[-94.9034041003569,29.50010468367373]},"properties":{"substrate":"Solid Reef","lease_number":null,"poll_year":2024}},{"type":"Feature","id":"599af455-8512-4400-a401-39d93040265b","geometry":{"type":"Point","coordinates":[-94.90272030006767,29.498546083657853]},"properties":{"substrate":"Solid Reef","lease_number":null,"poll_year":2024}},{"type":"Feature","id":"5a2738d4-6792-46a8-a214-2df8e87ce573","geometry":{"type":"Point","coordinates":[-94.90071924977168,29.500989499739077]},"properties":{"substrate":"Solid Reef","lease_number":null,"poll_year":2024}},{"type":"Feature","id":"5c05866f-d87f-44a4-8de9-974ef443f897","geometry":{"type":"Point","coordinates":[-94.90074323299314,29.501932716929183]},"properties":{"substrate":"Solid Reef","lease_number":null,"poll_year":2024}},{"type":"Feature","id":"5d2f167a-021b-431c-85ce-e78ce6642e50","geometry":{"type":"Point","coordinates":[-94.9025390829254,29.500646716681715]},"properties":{"substrate":"Solid Reef","lease_number":null,"poll_year":2024}},{"type":"Feature","id":"60c9c0d3-8045-4679-abad-550da00fef21","geometry":{"type":"Point","coordinates":[-94.90180231706871,29.50166195011854]},"properties":{"substrate":"Solid Reef","lease_number":null,"poll_year":2024}},{"type":"Feature","id":"616429be-e0c4-4d4a-9ba1-8c8009edfe8d","geometry":{"type":"Point","coordinates":[-94.90529251628928,29.49808878304994]},"properties":{"substrate":"Solid Reef","lease_number":null,"poll_year":2024}},{"type":"Feature","id":"61f345d4-b9a7-478d-a057-69608883eb17","geometry":{"type":"Point","coordinates":[-94.90208653324483,29.498654550174283]},"properties":{"substrate":"Solid Reef","lease_number":null,"poll_year":2024}},{"type":"Feature","id":"64c38153-292e-46e6-a8df-d86c2490674e","geometry":{"type":"Point","coordinates":[-94.9008768834428,29.497649067025037]},"properties":{"substrate":"Firm/Hard Bottom","lease_number":null,"poll_year":2024}},{"type":"Feature","id":"64f9b2c9-b6af-4150-ad5e-249cad61fb5b","geometry":{"type":"Point","coordinates":[-94.90633863318372,29.498927550205607]},"properties":{"substrate":"Solid Reef","lease_number":null,"poll_year":2024}},{"type":"Feature","id":"655692a3-daa8-416c-a634-991fc27bf066","geometry":{"type":"Point","coordinates":[-94.90433983316753,29.498310233009324]},"properties":{"substrate":"Solid Reef","lease_number":null,"poll_year":2024}},{"type":"Feature","id":"68721bd9-33e4-4724-a143-a7a80b61223d","geometry":{"type":"Point","coordinates":[-94.90386528374565,29.500000833211764]},"properties":{"substrate":"Solid Reef","lease_number":null,"poll_year":2024}},{"type":"Feature","id":"6917072c-b337-48cb-9f41-081695d09f34","geometry":{"type":"Point","coordinates":[-94.89998803370683,29.500632483122736]},"properties":{"substrate":"Solid Reef","lease_number":null,"poll_year":2024}},{"type":"Feature","id":"6aebe84f-141f-47ca-9207-e6555f5dcc64","geometry":{"type":"Point","coordinates":[-94.90241728305098,29.501539849937014]},"properties":{"substrate":"Solid Reef","lease_number":null,"poll_year":2024}},{"type":"Feature","id":"6b4af5d4-2975-4d13-9fcf-37f21ac5e78c","geometry":{"type":"Point","coordinates":[-94.90622274961375,29.500217150040214]},"properties":{"substrate":"Solid Reef","lease_number":null,"poll_year":2024}},{"type":"Feature","id":"6b4b606e-c753-47cc-8b32-1dfcafab8f62","geometry":{"type":"Point","coordinates":[-94.90575553313954,29.500502316918144]},"properties":{"substrate":"Solid Reef","lease_number":null,"poll_year":2024}},{"type":"Feature","id":"6c4b7a0b-1249-4b37-9c65-2b491302f9b9","geometry":{"type":"Point","coordinates":[-94.90347128356035,29.50128071669616]},"properties":{"substrate":"Solid Reef","lease_number":null,"poll_year":2024}},{"type":"Feature","id":"6cb12816-7c30-4f0c-ac54-bd03d5eec461","geometry":{"type":"Point","coordinates":[-94.90230528289798,29.500319016723445]},"properties":{"substrate":"Solid Reef","lease_number":null,"poll_year":2024}},{"type":"Feature","id":"6cd6300d-6128-4d8d-9eb6-02c4a7d304c6","geometry":{"type":"Point","coordinates":[-94.90400256338907,29.50347266281365]},"properties":{"substrate":"Solid Reef","lease_number":null,"poll_year":2024}},{"type":"Feature","id":"6ce2c6e8-94a8-473b-8722-51f5df7efb1a","geometry":{"type":"Point","coordinates":[-94.90009016676476,29.499499766879627]},"properties":{"substrate":"Solid Reef","lease_number":null,"poll_year":2024}},{"type":"Feature","id":"6ce63f87-9931-4575-a577-ee82e96745f9","geometry":{"type":"Point","coordinates":[-94.90094506557287,29.499328750221668]},"properties":{"substrate":"Solid Reef","lease_number":null,"poll_year":2024}},{"type":"Feature","id":"6d3e48de-cce8-454b-b729-98cb30079195","geometry":{"type":"Point","coordinates":[-94.90252591631827,29.49909186699392]},"properties":{"substrate":"Solid Reef","lease_number":null,"poll_year":2024}},{"type":"Feature","id":"6f005bf7-659f-4c9f-b951-c5dd15ca44f4","geometry":{"type":"Point","coordinates":[-94.90408096026222,29.50246856522167]},"properties":{"substrate":"Solid Reef","lease_number":null,"poll_year":2024}},{"type":"Feature","id":"6f4e7195-6899-4d93-8a07-bcfe032222a7","geometry":{"type":"Point","coordinates":[-94.90417434642421,29.50198868172419]},"properties":{"substrate":"Solid Reef","lease_number":null,"poll_year":2024}},{"type":"Feature","id":"70fb61fa-eb13-4796-81b5-e1b69fd1d2b9","geometry":{"type":"Point","coordinates":[-94.90461204964808,29.498181683068225]},"properties":{"substrate":"Solid Reef","lease_number":null,"poll_year":2024}},{"type":"Feature","id":"71639629-be24-48ef-adc9-7f131c3eb18e","geometry":{"type":"Point","coordinates":[-94.90425758342012,29.50114825035508]},"properties":{"substrate":"Solid Reef","lease_number":null,"poll_year":2024}},{"type":"Feature","id":"717ba420-a9b6-4637-946c-bec6b3f4e3de","geometry":{"type":"Point","coordinates":[-94.90409606633203,29.502223316650092]},"properties":{"substrate":"Solid Reef","lease_number":null,"poll_year":2024}},{"type":"Feature","id":"732966ad-9f77-4f59-b4d2-2d4b7b67e595","geometry":{"type":"Point","coordinates":[-94.90535886675447,29.500732816965808]},"properties":{"substrate":"Solid Reef","lease_number":null,"poll_year":2024}},{"type":"Feature","id":"73641875-01da-4d1c-8155-dd7811ab49b5","geometry":{"type":"Point","coordinates":[-94.90504221690504,29.50093290031429]},"properties":{"substrate":"Solid Reef","lease_number":null,"poll_year":2024}},{"type":"Feature","id":"74f23cf7-3908-4c9e-8dbd-0279a60e1a9b","geometry":{"type":"Point","coordinates":[-94.90412910007997,29.49992106689012]},"properties":{"substrate":"Solid Reef","lease_number":null,"poll_year":2024}},{"type":"Feature","id":"74f4a8ca-3c58-4509-9b00-74445b3c1c22","geometry":{"type":"Point","coordinates":[-94.90469913323004,29.498527917021807]},"properties":{"substrate":"Solid Reef","lease_number":null,"poll_year":2024}},{"type":"Feature","id":"78088b88-b203-4df2-be25-5c3f24a8a9cf","geometry":{"type":"Point","coordinates":[-94.90258853338516,29.501505283135458]},"properties":{"substrate":"Firm/Hard Bottom","lease_number":null,"poll_year":2024}},{"type":"Feature","id":"785c9256-f69a-4408-af00-159e6eb928ef","geometry":{"type":"Point","coordinates":[-94.90103441740091,29.500502216841337]},"properties":{"substrate":"Solid Reef","lease_number":null,"poll_year":2024}},{"type":"Feature","id":"79d6f3f1-c6c0-42ab-9038-267d6b35d22a","geometry":{"type":"Point","coordinates":[-94.90019554992736,29.49774790028558]},"properties":{"substrate":"Solid Reef","lease_number":null,"poll_year":2024}},{"type":"Feature","id":"7a1d8300-4514-4630-a200-3e0005461003","geometry":{"type":"Point","coordinates":[-94.90363833337227,29.50854833324392]},"properties":{"substrate":"Mud","lease_number":null,"poll_year":2024}},{"type":"Feature","id":"7ae558d2-ec4d-4a4f-afc2-5d54627e3337","geometry":{"type":"Point","coordinates":[-94.90022381631609,29.49947864968321]},"properties":{"substrate":"Solid Reef","lease_number":null,"poll_year":2024}},{"type":"Feature","id":"7af7ceb2-4803-4b17-b942-288b66818964","geometry":{"type":"Point","coordinates":[-94.90401194988544,29.50042845005383]},"properties":{"substrate":"Solid Reef","lease_number":null,"poll_year":2024}},{"type":"Feature","id":"7c5d3f8f-f15e-43ef-944f-5786c2940b93","geometry":{"type":"Point","coordinates":[-94.90414756674727,29.498354633655346]},"properties":{"substrate":"Solid Reef","lease_number":null,"poll_year":2024}},{"type":"Feature","id":"7dcacc3c-b949-475c-9fbc-edabdb3ff6fc","geometry":{"type":"Point","coordinates":[-94.90591669988467,29.500431384338757]},"properties":{"substrate":"Solid Reef","lease_number":null,"poll_year":2024}},{"type":"Feature","id":"8232b1eb-48ea-42b2-b8c7-90285b085677","geometry":{"type":"Point","coordinates":[-94.90080836624114,29.499360534349023]},"properties":{"substrate":"Solid Reef","lease_number":null,"poll_year":2024}},{"type":"Feature","id":"878cee04-7c27-415d-94ca-b77e11e9db15","geometry":{"type":"Point","coordinates":[-94.90188210004236,29.500365616617593]},"properties":{"substrate":"Solid Reef","lease_number":null,"poll_year":2024}},{"type":"Feature","id":"8838eeaa-08f7-4961-b7c7-dddf0763cf2c","geometry":{"type":"Point","coordinates":[-94.90715271703692,29.49898991698086]},"properties":{"substrate":"Solid Reef","lease_number":null,"poll_year":2024}},{"type":"Feature","id":"883e18e0-fd07-45c3-86d9-3a0020864f08","geometry":{"type":"Point","coordinates":[-94.90000666656246,29.50116130012846]},"properties":{"substrate":"Solid Reef","lease_number":null,"poll_year":2024}},{"type":"Feature","id":"8c25a7df-c6c9-4a3c-b687-f49024b81fe8","geometry":{"type":"Point","coordinates":[-94.90317256677892,29.49886219980428]},"properties":{"substrate":"Solid Reef","lease_number":null,"poll_year":2024}},{"type":"Feature","id":"8fffc5eb-28a5-4064-9c8a-639d8461412a","geometry":{"type":"Point","coordinates":[-94.90189208302012,29.497447250030042]},"properties":{"substrate":"Solid Reef","lease_number":null,"poll_year":2024}},{"type":"Feature","id":"9005c97e-9388-4c86-bf95-f193b51f614e","geometry":{"type":"Point","coordinates":[-94.90476973362485,29.50099713368497]},"properties":{"substrate":"Solid Reef","lease_number":null,"poll_year":2024}},{"type":"Feature","id":"90e4a29d-4c77-414e-af8d-1cf1aebdb664","geometry":{"type":"Point","coordinates":[-94.90543309993629,29.49939344981566]},"properties":{"substrate":"Solid Reef","lease_number":null,"poll_year":2024}},{"type":"Feature","id":"92a7e953-c0f6-4ef1-b35a-a6266783801c","geometry":{"type":"Point","coordinates":[-94.90297076743687,29.49849624991296]},"properties":{"substrate":"Solid Reef","lease_number":null,"poll_year":2024}},{"type":"Feature","id":"93b785ae-1b23-4955-8604-142ac92aadcf","geometry":{"type":"Point","coordinates":[-94.90366308375498,29.500477566673208]},"properties":{"substrate":"Solid Reef","lease_number":null,"poll_year":2024}},{"type":"Feature","id":"947544ae-1e71-42c3-b299-fd4f1d3cbd4f","geometry":{"type":"Point","coordinates":[-94.90232509973316,29.49862970018099]},"properties":{"substrate":"Solid Reef","lease_number":null,"poll_year":2024}},{"type":"Feature","id":"947b8e65-c022-4798-bb11-697e73765845","geometry":{"type":"Point","coordinates":[-94.90176160003014,29.49866804984085]},"properties":{"substrate":"Solid Reef","lease_number":null,"poll_year":2024}},{"type":"Feature","id":"9787ec72-8a0a-4c10-a0a3-02dd7e7d227b","geometry":{"type":"Point","coordinates":[-94.90326849966476,29.4984635663688]},"properties":{"substrate":"Solid Reef","lease_number":null,"poll_year":2024}},{"type":"Feature","id":"978bee28-9efc-4204-b708-681b29a699c2","geometry":{"type":"Point","coordinates":[-94.9042473668804,29.498580749984438]},"properties":{"substrate":"Solid Reef","lease_number":null,"poll_year":2024}},{"type":"Feature","id":"99d62955-49ce-4750-bb05-c41cbb86d47f","geometry":{"type":"Point","coordinates":[-94.90328026669667,29.501317899623277]},"properties":{"substrate":"Solid Reef","lease_number":null,"poll_year":2024}},{"type":"Feature","id":"9a133ac8-ed6d-4ce3-9ee8-6807cc52c306","geometry":{"type":"Point","coordinates":[-94.90139985026185,29.498725616914946]},"properties":{"substrate":"Solid Reef","lease_number":null,"poll_year":2024}},{"type":"Feature","id":"9a63b79e-4f21-400d-b5ea-175d765f1b30","geometry":{"type":"Point","coordinates":[-94.90631921699718,29.49825970015906]},"properties":{"substrate":"Solid Reef","lease_number":null,"poll_year":2024}},{"type":"Feature","id":"9aa49333-1195-4278-8031-8b2c0065b877","geometry":{"type":"Point","coordinates":[-94.90011263363,29.502007567030677]},"properties":{"substrate":"Solid Reef","lease_number":null,"poll_year":2024}},{"type":"Feature","id":"9b09ebd8-a07b-4f56-a1b7-6ab7b1491e10","geometry":{"type":"Point","coordinates":[-94.90685661704791,29.49904126729361]},"properties":{"substrate":"Solid Reef","lease_number":null,"poll_year":2024}},{"type":"Feature","id":"9b68ad25-c404-42a5-9523-8b0dddc37258","geometry":{"type":"Point","coordinates":[-94.9039801665924,29.501209750260916]},"properties":{"substrate":"Solid Reef","lease_number":null,"poll_year":2024}},{"type":"Feature","id":"9e7413e1-5a8e-4bbd-b32d-e5e89f419046","geometry":{"type":"Point","coordinates":[-94.90197006666824,29.499187032704512]},"properties":{"substrate":"Solid Reef","lease_number":null,"poll_year":2024}},{"type":"Feature","id":"a45899d2-4421-45ba-b5ac-f57742d5803f","geometry":{"type":"Point","coordinates":[-94.90179855043273,29.500751766618034]},"properties":{"substrate":"Solid Reef","lease_number":null,"poll_year":2024}},{"type":"Feature","id":"a47d8640-f588-48a3-8514-b9a37cd86f52","geometry":{"type":"Point","coordinates":[-94.90221690035212,29.499163699650882]},"properties":{"substrate":"Solid Reef","lease_number":null,"poll_year":2024}},{"type":"Feature","id":"a79d51b8-76e9-40f2-b080-49c50f522ebf","geometry":{"type":"Point","coordinates":[-94.90493441637598,29.49809721628407]},"properties":{"substrate":"Solid Reef","lease_number":null,"poll_year":2024}},{"type":"Feature","id":"a8a2d60e-319a-460f-a7b7-f8d26f8d5158","geometry":{"type":"Point","coordinates":[-94.9038277000308,29.498659350038547]},"properties":{"substrate":"Solid Reef","lease_number":null,"poll_year":2024}},{"type":"Feature","id":"a8b1f6e9-7098-48aa-8695-e7aabc66aff6","geometry":{"type":"Point","coordinates":[-94.902297783762,29.49706131730124]},"properties":{"substrate":"Solid Reef","lease_number":null,"poll_year":2024}},{"type":"Feature","id":"a9dc18cd-c1ca-4552-b502-24126a20c14a","geometry":{"type":"Point","coordinates":[-94.90558668310379,29.499335933160122]},"properties":{"substrate":"Solid Reef","lease_number":null,"poll_year":2024}},{"type":"Feature","id":"a9fc32d4-364a-42ea-806b-2d5fab62ed64","geometry":{"type":"Point","coordinates":[-94.90052756635805,29.50056648332285]},"properties":{"substrate":"Solid Reef","lease_number":null,"poll_year":2024}},{"type":"Feature","id":"ab36b007-87fc-45db-8aac-c0ce46ef1db7","geometry":{"type":"Point","coordinates":[-94.90117341641978,29.499257482966247]},"properties":{"substrate":"Solid Reef","lease_number":null,"poll_year":2024}},{"type":"Feature","id":"acc625f6-51b9-46c6-b363-94b8aaf7b40c","geometry":{"type":"Point","coordinates":[-94.901221383761,29.500468267347234]},"properties":{"substrate":"Solid Reef","lease_number":null,"poll_year":2024}},{"type":"Feature","id":"af32933e-0b10-4054-b40d-32b351d4c6cd","geometry":{"type":"Point","coordinates":[-94.90036526683735,29.49887218262557]},"properties":{"substrate":"Solid Reef","lease_number":null,"poll_year":2024}},{"type":"Feature","id":"b04d3d8f-60a8-483d-9826-9019a6e10d33","geometry":{"type":"Point","coordinates":[-94.9024261835588,29.497018566630175]},"properties":{"substrate":"Solid Reef","lease_number":null,"poll_year":2024}},{"type":"Feature","id":"b1442b94-3801-4fdc-9b51-6e88104a201b","geometry":{"type":"Point","coordinates":[-94.90349593333175,29.500497050376744]},"properties":{"substrate":"Solid Reef","lease_number":null,"poll_year":2024}},{"type":"Feature","id":"b153e464-7a6c-4eae-938d-279f81e0368f","geometry":{"type":"Point","coordinates":[-94.90193626665736,29.497286783652335]},"properties":{"substrate":"Solid Reef","lease_number":null,"poll_year":2024}},{"type":"Feature","id":"b262b68d-61d3-44e8-b48d-6c8d7fca65cd","geometry":{"type":"Point","coordinates":[-94.90146405016027,29.497499566738266]},"properties":{"substrate":"Solid Reef","lease_number":null,"poll_year":2024}},{"type":"Feature","id":"b3326ad1-a114-44a9-b9a3-62673c40a0ed","geometry":{"type":"Point","coordinates":[-94.89990433318023,29.4978337168696]},"properties":{"substrate":"Buried Shell","lease_number":null,"poll_year":2024}},{"type":"Feature","id":"b419211b-1484-45d8-9673-4f8a042b3600","geometry":{"type":"Point","coordinates":[-94.90553188317651,29.50003486730273]},"properties":{"substrate":"Solid Reef","lease_number":null,"poll_year":2024}},{"type":"Feature","id":"b5095ed0-3474-485e-a57d-98b9f196e019","geometry":{"type":"Point","coordinates":[-94.90068161305622,29.50575788767236]},"properties":{"substrate":"Mud","lease_number":null,"poll_year":2024}},{"type":"Feature","id":"b6c1d8e7-f8e8-4540-9335-4a7879d30702","geometry":{"type":"Point","coordinates":[-94.90524311703349,29.49840573331125]},"properties":{"substrate":"Solid Reef","lease_number":null,"poll_year":2024}},{"type":"Feature","id":"b6cfdc72-ac23-4204-86b0-56effc44f99e","geometry":{"type":"Point","coordinates":[-94.90223348325227,29.501577550348163]},"properties":{"substrate":"Solid Reef","lease_number":null,"poll_year":2024}},{"type":"Feature","id":"b724c6e2-ceac-446a-a9bb-18c762bc5506","geometry":{"type":"Point","coordinates":[-94.90322815003712,29.5005058837175]},"properties":{"substrate":"Solid Reef","lease_number":null,"poll_year":2024}},{"type":"Feature","id":"b84c3594-4cd6-4099-8bb0-ebbec9c8d50d","geometry":{"type":"Point","coordinates":[-94.90205408340182,29.49918206632908]},"properties":{"substrate":"Solid Reef","lease_number":null,"poll_year":2024}},{"type":"Feature","id":"ba301d7c-cab2-4ac4-85c6-99faeed2f642","geometry":{"type":"Point","coordinates":[-94.90599068333484,29.49790188266669]},"properties":{"substrate":"Solid Reef","lease_number":null,"poll_year":2024}},{"type":"Feature","id":"ba43cf72-e276-4c43-b752-91ff6c92a807","geometry":{"type":"Point","coordinates":[-94.90089583340372,29.498831916697206]},"properties":{"substrate":"Solid Reef","lease_number":null,"poll_year":2024}},{"type":"Feature","id":"badb27ae-b692-4473-a4eb-4111fcd4680f","geometry":{"type":"Point","coordinates":[-94.90437048368503,29.500359833265534]},"properties":{"substrate":"Solid Reef","lease_number":null,"poll_year":2024}},{"type":"Feature","id":"bae48c6b-b40a-4a69-a871-ea887a63bc72","geometry":{"type":"Point","coordinates":[-94.9038485831662,29.501217700055328]},"properties":{"substrate":"Solid Reef","lease_number":null,"poll_year":2024}},{"type":"Feature","id":"bb1ebfa6-e504-472e-93f7-e54ecfa00dc4","geometry":{"type":"Point","coordinates":[-94.90383746741287,29.498401134374532]},"properties":{"substrate":"Solid Reef","lease_number":null,"poll_year":2024}},{"type":"Feature","id":"bbc4ae6a-42ae-45b8-9f08-c964903e011e","geometry":{"type":"Point","coordinates":[-94.90571208342588,29.49927609982244]},"properties":{"substrate":"Solid Reef","lease_number":null,"poll_year":2024}},{"type":"Feature","id":"bc84f30c-5025-4dfa-b8be-78c1ffe4d0a8","geometry":{"type":"Point","coordinates":[-94.90412736363653,29.503464344173864]},"properties":{"substrate":"Solid Reef","lease_number":null,"poll_year":2024}},{"type":"Feature","id":"bca649e5-4cbf-40e4-a6a8-e4b05bd414e4","geometry":{"type":"Point","coordinates":[-94.9029820996842,29.50141351671089]},"properties":{"substrate":"Solid Reef","lease_number":null,"poll_year":2024}},{"type":"Feature","id":"bcec8dd9-b8de-40c5-afcc-6a0949a5ccfd","geometry":{"type":"Point","coordinates":[-94.90411322325565,29.50232860497453]},"properties":{"substrate":"Solid Reef","lease_number":null,"poll_year":2024}},{"type":"Feature","id":"bd03013d-2ab6-4627-89f3-fac9d17a8e92","geometry":{"type":"Point","coordinates":[-94.90058216685932,29.50195285006073]},"properties":{"substrate":"Solid Reef","lease_number":null,"poll_year":2024}},{"type":"Feature","id":"bd9e2573-1370-4d7f-890e-b4c424425e4f","geometry":{"type":"Point","coordinates":[-94.90040464987771,29.501979216787195]},"properties":{"substrate":"Solid Reef","lease_number":null,"poll_year":2024}},{"type":"Feature","id":"be0db1cc-c9b3-4423-b88e-6eac2fe87e47","geometry":{"type":"Point","coordinates":[-94.90296451695913,29.498914365664067]},"properties":{"substrate":"Solid Reef","lease_number":null,"poll_year":2024}},{"type":"Feature","id":"bebfbf32-68b2-47a3-af75-87095486f72d","geometry":{"type":"Point","coordinates":[-94.90208688358778,29.497172766699695]},"properties":{"substrate":"Solid Reef","lease_number":null,"poll_year":2024}},{"type":"Feature","id":"bec4bf34-06fe-441c-95f3-15c458d9babc","geometry":{"type":"Point","coordinates":[-94.90027345003215,29.50198923370212]},"properties":{"substrate":"Solid Reef","lease_number":null,"poll_year":2024}},{"type":"Feature","id":"c2140450-669c-4f99-ad53-ead0dd7c8971","geometry":{"type":"Point","coordinates":[-94.90114513296307,29.498791765686683]},"properties":{"substrate":"Solid Reef","lease_number":null,"poll_year":2024}},{"type":"Feature","id":"c237788d-dae7-491a-bfc0-32d92079a756","geometry":{"type":"Point","coordinates":[-94.9045742170999,29.500307299898267]},"properties":{"substrate":"Solid Reef","lease_number":null,"poll_year":2024}},{"type":"Feature","id":"c246a9de-0429-4e53-a06a-b349ad05f68c","geometry":{"type":"Point","coordinates":[-94.90014394979912,29.501131232716318]},"properties":{"substrate":"Solid Reef","lease_number":null,"poll_year":2024}},{"type":"Feature","id":"c2cfc31e-8e54-4c5b-ade6-71d2f48b1826","geometry":{"type":"Point","coordinates":[-94.90592993296713,29.49912566683225]},"properties":{"substrate":"Solid Reef","lease_number":null,"poll_year":2024}},{"type":"Feature","id":"c68bbc6e-6e23-445f-9cdb-39c44b4e4b62","geometry":{"type":"Point","coordinates":[-94.9043037667072,29.49986484997702]},"properties":{"substrate":"Solid Reef","lease_number":null,"poll_year":2024}},{"type":"Feature","id":"c7106e35-0605-41ea-ac0f-da419eae6374","geometry":{"type":"Point","coordinates":[-94.90450825021532,29.498549283049563]},"properties":{"substrate":"Solid Reef","lease_number":null,"poll_year":2024}},{"type":"Feature","id":"c83ee1f8-3e38-414b-9ff1-b06d86d5a1ba","geometry":{"type":"Point","coordinates":[-94.90394300508572,29.502962039358877]},"properties":{"substrate":"Solid Reef","lease_number":null,"poll_year":2024}},{"type":"Feature","id":"c8ab909c-dfa1-4843-b04f-5d8677904b3b","geometry":{"type":"Point","coordinates":[-94.9001990614418,29.50529791534113]},"properties":{"substrate":"Solid Reef","lease_number":null,"poll_year":2024}},{"type":"Feature","id":"c92af933-65c9-4d6e-a1c5-58b04bca8747","geometry":{"type":"Point","coordinates":[-94.90419941660716,29.50039225036843]},"properties":{"substrate":"Solid Reef","lease_number":null,"poll_year":2024}},{"type":"Feature","id":"cb3c5016-3e4b-462f-b834-b7a4a38ca557","geometry":{"type":"Point","coordinates":[-94.9021220670042,29.500342599703306]},"properties":{"substrate":"Solid Reef","lease_number":null,"poll_year":2024}},{"type":"Feature","id":"cb7c89bc-c79c-4817-91be-3df529b43fb6","geometry":{"type":"Point","coordinates":[-94.90406314577181,29.50306173135672]},"properties":{"substrate":"Solid Reef","lease_number":null,"poll_year":2024}},{"type":"Feature","id":"cbfbc021-b083-42a4-bd93-34bccbb75da7","geometry":{"type":"Point","coordinates":[-94.90498846710832,29.499594517040904]},"properties":{"substrate":"Solid Reef","lease_number":null,"poll_year":2024}},{"type":"Feature","id":"cc4a3f10-baa1-4e3f-bbff-b388a5b191db","geometry":{"type":"Point","coordinates":[-94.90223961694902,29.50067556689946]},"properties":{"substrate":"Solid Reef","lease_number":null,"poll_year":2024}},{"type":"Feature","id":"cc8468ef-1cc9-432c-a42f-795e4c9d1f33","geometry":{"type":"Point","coordinates":[-94.90038258366108,29.499437799947884]},"properties":{"substrate":"Solid Reef","lease_number":null,"poll_year":2024}},{"type":"Feature","id":"cd56fb99-dd47-43b5-a671-2e628485cf47","geometry":{"type":"Point","coordinates":[-94.90030724285651,29.50536099433319]},"properties":{"substrate":"Solid Reef","lease_number":null,"poll_year":2024}},{"type":"Feature","id":"ce4b4519-65f2-401e-b72f-6d4c12c4a14f","geometry":{"type":"Point","coordinates":[-94.90223013343456,29.497104165688754]},"properties":{"substrate":"Solid Reef","lease_number":null,"poll_year":2024}},{"type":"Feature","id":"d1084e5f-cf65-4f7e-adfc-fa635a412a8c","geometry":{"type":"Point","coordinates":[-94.90328870008054,29.500137984351902]},"properties":{"substrate":"Solid Reef","lease_number":null,"poll_year":2024}},{"type":"Feature","id":"d1b8af33-004d-4014-b9ee-c375a633c4a2","geometry":{"type":"Point","coordinates":[-94.91369582817413,29.50071057338305]},"properties":{"substrate":"Solid Reef","lease_number":null,"poll_year":2024}},{"type":"Feature","id":"d21b3d92-7845-4e77-a3cf-04f1a60b9a27","geometry":{"type":"Point","coordinates":[-94.90583801644893,29.499202949811217]},"properties":{"substrate":"Solid Reef","lease_number":null,"poll_year":2024}},{"type":"Feature","id":"d3bf76a2-fcee-4e72-9dfb-b339794c4d27","geometry":{"type":"Point","coordinates":[-94.90059959956572,29.49884608326903]},"properties":{"substrate":"Solid Reef","lease_number":null,"poll_year":2024}},{"type":"Feature","id":"d425b95c-0e3b-40c7-b5b7-bc06332f6b83","geometry":{"type":"Point","coordinates":[-94.90445475015025,29.499805883247625]},"properties":{"substrate":"Solid Reef","lease_number":null,"poll_year":2024}},{"type":"Feature","id":"d5bb905c-c8c1-4f64-825e-3574b166fc87","geometry":{"type":"Point","coordinates":[-94.90180513328714,29.499207999844714]},"properties":{"substrate":"Solid Reef","lease_number":null,"poll_year":2024}},{"type":"Feature","id":"d7b78375-0898-45c8-b5b4-e946efdc65fe","geometry":{"type":"Point","coordinates":[-94.90148201556764,29.49921684971696]},"properties":{"substrate":"Solid Reef","lease_number":null,"poll_year":2024}},{"type":"Feature","id":"d99a1445-d9f4-4c1a-b85e-0af9d0af30f0","geometry":{"type":"Point","coordinates":[-94.90705043306204,29.49935738267626]},"properties":{"substrate":"Solid Reef","lease_number":null,"poll_year":2024}},{"type":"Feature","id":"d9b10c81-8fa2-4741-82d0-c1011973b14c","geometry":{"type":"Point","coordinates":[-94.90522069957558,29.50016681673196]},"properties":{"substrate":"Solid Reef","lease_number":null,"poll_year":2024}},{"type":"Feature","id":"dde5cd86-58a5-435d-a5c6-b67a403700ed","geometry":{"type":"Point","coordinates":[-94.90394503258332,29.503420734631984]},"properties":{"substrate":"Solid Reef","lease_number":null,"poll_year":2024}},{"type":"Feature","id":"df444c7e-8e68-4153-bbe1-cfad02eb92da","geometry":{"type":"Point","coordinates":[-94.90260779955305,29.500245933141098]},"properties":{"substrate":"Solid Reef","lease_number":null,"poll_year":2024}},{"type":"Feature","id":"dfcd3220-13ba-47e9-a30f-4c806102e871","geometry":{"type":"Point","coordinates":[-94.90727336706779,29.499730050289585]},"properties":{"substrate":"Solid Reef","lease_number":null,"poll_year":2024}},{"type":"Feature","id":"e03cbd1e-ae58-4cda-acf2-2c46b12e16cd","geometry":{"type":"Point","coordinates":[-94.90210048318288,29.50072049972903]},"properties":{"substrate":"Solid Reef","lease_number":null,"poll_year":2024}},{"type":"Feature","id":"e0a43c7d-0d1a-48c6-84a1-6c631fc3c831","geometry":{"type":"Point","coordinates":[-94.90290108332366,29.500580633233273]},"properties":{"substrate":"Solid Reef","lease_number":null,"poll_year":2024}},{"type":"Feature","id":"e3cd6d5c-6334-4c3f-ac9b-4b1c858de300","geometry":{"type":"Point","coordinates":[-94.90057513305065,29.5010170496494]},"properties":{"substrate":"Solid Reef","lease_number":null,"poll_year":2024}},{"type":"Feature","id":"e48d4b58-7f00-4503-a553-fab8d18f41be","geometry":{"type":"Point","coordinates":[-94.90198668370438,29.501623466333857]},"properties":{"substrate":"Solid Reef","lease_number":null,"poll_year":2024}},{"type":"Feature","id":"e49b182d-fec6-4b9c-a8fb-bada86a87c82","geometry":{"type":"Point","coordinates":[-94.90130548313958,29.500873317329386]},"properties":{"substrate":"Solid Reef","lease_number":null,"poll_year":2024}},{"type":"Feature","id":"e56da3d0-9bdc-4745-967b-2fb59818bcf4","geometry":{"type":"Point","coordinates":[-94.90355365008875,29.498749399641046]},"properties":{"substrate":"Solid Reef","lease_number":null,"poll_year":2024}},{"type":"Feature","id":"e97989e2-feaf-4480-9bf7-18790da32804","geometry":{"type":"Point","coordinates":[-94.90042025002094,29.50106523324149]},"properties":{"substrate":"Solid Reef","lease_number":null,"poll_year":2024}},{"type":"Feature","id":"ebdacd09-1e48-4cbc-850d-83c399c75d3f","geometry":{"type":"Point","coordinates":[-94.9070451168322,29.499868766287978]},"properties":{"substrate":"Solid Reef","lease_number":null,"poll_year":2024}},{"type":"Feature","id":"ef6f0d79-fce4-431a-9705-078b61f31c8c","geometry":{"type":"Point","coordinates":[-94.90064248334077,29.49939419961796]},"properties":{"substrate":"Solid Reef","lease_number":null,"poll_year":2024}},{"type":"Feature","id":"f0d14eed-c5d7-4701-b51d-b03a22743ec9","geometry":{"type":"Point","coordinates":[-94.90642355002922,29.499645034369856]},"properties":{"substrate":"Solid Reef","lease_number":null,"poll_year":2024}},{"type":"Feature","id":"f38c779e-9062-44f2-8fc3-964afa6191ff","geometry":{"type":"Point","coordinates":[-94.90607826638009,29.499030699656736]},"properties":{"substrate":"Solid Reef","lease_number":null,"poll_year":2024}},{"type":"Feature","id":"f74e9ca6-94bb-4f69-b05c-e6b91288dd2d","geometry":{"type":"Point","coordinates":[-94.90400309968328,29.498385583055263]},"properties":{"substrate":"Solid Reef","lease_number":null,"poll_year":2024}},{"type":"Feature","id":"f780e0f4-997c-4ea7-b44a-7d5fda95ad96","geometry":{"type":"Point","coordinates":[-94.90557769995095,29.498027616670637]},"properties":{"substrate":"Solid Reef","lease_number":null,"poll_year":2024}},{"type":"Feature","id":"f7f0cbef-6303-4332-b276-7ed399bf0a30","geometry":{"type":"Point","coordinates":[-94.90087936638625,29.501910849674527]},"properties":{"substrate":"Solid Reef","lease_number":null,"poll_year":2024}},{"type":"Feature","id":"f807dc67-d540-4320-bb30-160c60b642ed","geometry":{"type":"Point","coordinates":[-94.90628154973899,29.497929850153533]},"properties":{"substrate":"Solid Reef","lease_number":null,"poll_year":2024}},{"type":"Feature","id":"f8915ea6-e647-4f11-b3b8-04b377997a90","geometry":{"type":"Point","coordinates":[-94.90193789979456,29.498657149872717]},"properties":{"substrate":"Solid Reef","lease_number":null,"poll_year":2024}},{"type":"Feature","id":"fa71daf7-616f-4812-80f4-ef35c05a756c","geometry":{"type":"Point","coordinates":[-94.90006158327071,29.49778615019987]},"properties":{"substrate":"Buried Shell","lease_number":null,"poll_year":2024}},{"type":"Feature","id":"fdf905bf-e35e-4eff-aede-03670dbba7b6","geometry":{"type":"Point","coordinates":[-94.90520081626508,29.50083509985498]},"properties":{"substrate":"Solid Reef","lease_number":null,"poll_year":2024}},{"type":"Feature","id":"fe3de57e-804c-451a-8d69-c1b75b9d3e53","geometry":{"type":"Point","coordinates":[-94.90718636702914,29.49989148307775]},"properties":{"substrate":"Solid Reef","lease_number":null,"poll_year":2024}},{"type":"Feature","id":"fe9a7b65-5ebe-47b2-9a9a-d3cf1ec544e1","geometry":{"type":"Point","coordinates":[-94.90084745014252,29.500972133370166]},"properties":{"substrate":"Solid Reef","lease_number":null,"poll_year":2024}},{"type":"Feature","id":"feb69ca2-3ea0-40d4-9705-cc4f0e457b96","geometry":{"type":"Point","coordinates":[-94.90602221689626,29.500371766657395]},"properties":{"substrate":"Solid Reef","lease_number":null,"poll_year":2024}},{"type":"Feature","id":"ffb4ea27-9b4b-4edc-8a97-4df8790069a4","geometry":{"type":"Point","coordinates":[-94.90517061670185,29.498094533693187]},"properties":{"substrate":"Solid Reef","lease_number":null,"poll_year":2024}}]}