{"type":"FeatureCollection","features":[{"type":"Feature","id":"00901fb4-ecb5-4893-a3ab-b3baf0e3ac06","geometry":{"type":"Point","coordinates":[-94.8931150028068,29.465036616365623]},"properties":{"substrate":"Firm/Hard Bottom","lease_number":null,"poll_year":2023}},{"type":"Feature","id":"02152f74-fdd9-4270-859b-530872d55ac7","geometry":{"type":"Point","coordinates":[-94.89144890014427,29.475231466824464]},"properties":{"substrate":"Mud","lease_number":null,"poll_year":2023}},{"type":"Feature","id":"024ff7e7-be24-497e-aca4-b43cebbe43b3","geometry":{"type":"Point","coordinates":[-94.89224582707384,29.465486973874]},"properties":{"substrate":"Firm/Hard Bottom","lease_number":null,"poll_year":2023}},{"type":"Feature","id":"0280bfc0-f952-45cf-8a22-8bdf8a8773c4","geometry":{"type":"Point","coordinates":[-94.89204155017823,29.475626583330154]},"properties":{"substrate":"Solid Reef","lease_number":null,"poll_year":2023}},{"type":"Feature","id":"0391b241-690f-449c-ba21-a8ed5b64c940","geometry":{"type":"Point","coordinates":[-94.89171706701951,29.475703849825305]},"properties":{"substrate":"Solid Reef","lease_number":null,"poll_year":2023}},{"type":"Feature","id":"05a664c2-4905-4840-aa08-d3384609144c","geometry":{"type":"Point","coordinates":[-94.87846858295362,29.475294100005254]},"properties":{"substrate":"Solid Reef","lease_number":null,"poll_year":2023}},{"type":"Feature","id":"06d3783b-66b0-449d-81ff-eb350a4b982d","geometry":{"type":"Point","coordinates":[-94.88796289425946,29.469766136614254]},"properties":{"substrate":"Solid Reef","lease_number":null,"poll_year":2024}},{"type":"Feature","id":"07d8229c-a493-4948-9d72-d913cb7aae27","geometry":{"type":"Point","coordinates":[-94.89342897028679,29.468540138011413]},"properties":{"substrate":"Solid Reef","lease_number":null,"poll_year":2023}},{"type":"Feature","id":"07e1a6a8-8431-439b-b81d-6b1f8162a2d0","geometry":{"type":"Point","coordinates":[-94.88074976658272,29.47613073322604]},"properties":{"substrate":"Mud","lease_number":null,"poll_year":2023}},{"type":"Feature","id":"09f229f7-6f9b-4263-a9c1-9e0405c8e976","geometry":{"type":"Point","coordinates":[-94.88480701744493,29.46842212034907]},"properties":{"substrate":"Solid Reef","lease_number":null,"poll_year":2024}},{"type":"Feature","id":"0a090873-ae6e-4854-b0b4-28793e81ef03","geometry":{"type":"Point","coordinates":[-94.89355213739708,29.468815843109294]},"properties":{"substrate":"Solid Reef","lease_number":null,"poll_year":2023}},{"type":"Feature","id":"0a24f638-4131-4801-a664-0b0cffa3c834","geometry":{"type":"Point","coordinates":[-94.88812390020614,29.476480199615935]},"properties":{"substrate":"Mud","lease_number":null,"poll_year":2023}},{"type":"Feature","id":"0a69f6d8-0b6e-4402-b7db-36f561a47205","geometry":{"type":"Point","coordinates":[-94.89647557872512,29.473088745738234]},"properties":{"substrate":"Mud","lease_number":null,"poll_year":2023}},{"type":"Feature","id":"0b84a4ee-7783-4337-bf9c-81eac0defe82","geometry":{"type":"Point","coordinates":[-94.88755348257713,29.477004316783642]},"properties":{"substrate":"Mud","lease_number":null,"poll_year":2023}},{"type":"Feature","id":"0bf841db-9317-4781-95ea-23b97b1b07b8","geometry":{"type":"Point","coordinates":[-94.87931306669432,29.475421933699526]},"properties":{"substrate":"Solid Reef","lease_number":null,"poll_year":2023}},{"type":"Feature","id":"0d556c24-0fec-42c3-b4ff-6129b7d33956","geometry":{"type":"Point","coordinates":[-94.89237943440436,29.475854150237492]},"properties":{"substrate":"Buried Shell","lease_number":null,"poll_year":2023}},{"type":"Feature","id":"0ee0ee98-e458-43ec-a2cc-b18c1fa845b6","geometry":{"type":"Point","coordinates":[-94.89344603019235,29.465149930371382]},"properties":{"substrate":"Firm/Hard Bottom","lease_number":null,"poll_year":2023}},{"type":"Feature","id":"0ee9d573-43e1-4ea8-ad70-c5f48faa41f3","geometry":{"type":"Point","coordinates":[-94.8949835426152,29.464833867040827]},"properties":{"substrate":"Firm/Hard Bottom","lease_number":null,"poll_year":2023}},{"type":"Feature","id":"1061b08a-f0ae-4d67-9645-99ec910cd4e4","geometry":{"type":"Point","coordinates":[-94.89457226603037,29.4709139751615]},"properties":{"substrate":"Solid Reef","lease_number":null,"poll_year":2023}},{"type":"Feature","id":"11516cb2-14b9-4984-b25b-4f9dcd54a5b5","geometry":{"type":"Point","coordinates":[-94.89477623660045,29.471100823657913]},"properties":{"substrate":"Solid Reef","lease_number":null,"poll_year":2023}},{"type":"Feature","id":"12441fb3-1324-4bc6-8677-8fbe1cb4b909","geometry":{"type":"Point","coordinates":[-94.88155691634024,29.47712383299263]},"properties":{"substrate":"Solid Reef","lease_number":null,"poll_year":2023}},{"type":"Feature","id":"12ba196e-051c-4556-bdc1-c86b8fb8270f","geometry":{"type":"Point","coordinates":[-94.89625185959181,29.472866922351965]},"properties":{"substrate":"Mud","lease_number":null,"poll_year":2023}},{"type":"Feature","id":"13cb3a10-8736-48c9-9659-0d91819b656f","geometry":{"type":"Point","coordinates":[-94.89387365342041,29.46492560793619]},"properties":{"substrate":"Firm/Hard Bottom","lease_number":null,"poll_year":2023}},{"type":"Feature","id":"14068746-1607-4f08-9d03-cf364c3cb52f","geometry":{"type":"Point","coordinates":[-94.89778032238648,29.47422113866671]},"properties":{"substrate":"Mud","lease_number":null,"poll_year":2023}},{"type":"Feature","id":"14186390-caa3-48b5-9b2a-90e19114d443","geometry":{"type":"Point","coordinates":[-94.89226610025318,29.475245966719367]},"properties":{"substrate":"Solid Reef","lease_number":null,"poll_year":2023}},{"type":"Feature","id":"15213ed2-212d-420f-bff2-690231d5f896","geometry":{"type":"Point","coordinates":[-94.89584933798773,29.47244808127427]},"properties":{"substrate":"Firm/Hard Bottom","lease_number":null,"poll_year":2023}},{"type":"Feature","id":"16fe2412-fc9f-488a-adf0-2190cbdec13c","geometry":{"type":"Point","coordinates":[-94.88386366063244,29.46867464680457]},"properties":{"substrate":"Mud","lease_number":null,"poll_year":2024}},{"type":"Feature","id":"19febb6c-657b-48c6-85db-babac178ab75","geometry":{"type":"Point","coordinates":[-94.895170240379,29.46559298863929]},"properties":{"substrate":"Solid Reef","lease_number":null,"poll_year":2023}},{"type":"Feature","id":"1ab20078-fa22-47b6-8548-afb52d414ccc","geometry":{"type":"Point","coordinates":[-94.88418539943798,29.468553908385193]},"properties":{"substrate":"Mud","lease_number":null,"poll_year":2024}},{"type":"Feature","id":"1b0331a1-fb99-4d24-ad9a-fe38dc3a986a","geometry":{"type":"Point","coordinates":[-94.8968342607467,29.473477710320708]},"properties":{"substrate":"Scattered Shell","lease_number":null,"poll_year":2023}},{"type":"Feature","id":"1bf12118-2fc8-42be-9b2e-158e58cfe619","geometry":{"type":"Point","coordinates":[-94.87814848357345,29.474158532976993]},"properties":{"substrate":"Mud","lease_number":null,"poll_year":2023}},{"type":"Feature","id":"1d4b5c33-7345-4e75-ba08-2d9bd391a026","geometry":{"type":"Point","coordinates":[-94.88615764166111,29.468093811710183]},"properties":{"substrate":"Mud","lease_number":null,"poll_year":2024}},{"type":"Feature","id":"1dde397f-dd9c-4c76-856b-bfddbbdaac3e","geometry":{"type":"Point","coordinates":[-94.88081783372843,29.477331833308767]},"properties":{"substrate":"Solid Reef","lease_number":null,"poll_year":2023}},{"type":"Feature","id":"203d9efb-b3b9-4b7a-9cc1-27d940fa36c7","geometry":{"type":"Point","coordinates":[-94.88571479827719,29.46816128189352]},"properties":{"substrate":"Mud","lease_number":null,"poll_year":2024}},{"type":"Feature","id":"20fd28cb-3430-4070-bd53-f67e73e5e5da","geometry":{"type":"Point","coordinates":[-94.89312991663712,29.469478167029408]},"properties":{"substrate":"Mud","lease_number":null,"poll_year":2024}},{"type":"Feature","id":"215c92b5-2d05-4956-bfae-dda41ff2a508","geometry":{"type":"Point","coordinates":[-94.89289303359166,29.46641875389687]},"properties":{"substrate":"Solid Reef","lease_number":null,"poll_year":2023}},{"type":"Feature","id":"21edde03-7ccc-4cd8-80ce-58950dd993c6","geometry":{"type":"Point","coordinates":[-94.89469367334101,29.46552021866718]},"properties":{"substrate":"Firm/Hard Bottom","lease_number":null,"poll_year":2023}},{"type":"Feature","id":"238510d3-658b-44d9-bfe3-4c8b83bc43c8","geometry":{"type":"Point","coordinates":[-94.89620330744732,29.46475796489252]},"properties":{"substrate":"Firm/Hard Bottom","lease_number":null,"poll_year":2023}},{"type":"Feature","id":"23c1c720-f554-47de-9209-b33eefd0cc33","geometry":{"type":"Point","coordinates":[-94.8962128574371,29.472966271704117]},"properties":{"substrate":"Mud","lease_number":null,"poll_year":2023}},{"type":"Feature","id":"2467bf53-50e1-4c01-8208-28e4876349a2","geometry":{"type":"Point","coordinates":[-94.89408304711989,29.464840046611666]},"properties":{"substrate":"Firm/Hard Bottom","lease_number":null,"poll_year":2023}},{"type":"Feature","id":"259c0b73-1985-45b1-b761-dbf39a463448","geometry":{"type":"Point","coordinates":[-94.8792629667526,29.47743938332272]},"properties":{"substrate":"Solid Reef","lease_number":null,"poll_year":2023}},{"type":"Feature","id":"26f21e1e-d627-4aa6-b733-7aec652fb4ab","geometry":{"type":"Point","coordinates":[-94.88955616690863,29.47586471638175]},"properties":{"substrate":"Mud","lease_number":null,"poll_year":2023}},{"type":"Feature","id":"270dfbc0-687a-4c07-9dcb-a4e99238fdae","geometry":{"type":"Point","coordinates":[-94.87892693305598,29.4773419003647]},"properties":{"substrate":"Mud","lease_number":null,"poll_year":2023}},{"type":"Feature","id":"2984172c-e810-4eae-b908-53fd973c08fa","geometry":{"type":"Point","coordinates":[-94.88961668371437,29.476068099780125]},"properties":{"substrate":"Mud","lease_number":null,"poll_year":2023}},{"type":"Feature","id":"2b15fd39-0ce7-4faf-aa18-914e337487fa","geometry":{"type":"Point","coordinates":[-94.88478660233177,29.468311609911815]},"properties":{"substrate":"Mud","lease_number":null,"poll_year":2024}},{"type":"Feature","id":"2bab2007-9bdc-4cca-990a-56564137c6a1","geometry":{"type":"Point","coordinates":[-94.89951535367906,29.475617524938116]},"properties":{"substrate":"Firm/Hard Bottom","lease_number":null,"poll_year":2023}},{"type":"Feature","id":"2d4fe775-7710-43cb-a20b-e4decc4cd1bb","geometry":{"type":"Point","coordinates":[-94.89934656113547,29.470719812310872]},"properties":{"substrate":"Firm/Hard Bottom","lease_number":null,"poll_year":2023}},{"type":"Feature","id":"2d7d28c2-d193-4ae6-be79-4208ffab68ae","geometry":{"type":"Point","coordinates":[-94.88016819996272,29.475448599815522]},"properties":{"substrate":"Mud","lease_number":null,"poll_year":2023}},{"type":"Feature","id":"2e95feec-c9a2-4d3e-83c6-fe193bed6111","geometry":{"type":"Point","coordinates":[-94.89280511816975,29.46657479938914]},"properties":{"substrate":"Solid Reef","lease_number":null,"poll_year":2023}},{"type":"Feature","id":"2ff35efe-0250-4ff6-8e36-bd0f4ba41d11","geometry":{"type":"Point","coordinates":[-94.88789951272625,29.46954160462362]},"properties":{"substrate":"Solid Reef","lease_number":null,"poll_year":2024}},{"type":"Feature","id":"3154f55f-6267-42f2-b3ce-2e94a4fca4fb","geometry":{"type":"Point","coordinates":[-94.89305564392943,29.465403287766602]},"properties":{"substrate":"Firm/Hard Bottom","lease_number":null,"poll_year":2023}},{"type":"Feature","id":"35008a7b-c49e-4730-b9c9-f5d556de88a6","geometry":{"type":"Point","coordinates":[-94.8816014997278,29.47757783267313]},"properties":{"substrate":"Mud","lease_number":null,"poll_year":2023}},{"type":"Feature","id":"35477a5f-16ba-4017-91f1-34fc09b6ac8c","geometry":{"type":"Point","coordinates":[-94.89264338907924,29.466081565671267]},"properties":{"substrate":"Firm/Hard Bottom","lease_number":null,"poll_year":2023}},{"type":"Feature","id":"369c21f7-9f40-40f1-811e-57f5267e7962","geometry":{"type":"Point","coordinates":[-94.878027016974,29.476617665695297]},"properties":{"substrate":"Mud","lease_number":null,"poll_year":2023}},{"type":"Feature","id":"36b0335b-3537-467c-9ee5-d2e540a05322","geometry":{"type":"Point","coordinates":[-94.89444113266012,29.46543195561781]},"properties":{"substrate":"Firm/Hard Bottom","lease_number":null,"poll_year":2023}},{"type":"Feature","id":"36c8f11a-a57b-4cd7-a1cc-1bb899c413ed","geometry":{"type":"Point","coordinates":[-94.87837656672242,29.474398566733786]},"properties":{"substrate":"Scattered Shell","lease_number":null,"poll_year":2023}},{"type":"Feature","id":"375172c0-01c9-4d7b-a356-c3a3d7215d16","geometry":{"type":"Point","coordinates":[-94.89256971644616,29.474878767054665]},"properties":{"substrate":"Scattered Shell","lease_number":null,"poll_year":2023}},{"type":"Feature","id":"378810e4-454d-4c15-87b9-7313401136a2","geometry":{"type":"Point","coordinates":[-94.89535949834138,29.46405048665596]},"properties":{"substrate":"Firm/Hard Bottom","lease_number":null,"poll_year":2023}},{"type":"Feature","id":"37f3b79e-2ed4-4c99-8c03-b3878cde5c0f","geometry":{"type":"Point","coordinates":[-94.8812737332267,29.476790582712077]},"properties":{"substrate":"Mud","lease_number":null,"poll_year":2023}},{"type":"Feature","id":"3884bb6d-de4f-4178-92eb-96cf779ea9b0","geometry":{"type":"Point","coordinates":[-94.88132703296745,29.477717467385517]},"properties":{"substrate":"Mud","lease_number":null,"poll_year":2023}},{"type":"Feature","id":"38fbcc14-c3fb-43da-9241-f276f90ad08d","geometry":{"type":"Point","coordinates":[-94.88750880756143,29.468137068089664]},"properties":{"substrate":"Buried Shell","lease_number":null,"poll_year":2024}},{"type":"Feature","id":"3992b6d9-f777-44e1-a225-9978728d8cfa","geometry":{"type":"Point","coordinates":[-94.8932997081073,29.46613720613866]},"properties":{"substrate":"Firm/Hard Bottom","lease_number":null,"poll_year":2023}},{"type":"Feature","id":"3a3b6144-9218-472c-bd6a-60ed6c023401","geometry":{"type":"Point","coordinates":[-94.8839359965724,29.468624735800272]},"properties":{"substrate":"Mud","lease_number":null,"poll_year":2024}},{"type":"Feature","id":"3a547b7e-d6bf-424a-8598-513eaacab690","geometry":{"type":"Point","coordinates":[-94.89450451329499,29.465747805130384]},"properties":{"substrate":"Solid Reef","lease_number":null,"poll_year":2023}},{"type":"Feature","id":"3ac2711c-2dd3-4173-8b69-83994e3a0b2f","geometry":{"type":"Point","coordinates":[-94.89401572108429,29.4650814179605]},"properties":{"substrate":"Firm/Hard Bottom","lease_number":null,"poll_year":2023}},{"type":"Feature","id":"3bb326aa-e9ca-4edf-a00e-3557b0cbf759","geometry":{"type":"Point","coordinates":[-94.89578499885044,29.46414111763466]},"properties":{"substrate":"Firm/Hard Bottom","lease_number":null,"poll_year":2023}},{"type":"Feature","id":"3cbec11b-a053-4e40-b60b-9fe068afb823","geometry":{"type":"Point","coordinates":[-94.89459046679633,29.46524367477747]},"properties":{"substrate":"Firm/Hard Bottom","lease_number":null,"poll_year":2023}},{"type":"Feature","id":"3d3e6864-0841-4dd6-bf2d-b149a9ad83dd","geometry":{"type":"Point","coordinates":[-94.88089101677967,29.47630353298583]},"properties":{"substrate":"Mud","lease_number":null,"poll_year":2023}},{"type":"Feature","id":"3d7a401d-bfd3-442a-bef8-8c92cb6fa94f","geometry":{"type":"Point","coordinates":[-94.89375726409895,29.465274444235057]},"properties":{"substrate":"Firm/Hard Bottom","lease_number":null,"poll_year":2023}},{"type":"Feature","id":"4270555b-fdcb-444a-ada4-78c065926d56","geometry":{"type":"Point","coordinates":[-94.8915869164062,29.47594788318317]},"properties":{"substrate":"Solid Reef","lease_number":null,"poll_year":2023}},{"type":"Feature","id":"431ec24d-477b-40b1-a4c5-189c550919d9","geometry":{"type":"Point","coordinates":[-94.89824387014109,29.47422992581131]},"properties":{"substrate":"Mud","lease_number":null,"poll_year":2023}},{"type":"Feature","id":"439569de-f926-4718-9457-46fb7dcc0c17","geometry":{"type":"Point","coordinates":[-94.8810122165795,29.47746338297544]},"properties":{"substrate":"Mud","lease_number":null,"poll_year":2023}},{"type":"Feature","id":"441bd616-3e4d-4f6b-95ff-ddde824b2e33","geometry":{"type":"Point","coordinates":[-94.89328309107118,29.465245450194413]},"properties":{"substrate":"Firm/Hard Bottom","lease_number":null,"poll_year":2023}},{"type":"Feature","id":"448e1050-7040-442e-8da3-40d7536678f5","geometry":{"type":"Point","coordinates":[-94.89382701558581,29.469250483356024]},"properties":{"substrate":"Solid Reef","lease_number":null,"poll_year":2024}},{"type":"Feature","id":"45ca71ac-4f1f-4240-ae42-20e84e1aa36b","geometry":{"type":"Point","coordinates":[-94.88833633290622,29.476409400367555]},"properties":{"substrate":"Mud","lease_number":null,"poll_year":2023}},{"type":"Feature","id":"4aef187b-83e5-4c54-adbe-4c5b654b48ea","geometry":{"type":"Point","coordinates":[-94.89341078569049,29.465922657654804]},"properties":{"substrate":"Firm/Hard Bottom","lease_number":null,"poll_year":2023}},{"type":"Feature","id":"4b54ca5c-e805-4c0a-a3ae-04abae085af4","geometry":{"type":"Point","coordinates":[-94.89894125116075,29.47537627564319]},"properties":{"substrate":"Mud","lease_number":null,"poll_year":2023}},{"type":"Feature","id":"4be298f1-99d4-4d06-90c0-6466cf4e8e5b","geometry":{"type":"Point","coordinates":[-94.89904973655939,29.47271564975381]},"properties":{"substrate":"Firm/Hard Bottom","lease_number":null,"poll_year":2026}},{"type":"Feature","id":"4c3c7e7a-2cd0-40c0-89c3-ae512a9d9fca","geometry":{"type":"Point","coordinates":[-94.89127061689972,29.475566800117363]},"properties":{"substrate":"Solid Reef","lease_number":null,"poll_year":2023}},{"type":"Feature","id":"4dd91082-e986-4007-a67c-d20f27f71731","geometry":{"type":"Point","coordinates":[-94.89969481641158,29.47491237320277]},"properties":{"substrate":"Mud","lease_number":null,"poll_year":2023}},{"type":"Feature","id":"5301ceee-e7a4-4148-94b9-a69d1bf24a40","geometry":{"type":"Point","coordinates":[-94.89164513442314,29.47546898299013]},"properties":{"substrate":"Solid Reef","lease_number":null,"poll_year":2023}},{"type":"Feature","id":"53cab001-6b8a-46cd-b1c4-39fa2832376a","geometry":{"type":"Point","coordinates":[-94.88414202069123,29.468394460685087]},"properties":{"substrate":"Mud","lease_number":null,"poll_year":2024}},{"type":"Feature","id":"5414f5d6-4845-467b-90c4-3c0e85bb3bd5","geometry":{"type":"Point","coordinates":[-94.89314704032307,29.46557786010413]},"properties":{"substrate":"Firm/Hard Bottom","lease_number":null,"poll_year":2023}},{"type":"Feature","id":"54543512-0787-41e0-95a7-238953d76085","geometry":{"type":"Point","coordinates":[-94.89360738558368,29.46509078936109]},"properties":{"substrate":"Firm/Hard Bottom","lease_number":null,"poll_year":2023}},{"type":"Feature","id":"54cb3b26-916e-41dd-8115-495b0e173367","geometry":{"type":"Point","coordinates":[-94.8919669163478,29.475086082995]},"properties":{"substrate":"Buried Shell","lease_number":null,"poll_year":2023}},{"type":"Feature","id":"5517c8b9-d4d3-4cd1-beb4-31b8e137d13d","geometry":{"type":"Point","coordinates":[-94.88797696636838,29.477752783664403]},"properties":{"substrate":"Mud","lease_number":null,"poll_year":2023}},{"type":"Feature","id":"562908b4-8712-47e2-9ea4-2b742305c076","geometry":{"type":"Point","coordinates":[-94.87804075041808,29.475408083708093]},"properties":{"substrate":"Solid Reef","lease_number":null,"poll_year":2023}},{"type":"Feature","id":"5744b173-2353-4d09-8229-71964bc2cdcf","geometry":{"type":"Point","coordinates":[-94.88422662043143,29.46827796638129]},"properties":{"substrate":"Mud","lease_number":null,"poll_year":2024}},{"type":"Feature","id":"57889a95-ae60-490d-a4ff-624695e86b66","geometry":{"type":"Point","coordinates":[-94.89875002858285,29.47503488633428]},"properties":{"substrate":"Mud","lease_number":null,"poll_year":2023}},{"type":"Feature","id":"57f2caec-6a7d-441b-92f7-4c8a419cf3b4","geometry":{"type":"Point","coordinates":[-94.89064066701853,29.475768816324084]},"properties":{"substrate":"Solid Reef","lease_number":null,"poll_year":2023}},{"type":"Feature","id":"596177b4-c87a-4f01-86b0-2d4e8f888acf","geometry":{"type":"Point","coordinates":[-94.89342489013876,29.466305410806417]},"properties":{"substrate":"Solid Reef","lease_number":null,"poll_year":2023}},{"type":"Feature","id":"5b22bfd9-f9c4-442d-8a75-5b7f1bf96025","geometry":{"type":"Point","coordinates":[-94.89299619342394,29.466044498079913]},"properties":{"substrate":"Firm/Hard Bottom","lease_number":null,"poll_year":2023}},{"type":"Feature","id":"5c20f3a6-a224-4e6a-9d78-308b8cff4d3c","geometry":{"type":"Point","coordinates":[-94.89066098331699,29.475511782638247]},"properties":{"substrate":"Mud","lease_number":null,"poll_year":2023}},{"type":"Feature","id":"5ec5d38e-5b49-404c-8c2b-1307654bacd3","geometry":{"type":"Point","coordinates":[-94.88763384496414,29.46861552427388]},"properties":{"substrate":"Solid Reef","lease_number":null,"poll_year":2024}},{"type":"Feature","id":"5f05460a-a8bd-40c2-80af-b96346ee7ae0","geometry":{"type":"Point","coordinates":[-94.89927762891215,29.47055845270031]},"properties":{"substrate":"Mud","lease_number":null,"poll_year":2023}},{"type":"Feature","id":"6073f8eb-fc06-493b-b2fa-9b050fe417ad","geometry":{"type":"Point","coordinates":[-94.89332128294548,29.475502733620445]},"properties":{"substrate":"Mud","lease_number":null,"poll_year":2023}},{"type":"Feature","id":"6082ecb8-2722-4fc1-9881-c6b4e670621a","geometry":{"type":"Point","coordinates":[-94.8876014454268,29.468487577978433]},"properties":{"substrate":"Solid Reef","lease_number":null,"poll_year":2024}},{"type":"Feature","id":"61691181-03dd-44d4-9ed6-53d9a1828d7d","geometry":{"type":"Point","coordinates":[-94.89285836041832,29.465199539622486]},"properties":{"substrate":"Firm/Hard Bottom","lease_number":null,"poll_year":2023}},{"type":"Feature","id":"6273e265-f0b8-48a5-ac62-728cdbd31766","geometry":{"type":"Point","coordinates":[-94.88784573328516,29.477261733007396]},"properties":{"substrate":"Buried Shell","lease_number":null,"poll_year":2023}},{"type":"Feature","id":"630a5b24-e41a-4e23-90d4-6e6a4cc3cd69","geometry":{"type":"Point","coordinates":[-94.89536786884321,29.4653992786154]},"properties":{"substrate":"Solid Reef","lease_number":null,"poll_year":2023}},{"type":"Feature","id":"64cd1fc4-8846-411e-a845-4f375512412f","geometry":{"type":"Point","coordinates":[-94.87898108439961,29.47503458368229]},"properties":{"substrate":"Solid Reef","lease_number":null,"poll_year":2023}},{"type":"Feature","id":"66fd8450-3933-40c8-b279-c377d6ce600c","geometry":{"type":"Point","coordinates":[-94.89843710764016,29.475015968627854]},"properties":{"substrate":"Mud","lease_number":null,"poll_year":2023}},{"type":"Feature","id":"6ba421ca-8865-45a0-8c16-7347c0dc8675","geometry":{"type":"Point","coordinates":[-94.88605859521451,29.468044606656665]},"properties":{"substrate":"Mud","lease_number":null,"poll_year":2024}},{"type":"Feature","id":"6bcc90b0-55ed-4a3f-bdc3-af43a58fcd44","geometry":{"type":"Point","coordinates":[-94.89263192927116,29.466268393352163]},"properties":{"substrate":"Firm/Hard Bottom","lease_number":null,"poll_year":2023}},{"type":"Feature","id":"6c57f559-28ec-479c-9981-3e98e6ea47d2","geometry":{"type":"Point","coordinates":[-94.89608831770107,29.464534114777436]},"properties":{"substrate":"Firm/Hard Bottom","lease_number":null,"poll_year":2023}},{"type":"Feature","id":"6db551e6-8b71-4a05-9750-066da0fb58c0","geometry":{"type":"Point","coordinates":[-94.89282006613608,29.466295410698518]},"properties":{"substrate":"Firm/Hard Bottom","lease_number":null,"poll_year":2023}},{"type":"Feature","id":"6ef762fd-bf7e-4d47-8a4b-4fe82ed42988","geometry":{"type":"Point","coordinates":[-94.8935557540144,29.465309978367646]},"properties":{"substrate":"Firm/Hard Bottom","lease_number":null,"poll_year":2023}},{"type":"Feature","id":"701f4252-cb39-4cf7-ba20-cef99c9bb5bb","geometry":{"type":"Point","coordinates":[-94.89713053141561,29.47375834771671]},"properties":{"substrate":"Firm/Hard Bottom","lease_number":null,"poll_year":2023}},{"type":"Feature","id":"71e190ce-b917-46eb-b562-7c705eaea17f","geometry":{"type":"Point","coordinates":[-94.88055748309448,29.47587528330691]},"properties":{"substrate":"Mud","lease_number":null,"poll_year":2023}},{"type":"Feature","id":"7305e012-b273-4ce4-93c5-b35cf3d6d370","geometry":{"type":"Point","coordinates":[-94.89904973655939,29.47271564975381]},"properties":{"substrate":"Scattered Shell","lease_number":null,"poll_year":2026}},{"type":"Feature","id":"748d38b6-d174-42a1-8602-1eea43780e65","geometry":{"type":"Point","coordinates":[-94.89366051644116,29.465493688375155]},"properties":{"substrate":"Firm/Hard Bottom","lease_number":null,"poll_year":2023}},{"type":"Feature","id":"755bcba4-44c5-451d-946e-0e7332d6e0e4","geometry":{"type":"Point","coordinates":[-94.88064659956392,29.4759749831926]},"properties":{"substrate":"Mud","lease_number":null,"poll_year":2023}},{"type":"Feature","id":"762a493f-e3ab-4be2-83bd-4e2ef1fc5080","geometry":{"type":"Point","coordinates":[-94.89145878340904,29.475842383660403]},"properties":{"substrate":"Solid Reef","lease_number":null,"poll_year":2023}},{"type":"Feature","id":"77bfc314-cdf9-4d21-bb1e-1e314ebd8286","geometry":{"type":"Point","coordinates":[-94.89804969659747,29.474189563281232]},"properties":{"substrate":"Mud","lease_number":null,"poll_year":2023}},{"type":"Feature","id":"7813974f-1e7a-4971-8809-8c2163cc0c17","geometry":{"type":"Point","coordinates":[-94.89907739683986,29.472720972262323]},"properties":{"substrate":"Firm/Hard Bottom","lease_number":null,"poll_year":2026}},{"type":"Feature","id":"783110af-a4ae-4b14-bf3b-f6bc6a2f2f3d","geometry":{"type":"Point","coordinates":[-94.8939161760727,29.46606297791126]},"properties":{"substrate":"Solid Reef","lease_number":null,"poll_year":2023}},{"type":"Feature","id":"78ac28be-e4bc-4af5-ac21-2c16ce71796e","geometry":{"type":"Point","coordinates":[-94.88914578324916,29.476002833170202]},"properties":{"substrate":"Buried Shell","lease_number":null,"poll_year":2023}},{"type":"Feature","id":"78c145cf-e247-4562-b531-7e877b4ebd53","geometry":{"type":"Point","coordinates":[-94.89770133442185,29.47502868392336]},"properties":{"substrate":"Mud","lease_number":null,"poll_year":2023}},{"type":"Feature","id":"7a0ffd7c-9f99-41f3-9c5e-48ccbfb3f36c","geometry":{"type":"Point","coordinates":[-94.89451523019632,29.465311638811546]},"properties":{"substrate":"Firm/Hard Bottom","lease_number":null,"poll_year":2023}},{"type":"Feature","id":"7c5733c8-b685-4c6d-b000-aa1a98f25a0d","geometry":{"type":"Point","coordinates":[-94.88383679202231,29.468748040971153]},"properties":{"substrate":"Mud","lease_number":null,"poll_year":2024}},{"type":"Feature","id":"7f584cf8-056a-42e5-8788-ab47784b593b","geometry":{"type":"Point","coordinates":[-94.87905700012597,29.4773084999136]},"properties":{"substrate":"Mud","lease_number":null,"poll_year":2023}},{"type":"Feature","id":"8067a5c1-93ef-43ce-bea4-b70b0c5f688e","geometry":{"type":"Point","coordinates":[-94.88416232980317,29.468322416164224]},"properties":{"substrate":"Mud","lease_number":null,"poll_year":2024}},{"type":"Feature","id":"8149d825-1efe-41fe-8849-337870ae3072","geometry":{"type":"Point","coordinates":[-94.88625718397776,29.468200031788633]},"properties":{"substrate":"Mud","lease_number":null,"poll_year":2024}},{"type":"Feature","id":"81fff057-b54d-464e-985d-b21697a73f06","geometry":{"type":"Point","coordinates":[-94.89221672884517,29.466090661674716]},"properties":{"substrate":"Firm/Hard Bottom","lease_number":null,"poll_year":2023}},{"type":"Feature","id":"82b08843-f619-4f0a-bcc8-428459f15c84","geometry":{"type":"Point","coordinates":[-94.88075501633725,29.477493799940508]},"properties":{"substrate":"Solid Reef","lease_number":null,"poll_year":2023}},{"type":"Feature","id":"84f2f384-c6bf-4f64-b54b-9490c61ec358","geometry":{"type":"Point","coordinates":[-94.8926561164102,29.46633332131663]},"properties":{"substrate":"Firm/Hard Bottom","lease_number":null,"poll_year":2023}},{"type":"Feature","id":"852d011f-6ca3-4dbf-8360-c7d4d0afe21a","geometry":{"type":"Point","coordinates":[-94.8958354311688,29.46485804565564]},"properties":{"substrate":"Firm/Hard Bottom","lease_number":null,"poll_year":2023}},{"type":"Feature","id":"86a479b2-ad2a-4a11-bd22-25dc85d9e694","geometry":{"type":"Point","coordinates":[-94.89273231690248,29.475125933710213]},"properties":{"substrate":"Solid Reef","lease_number":null,"poll_year":2023}},{"type":"Feature","id":"8709c8e0-1c75-47a4-82b8-05b4c5c2d00c","geometry":{"type":"Point","coordinates":[-94.89968794429964,29.472288284639237]},"properties":{"substrate":"Firm/Hard Bottom","lease_number":null,"poll_year":2023}},{"type":"Feature","id":"8779c51a-6be5-42d7-b2a6-4478e3900f86","geometry":{"type":"Point","coordinates":[-94.89501956056651,29.464346802110068]},"properties":{"substrate":"Firm/Hard Bottom","lease_number":null,"poll_year":2023}},{"type":"Feature","id":"87bc6eb3-79d0-445e-975d-0985024433a1","geometry":{"type":"Point","coordinates":[-94.89930185288212,29.475332601612408]},"properties":{"substrate":"Firm/Hard Bottom","lease_number":null,"poll_year":2023}},{"type":"Feature","id":"87de8806-4d43-4c7a-8167-578fea629d1d","geometry":{"type":"Point","coordinates":[-94.87911764988236,29.47517745018151]},"properties":{"substrate":"Solid Reef","lease_number":null,"poll_year":2023}},{"type":"Feature","id":"884eb0dc-0cbe-4ee7-b6e1-232c232a5125","geometry":{"type":"Point","coordinates":[-94.89290184336964,29.465573720345873]},"properties":{"substrate":"Firm/Hard Bottom","lease_number":null,"poll_year":2023}},{"type":"Feature","id":"8855864b-5075-4131-827e-e9f48077c854","geometry":{"type":"Point","coordinates":[-94.89023079989038,29.47563493319153]},"properties":{"substrate":"Scattered Shell","lease_number":null,"poll_year":2023}},{"type":"Feature","id":"888fba8d-aa24-4eed-be72-8f4127c54e80","geometry":{"type":"Point","coordinates":[-94.89309321686451,29.475266700290668]},"properties":{"substrate":"Solid Reef","lease_number":null,"poll_year":2023}},{"type":"Feature","id":"89168cff-31ef-437a-bf27-d36decf17ed4","geometry":{"type":"Point","coordinates":[-94.89301487478858,29.466573631696278]},"properties":{"substrate":"Solid Reef","lease_number":null,"poll_year":2023}},{"type":"Feature","id":"8a082567-0743-4407-bc50-3c972bff4d23","geometry":{"type":"Point","coordinates":[-94.88750580000185,29.477431449648932]},"properties":{"substrate":"Buried Shell","lease_number":null,"poll_year":2023}},{"type":"Feature","id":"8af7f097-483f-4955-8adf-bd96bc7bf852","geometry":{"type":"Point","coordinates":[-94.8794326998323,29.47486321681708]},"properties":{"substrate":"Solid Reef","lease_number":null,"poll_year":2023}},{"type":"Feature","id":"8b460e6a-a4a0-4dbb-9064-73073121ee8a","geometry":{"type":"Point","coordinates":[-94.89094394993654,29.475419534390074]},"properties":{"substrate":"Mud","lease_number":null,"poll_year":2023}},{"type":"Feature","id":"8b9bb537-a6e4-4c1d-8039-80cd4d51cc87","geometry":{"type":"Point","coordinates":[-94.88429289543814,29.468274794189295]},"properties":{"substrate":"Mud","lease_number":null,"poll_year":2024}},{"type":"Feature","id":"8bddc8dc-063f-424b-9f3c-cea5fde41d73","geometry":{"type":"Point","coordinates":[-94.89506491381027,29.465468612037814]},"properties":{"substrate":"Firm/Hard Bottom","lease_number":null,"poll_year":2023}},{"type":"Feature","id":"8c66d301-ac46-482d-ab18-8f364ce02909","geometry":{"type":"Point","coordinates":[-94.87820665038642,29.475435483384455]},"properties":{"substrate":"Solid Reef","lease_number":null,"poll_year":2023}},{"type":"Feature","id":"8c9a5d55-2f02-49cc-ac61-b24e5359589c","geometry":{"type":"Point","coordinates":[-94.89518688256797,29.46465376222364]},"properties":{"substrate":"Firm/Hard Bottom","lease_number":null,"poll_year":2023}},{"type":"Feature","id":"8cc1d28b-500c-4447-832f-2cd864fea7e1","geometry":{"type":"Point","coordinates":[-94.8946602838602,29.4657472021173]},"properties":{"substrate":"Solid Reef","lease_number":null,"poll_year":2023}},{"type":"Feature","id":"8dd8c80c-bd38-46ab-968e-eee26e2b111c","geometry":{"type":"Point","coordinates":[-94.88689108375124,29.477231100132553]},"properties":{"substrate":"Mud","lease_number":null,"poll_year":2023}},{"type":"Feature","id":"8e1d9f53-4781-4385-8ee2-ff3b59bfa190","geometry":{"type":"Point","coordinates":[-94.89811406088756,29.47477865864362]},"properties":{"substrate":"Mud","lease_number":null,"poll_year":2023}},{"type":"Feature","id":"8e6c1286-dbf5-4470-af48-de3dc5567394","geometry":{"type":"Point","coordinates":[-94.88799220628718,29.46986801123338]},"properties":{"substrate":"Solid Reef","lease_number":null,"poll_year":2024}},{"type":"Feature","id":"8f2494af-fb08-4a41-ba3a-818ce320771e","geometry":{"type":"Point","coordinates":[-94.89428000184762,29.46528429505836]},"properties":{"substrate":"Firm/Hard Bottom","lease_number":null,"poll_year":2023}},{"type":"Feature","id":"900ca217-0bea-48b6-8b70-ff0566ef1562","geometry":{"type":"Point","coordinates":[-94.88882385040753,29.476192365625128]},"properties":{"substrate":"Mud","lease_number":null,"poll_year":2023}},{"type":"Feature","id":"90332673-6f11-49e0-8a76-064dd3d9c5f9","geometry":{"type":"Point","coordinates":[-94.89188289961422,29.475609749876288]},"properties":{"substrate":"Solid Reef","lease_number":null,"poll_year":2023}},{"type":"Feature","id":"90441bdf-4bdb-4a97-9f5a-f0c9fd363fbe","geometry":{"type":"Point","coordinates":[-94.89383357957558,29.465938597975622]},"properties":{"substrate":"Firm/Hard Bottom","lease_number":null,"poll_year":2023}},{"type":"Feature","id":"92b3bae5-fc46-404e-a67e-a49b6391f287","geometry":{"type":"Point","coordinates":[-94.88657281693429,29.477461817355866]},"properties":{"substrate":"Mud","lease_number":null,"poll_year":2023}},{"type":"Feature","id":"955c9b26-4fcd-4478-9d56-e2b32afe62e6","geometry":{"type":"Point","coordinates":[-94.89225866669419,29.475396434385782]},"properties":{"substrate":"Solid Reef","lease_number":null,"poll_year":2023}},{"type":"Feature","id":"957321c4-eb36-474a-ae62-bca912588987","geometry":{"type":"Point","coordinates":[-94.89202541643573,29.47599223263062]},"properties":{"substrate":"Scattered Shell","lease_number":null,"poll_year":2023}},{"type":"Feature","id":"96680443-76e4-47b0-be00-5fcaca1d77a0","geometry":{"type":"Point","coordinates":[-94.88591665511143,29.46803788372129]},"properties":{"substrate":"Mud","lease_number":null,"poll_year":2024}},{"type":"Feature","id":"97342f36-5724-4814-a5d7-373c42b8bd66","geometry":{"type":"Point","coordinates":[-94.89148503307995,29.476184767347853]},"properties":{"substrate":"Solid Reef","lease_number":null,"poll_year":2023}},{"type":"Feature","id":"978037c9-7cbf-4f82-a157-06b95fa76a6a","geometry":{"type":"Point","coordinates":[-94.87833011663571,29.476705616360658]},"properties":{"substrate":"Mud","lease_number":null,"poll_year":2023}},{"type":"Feature","id":"9811675f-f04c-4a3a-abb3-4b583c97674b","geometry":{"type":"Point","coordinates":[-94.87938276697723,29.475298549838307]},"properties":{"substrate":"Scattered Shell","lease_number":null,"poll_year":2023}},{"type":"Feature","id":"9963e860-4ce1-4b72-9b7c-83ebf6aed7e6","geometry":{"type":"Point","coordinates":[-94.89435602986337,29.465850652830024]},"properties":{"substrate":"Solid Reef","lease_number":null,"poll_year":2023}},{"type":"Feature","id":"998acd28-b076-4561-af83-e1c9b6140de0","geometry":{"type":"Point","coordinates":[-94.89838184238556,29.474509487369616]},"properties":{"substrate":"Mud","lease_number":null,"poll_year":2023}},{"type":"Feature","id":"99c1784f-9d51-4fa8-92d1-430296ee8d9c","geometry":{"type":"Point","coordinates":[-94.89976045810602,29.47585992638605]},"properties":{"substrate":"Firm/Hard Bottom","lease_number":null,"poll_year":2023}},{"type":"Feature","id":"99e16ef6-f4b7-4c73-8145-d45c0be23cfb","geometry":{"type":"Point","coordinates":[-94.88168233373031,29.477346683252062]},"properties":{"substrate":"Mud","lease_number":null,"poll_year":2023}},{"type":"Feature","id":"9a070b93-1436-47cd-aad1-8d1675930db5","geometry":{"type":"Point","coordinates":[-94.87831480036012,29.474689732655143]},"properties":{"substrate":"Scattered Shell","lease_number":null,"poll_year":2023}},{"type":"Feature","id":"9d226909-a411-4217-94e1-453f18cf7c63","geometry":{"type":"Point","coordinates":[-94.89554076758593,29.464355759832358]},"properties":{"substrate":"Firm/Hard Bottom","lease_number":null,"poll_year":2023}},{"type":"Feature","id":"9f41dd11-e5fe-4b2a-bf3c-9dc2e2c20b2c","geometry":{"type":"Point","coordinates":[-94.888157816998,29.477525350053988]},"properties":{"substrate":"Buried Shell","lease_number":null,"poll_year":2023}},{"type":"Feature","id":"9f7e9477-be3b-4787-983d-69f54018bb29","geometry":{"type":"Point","coordinates":[-94.89515846436396,29.46505440498349]},"properties":{"substrate":"Firm/Hard Bottom","lease_number":null,"poll_year":2023}},{"type":"Feature","id":"a21bc8dc-7243-4751-939c-7c31730d6a8b","geometry":{"type":"Point","coordinates":[-94.87831233358635,29.47516794989362]},"properties":{"substrate":"Solid Reef","lease_number":null,"poll_year":2023}},{"type":"Feature","id":"a27a9b7c-86ee-4171-9c97-df9750570bf5","geometry":{"type":"Point","coordinates":[-94.89907739683986,29.472720972262323]},"properties":{"substrate":"Scattered Shell","lease_number":null,"poll_year":2026}},{"type":"Feature","id":"a2e1e01a-bb84-4bf5-92aa-981886c843dc","geometry":{"type":"Point","coordinates":[-94.88729723365077,29.476954599913633]},"properties":{"substrate":"Mud","lease_number":null,"poll_year":2023}},{"type":"Feature","id":"a30d07d5-5b6b-4b05-939b-bfb9f12fc698","geometry":{"type":"Point","coordinates":[-94.89325000162766,29.46817234469053]},"properties":{"substrate":"Solid Reef","lease_number":null,"poll_year":2023}},{"type":"Feature","id":"a33ba27f-3dcd-491f-bb0d-844663e39630","geometry":{"type":"Point","coordinates":[-94.8910691670023,29.475639149961175]},"properties":{"substrate":"Solid Reef","lease_number":null,"poll_year":2023}},{"type":"Feature","id":"a352c9ee-9739-4a40-9514-2269b47c9775","geometry":{"type":"Point","coordinates":[-94.89250146694245,29.475247749781584]},"properties":{"substrate":"Solid Reef","lease_number":null,"poll_year":2023}},{"type":"Feature","id":"a431fac7-be1b-4b9d-a00f-599c4cb7f0c7","geometry":{"type":"Point","coordinates":[-94.89869098142091,29.47462339765998]},"properties":{"substrate":"Mud","lease_number":null,"poll_year":2023}},{"type":"Feature","id":"a6cce0d5-5388-476f-826d-1d23c5c0d72a","geometry":{"type":"Point","coordinates":[-94.89522446628281,29.46517160064381]},"properties":{"substrate":"Firm/Hard Bottom","lease_number":null,"poll_year":2023}},{"type":"Feature","id":"a72cf561-4a97-413e-a888-669a51a7489e","geometry":{"type":"Point","coordinates":[-94.89863434174394,29.47487492329018]},"properties":{"substrate":"Mud","lease_number":null,"poll_year":2023}},{"type":"Feature","id":"a8b2510a-114e-49c1-9e38-157c44554697","geometry":{"type":"Point","coordinates":[-94.87859099997064,29.474893666626336]},"properties":{"substrate":"Solid Reef","lease_number":null,"poll_year":2023}},{"type":"Feature","id":"a96486c1-4cf6-4aab-825d-7fbcb06986dc","geometry":{"type":"Point","coordinates":[-94.89907739683986,29.472720972262323]},"properties":{"substrate":"Scattered Shell","lease_number":null,"poll_year":2026}},{"type":"Feature","id":"a989cbcd-ff4a-42ca-9f04-7328be4b7bf4","geometry":{"type":"Point","coordinates":[-94.89278838525094,29.46577640405782]},"properties":{"substrate":"Firm/Hard Bottom","lease_number":null,"poll_year":2023}},{"type":"Feature","id":"aa13437c-183d-4dc4-ad3d-aaa7247fc5c1","geometry":{"type":"Point","coordinates":[-94.89313376861307,29.4663533481158]},"properties":{"substrate":"Solid Reef","lease_number":null,"poll_year":2023}},{"type":"Feature","id":"ae89fb63-8cf7-4158-ab62-77caad2d8912","geometry":{"type":"Point","coordinates":[-94.89230790964314,29.46630066024691]},"properties":{"substrate":"Firm/Hard Bottom","lease_number":null,"poll_year":2023}},{"type":"Feature","id":"afa2b279-3a66-4df7-8c91-e999952b134d","geometry":{"type":"Point","coordinates":[-94.89405053888638,29.465682140817428]},"properties":{"substrate":"Firm/Hard Bottom","lease_number":null,"poll_year":2023}},{"type":"Feature","id":"b04f7b61-1120-4214-b3a4-c763237de387","geometry":{"type":"Point","coordinates":[-94.8953205545772,29.46487019596668]},"properties":{"substrate":"Firm/Hard Bottom","lease_number":null,"poll_year":2023}},{"type":"Feature","id":"b0a28c8c-9309-4fac-9441-ccdd680ec8b9","geometry":{"type":"Point","coordinates":[-94.89389559117798,29.465485943039617]},"properties":{"substrate":"Firm/Hard Bottom","lease_number":null,"poll_year":2023}},{"type":"Feature","id":"b1012d1c-2ba9-4609-8265-90e868c8c1c4","geometry":{"type":"Point","coordinates":[-94.89383301992517,29.465633543082273]},"properties":{"substrate":"Firm/Hard Bottom","lease_number":null,"poll_year":2023}},{"type":"Feature","id":"b1b99f1c-2dbd-480c-9139-dad29f988591","geometry":{"type":"Point","coordinates":[-94.88730589969832,29.477101316771478]},"properties":{"substrate":"Scattered Shell","lease_number":null,"poll_year":2023}},{"type":"Feature","id":"b1e63e23-7f8e-4789-8d3d-f1abeae676ef","geometry":{"type":"Point","coordinates":[-94.87863354957238,29.477491000281912]},"properties":{"substrate":"Mud","lease_number":null,"poll_year":2023}},{"type":"Feature","id":"b46c6d21-2d0c-4759-9d00-3217076227ca","geometry":{"type":"Point","coordinates":[-94.89247605360306,29.46602148666502]},"properties":{"substrate":"Firm/Hard Bottom","lease_number":null,"poll_year":2023}},{"type":"Feature","id":"b582ebd0-eae2-4426-abab-94d111fffca9","geometry":{"type":"Point","coordinates":[-94.87870591695336,29.474752615644192]},"properties":{"substrate":"Solid Reef","lease_number":null,"poll_year":2023}},{"type":"Feature","id":"b5c324fc-eb63-48c2-8529-0a3d1a3cafe8","geometry":{"type":"Point","coordinates":[-94.89361389657286,29.46622726430896]},"properties":{"substrate":"Solid Reef","lease_number":null,"poll_year":2023}},{"type":"Feature","id":"b65a9edf-34cf-4640-88a9-2bf72bd81ae8","geometry":{"type":"Point","coordinates":[-94.89557211878935,29.465259766154574]},"properties":{"substrate":"Solid Reef","lease_number":null,"poll_year":2023}},{"type":"Feature","id":"b69f1ad3-f0fe-495b-963f-1b4ad63c95b9","geometry":{"type":"Point","coordinates":[-94.87884911559617,29.477530366758835]},"properties":{"substrate":"Mud","lease_number":null,"poll_year":2023}},{"type":"Feature","id":"b764c2eb-4522-4f27-8e5b-a14ee98f9cd5","geometry":{"type":"Point","coordinates":[-94.89405737506569,29.465962770852254]},"properties":{"substrate":"Solid Reef","lease_number":null,"poll_year":2023}},{"type":"Feature","id":"b7c7ed71-5996-466d-82c1-c3c7f33aa659","geometry":{"type":"Point","coordinates":[-94.8875752792992,29.468389377831873]},"properties":{"substrate":"Buried Shell","lease_number":null,"poll_year":2024}},{"type":"Feature","id":"b8c0a347-59d7-4a87-a694-5cfe95e86906","geometry":{"type":"Point","coordinates":[-94.8991485868199,29.47028595966367]},"properties":{"substrate":"Mud","lease_number":null,"poll_year":2023}},{"type":"Feature","id":"b8ed7cee-b699-4bcb-9c1e-3465ac7321ba","geometry":{"type":"Point","coordinates":[-94.8955363640444,29.463886766906562]},"properties":{"substrate":"Firm/Hard Bottom","lease_number":null,"poll_year":2023}},{"type":"Feature","id":"baa834f7-175c-452c-95d4-15ccb9299e2b","geometry":{"type":"Point","coordinates":[-94.89797660966595,29.4751582337603]},"properties":{"substrate":"Mud","lease_number":null,"poll_year":2023}},{"type":"Feature","id":"bb7e1264-674e-412e-8c8c-d4572624dfdd","geometry":{"type":"Point","coordinates":[-94.89303888855275,29.466192206023532]},"properties":{"substrate":"Firm/Hard Bottom","lease_number":null,"poll_year":2023}},{"type":"Feature","id":"bca38d39-1fa1-4f65-9626-b4ddc661c414","geometry":{"type":"Point","coordinates":[-94.89213506659594,29.47539373320675]},"properties":{"substrate":"Scattered Shell","lease_number":null,"poll_year":2023}},{"type":"Feature","id":"bcae7f1b-7b1d-4b42-8d9a-2af926020774","geometry":{"type":"Point","coordinates":[-94.88862373361002,29.47784895007959]},"properties":{"substrate":"Buried Shell","lease_number":null,"poll_year":2023}},{"type":"Feature","id":"bdd094c4-1ac7-4b44-8bf8-d05e5c3f2746","geometry":{"type":"Point","coordinates":[-94.89395212036219,29.465809774677105]},"properties":{"substrate":"Firm/Hard Bottom","lease_number":null,"poll_year":2023}},{"type":"Feature","id":"be749d0e-c020-4b35-b0f2-9f5f8a9ee9cd","geometry":{"type":"Point","coordinates":[-94.87851948329423,29.47730251660995]},"properties":{"substrate":"Mud","lease_number":null,"poll_year":2023}},{"type":"Feature","id":"bf3233ba-7a14-43d0-a1a8-8a0dd042d11a","geometry":{"type":"Point","coordinates":[-94.89794550280429,29.47449562395866]},"properties":{"substrate":"Mud","lease_number":null,"poll_year":2023}},{"type":"Feature","id":"c0fb074c-c791-4e9a-bc8d-245a5502d58f","geometry":{"type":"Point","coordinates":[-94.87895934966132,29.477489583248005]},"properties":{"substrate":"Mud","lease_number":null,"poll_year":2023}},{"type":"Feature","id":"c422deac-1706-44dd-accc-c26615221fce","geometry":{"type":"Point","coordinates":[-94.89488737257415,29.4646421562469]},"properties":{"substrate":"Firm/Hard Bottom","lease_number":null,"poll_year":2023}},{"type":"Feature","id":"c4be5a2d-d2e4-425e-a640-56ac6554431b","geometry":{"type":"Point","coordinates":[-94.89755466109554,29.474161414843152]},"properties":{"substrate":"Firm/Hard Bottom","lease_number":null,"poll_year":2023}},{"type":"Feature","id":"c6fada04-e609-4f61-95a5-b5ccbc5de4ed","geometry":{"type":"Point","coordinates":[-94.88987473376288,29.475766316921554]},"properties":{"substrate":"Mud","lease_number":null,"poll_year":2023}},{"type":"Feature","id":"c7337c16-25be-41d8-83ac-f5004c1aa23f","geometry":{"type":"Point","coordinates":[-94.89924435261909,29.475844861163917]},"properties":{"substrate":"Mud","lease_number":null,"poll_year":2023}},{"type":"Feature","id":"c75b2846-dcbf-4f01-b483-040df3705c3f","geometry":{"type":"Point","coordinates":[-94.89439277724671,29.464986504129083]},"properties":{"substrate":"Firm/Hard Bottom","lease_number":null,"poll_year":2023}},{"type":"Feature","id":"c7964071-8533-4d86-bf84-b6e899ae96d5","geometry":{"type":"Point","coordinates":[-94.89242393155365,29.466518273810838]},"properties":{"substrate":"Firm/Hard Bottom","lease_number":null,"poll_year":2023}},{"type":"Feature","id":"c8f36523-bc6f-4dc7-906a-deb4034d625a","geometry":{"type":"Point","coordinates":[-94.88753219340322,29.468227597653822]},"properties":{"substrate":"Buried Shell","lease_number":null,"poll_year":2024}},{"type":"Feature","id":"c97de7d0-3235-4200-bacb-67c50970705b","geometry":{"type":"Point","coordinates":[-94.87887166690307,29.474806317348044]},"properties":{"substrate":"Scattered Shell","lease_number":null,"poll_year":2023}},{"type":"Feature","id":"c9b4aea4-8e50-49ae-bb5d-97a71879afa5","geometry":{"type":"Point","coordinates":[-94.88375904373278,29.468665555725444]},"properties":{"substrate":"Mud","lease_number":null,"poll_year":2024}},{"type":"Feature","id":"c9dd3f51-dc48-4851-8199-357c81470c24","geometry":{"type":"Point","coordinates":[-94.89569208520228,29.47227032679955]},"properties":{"substrate":"Firm/Hard Bottom","lease_number":null,"poll_year":2023}},{"type":"Feature","id":"cca65af8-3d30-4d00-b4a4-a1c3eefff9f3","geometry":{"type":"Point","coordinates":[-94.89905992130474,29.475073493616108]},"properties":{"substrate":"Firm/Hard Bottom","lease_number":null,"poll_year":2023}},{"type":"Feature","id":"ccd85977-2e0b-4bcc-a6e5-b26ec3a43a2d","geometry":{"type":"Point","coordinates":[-94.89251922394068,29.466658817709103]},"properties":{"substrate":"Firm/Hard Bottom","lease_number":null,"poll_year":2023}},{"type":"Feature","id":"cd4579cd-36f0-45b1-a366-5697705b9ddd","geometry":{"type":"Point","coordinates":[-94.89365535561986,29.46573800362551]},"properties":{"substrate":"Firm/Hard Bottom","lease_number":null,"poll_year":2023}},{"type":"Feature","id":"cda76c5b-4b33-4086-9042-9a95caa67312","geometry":{"type":"Point","coordinates":[-94.87886253373158,29.4750648668642]},"properties":{"substrate":"Solid Reef","lease_number":null,"poll_year":2023}},{"type":"Feature","id":"cfe577b3-f933-4dd8-bccc-d7703db8a055","geometry":{"type":"Point","coordinates":[-94.89319893959029,29.466007933375696]},"properties":{"substrate":"Firm/Hard Bottom","lease_number":null,"poll_year":2023}},{"type":"Feature","id":"d0774ee0-240e-4255-8d5f-8f5113e2d03b","geometry":{"type":"Point","coordinates":[-94.88075798257431,29.477430882678643]},"properties":{"substrate":"Solid Reef","lease_number":null,"poll_year":2023}},{"type":"Feature","id":"d07e1aae-0e0d-4f0c-8774-f52485d5b3ca","geometry":{"type":"Point","coordinates":[-94.87801866623514,29.475484333713826]},"properties":{"substrate":"Solid Reef","lease_number":null,"poll_year":2023}},{"type":"Feature","id":"d1e2a6bb-eb8a-4579-a1e1-2c59bb9f6998","geometry":{"type":"Point","coordinates":[-94.89629310663638,29.46494539333693]},"properties":{"substrate":"Firm/Hard Bottom","lease_number":null,"poll_year":2023}},{"type":"Feature","id":"d2ead49a-8932-4b4a-b90b-136075074b81","geometry":{"type":"Point","coordinates":[-94.87855483289897,29.474590000223454]},"properties":{"substrate":"Scattered Shell","lease_number":null,"poll_year":2023}},{"type":"Feature","id":"d2fc1af2-ac00-4de4-b30c-f0f6620268cc","geometry":{"type":"Point","coordinates":[-94.89596724276707,29.465039794915956]},"properties":{"substrate":"Scattered Shell","lease_number":null,"poll_year":2023}},{"type":"Feature","id":"d44807a6-e1a3-482d-b840-c8b2873e4133","geometry":{"type":"Point","coordinates":[-94.88568124170975,29.468296783672226]},"properties":{"substrate":"Mud","lease_number":null,"poll_year":2024}},{"type":"Feature","id":"d49009ee-50a4-4edf-9ffb-09d8a3bdad01","geometry":{"type":"Point","coordinates":[-94.8870462335806,29.47708863301718]},"properties":{"substrate":"Mud","lease_number":null,"poll_year":2023}},{"type":"Feature","id":"d4ef3147-75a9-4394-b6ca-b23710db5724","geometry":{"type":"Point","coordinates":[-94.89455537410976,29.46557251431762]},"properties":{"substrate":"Firm/Hard Bottom","lease_number":null,"poll_year":2023}},{"type":"Feature","id":"d4f23de3-1328-4814-9da8-c7b270ab56de","geometry":{"type":"Point","coordinates":[-94.88140648356443,29.476953333022347]},"properties":{"substrate":"Mud","lease_number":null,"poll_year":2023}},{"type":"Feature","id":"d598fec2-dcb1-4be8-864d-d245fbc3b6d0","geometry":{"type":"Point","coordinates":[-94.89183461696435,29.475777750358112]},"properties":{"substrate":"Solid Reef","lease_number":null,"poll_year":2023}},{"type":"Feature","id":"d72778f2-12f2-4bca-a5d4-da8cd4655abd","geometry":{"type":"Point","coordinates":[-94.87949191677582,29.475266600188952]},"properties":{"substrate":"Scattered Shell","lease_number":null,"poll_year":2023}},{"type":"Feature","id":"d751bddd-9434-4c2a-8287-0b2655f1ce7d","geometry":{"type":"Point","coordinates":[-94.8945998991068,29.464333510610103]},"properties":{"substrate":"Firm/Hard Bottom","lease_number":null,"poll_year":2023}},{"type":"Feature","id":"d7db8039-8b08-443c-8814-b7db40fb3b7f","geometry":{"type":"Point","coordinates":[-94.89253099636247,29.46592252234859]},"properties":{"substrate":"Firm/Hard Bottom","lease_number":null,"poll_year":2023}},{"type":"Feature","id":"d803ea15-332d-41d3-a6f6-da9af37dff77","geometry":{"type":"Point","coordinates":[-94.88421701744105,29.46866462816006]},"properties":{"substrate":"Mud","lease_number":null,"poll_year":2024}},{"type":"Feature","id":"da9fdba6-c970-4359-a92a-7e1fdeb0cb4c","geometry":{"type":"Point","coordinates":[-94.89850851292546,29.474314244352517]},"properties":{"substrate":"Mud","lease_number":null,"poll_year":2023}},{"type":"Feature","id":"dd5d2c51-c325-481a-890d-d02e2cc3a85e","geometry":{"type":"Point","coordinates":[-94.8941393660983,29.465797076214145]},"properties":{"substrate":"Solid Reef","lease_number":null,"poll_year":2023}},{"type":"Feature","id":"ddf127ea-67d1-405f-a462-f08334213c77","geometry":{"type":"Point","coordinates":[-94.89006711696413,29.475931816963403]},"properties":{"substrate":"Buried Shell","lease_number":null,"poll_year":2023}},{"type":"Feature","id":"de9e6a09-05e5-48da-9160-fa8cf8f5a4fe","geometry":{"type":"Point","coordinates":[-94.89231802018166,29.46569641682787]},"properties":{"substrate":"Firm/Hard Bottom","lease_number":null,"poll_year":2023}},{"type":"Feature","id":"dfc0ebf7-3b2d-40bd-ad98-488dc9bfef67","geometry":{"type":"Point","coordinates":[-94.88102548289963,29.477541833623636]},"properties":{"substrate":"Solid Reef","lease_number":null,"poll_year":2023}},{"type":"Feature","id":"e155f0aa-c242-4eee-8946-3c96a15329c5","geometry":{"type":"Point","coordinates":[-94.89207384640933,29.465848201674266]},"properties":{"substrate":"Firm/Hard Bottom","lease_number":null,"poll_year":2023}},{"type":"Feature","id":"e2ad72e2-bd62-48cc-be51-d217012e9c92","geometry":{"type":"Point","coordinates":[-94.8904541336464,29.475832333660435]},"properties":{"substrate":"Buried Shell","lease_number":null,"poll_year":2023}},{"type":"Feature","id":"e2b84e74-9371-4fb1-b268-47da1e58048e","geometry":{"type":"Point","coordinates":[-94.89129868296415,29.476147500120163]},"properties":{"substrate":"Scattered Shell","lease_number":null,"poll_year":2023}},{"type":"Feature","id":"e2db56fa-e2bb-4221-8198-171bbf63b39d","geometry":{"type":"Point","coordinates":[-94.89979385207837,29.475129302763406]},"properties":{"substrate":"Mud","lease_number":null,"poll_year":2023}},{"type":"Feature","id":"e6268ddf-4549-42bc-a836-2ef083e18ee7","geometry":{"type":"Point","coordinates":[-94.88405307130843,29.46863120920819]},"properties":{"substrate":"Mud","lease_number":null,"poll_year":2024}},{"type":"Feature","id":"e6872061-5b26-429e-a283-6e546431174d","geometry":{"type":"Point","coordinates":[-94.89494477042922,29.465299153023278]},"properties":{"substrate":"Firm/Hard Bottom","lease_number":null,"poll_year":2023}},{"type":"Feature","id":"e7ac98a0-6aa5-45c0-82f2-16a924b88a47","geometry":{"type":"Point","coordinates":[-94.87916735007377,29.474730399985162]},"properties":{"substrate":"Scattered Shell","lease_number":null,"poll_year":2023}},{"type":"Feature","id":"e8446ba9-1a2c-4258-8025-750866a525f1","geometry":{"type":"Point","coordinates":[-94.89304112176455,29.466418739818895]},"properties":{"substrate":"Solid Reef","lease_number":null,"poll_year":2023}},{"type":"Feature","id":"ea404468-a052-4a52-b235-0b95e3a368db","geometry":{"type":"Point","coordinates":[-94.89125381660727,29.47594651696024]},"properties":{"substrate":"Solid Reef","lease_number":null,"poll_year":2023}},{"type":"Feature","id":"eaa77c3c-566b-4487-8ca6-56b04ba64d37","geometry":{"type":"Point","coordinates":[-94.88793379423414,29.46966651274178]},"properties":{"substrate":"Solid Reef","lease_number":null,"poll_year":2024}},{"type":"Feature","id":"eaaa2d06-b5f1-4ab6-8dbc-c32cd7e25bb8","geometry":{"type":"Point","coordinates":[-94.89315498322682,29.467934239714605]},"properties":{"substrate":"Scattered Shell","lease_number":null,"poll_year":2023}},{"type":"Feature","id":"ec3ea58f-eea0-40e1-b899-70055149f2f0","geometry":{"type":"Point","coordinates":[-94.89274453309203,29.475287032668902]},"properties":{"substrate":"Solid Reef","lease_number":null,"poll_year":2023}},{"type":"Feature","id":"ec68de71-993e-489b-ba56-a636f60d1e50","geometry":{"type":"Point","coordinates":[-94.89351110864311,29.466088642252537]},"properties":{"substrate":"Solid Reef","lease_number":null,"poll_year":2023}},{"type":"Feature","id":"ecdef039-5933-475b-8ff3-92d53f1fb9aa","geometry":{"type":"Point","coordinates":[-94.87927155015515,29.47770420031704]},"properties":{"substrate":"Mud","lease_number":null,"poll_year":2023}},{"type":"Feature","id":"ed055eaa-08cb-4312-b1fc-2a3192992efa","geometry":{"type":"Point","coordinates":[-94.88578860565755,29.46808698710508]},"properties":{"substrate":"Mud","lease_number":null,"poll_year":2024}},{"type":"Feature","id":"ed63b495-7955-49a8-b1c0-385b8fc7d07e","geometry":{"type":"Point","coordinates":[-94.88746782282492,29.46802404914521]},"properties":{"substrate":"Mud","lease_number":null,"poll_year":2024}},{"type":"Feature","id":"ee63834a-7db4-4a5a-b728-170c27aa73e1","geometry":{"type":"Point","coordinates":[-94.88411876600347,29.46868881602876]},"properties":{"substrate":"Mud","lease_number":null,"poll_year":2024}},{"type":"Feature","id":"ee7efd72-c58b-4f29-9134-da8fdd816748","geometry":{"type":"Point","coordinates":[-94.89550159564966,29.465107985120213]},"properties":{"substrate":"Firm/Hard Bottom","lease_number":null,"poll_year":2023}},{"type":"Feature","id":"ef4b6d4f-5534-402a-9c5a-bbac8c37e2ef","geometry":{"type":"Point","coordinates":[-94.8942061980605,29.465926742650648]},"properties":{"substrate":"Solid Reef","lease_number":null,"poll_year":2023}},{"type":"Feature","id":"f13ff722-a6a7-4241-9308-bd48dc20da35","geometry":{"type":"Point","coordinates":[-94.89664728360682,29.473291305722437]},"properties":{"substrate":"Scattered Shell","lease_number":null,"poll_year":2023}},{"type":"Feature","id":"f201bf6c-f7b0-4395-803b-3fb279e60391","geometry":{"type":"Point","coordinates":[-94.8902974162569,29.475804500058885]},"properties":{"substrate":"Scattered Shell","lease_number":null,"poll_year":2023}},{"type":"Feature","id":"f2a888f7-d6e3-4988-9287-e238fe798437","geometry":{"type":"Point","coordinates":[-94.89305100233436,29.465798588047754]},"properties":{"substrate":"Firm/Hard Bottom","lease_number":null,"poll_year":2023}},{"type":"Feature","id":"f42dc11b-7863-44f9-8480-b186a3e2b6cb","geometry":{"type":"Point","coordinates":[-94.88778548327905,29.47766078301182]},"properties":{"substrate":"Mud","lease_number":null,"poll_year":2023}},{"type":"Feature","id":"f49d226a-62f0-4bab-b52b-11438d1052b1","geometry":{"type":"Point","coordinates":[-94.89474409667622,29.465121044228127]},"properties":{"substrate":"Firm/Hard Bottom","lease_number":null,"poll_year":2023}},{"type":"Feature","id":"f522a9b8-860f-4d49-80ab-f1ec238a8ed7","geometry":{"type":"Point","coordinates":[-94.89087046684799,29.475698750133617]},"properties":{"substrate":"Solid Reef","lease_number":null,"poll_year":2023}},{"type":"Feature","id":"f55b6d21-6e80-44e7-a069-9fb36021e6db","geometry":{"type":"Point","coordinates":[-94.89266531875197,29.46551715432149]},"properties":{"substrate":"Firm/Hard Bottom","lease_number":null,"poll_year":2023}},{"type":"Feature","id":"f67b089d-2a91-4e96-ab5c-43e4dcc33d9d","geometry":{"type":"Point","coordinates":[-94.89436021870753,29.470615650179848]},"properties":{"substrate":"Firm/Hard Bottom","lease_number":null,"poll_year":2023}},{"type":"Feature","id":"f6b60f77-3a47-46a5-9b20-0bf818be9100","geometry":{"type":"Point","coordinates":[-94.89329062434314,29.465735765985304]},"properties":{"substrate":"Firm/Hard Bottom","lease_number":null,"poll_year":2023}},{"type":"Feature","id":"f7b50fcd-c1b6-4f8d-9671-efb60d078b63","geometry":{"type":"Point","coordinates":[-94.89738705432814,29.47399207202321]},"properties":{"substrate":"Firm/Hard Bottom","lease_number":null,"poll_year":2023}},{"type":"Feature","id":"f7bb80be-9ad3-4d4c-b697-95dd4784c736","geometry":{"type":"Point","coordinates":[-94.8780485163537,29.47536215036604]},"properties":{"substrate":"Solid Reef","lease_number":null,"poll_year":2023}},{"type":"Feature","id":"f87f4067-a294-4c1a-8d33-e87b0c9c581e","geometry":{"type":"Point","coordinates":[-94.88034468298346,29.475598299997834]},"properties":{"substrate":"Mud","lease_number":null,"poll_year":2023}},{"type":"Feature","id":"fa37801e-fa13-4873-86a4-14bb7a9ff363","geometry":{"type":"Point","coordinates":[-94.88830178370038,29.477583650170892]},"properties":{"substrate":"Mud","lease_number":null,"poll_year":2023}},{"type":"Feature","id":"fa4bfd57-29d4-436b-82b0-626473ba1079","geometry":{"type":"Point","coordinates":[-94.89266133741862,29.465285346229948]},"properties":{"substrate":"Firm/Hard Bottom","lease_number":null,"poll_year":2023}},{"type":"Feature","id":"fc9a61a0-19b6-4075-b100-2970ab2a401d","geometry":{"type":"Point","coordinates":[-94.89566864186833,29.464539764866274]},"properties":{"substrate":"Firm/Hard Bottom","lease_number":null,"poll_year":2023}},{"type":"Feature","id":"ff5a9119-edcb-4220-bf8e-c2bc529e1ee3","geometry":{"type":"Point","coordinates":[-94.88718683339731,29.477597833008453]},"properties":{"substrate":"Buried Shell","lease_number":null,"poll_year":2023}},{"type":"Feature","id":"ff613bd9-dd2b-4f60-b7d0-1a0707210f22","geometry":{"type":"Point","coordinates":[-94.8788240669728,29.47488281571553]},"properties":{"substrate":"Solid Reef","lease_number":null,"poll_year":2023}}]}