{"type":"FeatureCollection","features":[{"type":"Feature","id":"25bdf8e8-daeb-4ad3-a631-74be8e863524","geometry":{"type":"Point","coordinates":[-94.88551029231118,29.516180028656223]},"properties":{"substrate":"Mud","lease_number":null,"poll_year":2026}},{"type":"Feature","id":"3c13b9c8-8c2f-406a-8c78-dc2df19c92eb","geometry":{"type":"Point","coordinates":[-94.88516625911693,29.51624201270149]},"properties":{"substrate":"Mud","lease_number":null,"poll_year":2026}},{"type":"Feature","id":"99a611f7-ebb0-4ae0-b3d1-6b0aaa6aa85e","geometry":{"type":"Point","coordinates":[-94.88573328560574,29.51643568807162]},"properties":{"substrate":"Mud","lease_number":null,"poll_year":2026}},{"type":"Feature","id":"b4bf472a-e73b-483c-be42-e01cc9b2c18e","geometry":{"type":"Point","coordinates":[-94.88561411150688,29.516304738568618]},"properties":{"substrate":"Mud","lease_number":null,"poll_year":2026}}]}