{"type":"FeatureCollection","features":[{"type":"Feature","id":"02c67971-45a4-4bef-b926-46bea17c6e15","geometry":{"type":"Point","coordinates":[-94.86425500015041,29.476953333022347]},"properties":{"substrate":"Solid Reef","lease_number":null,"poll_year":2024}},{"type":"Feature","id":"04081fcc-89be-4a9f-b356-709be5760fef","geometry":{"type":"Point","coordinates":[-94.86355833329138,29.476934999851707]},"properties":{"substrate":"Solid Reef","lease_number":null,"poll_year":2024}},{"type":"Feature","id":"0dc8de9d-c1cc-4f48-83cc-8004dc75e60b","geometry":{"type":"Point","coordinates":[-94.86224333356441,29.47674999988612]},"properties":{"substrate":"Solid Reef","lease_number":null,"poll_year":2024}},{"type":"Feature","id":"13b1d1b2-6aa9-41a2-b861-2724df1017f5","geometry":{"type":"Point","coordinates":[-94.87776791679494,29.47647468313849]},"properties":{"substrate":"Buried Shell","lease_number":null,"poll_year":2023}},{"type":"Feature","id":"1a3966a9-8bfc-4efe-b033-b813c9e857c8","geometry":{"type":"Point","coordinates":[-94.86290666663818,29.476766667359666]},"properties":{"substrate":"Solid Reef","lease_number":null,"poll_year":2024}},{"type":"Feature","id":"21ed9a6b-1a24-40a3-909d-4826b2bcda9d","geometry":{"type":"Point","coordinates":[-94.86630499964622,29.476965000152482]},"properties":{"substrate":"Scattered Shell","lease_number":null,"poll_year":2024}},{"type":"Feature","id":"225b77e3-4e29-4306-9176-26e41cec43b6","geometry":{"type":"Point","coordinates":[-94.8632900002278,29.4767733326278]},"properties":{"substrate":"Solid Reef","lease_number":null,"poll_year":2024}},{"type":"Feature","id":"2266f598-de1a-457e-9700-283aa7d327e3","geometry":{"type":"Point","coordinates":[-94.86443833372347,29.47678000024164]},"properties":{"substrate":"Solid Reef","lease_number":null,"poll_year":2024}},{"type":"Feature","id":"23c02ddc-2af7-4c96-a32f-825ccb4b4777","geometry":{"type":"Point","coordinates":[-94.86145333444229,29.47670833314538]},"properties":{"substrate":"Solid Reef","lease_number":null,"poll_year":2024}},{"type":"Feature","id":"26b82d92-25d1-47b6-a2ed-01819e521321","geometry":{"type":"Point","coordinates":[-94.86244166630777,29.47685166728724]},"properties":{"substrate":"Solid Reef","lease_number":null,"poll_year":2024}},{"type":"Feature","id":"27499ba7-ccda-4a6d-955c-7b2cd8650a45","geometry":{"type":"Point","coordinates":[-94.86615999988126,29.476951667294777]},"properties":{"substrate":"Scattered Shell","lease_number":null,"poll_year":2024}},{"type":"Feature","id":"34395f25-8ae3-4f4e-bbf0-49c8fd7c1b29","geometry":{"type":"Point","coordinates":[-94.87678674989215,29.474990617018783]},"properties":{"substrate":"Mud","lease_number":null,"poll_year":2023}},{"type":"Feature","id":"3785ffb6-4149-4775-bf27-3bd78d2b4b93","geometry":{"type":"Point","coordinates":[-94.86176666681341,29.476746666860286]},"properties":{"substrate":"Solid Reef","lease_number":null,"poll_year":2024}},{"type":"Feature","id":"3923a83c-36dc-4050-8b6d-24d92df481ec","geometry":{"type":"Point","coordinates":[-94.86392999956209,29.47688000031994]},"properties":{"substrate":"Solid Reef","lease_number":null,"poll_year":2024}},{"type":"Feature","id":"39e31c26-f7b1-40e0-a720-b747f44cc492","geometry":{"type":"Point","coordinates":[-94.8767121501977,29.475412633637724]},"properties":{"substrate":"Mud","lease_number":null,"poll_year":2023}},{"type":"Feature","id":"3b579b25-7456-48d9-8698-ee51b09ac5a1","geometry":{"type":"Point","coordinates":[-94.86538833357747,29.47673833429528]},"properties":{"substrate":"Solid Reef","lease_number":null,"poll_year":2024}},{"type":"Feature","id":"3cdfc759-6eeb-4427-b505-779d06b1c63a","geometry":{"type":"Point","coordinates":[-94.87765023300113,29.47639576635295]},"properties":{"substrate":"Buried Shell","lease_number":null,"poll_year":2023}},{"type":"Feature","id":"3e2d08ac-8487-42c4-906f-715ba1a02766","geometry":{"type":"Point","coordinates":[-94.86425666742358,29.476791666609735]},"properties":{"substrate":"Solid Reef","lease_number":null,"poll_year":2024}},{"type":"Feature","id":"4d318774-742b-4d85-b7b0-e51dba1b2168","geometry":{"type":"Point","coordinates":[-94.86243476365314,29.4769007843891]},"properties":{"substrate":"Solid Reef","lease_number":null,"poll_year":2024}},{"type":"Feature","id":"501b84c6-63af-4c86-9c40-443ef5a06955","geometry":{"type":"Point","coordinates":[-94.86288428960447,29.476743038225752]},"properties":{"substrate":"Solid Reef","lease_number":null,"poll_year":2024}},{"type":"Feature","id":"52adc338-541c-4b4f-b19a-a29c528c47bf","geometry":{"type":"Point","coordinates":[-94.87711674960504,29.47551446660919]},"properties":{"substrate":"Mud","lease_number":null,"poll_year":2023}},{"type":"Feature","id":"5328d3ed-1bde-4269-b8ea-66860a6829e2","geometry":{"type":"Point","coordinates":[-94.86218382466839,29.476941804310464]},"properties":{"substrate":"Solid Reef","lease_number":null,"poll_year":2024}},{"type":"Feature","id":"566c2bf7-787b-434f-b181-bf9320be4c7b","geometry":{"type":"Point","coordinates":[-94.8641116667603,29.47679666692821]},"properties":{"substrate":"Solid Reef","lease_number":null,"poll_year":2024}},{"type":"Feature","id":"5b3e36de-4d6c-4846-b0ec-b88a581ee4e5","geometry":{"type":"Point","coordinates":[-94.86360666624692,29.47677666565276]},"properties":{"substrate":"Solid Reef","lease_number":null,"poll_year":2024}},{"type":"Feature","id":"618bdbbb-806a-448a-b6bc-d64048332b3a","geometry":{"type":"Point","coordinates":[-94.8627583332252,29.476753333693832]},"properties":{"substrate":"Solid Reef","lease_number":null,"poll_year":2024}},{"type":"Feature","id":"623408a4-5293-428e-b8c6-c76e9d9b1460","geometry":{"type":"Point","coordinates":[-94.86466666660408,29.476861666353994]},"properties":{"substrate":"Solid Reef","lease_number":null,"poll_year":2024}},{"type":"Feature","id":"66e73804-46d4-42d1-972d-c827567d3011","geometry":{"type":"Point","coordinates":[-94.86090666557445,29.477620000335456]},"properties":{"substrate":"Mud","lease_number":null,"poll_year":2024}},{"type":"Feature","id":"7919640a-9082-4611-8911-8b6435c2f06e","geometry":{"type":"Point","coordinates":[-94.8608516662212,29.477811667041227]},"properties":{"substrate":"Mud","lease_number":null,"poll_year":2024}},{"type":"Feature","id":"7e881517-1037-4b9d-9a24-e8ff3f63bbe7","geometry":{"type":"Point","coordinates":[-94.86110000009158,29.47651500018274]},"properties":{"substrate":"Mud","lease_number":null,"poll_year":2024}},{"type":"Feature","id":"81ece28b-a346-435c-afdb-36c626d537d7","geometry":{"type":"Point","coordinates":[-94.86091578886449,29.477839291291026]},"properties":{"substrate":"Mud","lease_number":null,"poll_year":2024}},{"type":"Feature","id":"822fa406-c4f2-41df-a3ee-552ba248cc3b","geometry":{"type":"Point","coordinates":[-94.86513666695737,29.4769133336574]},"properties":{"substrate":"Solid Reef","lease_number":null,"poll_year":2024}},{"type":"Feature","id":"89a1dd1b-2b8b-41ed-adb2-f438d96d25c3","geometry":{"type":"Point","coordinates":[-94.86161333337756,29.476878333027134]},"properties":{"substrate":"Solid Reef","lease_number":null,"poll_year":2024}},{"type":"Feature","id":"8c4c151e-1719-432b-a634-b2fef9cb044d","geometry":{"type":"Point","coordinates":[-94.86240166702312,29.47673833429528]},"properties":{"substrate":"Solid Reef","lease_number":null,"poll_year":2024}},{"type":"Feature","id":"8e5f2f8a-d47a-4da2-8dd9-f97a60c033ed","geometry":{"type":"Point","coordinates":[-94.86216998791808,29.47684870103802]},"properties":{"substrate":"Solid Reef","lease_number":null,"poll_year":2024}},{"type":"Feature","id":"908a9bb7-9dcc-4c9c-80c2-8dc377f645e7","geometry":{"type":"Point","coordinates":[-94.86256999962926,29.476723333330412]},"properties":{"substrate":"Solid Reef","lease_number":null,"poll_year":2024}},{"type":"Feature","id":"92e61dc2-6944-41e9-8c9c-4f644a7ab2ad","geometry":{"type":"Point","coordinates":[-94.86341333442473,29.476768333090217]},"properties":{"substrate":"Solid Reef","lease_number":null,"poll_year":2024}},{"type":"Feature","id":"9ea3c176-a0d5-4acb-ac12-15d0b514a95b","geometry":{"type":"Point","coordinates":[-94.86101833335078,29.476639999809937]},"properties":{"substrate":"Mud","lease_number":null,"poll_year":2024}},{"type":"Feature","id":"9f014bdb-392c-4310-9478-bfec4c390d5b","geometry":{"type":"Point","coordinates":[-94.8775112169143,29.476303166992693]},"properties":{"substrate":"Buried Shell","lease_number":null,"poll_year":2023}},{"type":"Feature","id":"aebdc944-b95f-48ec-a2b2-01130ded1bc3","geometry":{"type":"Point","coordinates":[-94.87765335015516,29.475605483054693]},"properties":{"substrate":"Solid Reef","lease_number":null,"poll_year":2023}},{"type":"Feature","id":"aef6f141-4882-4227-b89b-bf7d8d8d28bc","geometry":{"type":"Point","coordinates":[-94.86508166670579,29.476688332634538]},"properties":{"substrate":"Solid Reef","lease_number":null,"poll_year":2024}},{"type":"Feature","id":"af8daf36-d7c1-4c9a-afde-9215e469e0d6","geometry":{"type":"Point","coordinates":[-94.87791886700033,29.474451532715285]},"properties":{"substrate":"Mud","lease_number":null,"poll_year":2023}},{"type":"Feature","id":"af8dc1d6-47a1-482f-b6a6-46144e2c0039","geometry":{"type":"Point","coordinates":[-94.86553333334243,29.476786666290952]},"properties":{"substrate":"Solid Reef","lease_number":null,"poll_year":2024}},{"type":"Feature","id":"aff1cd0e-f4e0-4268-ae81-0cce0b5035c7","geometry":{"type":"Point","coordinates":[-94.86124666623141,29.476563333066945]},"properties":{"substrate":"Mud","lease_number":null,"poll_year":2024}},{"type":"Feature","id":"b2af7cd3-6da1-4cbd-9b74-8dafbb5a289a","geometry":{"type":"Point","coordinates":[-94.86317166695204,29.476778332947188]},"properties":{"substrate":"Solid Reef","lease_number":null,"poll_year":2024}},{"type":"Feature","id":"b3ace6d3-847e-4e90-b287-bbc1a735aecd","geometry":{"type":"Point","coordinates":[-94.86490833317843,29.476723333330412]},"properties":{"substrate":"Solid Reef","lease_number":null,"poll_year":2024}},{"type":"Feature","id":"b4ac7069-03d2-43fc-9aae-1f07af48ef77","geometry":{"type":"Point","coordinates":[-94.8630510708201,29.4768898906814]},"properties":{"substrate":"Solid Reef","lease_number":null,"poll_year":2024}},{"type":"Feature","id":"b5fd8451-10ce-4335-8dea-e16aa7e3dc2e","geometry":{"type":"Point","coordinates":[-94.86206333363934,29.47674166732138]},"properties":{"substrate":"Solid Reef","lease_number":null,"poll_year":2024}},{"type":"Feature","id":"bac4c146-79b6-48f4-a65c-a198c9a23eb9","geometry":{"type":"Point","coordinates":[-94.86099999963416,29.477055000219536]},"properties":{"substrate":"Mud","lease_number":null,"poll_year":2024}},{"type":"Feature","id":"bd4a8c67-0eeb-452a-8bbd-35794c6ecef3","geometry":{"type":"Point","coordinates":[-94.87768416686099,29.475211865647307]},"properties":{"substrate":"Solid Reef","lease_number":null,"poll_year":2023}},{"type":"Feature","id":"bd6987ea-0862-4a30-af17-81c328bd8a29","geometry":{"type":"Point","coordinates":[-94.86565166661818,29.47684333316677]},"properties":{"substrate":"Solid Reef","lease_number":null,"poll_year":2024}},{"type":"Feature","id":"beef269a-1104-4c61-80ae-26fc08c045b0","geometry":{"type":"Point","coordinates":[-94.86617666632472,29.476873332712685]},"properties":{"substrate":"Mud","lease_number":null,"poll_year":2024}},{"type":"Feature","id":"c143d19f-d83a-4116-995f-23589d015aa0","geometry":{"type":"Point","coordinates":[-94.87752283302923,29.475145283085276]},"properties":{"substrate":"Mud","lease_number":null,"poll_year":2023}},{"type":"Feature","id":"c56c5174-7305-47e1-b12b-dc7ac2d0194d","geometry":{"type":"Point","coordinates":[-94.86190333290747,29.47673666700014]},"properties":{"substrate":"Solid Reef","lease_number":null,"poll_year":2024}},{"type":"Feature","id":"c793bf35-385f-4023-8698-c6579abfab33","geometry":{"type":"Point","coordinates":[-94.8778656337349,29.475292516365133]},"properties":{"substrate":"Solid Reef","lease_number":null,"poll_year":2023}},{"type":"Feature","id":"cb65ec32-16db-4af1-89b3-b77f22aae30f","geometry":{"type":"Point","coordinates":[-94.86599000000196,29.476923334282155]},"properties":{"substrate":"Mud","lease_number":null,"poll_year":2024}},{"type":"Feature","id":"d11b7a25-3f57-4a8b-b730-5855b1b09709","geometry":{"type":"Point","coordinates":[-94.86096333309922,29.477400000387885]},"properties":{"substrate":"Mud","lease_number":null,"poll_year":2024}},{"type":"Feature","id":"d7dfadad-3483-45ab-9986-6878ec8b6f4a","geometry":{"type":"Point","coordinates":[-94.86159666693409,29.47675500020665]},"properties":{"substrate":"Solid Reef","lease_number":null,"poll_year":2024}},{"type":"Feature","id":"dd73524d-7a53-49f4-82d0-240769f5b40f","geometry":{"type":"Point","coordinates":[-94.86460166630674,29.476766667359666]},"properties":{"substrate":"Solid Reef","lease_number":null,"poll_year":2024}},{"type":"Feature","id":"de2f84d6-fba1-4045-add7-65a56eab76f5","geometry":{"type":"Point","coordinates":[-94.86379166709317,29.476786666290952]},"properties":{"substrate":"Solid Reef","lease_number":null,"poll_year":2024}},{"type":"Feature","id":"e1c3028e-c51a-453b-9245-c768a12814d9","geometry":{"type":"Point","coordinates":[-94.87745474971385,29.47601013428624]},"properties":{"substrate":"Buried Shell","lease_number":null,"poll_year":2023}},{"type":"Feature","id":"e1fdabd1-b583-4a01-9ed3-4578dfd1dc86","geometry":{"type":"Point","coordinates":[-94.86098499956555,29.477239999628466]},"properties":{"substrate":"Mud","lease_number":null,"poll_year":2024}},{"type":"Feature","id":"ea392d62-889e-4db1-adff-1289d1c9a66e","geometry":{"type":"Point","coordinates":[-94.87773383291642,29.4754947669493]},"properties":{"substrate":"Solid Reef","lease_number":null,"poll_year":2023}},{"type":"Feature","id":"eada65c6-a5dd-4452-bdc3-53595c45434c","geometry":{"type":"Point","coordinates":[-94.86580500005402,29.476890000165888]},"properties":{"substrate":"Solid Reef","lease_number":null,"poll_year":2024}},{"type":"Feature","id":"f0e7cf34-0d4d-4efb-87a1-4c908a684894","geometry":{"type":"Point","coordinates":[-94.86098499956555,29.476849999993963]},"properties":{"substrate":"Mud","lease_number":null,"poll_year":2024}},{"type":"Feature","id":"f253400e-13ed-4522-ac11-b99a6ed9ddb2","geometry":{"type":"Point","coordinates":[-94.86394499963069,29.476801665682412]},"properties":{"substrate":"Solid Reef","lease_number":null,"poll_year":2024}},{"type":"Feature","id":"faef4f09-ea48-4e7a-ba88-d181950ae325","geometry":{"type":"Point","coordinates":[-94.86134500031397,29.476639999809937]},"properties":{"substrate":"Solid Reef","lease_number":null,"poll_year":2024}},{"type":"Feature","id":"fe802af0-a1d4-476d-bff3-9245e33ba4db","geometry":{"type":"Point","coordinates":[-94.8652583329828,29.476703334386574]},"properties":{"substrate":"Solid Reef","lease_number":null,"poll_year":2024}},{"type":"Feature","id":"feff9320-7177-4f7f-88e9-f6fdbd4b85f8","geometry":{"type":"Point","coordinates":[-94.87741370029862,29.475525350298152]},"properties":{"substrate":"Scattered Shell","lease_number":null,"poll_year":2023}}]}