{"type":"FeatureCollection","features":[{"type":"Feature","id":"01e800dc-851e-459b-8229-62461bde59e5","geometry":{"type":"Point","coordinates":[-94.8593273581347,29.65055789462421]},"properties":{"substrate":"Scattered Shell","lease_number":null,"poll_year":2025}},{"type":"Feature","id":"020ae3cf-c316-4482-aba4-1e2bf135a608","geometry":{"type":"Point","coordinates":[-94.85970426697341,29.64987731832206]},"properties":{"substrate":"Mud","lease_number":null,"poll_year":2025}},{"type":"Feature","id":"0220c6ca-1194-4b78-8633-e2ba68f7551d","geometry":{"type":"Point","coordinates":[-94.85858565244226,29.650189785155302]},"properties":{"substrate":"Mud","lease_number":null,"poll_year":2025}},{"type":"Feature","id":"0606408b-1870-4132-bd91-3c6efc80f6ac","geometry":{"type":"Point","coordinates":[-94.85798705556111,29.65024600430314]},"properties":{"substrate":"Mud","lease_number":null,"poll_year":2025}},{"type":"Feature","id":"08a4d3c0-3726-4538-aac9-a6131a7d1965","geometry":{"type":"Point","coordinates":[-94.85894439914256,29.650297986610898]},"properties":{"substrate":"Mud","lease_number":null,"poll_year":2025}},{"type":"Feature","id":"0a1bc842-c6ff-4049-b725-81f30a5b4167","geometry":{"type":"Point","coordinates":[-94.85735421310471,29.65025937129637]},"properties":{"substrate":"Buried Shell","lease_number":null,"poll_year":2025}},{"type":"Feature","id":"0a7e0661-37ab-4a3b-ab27-d6ffb3b9b2fd","geometry":{"type":"Point","coordinates":[-94.85896763855897,29.65051166300681]},"properties":{"substrate":"Buried Shell","lease_number":null,"poll_year":2025}},{"type":"Feature","id":"0c7c76a3-e441-4603-9c20-6ac842761113","geometry":{"type":"Point","coordinates":[-94.85861750490561,29.649931508621794]},"properties":{"substrate":"Mud","lease_number":null,"poll_year":2025}},{"type":"Feature","id":"0d6a2c88-b7bd-4dad-ab6a-cbb4d16362d4","geometry":{"type":"Point","coordinates":[-94.86014805269008,29.650190863290383]},"properties":{"substrate":"Mud","lease_number":null,"poll_year":2025}},{"type":"Feature","id":"0dd745b7-7eaf-4db0-9489-5a0876ecd98d","geometry":{"type":"Point","coordinates":[-94.85908678301341,29.650312583185]},"properties":{"substrate":"Mud","lease_number":null,"poll_year":2023}},{"type":"Feature","id":"0e8d9dc3-627d-4514-a120-abfecb57084b","geometry":{"type":"Point","coordinates":[-94.85672959921631,29.65030527279748]},"properties":{"substrate":"Mud","lease_number":null,"poll_year":2025}},{"type":"Feature","id":"0f210615-8302-454b-9588-a64a58371e94","geometry":{"type":"Point","coordinates":[-94.85736449971303,29.65023536738549]},"properties":{"substrate":"Buried Shell","lease_number":null,"poll_year":2024}},{"type":"Feature","id":"0f502bed-4cbe-4f0e-8d22-c3b9e3308668","geometry":{"type":"Point","coordinates":[-94.85874683356045,29.650113147754457]},"properties":{"substrate":"Mud","lease_number":null,"poll_year":2025}},{"type":"Feature","id":"189fb595-0d2b-4e2e-af4a-afdd55062c52","geometry":{"type":"Point","coordinates":[-94.86002329196845,29.650253435702037]},"properties":{"substrate":"Mud","lease_number":null,"poll_year":2025}},{"type":"Feature","id":"19099c00-436d-4077-9471-1156e0b64f70","geometry":{"type":"Point","coordinates":[-94.85760048803648,29.6501491118954]},"properties":{"substrate":"Buried Shell","lease_number":null,"poll_year":2025}},{"type":"Feature","id":"193edcbf-7346-4274-acb3-fbfa92c1753d","geometry":{"type":"Point","coordinates":[-94.85912254943645,29.650731197227536]},"properties":{"substrate":"Mud","lease_number":null,"poll_year":2025}},{"type":"Feature","id":"1ad292ec-4f61-435c-94be-b4cee09bd4db","geometry":{"type":"Point","coordinates":[-94.8584985392159,29.650481152110615]},"properties":{"substrate":"Mud","lease_number":null,"poll_year":2025}},{"type":"Feature","id":"1be5ba8b-7378-496a-8ed0-c47eb91d7e78","geometry":{"type":"Point","coordinates":[-94.85834259168259,29.65007135338918]},"properties":{"substrate":"Buried Shell","lease_number":null,"poll_year":2025}},{"type":"Feature","id":"1e4348a6-e27a-4dee-9bc4-f841c1662fb4","geometry":{"type":"Point","coordinates":[-94.85892152444215,29.65000706333971]},"properties":{"substrate":"Mud","lease_number":null,"poll_year":2025}},{"type":"Feature","id":"1eedf2ab-967e-4154-86c5-3fbe917f9bab","geometry":{"type":"Point","coordinates":[-94.85700191630815,29.65061216731049]},"properties":{"substrate":"Buried Shell","lease_number":null,"poll_year":2024}},{"type":"Feature","id":"1f1d62d4-80c1-489d-a589-c7b135a7fd9e","geometry":{"type":"Point","coordinates":[-94.85858105037306,29.650241566854433]},"properties":{"substrate":"Mud","lease_number":null,"poll_year":2023}},{"type":"Feature","id":"22d5ddd8-4dbb-448a-9369-a5e6085fbd4c","geometry":{"type":"Point","coordinates":[-94.85904429988699,29.649929749719103]},"properties":{"substrate":"Mud","lease_number":null,"poll_year":2023}},{"type":"Feature","id":"244d9984-b666-453d-b12d-4af6174aa11e","geometry":{"type":"Point","coordinates":[-94.85883866563698,29.650587446811663]},"properties":{"substrate":"Buried Shell","lease_number":null,"poll_year":2025}},{"type":"Feature","id":"266a6cad-e754-49d0-9fc2-152d0580df0c","geometry":{"type":"Point","coordinates":[-94.85934967857457,29.650092137763952]},"properties":{"substrate":"Mud","lease_number":null,"poll_year":2025}},{"type":"Feature","id":"27d400d8-0d6f-42ca-a976-18215b7108da","geometry":{"type":"Point","coordinates":[-94.85923265414418,29.65061667734683]},"properties":{"substrate":"Mud","lease_number":null,"poll_year":2025}},{"type":"Feature","id":"2a44a92a-5321-4c6e-ae95-29f97858f5d1","geometry":{"type":"Point","coordinates":[-94.85946941771373,29.65002041318938]},"properties":{"substrate":"Mud","lease_number":null,"poll_year":2025}},{"type":"Feature","id":"2b4e54d3-f898-4fce-bb75-b9b1d1ea3d90","geometry":{"type":"Point","coordinates":[-94.85919578099673,29.650169832237417]},"properties":{"substrate":"Mud","lease_number":null,"poll_year":2025}},{"type":"Feature","id":"2b76f920-a858-49c4-8bab-0eb0992bfbf3","geometry":{"type":"Point","coordinates":[-94.85779683370644,29.650200517322183]},"properties":{"substrate":"Mud","lease_number":null,"poll_year":2023}},{"type":"Feature","id":"2c59abb0-25cf-40ad-99cd-370fb97fc74a","geometry":{"type":"Point","coordinates":[-94.8586789469761,29.650674812064164]},"properties":{"substrate":"Buried Shell","lease_number":null,"poll_year":2025}},{"type":"Feature","id":"2d5f8dad-e9b3-4d19-9840-7edf9984591b","geometry":{"type":"Point","coordinates":[-94.8597885379302,29.65036017875977]},"properties":{"substrate":"Mud","lease_number":null,"poll_year":2025}},{"type":"Feature","id":"31ff0df4-74de-4ce9-80a6-265aed3bd8e7","geometry":{"type":"Point","coordinates":[-94.85634321674462,29.65045421676339]},"properties":{"substrate":"Buried Shell","lease_number":null,"poll_year":2024}},{"type":"Feature","id":"325d0bce-741f-4be3-b87e-62e81f670cea","geometry":{"type":"Point","coordinates":[-94.85828977433714,29.65033229562192]},"properties":{"substrate":"Mud","lease_number":null,"poll_year":2025}},{"type":"Feature","id":"37acce24-8e36-41da-a7fb-9c50ae2c8dea","geometry":{"type":"Point","coordinates":[-94.85816731689593,29.650070949771116]},"properties":{"substrate":"Buried Shell","lease_number":null,"poll_year":2024}},{"type":"Feature","id":"3875170f-2b31-4032-b515-9d83faf19d90","geometry":{"type":"Point","coordinates":[-94.85827570043158,29.650520616729725]},"properties":{"substrate":"Mud","lease_number":null,"poll_year":2024}},{"type":"Feature","id":"3c2d6e0d-c616-4f19-8c00-fcefae77d1cb","geometry":{"type":"Point","coordinates":[-94.8579251005526,29.650750978282943]},"properties":{"substrate":"Mud","lease_number":null,"poll_year":2025}},{"type":"Feature","id":"3d81dd8b-1dfa-4b55-b1b9-3b212dd8b466","geometry":{"type":"Point","coordinates":[-94.85757229980116,29.650271200326596]},"properties":{"substrate":"Mud","lease_number":null,"poll_year":2024}},{"type":"Feature","id":"3d954f0b-2b3f-404a-aea8-aefd6484a203","geometry":{"type":"Point","coordinates":[-94.85749423530469,29.650005629206614]},"properties":{"substrate":"Mud","lease_number":null,"poll_year":2025}},{"type":"Feature","id":"3f94d3b7-537c-4813-a93f-99af91c69aba","geometry":{"type":"Point","coordinates":[-94.85644203681575,29.65014130185318]},"properties":{"substrate":"Mud","lease_number":null,"poll_year":2025}},{"type":"Feature","id":"4088c410-8ab1-4a5d-9c6f-f17287252e87","geometry":{"type":"Point","coordinates":[-94.85668156629805,29.65028618334659]},"properties":{"substrate":"Buried Shell","lease_number":null,"poll_year":2024}},{"type":"Feature","id":"40990626-dc28-4f9b-9c94-5ac1da6846a9","geometry":{"type":"Point","coordinates":[-94.85959773306891,29.650015233291793]},"properties":{"substrate":"Buried Shell","lease_number":null,"poll_year":2024}},{"type":"Feature","id":"43dacc70-496a-4f03-98fe-7b28ab275cab","geometry":{"type":"Point","coordinates":[-94.85914885031133,29.65048209986745]},"properties":{"substrate":"Mud","lease_number":null,"poll_year":2024}},{"type":"Feature","id":"464078e9-8526-4628-b5b9-9935b0c1b4ba","geometry":{"type":"Point","coordinates":[-94.85716979885835,29.650627318908327]},"properties":{"substrate":"Mud","lease_number":null,"poll_year":2025}},{"type":"Feature","id":"466d0476-8807-4ab5-a1b6-2ed26ba7411f","geometry":{"type":"Point","coordinates":[-94.85651127356796,29.649947134983726]},"properties":{"substrate":"Mud","lease_number":null,"poll_year":2025}},{"type":"Feature","id":"48bbab23-b1b0-43b3-9e82-27c5c5a9798b","geometry":{"type":"Point","coordinates":[-94.85681802667793,29.650511057972743]},"properties":{"substrate":"Mud","lease_number":null,"poll_year":2025}},{"type":"Feature","id":"49c87a55-3816-40e9-bd2a-36a48ec914c4","geometry":{"type":"Point","coordinates":[-94.85662323329677,29.65001938267474]},"properties":{"substrate":"Buried Shell","lease_number":null,"poll_year":2024}},{"type":"Feature","id":"49e8dbd6-7d0b-4d4d-9212-2b4ec551d495","geometry":{"type":"Point","coordinates":[-94.85756312261223,29.650426873888925]},"properties":{"substrate":"Mud","lease_number":null,"poll_year":2025}},{"type":"Feature","id":"4a8d91bd-aa18-4812-9f17-4c37babab5a6","geometry":{"type":"Point","coordinates":[-94.85786545690932,29.65100928237976]},"properties":{"substrate":"Mud","lease_number":null,"poll_year":2025}},{"type":"Feature","id":"4b244145-52f7-4b67-97ff-34bac128673e","geometry":{"type":"Point","coordinates":[-94.85926649996914,29.650734116998354]},"properties":{"substrate":"Mud","lease_number":null,"poll_year":2024}},{"type":"Feature","id":"4ba45482-e7a7-4155-9835-b54620f6e2a5","geometry":{"type":"Point","coordinates":[-94.85704702161689,29.6501834951229]},"properties":{"substrate":"Mud","lease_number":null,"poll_year":2025}},{"type":"Feature","id":"4c0dfbfe-c971-45aa-801f-a334633a53dc","geometry":{"type":"Point","coordinates":[-94.85880101634513,29.650034616334594]},"properties":{"substrate":"Buried Shell","lease_number":null,"poll_year":2024}},{"type":"Feature","id":"4cb871e4-dfc5-4758-a3dd-feead01f8a3c","geometry":{"type":"Point","coordinates":[-94.85701626689482,29.64996436566814]},"properties":{"substrate":"Buried Shell","lease_number":null,"poll_year":2024}},{"type":"Feature","id":"506e8c44-916b-4b48-a6dc-773634713299","geometry":{"type":"Point","coordinates":[-94.85753338298643,29.650128433706502]},"properties":{"substrate":"Buried Shell","lease_number":null,"poll_year":2024}},{"type":"Feature","id":"5101e049-bc0e-4900-abe7-86f1fc932819","geometry":{"type":"Point","coordinates":[-94.85717643291673,29.650375284334835]},"properties":{"substrate":"Mud","lease_number":null,"poll_year":2024}},{"type":"Feature","id":"522ef642-bd15-49e0-92f0-88b2d64432ea","geometry":{"type":"Point","coordinates":[-94.85717784776328,29.650134545744574]},"properties":{"substrate":"Mud","lease_number":null,"poll_year":2025}},{"type":"Feature","id":"54244722-39c9-4140-a443-b183fe22fab5","geometry":{"type":"Point","coordinates":[-94.85763221743062,29.650094684382395]},"properties":{"substrate":"Mud","lease_number":null,"poll_year":2023}},{"type":"Feature","id":"542a36fb-094c-4ad2-bc1a-439999fcd6fa","geometry":{"type":"Point","coordinates":[-94.8571207670135,29.65019538271392]},"properties":{"substrate":"Mud","lease_number":null,"poll_year":2024}},{"type":"Feature","id":"595dcec3-57a3-4a56-a7cf-1553b2e1b28b","geometry":{"type":"Point","coordinates":[-94.8591048669984,29.650358366777645]},"properties":{"substrate":"Mud","lease_number":null,"poll_year":2024}},{"type":"Feature","id":"5b54b967-d23d-4057-8dd3-5aeacb31e779","geometry":{"type":"Point","coordinates":[-94.85820278058671,29.650597459922075]},"properties":{"substrate":"Mud","lease_number":null,"poll_year":2025}},{"type":"Feature","id":"5b66ddd2-5f2a-4a4e-bfae-f8c8992186b8","geometry":{"type":"Point","coordinates":[-94.85785644231545,29.650302086798703]},"properties":{"substrate":"Mud","lease_number":null,"poll_year":2025}},{"type":"Feature","id":"5e8e9087-7362-4a69-9cc0-f212a067cd4a","geometry":{"type":"Point","coordinates":[-94.85906320044056,29.650231067337984]},"properties":{"substrate":"Mud","lease_number":null,"poll_year":2024}},{"type":"Feature","id":"5fc3fd5b-0ecc-4228-b779-1ef24b1fe995","geometry":{"type":"Point","coordinates":[-94.85745846708501,29.65005163309422]},"properties":{"substrate":"Mud","lease_number":null,"poll_year":2023}},{"type":"Feature","id":"601ff331-c449-49e3-8570-88904307033b","geometry":{"type":"Point","coordinates":[-94.85635188009721,29.650016010081284]},"properties":{"substrate":"Mud","lease_number":null,"poll_year":2025}},{"type":"Feature","id":"61c22689-427e-4303-84fd-fa758a889786","geometry":{"type":"Point","coordinates":[-94.85816526694043,29.649895083013003]},"properties":{"substrate":"Buried Shell","lease_number":null,"poll_year":2024}},{"type":"Feature","id":"62e156bc-a50f-4c50-aa3e-5bfe01659653","geometry":{"type":"Point","coordinates":[-94.85799704123383,29.65047445067312]},"properties":{"substrate":"Mud","lease_number":null,"poll_year":2025}},{"type":"Feature","id":"62e42e96-64c6-4c47-9f9e-1dc5c4e98812","geometry":{"type":"Point","coordinates":[-94.85945603640926,29.650238447212367]},"properties":{"substrate":"Buried Shell","lease_number":null,"poll_year":2025}},{"type":"Feature","id":"63484dcf-7ccc-4193-a517-6246187f40a0","geometry":{"type":"Point","coordinates":[-94.85996138816391,29.650517889782915]},"properties":{"substrate":"Mud","lease_number":null,"poll_year":2025}},{"type":"Feature","id":"64614d00-a818-40b2-9bd6-0194cf491769","geometry":{"type":"Point","coordinates":[-94.85751006631493,29.650006332611007]},"properties":{"substrate":"Buried Shell","lease_number":null,"poll_year":2024}},{"type":"Feature","id":"654a72b4-3c64-4457-96e6-a70e8bb80e38","geometry":{"type":"Point","coordinates":[-94.85664153377574,29.649891953991876]},"properties":{"substrate":"Mud","lease_number":null,"poll_year":2025}},{"type":"Feature","id":"663894be-56e8-44dc-9b13-1ccfd889ead4","geometry":{"type":"Point","coordinates":[-94.85730778367925,29.65005691682206]},"properties":{"substrate":"Mud","lease_number":null,"poll_year":2023}},{"type":"Feature","id":"670def21-2c27-4962-aeba-b3dfcfb50eab","geometry":{"type":"Point","coordinates":[-94.85763031659548,29.65048193436136]},"properties":{"substrate":"Mud","lease_number":null,"poll_year":2024}},{"type":"Feature","id":"696413f0-abfe-44ea-a0be-1841f454cfa1","geometry":{"type":"Point","coordinates":[-94.85609395042293,29.650312234216308]},"properties":{"substrate":"Mud","lease_number":null,"poll_year":2025}},{"type":"Feature","id":"6b739023-b099-470f-a7b6-b513ad600bfa","geometry":{"type":"Point","coordinates":[-94.85803656530969,29.64994528161736]},"properties":{"substrate":"Buried Shell","lease_number":null,"poll_year":2025}},{"type":"Feature","id":"6e45af29-e024-4e56-af4b-45ad499517c2","geometry":{"type":"Point","coordinates":[-94.85662608365115,29.649883749679258]},"properties":{"substrate":"Buried Shell","lease_number":null,"poll_year":2024}},{"type":"Feature","id":"6e858ecf-38db-405a-8163-3f26d9921ac9","geometry":{"type":"Point","coordinates":[-94.85739186688815,29.650605483056825]},"properties":{"substrate":"Mud","lease_number":null,"poll_year":2023}},{"type":"Feature","id":"70b64c77-e3cc-4f41-bf78-96062001e357","geometry":{"type":"Point","coordinates":[-94.8565541932756,29.650385239695304]},"properties":{"substrate":"Mud","lease_number":null,"poll_year":2025}},{"type":"Feature","id":"712f209b-a40b-4aeb-96bb-03920368539f","geometry":{"type":"Point","coordinates":[-94.85913805974815,29.65081938129565]},"properties":{"substrate":"Mud","lease_number":null,"poll_year":2025}},{"type":"Feature","id":"72913853-9ea0-4cd9-ac06-2c91f361faa7","geometry":{"type":"Point","coordinates":[-94.85657703294171,29.65030063315256]},"properties":{"substrate":"Mud","lease_number":null,"poll_year":2024}},{"type":"Feature","id":"7381d9bf-95d6-42c9-90bb-0f18875278a4","geometry":{"type":"Point","coordinates":[-94.86010463172249,29.64999557309917]},"properties":{"substrate":"Mud","lease_number":null,"poll_year":2025}},{"type":"Feature","id":"73bf191e-8e66-4808-b547-656f1fee3652","geometry":{"type":"Point","coordinates":[-94.85738725044592,29.65046410029262]},"properties":{"substrate":"Mud","lease_number":null,"poll_year":2024}},{"type":"Feature","id":"74c893d1-35ee-410c-bd49-06717009a885","geometry":{"type":"Point","coordinates":[-94.85780979998925,29.650961916633502]},"properties":{"substrate":"Buried Shell","lease_number":null,"poll_year":2024}},{"type":"Feature","id":"758a2613-7cd7-4c68-87ca-d9fec2bc9b7f","geometry":{"type":"Point","coordinates":[-94.85783589964153,29.650021484300098]},"properties":{"substrate":"Mud","lease_number":null,"poll_year":2023}},{"type":"Feature","id":"77b54ca9-8022-4da5-beb8-4cbe32e11415","geometry":{"type":"Point","coordinates":[-94.85909893362593,29.650437050179423]},"properties":{"substrate":"Buried Shell","lease_number":null,"poll_year":2025}},{"type":"Feature","id":"782995f7-8d8e-4337-98b4-b73cd7e2f517","geometry":{"type":"Point","coordinates":[-94.85991193590752,29.650302869831503]},"properties":{"substrate":"Mud","lease_number":null,"poll_year":2025}},{"type":"Feature","id":"78438ce0-c75e-4712-bf77-f10972a4e8a9","geometry":{"type":"Point","coordinates":[-94.85870200044123,29.650403634313406]},"properties":{"substrate":"Mud","lease_number":null,"poll_year":2024}},{"type":"Feature","id":"7b543488-4f05-485d-8b2f-9e24965e1b94","geometry":{"type":"Point","coordinates":[-94.85786012271315,29.65054081471441]},"properties":{"substrate":"Mud","lease_number":null,"poll_year":2025}},{"type":"Feature","id":"80ba5ca6-f43f-41c2-b0d6-2b8d9791252d","geometry":{"type":"Point","coordinates":[-94.85723931678324,29.64989223269961]},"properties":{"substrate":"Mud","lease_number":null,"poll_year":2023}},{"type":"Feature","id":"8279ffa1-3682-4d22-a017-96ecb939adb4","geometry":{"type":"Point","coordinates":[-94.85807281861962,29.6506635553256]},"properties":{"substrate":"Mud","lease_number":null,"poll_year":2025}},{"type":"Feature","id":"82928d01-e3fc-4d3d-8093-41f34901c3ad","geometry":{"type":"Point","coordinates":[-94.85665600024508,29.65013051737366]},"properties":{"substrate":"Buried Shell","lease_number":null,"poll_year":2024}},{"type":"Feature","id":"84350ee5-9bc9-4169-a8c2-49ef3e8df9d8","geometry":{"type":"Point","coordinates":[-94.858547474941,29.6507426233677]},"properties":{"substrate":"Mud","lease_number":null,"poll_year":2025}},{"type":"Feature","id":"858152e7-75bb-4a18-88fd-e2711065bd88","geometry":{"type":"Point","coordinates":[-94.85910480142137,29.649902320825777]},"properties":{"substrate":"Mud","lease_number":null,"poll_year":2025}},{"type":"Feature","id":"866af69a-7ca7-40bb-89a9-212b8072b280","geometry":{"type":"Point","coordinates":[-94.8559878836424,29.650049166885992]},"properties":{"substrate":"Mud","lease_number":null,"poll_year":2024}},{"type":"Feature","id":"867c52e2-60ac-44e9-92ba-c8c89ee6f77c","geometry":{"type":"Point","coordinates":[-94.85662236372758,29.65058962180984]},"properties":{"substrate":"Mud","lease_number":null,"poll_year":2025}},{"type":"Feature","id":"89298ae0-3849-44fc-8e01-4719dd0b8dac","geometry":{"type":"Point","coordinates":[-94.85625397990091,29.650228661247407]},"properties":{"substrate":"Mud","lease_number":null,"poll_year":2025}},{"type":"Feature","id":"895df44b-da53-4849-b32d-84440bdffd25","geometry":{"type":"Point","coordinates":[-94.8579574497843,29.650131800050666]},"properties":{"substrate":"Buried Shell","lease_number":null,"poll_year":2024}},{"type":"Feature","id":"8d4cfb13-3d25-472b-a132-4ca461398c2f","geometry":{"type":"Point","coordinates":[-94.85961799996005,29.650470182644117]},"properties":{"substrate":"Mud","lease_number":null,"poll_year":2024}},{"type":"Feature","id":"8fece679-1347-48ad-b7c6-6be12daaa08c","geometry":{"type":"Point","coordinates":[-94.85610215024485,29.649915967353035]},"properties":{"substrate":"Buried Shell","lease_number":null,"poll_year":2024}},{"type":"Feature","id":"8ffbe54f-6a2c-45c4-9cac-f63344a23a67","geometry":{"type":"Point","coordinates":[-94.8574041064339,29.65049128467704]},"properties":{"substrate":"Mud","lease_number":null,"poll_year":2025}},{"type":"Feature","id":"927eda5d-aa2a-4d12-a034-e0234ea8c328","geometry":{"type":"Point","coordinates":[-94.85673253311401,29.650415317337714]},"properties":{"substrate":"Mud","lease_number":null,"poll_year":2024}},{"type":"Feature","id":"9345c22d-894e-4464-82ee-8a1258a6435e","geometry":{"type":"Point","coordinates":[-94.85973413326165,29.650662463923897]},"properties":{"substrate":"Mud","lease_number":null,"poll_year":2025}},{"type":"Feature","id":"95b322a8-6387-49e2-9050-46221fa7cafc","geometry":{"type":"Point","coordinates":[-94.85717996688903,29.650523766809922]},"properties":{"substrate":"Mud","lease_number":null,"poll_year":2024}},{"type":"Feature","id":"95bd58f3-d865-4524-ade6-a550d9a1133b","geometry":{"type":"Point","coordinates":[-94.85961750588663,29.650429921701704]},"properties":{"substrate":"Mud","lease_number":null,"poll_year":2025}},{"type":"Feature","id":"96bdf08f-62e5-4167-a1b9-e7f6cbe2b7ce","geometry":{"type":"Point","coordinates":[-94.85810990017622,29.649995533283846]},"properties":{"substrate":"Buried Shell","lease_number":null,"poll_year":2024}},{"type":"Feature","id":"9afbea32-12da-431d-85e5-e11ea7a8fd82","geometry":{"type":"Point","coordinates":[-94.85807260841382,29.650971986696682]},"properties":{"substrate":"Mud","lease_number":null,"poll_year":2025}},{"type":"Feature","id":"9bca10d9-b3f8-4f70-84cb-75aee990279c","geometry":{"type":"Point","coordinates":[-94.85698160180632,29.65043704471462]},"properties":{"substrate":"Mud","lease_number":null,"poll_year":2025}},{"type":"Feature","id":"9be5aa5a-4850-45d8-a505-eb5c74a27cc9","geometry":{"type":"Point","coordinates":[-94.85772305237721,29.650357133286978]},"properties":{"substrate":"Mud","lease_number":null,"poll_year":2025}},{"type":"Feature","id":"9cc80fa7-beba-46f1-af5a-9f819d83c258","geometry":{"type":"Point","coordinates":[-94.85960148443354,29.650179016294793]},"properties":{"substrate":"Buried Shell","lease_number":null,"poll_year":2024}},{"type":"Feature","id":"9fe12743-0765-480e-97c5-0aea07176f8f","geometry":{"type":"Point","coordinates":[-94.85616628636288,29.65008569783248]},"properties":{"substrate":"Mud","lease_number":null,"poll_year":2025}},{"type":"Feature","id":"a0de5168-d257-4114-90cc-b5ba3bd01b25","geometry":{"type":"Point","coordinates":[-94.85728171097645,29.650554685212725]},"properties":{"substrate":"Mud","lease_number":null,"poll_year":2025}},{"type":"Feature","id":"a11c6a08-b1f7-4cab-9654-ac3904bf7cc3","geometry":{"type":"Point","coordinates":[-94.8564380779403,29.650478994285248]},"properties":{"substrate":"Mud","lease_number":null,"poll_year":2025}},{"type":"Feature","id":"a2a1f659-6023-40b9-bf4e-d0ce6ad9351d","geometry":{"type":"Point","coordinates":[-94.85687348327367,29.650096116952824]},"properties":{"substrate":"Buried Shell","lease_number":null,"poll_year":2024}},{"type":"Feature","id":"a63445de-06f6-4db2-bfeb-4412624eb7b6","geometry":{"type":"Point","coordinates":[-94.8596126424077,29.650151784203775]},"properties":{"substrate":"Mud","lease_number":null,"poll_year":2025}},{"type":"Feature","id":"a64818b3-75cd-4c19-8a97-ffcc7d3086bd","geometry":{"type":"Point","coordinates":[-94.85780864834906,29.650852142808425]},"properties":{"substrate":"Mud","lease_number":null,"poll_year":2025}},{"type":"Feature","id":"a6d10387-a5d7-41e8-83a6-02094dea003d","geometry":{"type":"Point","coordinates":[-94.85823753371011,29.65033208327411]},"properties":{"substrate":"Buried Shell","lease_number":null,"poll_year":2024}},{"type":"Feature","id":"a75bdeea-b03d-4606-b328-7feb35ad28b0","geometry":{"type":"Point","coordinates":[-94.86022861540138,29.65008475163326]},"properties":{"substrate":"Mud","lease_number":null,"poll_year":2025}},{"type":"Feature","id":"aea0499f-0136-45b9-9c0b-a4c2981a0948","geometry":{"type":"Point","coordinates":[-94.85733493166545,29.65007371888745]},"properties":{"substrate":"Mud","lease_number":null,"poll_year":2025}},{"type":"Feature","id":"afb169a7-44b6-4bc0-9c0d-b2bd01fab5f8","geometry":{"type":"Point","coordinates":[-94.85769350499089,29.650620735364466]},"properties":{"substrate":"Mud","lease_number":null,"poll_year":2025}},{"type":"Feature","id":"b10490c5-ac30-4afc-a3c7-e14758700846","geometry":{"type":"Point","coordinates":[-94.85815984111613,29.650397138972867]},"properties":{"substrate":"Mud","lease_number":null,"poll_year":2025}},{"type":"Feature","id":"b213c635-b00e-4493-acfe-90d7322ebf4b","geometry":{"type":"Point","coordinates":[-94.85880486742273,29.649872683341535]},"properties":{"substrate":"Buried Shell","lease_number":null,"poll_year":2024}},{"type":"Feature","id":"b278ce26-ed00-4c5f-9ebf-5b4e15243848","geometry":{"type":"Point","coordinates":[-94.8592089502988,29.650612265677207]},"properties":{"substrate":"Mud","lease_number":null,"poll_year":2024}},{"type":"Feature","id":"b5f1db02-919d-42b5-a65d-632d59076d82","geometry":{"type":"Point","coordinates":[-94.85899325042602,29.650035615621363]},"properties":{"substrate":"Buried Shell","lease_number":null,"poll_year":2024}},{"type":"Feature","id":"b6fe8dee-b0e3-42c8-b47b-8f2cc658f5ab","geometry":{"type":"Point","coordinates":[-94.85730804958058,29.650163782656847]},"properties":{"substrate":"Mud","lease_number":null,"poll_year":2023}},{"type":"Feature","id":"b71cad93-c3fd-466e-816d-370b3e960f43","geometry":{"type":"Point","coordinates":[-94.85846636156244,29.650009124369248]},"properties":{"substrate":"Buried Shell","lease_number":null,"poll_year":2025}},{"type":"Feature","id":"b77712a9-0814-4610-8f60-83db04418484","geometry":{"type":"Point","coordinates":[-94.85733251699398,29.65000954984693]},"properties":{"substrate":"Buried Shell","lease_number":null,"poll_year":2024}},{"type":"Feature","id":"b81e5780-d5a3-4c53-a814-334c6c274e52","geometry":{"type":"Point","coordinates":[-94.85706630036121,29.650071383055472]},"properties":{"substrate":"Buried Shell","lease_number":null,"poll_year":2024}},{"type":"Feature","id":"b824feea-7fbc-4a36-8b14-6083b9c81b5b","geometry":{"type":"Point","coordinates":[-94.85696593518777,29.649900541624536]},"properties":{"substrate":"Mud","lease_number":null,"poll_year":2025}},{"type":"Feature","id":"b95975a9-019c-4175-a447-a984a3695361","geometry":{"type":"Point","coordinates":[-94.85876385034686,29.650212932658615]},"properties":{"substrate":"Buried Shell","lease_number":null,"poll_year":2024}},{"type":"Feature","id":"bace6a6f-53bf-4098-a9fd-9483e6cd3586","geometry":{"type":"Point","coordinates":[-94.85907039055611,29.650233420341458]},"properties":{"substrate":"Mud","lease_number":null,"poll_year":2025}},{"type":"Feature","id":"bc1d0610-3f27-45c8-a907-20f7d0bdbb06","geometry":{"type":"Point","coordinates":[-94.85982081439836,29.65002998292267]},"properties":{"substrate":"Mud","lease_number":null,"poll_year":2025}},{"type":"Feature","id":"be56bf7d-9aad-4a98-b261-a3e3187aefdd","geometry":{"type":"Point","coordinates":[-94.85895276694943,29.649893382661716]},"properties":{"substrate":"Buried Shell","lease_number":null,"poll_year":2024}},{"type":"Feature","id":"c002ddc2-4c9c-4850-ab68-ed1e0799d1a6","geometry":{"type":"Point","coordinates":[-94.85674143362185,29.64999743505227]},"properties":{"substrate":"Mud","lease_number":null,"poll_year":2025}},{"type":"Feature","id":"c019e3b2-f1e8-4518-acd5-02669e9bb566","geometry":{"type":"Point","coordinates":[-94.85767522966475,29.64992185924838]},"properties":{"substrate":"Mud","lease_number":null,"poll_year":2025}},{"type":"Feature","id":"c103d716-1904-4791-a1dc-8ad3af68e628","geometry":{"type":"Point","coordinates":[-94.85685959801432,29.650248211317052]},"properties":{"substrate":"Mud","lease_number":null,"poll_year":2025}},{"type":"Feature","id":"c11dbe33-8b17-4e6e-a417-d5c25fa86375","geometry":{"type":"Point","coordinates":[-94.86001595991911,29.649935807120677]},"properties":{"substrate":"Mud","lease_number":null,"poll_year":2025}},{"type":"Feature","id":"c1e58ead-9f07-4da2-95a4-fb522e67e13a","geometry":{"type":"Point","coordinates":[-94.85963443373984,29.650750783111143]},"properties":{"substrate":"Mud","lease_number":null,"poll_year":2024}},{"type":"Feature","id":"c346e6e6-9817-4838-9f7d-a330d58551ae","geometry":{"type":"Point","coordinates":[-94.85719893391796,29.650341185344203]},"properties":{"substrate":"Mud","lease_number":null,"poll_year":2025}},{"type":"Feature","id":"c76dfc48-2726-4f22-a0d8-31fcfbd64edb","geometry":{"type":"Point","coordinates":[-94.85776550226596,29.650947478632716]},"properties":{"substrate":"Mud","lease_number":null,"poll_year":2025}},{"type":"Feature","id":"c89acdca-38a0-47eb-943a-2c164db77e51","geometry":{"type":"Point","coordinates":[-94.85836309662727,29.65053181571331]},"properties":{"substrate":"Mud","lease_number":null,"poll_year":2025}},{"type":"Feature","id":"cbf50d9d-effd-4872-836c-9080c29541e1","geometry":{"type":"Point","coordinates":[-94.85842316158042,29.65026712511966]},"properties":{"substrate":"Mud","lease_number":null,"poll_year":2025}},{"type":"Feature","id":"cef14804-9c92-419d-9b3a-0666ad61c77e","geometry":{"type":"Point","coordinates":[-94.85733500263235,29.650775341186943]},"properties":{"substrate":"Mud","lease_number":null,"poll_year":2025}},{"type":"Feature","id":"cf4229db-b791-4dd4-a541-710e7168508b","geometry":{"type":"Point","coordinates":[-94.85820154180993,29.64987402535465]},"properties":{"substrate":"Buried Shell","lease_number":null,"poll_year":2025}},{"type":"Feature","id":"cf6bc3f9-54ea-4e9a-9c06-4af8fc46e5e0","geometry":{"type":"Point","coordinates":[-94.85814055338865,29.650176539940755]},"properties":{"substrate":"Buried Shell","lease_number":null,"poll_year":2025}},{"type":"Feature","id":"cfe18eb8-60e8-4d13-8201-d1799c53c6d7","geometry":{"type":"Point","coordinates":[-94.85962410041914,29.650591200361934]},"properties":{"substrate":"Buried Shell","lease_number":null,"poll_year":2024}},{"type":"Feature","id":"d203263a-7739-47dd-83ad-4aa97fddb300","geometry":{"type":"Point","coordinates":[-94.85958835106409,29.64995172077717]},"properties":{"substrate":"Mud","lease_number":null,"poll_year":2025}},{"type":"Feature","id":"d50fb56e-c8ff-4ec5-bf22-f9614adaaf50","geometry":{"type":"Point","coordinates":[-94.85789029981851,29.650358433136343]},"properties":{"substrate":"Mud","lease_number":null,"poll_year":2023}},{"type":"Feature","id":"d54e3851-fed7-4b10-afe1-3f826fa76ded","geometry":{"type":"Point","coordinates":[-94.85753100065432,29.650705150369692]},"properties":{"substrate":"Mud","lease_number":null,"poll_year":2025}},{"type":"Feature","id":"d894bfef-5e5c-47b6-bcb8-abdb5d086fbc","geometry":{"type":"Point","coordinates":[-94.85937582224427,29.650858758345255]},"properties":{"substrate":"Mud","lease_number":null,"poll_year":2025}},{"type":"Feature","id":"d94d2ca8-77e1-496d-af81-afb0df402214","geometry":{"type":"Point","coordinates":[-94.859492149582,29.650484071108036]},"properties":{"substrate":"Scattered Shell","lease_number":null,"poll_year":2025}},{"type":"Feature","id":"d9d8a416-1034-4939-a583-59e86982961c","geometry":{"type":"Point","coordinates":[-94.86020535262878,29.65041314701986]},"properties":{"substrate":"Mud","lease_number":null,"poll_year":2025}},{"type":"Feature","id":"e0bf69c8-d877-44cb-8d0b-046a2158eb45","geometry":{"type":"Point","coordinates":[-94.85598010872361,29.650145583948582]},"properties":{"substrate":"Mud","lease_number":null,"poll_year":2025}},{"type":"Feature","id":"e2ed13aa-e7ed-4606-8c96-79cc8b360072","geometry":{"type":"Point","coordinates":[-94.85681624981031,29.650511766838473]},"properties":{"substrate":"Buried Shell","lease_number":null,"poll_year":2024}},{"type":"Feature","id":"e3d01da4-d1a2-45b6-9595-be3f22682e0f","geometry":{"type":"Point","coordinates":[-94.85878966343654,29.650362567671998]},"properties":{"substrate":"Mud","lease_number":null,"poll_year":2025}},{"type":"Feature","id":"e4ec61a4-9402-44e9-a2e3-29e8cd32bfa8","geometry":{"type":"Point","coordinates":[-94.85701846686895,29.649912249689454]},"properties":{"substrate":"Buried Shell","lease_number":null,"poll_year":2024}},{"type":"Feature","id":"e7f6f5ec-6d72-492f-a30b-1a0e73553093","geometry":{"type":"Point","coordinates":[-94.85661247058134,29.65006567775437]},"properties":{"substrate":"Mud","lease_number":null,"poll_year":2025}},{"type":"Feature","id":"e91ab7eb-0ca5-47ef-85fa-b337544c2aad","geometry":{"type":"Point","coordinates":[-94.85781517640623,29.650048740627778]},"properties":{"substrate":"Mud","lease_number":null,"poll_year":2025}},{"type":"Feature","id":"e98268d8-fb7b-4a44-8321-ba65c4ce8bea","geometry":{"type":"Point","coordinates":[-94.85865793358498,29.650421294299]},"properties":{"substrate":"Mud","lease_number":null,"poll_year":2025}},{"type":"Feature","id":"eae33e62-b0d9-44f6-8bf4-b4c304c02d46","geometry":{"type":"Point","coordinates":[-94.8598433630103,29.65059623970603]},"properties":{"substrate":"Mud","lease_number":null,"poll_year":2025}},{"type":"Feature","id":"f0a06ec1-e22d-471d-879d-645e0dbd9a1f","geometry":{"type":"Point","coordinates":[-94.85817710044769,29.64996101571287]},"properties":{"substrate":"Mud","lease_number":null,"poll_year":2023}},{"type":"Feature","id":"f1fa62ff-0f1a-4452-ab34-3d9230219c43","geometry":{"type":"Point","coordinates":[-94.8596079999143,29.650344683617945]},"properties":{"substrate":"Buried Shell","lease_number":null,"poll_year":2024}},{"type":"Feature","id":"f266c0c1-84c6-4c1f-9baa-6e50cc63b1cf","geometry":{"type":"Point","coordinates":[-94.85956897709836,29.6507585556331]},"properties":{"substrate":"Mud","lease_number":null,"poll_year":2025}},{"type":"Feature","id":"f4220016-f742-473d-987d-dfc626864039","geometry":{"type":"Point","coordinates":[-94.85674554970248,29.65020084989675]},"properties":{"substrate":"Mud","lease_number":null,"poll_year":2024}},{"type":"Feature","id":"f921e48d-1f79-42c4-9a08-bcda08c9cd66","geometry":{"type":"Point","coordinates":[-94.85924285541256,29.650870932368427]},"properties":{"substrate":"Mud","lease_number":null,"poll_year":2025}}]}