{"type":"FeatureCollection","features":[{"type":"Feature","id":"00863ad6-9e87-4a63-b53b-316aca39aff3","geometry":{"type":"Point","coordinates":[-94.8557948455693,29.6476924622707]},"properties":{"substrate":"Buried Shell","lease_number":null,"poll_year":2025}},{"type":"Feature","id":"0306c408-7214-4cdd-a53f-6006b9b09483","geometry":{"type":"Point","coordinates":[-94.85591338455926,29.64935775183638]},"properties":{"substrate":"Mud","lease_number":null,"poll_year":2025}},{"type":"Feature","id":"03e67fa3-8162-4856-be0c-9ebe497f9f6b","geometry":{"type":"Point","coordinates":[-94.85532166697656,29.64746449987447]},"properties":{"substrate":"Mud","lease_number":null,"poll_year":2023}},{"type":"Feature","id":"04bb7a38-350e-4d29-896f-ce11f50292fe","geometry":{"type":"Point","coordinates":[-94.8543592497104,29.646850458065074]},"properties":{"substrate":"Mud","lease_number":null,"poll_year":2025}},{"type":"Feature","id":"05b2c258-57f0-4a14-a478-7fb313c9f934","geometry":{"type":"Point","coordinates":[-94.85586986926857,29.64829158433146]},"properties":{"substrate":"Mud","lease_number":null,"poll_year":2025}},{"type":"Feature","id":"07d2b667-6020-403d-974e-ca275256b3bf","geometry":{"type":"Point","coordinates":[-94.85567119965697,29.648263816945853]},"properties":{"substrate":"Buried Shell","lease_number":null,"poll_year":2024}},{"type":"Feature","id":"0b9c3e3f-a444-42d4-b9bc-0aeffeb9f64c","geometry":{"type":"Point","coordinates":[-94.85595203367605,29.647000467355905]},"properties":{"substrate":"Buried Shell","lease_number":null,"poll_year":2024}},{"type":"Feature","id":"0cf8cbb7-037a-4652-aa9f-9bc670c8f93c","geometry":{"type":"Point","coordinates":[-94.8558603668895,29.648414316755563]},"properties":{"substrate":"Buried Shell","lease_number":null,"poll_year":2024}},{"type":"Feature","id":"0d3350b6-5792-4596-98f0-43d8ba473e47","geometry":{"type":"Point","coordinates":[-94.85564536680435,29.648235082256893]},"properties":{"substrate":"Mud","lease_number":null,"poll_year":2025}},{"type":"Feature","id":"0ead4a44-49c1-4ab8-ad6b-fbdf6f58c038","geometry":{"type":"Point","coordinates":[-94.85550161659596,29.64704899979452]},"properties":{"substrate":"Solid Reef","lease_number":null,"poll_year":2023}},{"type":"Feature","id":"0fed8967-03aa-4604-9ff1-e2bfc68e0aa8","geometry":{"type":"Point","coordinates":[-94.85534476535746,29.647450138662617]},"properties":{"substrate":"Mud","lease_number":null,"poll_year":2025}},{"type":"Feature","id":"118548e6-ba5e-4555-9a06-d1b77b51eb12","geometry":{"type":"Point","coordinates":[-94.85449048998015,29.647135130684482]},"properties":{"substrate":"Mud","lease_number":null,"poll_year":2025}},{"type":"Feature","id":"121fa898-74c9-4481-a3ec-4676200d536f","geometry":{"type":"Point","coordinates":[-94.85490299186704,29.64797747524011]},"properties":{"substrate":"Mud","lease_number":null,"poll_year":2025}},{"type":"Feature","id":"155ff854-3422-4789-a3af-3c758f2dd76a","geometry":{"type":"Point","coordinates":[-94.85561188300044,29.647742767369422]},"properties":{"substrate":"Mud","lease_number":null,"poll_year":2023}},{"type":"Feature","id":"173d2639-bb62-4d38-947d-3f67d5a91c67","geometry":{"type":"Point","coordinates":[-94.855247237962,29.646840140882823]},"properties":{"substrate":"Mud","lease_number":null,"poll_year":2025}},{"type":"Feature","id":"19c3383e-f23e-47a4-9911-9b6a58d38b98","geometry":{"type":"Point","coordinates":[-94.85579566662948,29.647840866728792]},"properties":{"substrate":"Buried Shell","lease_number":null,"poll_year":2024}},{"type":"Feature","id":"1b874483-d99e-46ad-a177-cad640856081","geometry":{"type":"Point","coordinates":[-94.85495628262464,29.64744385704683]},"properties":{"substrate":"Mud","lease_number":null,"poll_year":2025}},{"type":"Feature","id":"1c6aa44b-9235-4644-b0af-ffe4d73f1725","geometry":{"type":"Point","coordinates":[-94.85588999961578,29.646342283077594]},"properties":{"substrate":"Buried Shell","lease_number":null,"poll_year":2024}},{"type":"Feature","id":"21448c15-3e01-4598-9ac8-eb57f821d687","geometry":{"type":"Point","coordinates":[-94.85523256667679,29.64752740031866]},"properties":{"substrate":"Buried Shell","lease_number":null,"poll_year":2024}},{"type":"Feature","id":"2172dd11-d729-4d44-8bfe-90e437ffbbe7","geometry":{"type":"Point","coordinates":[-94.85576228343689,29.647717867383168]},"properties":{"substrate":"Buried Shell","lease_number":null,"poll_year":2024}},{"type":"Feature","id":"22ec613f-b406-4bcc-99f2-46e6005a941e","geometry":{"type":"Point","coordinates":[-94.85582391415358,29.64556378836714]},"properties":{"substrate":"Mud","lease_number":null,"poll_year":2025}},{"type":"Feature","id":"25bc4d1e-b321-4f4a-bfce-137f68949c09","geometry":{"type":"Point","coordinates":[-94.85579226740445,29.647079699883534]},"properties":{"substrate":"Buried Shell","lease_number":null,"poll_year":2023}},{"type":"Feature","id":"28a95a7a-f788-4e04-8cda-63059c18beb0","geometry":{"type":"Point","coordinates":[-94.85546042704355,29.645758171364847]},"properties":{"substrate":"Mud","lease_number":null,"poll_year":2025}},{"type":"Feature","id":"298d1e76-cdf7-4a32-9b08-d537cb987854","geometry":{"type":"Point","coordinates":[-94.85486179333148,29.646471347179144]},"properties":{"substrate":"Mud","lease_number":null,"poll_year":2025}},{"type":"Feature","id":"2d314ee2-5044-48e3-b765-66f510cb9760","geometry":{"type":"Point","coordinates":[-94.85469903387335,29.64652253666319]},"properties":{"substrate":"Mud","lease_number":null,"poll_year":2025}},{"type":"Feature","id":"2e6e0d03-692b-4313-8862-f91e73721b37","geometry":{"type":"Point","coordinates":[-94.85561882697759,29.6478306839301]},"properties":{"substrate":"Mud","lease_number":null,"poll_year":2025}},{"type":"Feature","id":"32f30ce1-f643-4904-86ef-787a420ef662","geometry":{"type":"Point","coordinates":[-94.85503154976733,29.64702631687046]},"properties":{"substrate":"Buried Shell","lease_number":null,"poll_year":2024}},{"type":"Feature","id":"3399e4dd-d9de-47cd-80ca-2dcfbf74b127","geometry":{"type":"Point","coordinates":[-94.85498826444537,29.646012351217543]},"properties":{"substrate":"Mud","lease_number":null,"poll_year":2025}},{"type":"Feature","id":"352fd0d5-c06d-4121-9e28-867d8d2581ed","geometry":{"type":"Point","coordinates":[-94.85532405020702,29.646844132691708]},"properties":{"substrate":"Buried Shell","lease_number":null,"poll_year":2024}},{"type":"Feature","id":"3799597f-9b3f-4337-b85c-b9f1760363bd","geometry":{"type":"Point","coordinates":[-94.85595535115438,29.6470949011982]},"properties":{"substrate":"Buried Shell","lease_number":null,"poll_year":2025}},{"type":"Feature","id":"383592d1-78b2-47e2-8437-a96315004b6a","geometry":{"type":"Point","coordinates":[-94.8550630860237,29.647923301844784]},"properties":{"substrate":"Mud","lease_number":null,"poll_year":2025}},{"type":"Feature","id":"39cdcf69-8a2b-496f-8b1a-d108620fc544","geometry":{"type":"Point","coordinates":[-94.85511362703824,29.64740256669463]},"properties":{"substrate":"Mud","lease_number":null,"poll_year":2025}},{"type":"Feature","id":"3dc2ae76-a776-4280-9430-5f3322aff621","geometry":{"type":"Point","coordinates":[-94.85583652560186,29.648665345228196]},"properties":{"substrate":"Mud","lease_number":null,"poll_year":2025}},{"type":"Feature","id":"3e27206d-1da6-44d9-899e-dc52d0ff1cb2","geometry":{"type":"Point","coordinates":[-94.85533343311015,29.647614900167422]},"properties":{"substrate":"Buried Shell","lease_number":null,"poll_year":2024}},{"type":"Feature","id":"4062b5b9-436a-4255-ae88-67a64766c071","geometry":{"type":"Point","coordinates":[-94.8549538005795,29.648139016244095]},"properties":{"substrate":"Mud","lease_number":null,"poll_year":2025}},{"type":"Feature","id":"44e329f5-e79f-4c08-9418-7c466a2f2c61","geometry":{"type":"Point","coordinates":[-94.85507299983118,29.646949900346062]},"properties":{"substrate":"Buried Shell","lease_number":null,"poll_year":2024}},{"type":"Feature","id":"4765ceb4-71dc-4872-8938-5c73e5f9476e","geometry":{"type":"Point","coordinates":[-94.85584075037865,29.647531233615695]},"properties":{"substrate":"Solid Reef","lease_number":null,"poll_year":2024}},{"type":"Feature","id":"49287b9e-4212-46a8-a2f7-ad3dd77b47ee","geometry":{"type":"Point","coordinates":[-94.85489000941455,29.646954807150582]},"properties":{"substrate":"Mud","lease_number":null,"poll_year":2025}},{"type":"Feature","id":"49437fe5-5a8b-4e22-a1e6-8125cd70930f","geometry":{"type":"Point","coordinates":[-94.85524206366597,29.646343814072353]},"properties":{"substrate":"Mud","lease_number":null,"poll_year":2025}},{"type":"Feature","id":"49b2c991-8d52-4bb0-b35f-b5263cceaae5","geometry":{"type":"Point","coordinates":[-94.85561320442223,29.64684889819151]},"properties":{"substrate":"Buried Shell","lease_number":null,"poll_year":2025}},{"type":"Feature","id":"4b321101-2803-4b80-a2f7-41268748122f","geometry":{"type":"Point","coordinates":[-94.85589800809655,29.64722049796189]},"properties":{"substrate":"Buried Shell","lease_number":null,"poll_year":2025}},{"type":"Feature","id":"4c3cea55-758f-4c68-980f-7fbcb0d57514","geometry":{"type":"Point","coordinates":[-94.85488331696568,29.647122450305954]},"properties":{"substrate":"Mud","lease_number":null,"poll_year":2023}},{"type":"Feature","id":"4dfc5b03-7f6f-4d4c-ba03-55c371077a34","geometry":{"type":"Point","coordinates":[-94.85559991474591,29.64840828814848]},"properties":{"substrate":"Mud","lease_number":null,"poll_year":2025}},{"type":"Feature","id":"4e880c9c-df42-4051-bcd9-bb1ba05ba1be","geometry":{"type":"Point","coordinates":[-94.85574433869078,29.647189085903893]},"properties":{"substrate":"Buried Shell","lease_number":null,"poll_year":2025}},{"type":"Feature","id":"50a0bea3-a97a-4c31-8d08-281e561d6743","geometry":{"type":"Point","coordinates":[-94.85526014315936,29.64736055104267]},"properties":{"substrate":"Mud","lease_number":null,"poll_year":2025}},{"type":"Feature","id":"5620d6f7-4c74-4e6e-8b48-9de61615caeb","geometry":{"type":"Point","coordinates":[-94.85559196555396,29.64699565033595]},"properties":{"substrate":"Buried Shell","lease_number":null,"poll_year":2024}},{"type":"Feature","id":"57373698-5042-4318-bb04-e71fa7b1ddde","geometry":{"type":"Point","coordinates":[-94.85455486684666,29.646513716868498]},"properties":{"substrate":"Mud","lease_number":null,"poll_year":2023}},{"type":"Feature","id":"5789c875-c184-4c4d-bf0f-12fbea5c11f7","geometry":{"type":"Point","coordinates":[-94.855225737684,29.647873805651344]},"properties":{"substrate":"Mud","lease_number":null,"poll_year":2025}},{"type":"Feature","id":"59297797-2b2d-43e8-957e-a51b416295eb","geometry":{"type":"Point","coordinates":[-94.85544623366205,29.646404331675697]},"properties":{"substrate":"Mud","lease_number":null,"poll_year":2025}},{"type":"Feature","id":"5a3d5ca3-ae4a-4085-b862-477ada467e6d","geometry":{"type":"Point","coordinates":[-94.85586856671142,29.648163150252362]},"properties":{"substrate":"Buried Shell","lease_number":null,"poll_year":2024}},{"type":"Feature","id":"5bcbc7bf-f1ef-44ca-bff8-0b0a66ecfa6c","geometry":{"type":"Point","coordinates":[-94.85592129332701,29.648146232323317]},"properties":{"substrate":"Buried Shell","lease_number":null,"poll_year":2025}},{"type":"Feature","id":"5e41c511-1172-4eaf-8059-418114e60cde","geometry":{"type":"Point","coordinates":[-94.85577660258251,29.64970210466773]},"properties":{"substrate":"Mud","lease_number":null,"poll_year":2025}},{"type":"Feature","id":"5eed4783-4712-454b-a0fd-4897e5d4b75a","geometry":{"type":"Point","coordinates":[-94.85586346697555,29.648051900178597]},"properties":{"substrate":"Buried Shell","lease_number":null,"poll_year":2024}},{"type":"Feature","id":"61f22f00-5374-4e5e-ab72-724e94af66ba","geometry":{"type":"Point","coordinates":[-94.85577610042428,29.646264417013853]},"properties":{"substrate":"Buried Shell","lease_number":null,"poll_year":2024}},{"type":"Feature","id":"62ccd7dc-b8ad-4333-a054-4fec707215bb","geometry":{"type":"Point","coordinates":[-94.85462283787263,29.64705659069551]},"properties":{"substrate":"Mud","lease_number":null,"poll_year":2025}},{"type":"Feature","id":"660bf282-868a-4403-bf64-6470e3498875","geometry":{"type":"Point","coordinates":[-94.85566955124843,29.64871209608051]},"properties":{"substrate":"Mud","lease_number":null,"poll_year":2025}},{"type":"Feature","id":"66100ec2-3250-4e02-9aa5-91676f83c89f","geometry":{"type":"Point","coordinates":[-94.85574246660174,29.647381434347043]},"properties":{"substrate":"Buried Shell","lease_number":null,"poll_year":2024}},{"type":"Feature","id":"69fa19f7-5f71-44be-897c-6de842793c4b","geometry":{"type":"Point","coordinates":[-94.85525837257995,29.647003028105413]},"properties":{"substrate":"Mud","lease_number":null,"poll_year":2025}},{"type":"Feature","id":"6b99245c-840d-4e88-a7e8-a4ba6187218c","geometry":{"type":"Point","coordinates":[-94.85440453558049,29.64631172875866]},"properties":{"substrate":"Mud","lease_number":null,"poll_year":2025}},{"type":"Feature","id":"6c4d7df5-8e1f-4ed6-ae61-48ea09a66724","geometry":{"type":"Point","coordinates":[-94.85500673021436,29.64845785200043]},"properties":{"substrate":"Mud","lease_number":null,"poll_year":2025}},{"type":"Feature","id":"6c7b0ab4-72b9-4d9e-8d9e-5aed043a1c62","geometry":{"type":"Point","coordinates":[-94.85460900741052,29.646202293380167]},"properties":{"substrate":"Mud","lease_number":null,"poll_year":2025}},{"type":"Feature","id":"6fcf5852-88f7-4a69-ae8b-964789f8605b","geometry":{"type":"Point","coordinates":[-94.8551049969233,29.648573834254066]},"properties":{"substrate":"Mud","lease_number":null,"poll_year":2025}},{"type":"Feature","id":"75edfd5d-a852-42f5-ae06-721b9584c643","geometry":{"type":"Point","coordinates":[-94.85566788307696,29.647091217001186]},"properties":{"substrate":"Buried Shell","lease_number":null,"poll_year":2024}},{"type":"Feature","id":"7610c97d-0d92-4530-9c3e-5c40b0d387d2","geometry":{"type":"Point","coordinates":[-94.85531058266426,29.64833732434312]},"properties":{"substrate":"Mud","lease_number":null,"poll_year":2025}},{"type":"Feature","id":"768b1d3a-e1f6-4120-862a-8333033028c3","geometry":{"type":"Point","coordinates":[-94.8554735496332,29.64660786698557]},"properties":{"substrate":"Buried Shell","lease_number":null,"poll_year":2024}},{"type":"Feature","id":"7d21a243-b26f-4705-8b94-afa73a185fef","geometry":{"type":"Point","coordinates":[-94.85561545560033,29.648956933631222]},"properties":{"substrate":"Mud","lease_number":null,"poll_year":2025}},{"type":"Feature","id":"7fc5fd41-9c81-4d71-bee1-8f58f2591fd7","geometry":{"type":"Point","coordinates":[-94.85574008337129,29.647495933706494]},"properties":{"substrate":"Buried Shell","lease_number":null,"poll_year":2024}},{"type":"Feature","id":"8017b7d2-7322-446d-82b4-ecdf66da7f9f","geometry":{"type":"Point","coordinates":[-94.85528131285737,29.645860664237368]},"properties":{"substrate":"Buried Shell","lease_number":null,"poll_year":2025}},{"type":"Feature","id":"818c2d18-d66e-428a-9af6-159663909a4f","geometry":{"type":"Point","coordinates":[-94.85481064415751,29.64610861131776]},"properties":{"substrate":"Scattered Shell","lease_number":null,"poll_year":2025}},{"type":"Feature","id":"8228dec8-4a73-4936-98f3-9c114a3e4fa6","geometry":{"type":"Point","coordinates":[-94.85407434632307,29.646492215053602]},"properties":{"substrate":"Mud","lease_number":null,"poll_year":2025}},{"type":"Feature","id":"822e8cd5-4b54-4e22-8773-c1286c8bdebb","geometry":{"type":"Point","coordinates":[-94.85591903316575,29.648110432976804]},"properties":{"substrate":"Scattered Shell","lease_number":null,"poll_year":2023}},{"type":"Feature","id":"82e63b61-edff-4f9f-89a2-368956647e42","geometry":{"type":"Point","coordinates":[-94.85487643317565,29.646370632630553]},"properties":{"substrate":"Mud","lease_number":null,"poll_year":2023}},{"type":"Feature","id":"84ca518b-d09c-4555-a19d-4c8dc0e3ddea","geometry":{"type":"Point","coordinates":[-94.85432930976029,29.646674348341797]},"properties":{"substrate":"Mud","lease_number":null,"poll_year":2025}},{"type":"Feature","id":"860441fd-fb31-4def-8222-3b027a8998fa","geometry":{"type":"Point","coordinates":[-94.8559456241965,29.646191156372712]},"properties":{"substrate":"Mud","lease_number":null,"poll_year":2025}},{"type":"Feature","id":"881d322e-e07c-4c2c-83ef-b1279a3d6b72","geometry":{"type":"Point","coordinates":[-94.85585824506882,29.649177236328434]},"properties":{"substrate":"Mud","lease_number":null,"poll_year":2025}},{"type":"Feature","id":"88f1c31d-b023-493e-91fa-8e3c9d1a1485","geometry":{"type":"Point","coordinates":[-94.85507883888053,29.64688910201245]},"properties":{"substrate":"Mud","lease_number":null,"poll_year":2025}},{"type":"Feature","id":"8e5e0b37-b872-44f9-83f1-affbf450a4d0","geometry":{"type":"Point","coordinates":[-94.85500680028294,29.64723591629394]},"properties":{"substrate":"Mud","lease_number":null,"poll_year":2023}},{"type":"Feature","id":"8f2a8c9c-1c9c-4028-817b-9ef2975e2a2f","geometry":{"type":"Point","coordinates":[-94.85492990898621,29.64715673463572]},"properties":{"substrate":"Mud","lease_number":null,"poll_year":2025}},{"type":"Feature","id":"917408ca-f1eb-48fc-9fe5-f2606aca9389","geometry":{"type":"Point","coordinates":[-94.85526495004444,29.646691616280194]},"properties":{"substrate":"Mud","lease_number":null,"poll_year":2023}},{"type":"Feature","id":"944ab882-5322-4d68-8548-46bc4145dd1b","geometry":{"type":"Point","coordinates":[-94.85479231493245,29.64806185264603]},"properties":{"substrate":"Mud","lease_number":null,"poll_year":2025}},{"type":"Feature","id":"95856ec5-8dcb-4958-ab40-f8dd582d15b0","geometry":{"type":"Point","coordinates":[-94.85577021556085,29.647745741876722]},"properties":{"substrate":"Buried Shell","lease_number":null,"poll_year":2025}},{"type":"Feature","id":"95a56667-2152-4fce-85f0-685b63dd62be","geometry":{"type":"Point","coordinates":[-94.85518013201364,29.64807458131017]},"properties":{"substrate":"Mud","lease_number":null,"poll_year":2025}},{"type":"Feature","id":"95ae27f8-f97c-4906-addb-fcc0326f45fa","geometry":{"type":"Point","coordinates":[-94.8557267838135,29.646283978002813]},"properties":{"substrate":"Mud","lease_number":null,"poll_year":2025}},{"type":"Feature","id":"98d4d0d2-0e8d-4867-9177-b95e84c439fd","geometry":{"type":"Point","coordinates":[-94.85552246559537,29.646199566316362]},"properties":{"substrate":"Buried Shell","lease_number":null,"poll_year":2024}},{"type":"Feature","id":"9993628d-cd79-478b-97c0-901864a9649f","geometry":{"type":"Point","coordinates":[-94.8552426996732,29.64847066571133]},"properties":{"substrate":"Buried Shell","lease_number":null,"poll_year":2024}},{"type":"Feature","id":"9c6f4453-98fe-4637-a786-6969d1559b55","geometry":{"type":"Point","coordinates":[-94.85571421638268,29.646834600129978]},"properties":{"substrate":"Buried Shell","lease_number":null,"poll_year":2024}},{"type":"Feature","id":"9ccf38e5-144e-4d8f-bd53-049dfd0a078f","geometry":{"type":"Point","coordinates":[-94.8542949456074,29.646365935030854]},"properties":{"substrate":"Mud","lease_number":null,"poll_year":2025}},{"type":"Feature","id":"9ff5ba46-9512-4d4c-a418-43fe24622633","geometry":{"type":"Point","coordinates":[-94.85533768842964,29.647987176326694]},"properties":{"substrate":"Mud","lease_number":null,"poll_year":2025}},{"type":"Feature","id":"a067a5cd-3bdb-41ec-867a-40133e91f1e8","geometry":{"type":"Point","coordinates":[-94.85549481634925,29.64761406636748]},"properties":{"substrate":"Mud","lease_number":null,"poll_year":2023}},{"type":"Feature","id":"a1885182-7a2c-4a9f-af51-eb8b16b9b77b","geometry":{"type":"Point","coordinates":[-94.85559389244025,29.647250235377747]},"properties":{"substrate":"Mud","lease_number":null,"poll_year":2025}},{"type":"Feature","id":"a19a5d83-4a17-400d-8242-d8575ab4dd63","geometry":{"type":"Point","coordinates":[-94.85565418376886,29.64760206682982]},"properties":{"substrate":"Buried Shell","lease_number":null,"poll_year":2024}},{"type":"Feature","id":"a20b3eab-0976-4c41-b2cc-76396b06a653","geometry":{"type":"Point","coordinates":[-94.85538225025763,29.646880500070022]},"properties":{"substrate":"Buried Shell","lease_number":null,"poll_year":2023}},{"type":"Feature","id":"a411f7f5-3d6c-4724-9643-1513415abfcc","geometry":{"type":"Point","coordinates":[-94.85589899444672,29.646562442379558]},"properties":{"substrate":"Buried Shell","lease_number":null,"poll_year":2025}},{"type":"Feature","id":"a6035b3b-9d06-4827-abc4-8955c8aba174","geometry":{"type":"Point","coordinates":[-94.85491417140074,29.64764036463349]},"properties":{"substrate":"Mud","lease_number":null,"poll_year":2025}},{"type":"Feature","id":"a7b94551-3491-4ddc-85a7-6ce4ee7b50a5","geometry":{"type":"Point","coordinates":[-94.85589293441183,29.647560967036195]},"properties":{"substrate":"Buried Shell","lease_number":null,"poll_year":2023}},{"type":"Feature","id":"a8995bac-20a6-4023-b092-fb85f9db43f5","geometry":{"type":"Point","coordinates":[-94.85463243098155,29.647637080180697]},"properties":{"substrate":"Mud","lease_number":null,"poll_year":2025}},{"type":"Feature","id":"a90bf7ab-aa71-4702-96e4-e342ec00fce3","geometry":{"type":"Point","coordinates":[-94.85477581557564,29.647016949837823]},"properties":{"substrate":"Mud","lease_number":null,"poll_year":2023}},{"type":"Feature","id":"a9b7f45d-c0ec-4786-a692-9caa7384b917","geometry":{"type":"Point","coordinates":[-94.85559437842882,29.647347631794077]},"properties":{"substrate":"Mud","lease_number":null,"poll_year":2025}},{"type":"Feature","id":"ab108678-34d3-4a8d-a3bd-01e41fde1b41","geometry":{"type":"Point","coordinates":[-94.85505591207783,29.6464222593695]},"properties":{"substrate":"Mud","lease_number":null,"poll_year":2025}},{"type":"Feature","id":"ad022804-eba2-43aa-9ecd-55b36ed60864","geometry":{"type":"Point","coordinates":[-94.85534765074615,29.648836244185453]},"properties":{"substrate":"Mud","lease_number":null,"poll_year":2025}},{"type":"Feature","id":"b1e0abb3-7669-46bd-99e0-92457939bf8e","geometry":{"type":"Point","coordinates":[-94.85423850355978,29.6467902780001]},"properties":{"substrate":"Mud","lease_number":null,"poll_year":2025}},{"type":"Feature","id":"b5e0b022-e076-4897-ba41-2896d9b3d863","geometry":{"type":"Point","coordinates":[-94.8547703250726,29.647222421642706]},"properties":{"substrate":"Mud","lease_number":null,"poll_year":2025}},{"type":"Feature","id":"b87cd521-5a25-4bde-8809-ce456f7e8efd","geometry":{"type":"Point","coordinates":[-94.85509668301533,29.64730710025642]},"properties":{"substrate":"Buried Shell","lease_number":null,"poll_year":2024}},{"type":"Feature","id":"b930f606-641e-4fcb-88ee-93aaf6893c81","geometry":{"type":"Point","coordinates":[-94.85515243156354,29.648395582167026]},"properties":{"substrate":"Mud","lease_number":null,"poll_year":2025}},{"type":"Feature","id":"bac4f4a6-4572-4190-9807-947edafb2b51","geometry":{"type":"Point","coordinates":[-94.85541344425586,29.64678925369812]},"properties":{"substrate":"Mud","lease_number":null,"poll_year":2025}},{"type":"Feature","id":"be1c9d20-21e3-4340-8f73-b6ee16ee8049","geometry":{"type":"Point","coordinates":[-94.85454381038214,29.64725189361516]},"properties":{"substrate":"Mud","lease_number":null,"poll_year":2025}},{"type":"Feature","id":"bee0a5c4-5167-488b-a759-d757b91ae649","geometry":{"type":"Point","coordinates":[-94.85578505123777,29.64942481768033]},"properties":{"substrate":"Mud","lease_number":null,"poll_year":2025}},{"type":"Feature","id":"bfee9bc8-ea97-4768-96e9-4b3a59997130","geometry":{"type":"Point","coordinates":[-94.85575269931111,29.646788565885576]},"properties":{"substrate":"Buried Shell","lease_number":null,"poll_year":2025}},{"type":"Feature","id":"c1fd7a88-0ffe-429e-8b14-65a271623a70","geometry":{"type":"Point","coordinates":[-94.8557301165632,29.647897049714512]},"properties":{"substrate":"Scattered Shell","lease_number":null,"poll_year":2023}},{"type":"Feature","id":"c2013faf-1c22-4324-9cae-fb26edfa6632","geometry":{"type":"Point","coordinates":[-94.85572134990434,29.647344767355698]},"properties":{"substrate":"Scattered Shell","lease_number":null,"poll_year":2023}},{"type":"Feature","id":"c25c656c-b625-4b6d-a92c-8d52ab37f0b4","geometry":{"type":"Point","coordinates":[-94.85592473297625,29.646005134985355]},"properties":{"substrate":"Mud","lease_number":null,"poll_year":2025}},{"type":"Feature","id":"c3da5420-0e98-4292-b877-d0ca3bbb0687","geometry":{"type":"Point","coordinates":[-94.85561483306785,29.64722559993191]},"properties":{"substrate":"Buried Shell","lease_number":null,"poll_year":2023}},{"type":"Feature","id":"c5ebcfa7-c90c-46dd-90c6-7fed27ec83d3","geometry":{"type":"Point","coordinates":[-94.85575316643506,29.647459683657434]},"properties":{"substrate":"Scattered Shell","lease_number":null,"poll_year":2023}},{"type":"Feature","id":"ca5e85cb-8068-4a74-b28a-f22cd9c71253","geometry":{"type":"Point","coordinates":[-94.85471191661284,29.646410866309953]},"properties":{"substrate":"Mud","lease_number":null,"poll_year":2023}},{"type":"Feature","id":"cade1485-3764-4328-a894-f144b1f23e70","geometry":{"type":"Point","coordinates":[-94.85572334955417,29.64853405034426]},"properties":{"substrate":"Buried Shell","lease_number":null,"poll_year":2024}},{"type":"Feature","id":"caff954b-bd44-4978-af6f-011509526be5","geometry":{"type":"Point","coordinates":[-94.85547321815488,29.646235665359004]},"properties":{"substrate":"Mud","lease_number":null,"poll_year":2025}},{"type":"Feature","id":"ccacc37d-4cf0-4220-a622-6e4eed259e23","geometry":{"type":"Point","coordinates":[-94.85549686630472,29.647645149613414]},"properties":{"substrate":"Buried Shell","lease_number":null,"poll_year":2024}},{"type":"Feature","id":"ccc0fb45-2fc2-43ac-bfac-7cd098f1829e","geometry":{"type":"Point","coordinates":[-94.85455426228047,29.646569246351806]},"properties":{"substrate":"Mud","lease_number":null,"poll_year":2025}},{"type":"Feature","id":"cfd64bb3-fb9d-44a4-b189-92afb2fe82bb","geometry":{"type":"Point","coordinates":[-94.855432383437,29.64688275009714]},"properties":{"substrate":"Buried Shell","lease_number":null,"poll_year":2024}},{"type":"Feature","id":"d0aa05d2-0d58-4399-b0a2-93bc08c19209","geometry":{"type":"Point","coordinates":[-94.85547741418557,29.648287145235216]},"properties":{"substrate":"Mud","lease_number":null,"poll_year":2025}},{"type":"Feature","id":"d1d0bcdc-ac80-46c1-8be9-3af83fae38c9","geometry":{"type":"Point","coordinates":[-94.85544535960128,29.646912432962598]},"properties":{"substrate":"Mud","lease_number":null,"poll_year":2025}},{"type":"Feature","id":"d1f4032e-ebd7-4547-b559-cfea12fcd871","geometry":{"type":"Point","coordinates":[-94.85563026342946,29.649768116344173]},"properties":{"substrate":"Mud","lease_number":null,"poll_year":2025}},{"type":"Feature","id":"d2952819-5b6a-4470-978b-ab1a6341ca57","geometry":{"type":"Point","coordinates":[-94.85542824400018,29.647308083955966]},"properties":{"substrate":"Mud","lease_number":null,"poll_year":2025}},{"type":"Feature","id":"d3354285-039a-4134-971d-d5af4c6f8661","geometry":{"type":"Point","coordinates":[-94.85566561842411,29.649232451282153]},"properties":{"substrate":"Mud","lease_number":null,"poll_year":2025}},{"type":"Feature","id":"d36a2965-9f68-4a61-9df7-eab78d4dad45","geometry":{"type":"Point","coordinates":[-94.8553828009249,29.649366904739928]},"properties":{"substrate":"Mud","lease_number":null,"poll_year":2025}},{"type":"Feature","id":"dadfe642-f73d-4f0d-b1f3-7b64a167e3df","geometry":{"type":"Point","coordinates":[-94.85506800160495,29.647093851135676]},"properties":{"substrate":"Mud","lease_number":null,"poll_year":2025}},{"type":"Feature","id":"db1881c8-c529-4ef0-819a-87524f1ba1b6","geometry":{"type":"Point","coordinates":[-94.85582991669632,29.64796888432056]},"properties":{"substrate":"Buried Shell","lease_number":null,"poll_year":2024}},{"type":"Feature","id":"db306f86-6738-405d-8893-a70733fe705f","geometry":{"type":"Point","coordinates":[-94.85537318356147,29.64625074969285]},"properties":{"substrate":"Buried Shell","lease_number":null,"poll_year":2024}},{"type":"Feature","id":"db70b7a3-ae8c-4364-9416-326793af4c92","geometry":{"type":"Point","coordinates":[-94.85507976684022,29.648538182612764]},"properties":{"substrate":"Buried Shell","lease_number":null,"poll_year":2024}},{"type":"Feature","id":"dda65273-db27-41a3-b39b-00c83a49e5be","geometry":{"type":"Point","coordinates":[-94.85488972914017,29.64663928469]},"properties":{"substrate":"Mud","lease_number":null,"poll_year":2025}},{"type":"Feature","id":"de9507fa-c839-4d55-b6b7-53e42d844c6d","geometry":{"type":"Point","coordinates":[-94.8555366428072,29.649279397826433]},"properties":{"substrate":"Mud","lease_number":null,"poll_year":2025}},{"type":"Feature","id":"df1d6b86-8b2d-433b-93fb-c28ac6126199","geometry":{"type":"Point","coordinates":[-94.85562009539878,29.6494849743108]},"properties":{"substrate":"Mud","lease_number":null,"poll_year":2025}},{"type":"Feature","id":"dff53dd9-27c9-4541-b002-ae0dea0d4b85","geometry":{"type":"Point","coordinates":[-94.85594703365318,29.64774835023066]},"properties":{"substrate":"Solid Reef","lease_number":null,"poll_year":2023}},{"type":"Feature","id":"e13e8c09-5b62-466e-ae42-d0e5e0dff9bc","geometry":{"type":"Point","coordinates":[-94.85562041519903,29.64669707506539]},"properties":{"substrate":"Buried Shell","lease_number":null,"poll_year":2025}},{"type":"Feature","id":"e1929047-681b-4ac5-bfce-77f504640540","geometry":{"type":"Point","coordinates":[-94.85463701688109,29.646860199857567]},"properties":{"substrate":"Mud","lease_number":null,"poll_year":2023}},{"type":"Feature","id":"e277dfa8-ea08-4e39-a284-9f440322699c","geometry":{"type":"Point","coordinates":[-94.85560011057865,29.64617372283523]},"properties":{"substrate":"Mud","lease_number":null,"poll_year":2025}},{"type":"Feature","id":"e401e18f-056a-4489-976b-46c622e33d22","geometry":{"type":"Point","coordinates":[-94.85560404969117,29.64671745025971]},"properties":{"substrate":"Buried Shell","lease_number":null,"poll_year":2024}},{"type":"Feature","id":"e69e5340-6ae8-4f97-9fba-2cc8f41a985a","geometry":{"type":"Point","coordinates":[-94.85594620540648,29.64670330910394]},"properties":{"substrate":"Buried Shell","lease_number":null,"poll_year":2025}},{"type":"Feature","id":"e6c59226-88cb-4e96-bf59-7982f7cae918","geometry":{"type":"Point","coordinates":[-94.85454504556566,29.646795500222435]},"properties":{"substrate":"Mud","lease_number":null,"poll_year":2025}},{"type":"Feature","id":"e8450715-71eb-4009-98d2-d165537d5db0","geometry":{"type":"Point","coordinates":[-94.85570471669854,29.647225267347448]},"properties":{"substrate":"Buried Shell","lease_number":null,"poll_year":2024}},{"type":"Feature","id":"ea1e8efa-a6ac-4c3e-94db-051cb1ee5073","geometry":{"type":"Point","coordinates":[-94.85594233456592,29.64550980182829]},"properties":{"substrate":"Mud","lease_number":null,"poll_year":2025}},{"type":"Feature","id":"ed2b3d38-d340-40d5-9c75-33f2ed4ec882","geometry":{"type":"Point","coordinates":[-94.8555715019318,29.645695935774835]},"properties":{"substrate":"Mud","lease_number":null,"poll_year":2025}},{"type":"Feature","id":"ed3c0d82-39fc-40ae-acc4-448b96e6f922","geometry":{"type":"Point","coordinates":[-94.85502865000561,29.6471689996696]},"properties":{"substrate":"Buried Shell","lease_number":null,"poll_year":2024}},{"type":"Feature","id":"ed64d572-09cc-4791-a100-7bd6661fb824","geometry":{"type":"Point","coordinates":[-94.85576575003557,29.64761491734308]},"properties":{"substrate":"Buried Shell","lease_number":null,"poll_year":2024}},{"type":"Feature","id":"edebdf71-6ba4-4284-b470-ba7ad399ef52","geometry":{"type":"Point","coordinates":[-94.85542555534253,29.64782214686704]},"properties":{"substrate":"Mud","lease_number":null,"poll_year":2025}},{"type":"Feature","id":"f07a1127-2a45-4722-bd1f-192961130455","geometry":{"type":"Point","coordinates":[-94.85544086892318,29.648480063056173]},"properties":{"substrate":"Mud","lease_number":null,"poll_year":2025}},{"type":"Feature","id":"f14243bb-c113-42be-a47c-d56f429b0df6","geometry":{"type":"Point","coordinates":[-94.85555925519952,29.64777713892756]},"properties":{"substrate":"Buried Shell","lease_number":null,"poll_year":2025}},{"type":"Feature","id":"f218bd0c-db81-4f93-bb14-c968749a41e7","geometry":{"type":"Point","coordinates":[-94.855464850348,29.64837913270045]},"properties":{"substrate":"Buried Shell","lease_number":null,"poll_year":2024}},{"type":"Feature","id":"f2edb734-7cc8-4426-823a-6e183ad1248f","geometry":{"type":"Point","coordinates":[-94.85580763308738,29.64691136728386]},"properties":{"substrate":"Buried Shell","lease_number":null,"poll_year":2024}},{"type":"Feature","id":"f3f2ad9a-41e1-470a-bff6-67c6b55cab60","geometry":{"type":"Point","coordinates":[-94.85518634476216,29.647538392746526]},"properties":{"substrate":"Mud","lease_number":null,"poll_year":2025}},{"type":"Feature","id":"f3f74862-04e0-4837-8279-40a80c58567a","geometry":{"type":"Point","coordinates":[-94.85571087195487,29.645628940834847]},"properties":{"substrate":"Mud","lease_number":null,"poll_year":2025}},{"type":"Feature","id":"f53c39d7-5050-49ee-8133-26601fb5298f","geometry":{"type":"Point","coordinates":[-94.85505553568375,29.64656778094093]},"properties":{"substrate":"Mud","lease_number":null,"poll_year":2025}},{"type":"Feature","id":"f7f684fb-be9d-42d3-a534-1054b2adabdc","geometry":{"type":"Point","coordinates":[-94.85454435026963,29.64672800010861]},"properties":{"substrate":"Mud","lease_number":null,"poll_year":2023}},{"type":"Feature","id":"fcc646a6-c2b5-4eff-a752-5e1bc931bcfe","geometry":{"type":"Point","coordinates":[-94.85577567013125,29.648875906186387]},"properties":{"substrate":"Buried Shell","lease_number":null,"poll_year":2025}},{"type":"Feature","id":"fd1f3265-e91b-4305-a989-4d424a42669b","geometry":{"type":"Point","coordinates":[-94.8557735572937,29.646085466774245]},"properties":{"substrate":"Mud","lease_number":null,"poll_year":2025}},{"type":"Feature","id":"fda23ba9-4424-4a76-a0ef-b363ebded1d5","geometry":{"type":"Point","coordinates":[-94.85560571696433,29.648684649679907]},"properties":{"substrate":"Buried Shell","lease_number":null,"poll_year":2024}},{"type":"Feature","id":"fea8be87-c312-4347-94d8-d09d2f3d28ba","geometry":{"type":"Point","coordinates":[-94.85531173340614,29.64641945033598]},"properties":{"substrate":"Mud","lease_number":null,"poll_year":2024}},{"type":"Feature","id":"fee1e207-248c-4200-ad74-bf595c0bcaee","geometry":{"type":"Point","coordinates":[-94.85585866637868,29.64762163302381]},"properties":{"substrate":"Buried Shell","lease_number":null,"poll_year":2023}},{"type":"Feature","id":"ffb9ecbf-1e0f-45fc-a047-de2687278e96","geometry":{"type":"Point","coordinates":[-94.85477237412978,29.647513626992186]},"properties":{"substrate":"Mud","lease_number":null,"poll_year":2025}}]}