{"type":"FeatureCollection","features":[{"type":"Feature","id":"17ba1346-3db4-4bee-8b19-67e191afa137","geometry":{"type":"Point","coordinates":[-94.85158252662445,29.477442556010075]},"properties":{"substrate":"Mud","lease_number":null,"poll_year":2023}},{"type":"Feature","id":"762c17d4-4352-42d8-9eea-ee37a0d66ff0","geometry":{"type":"Point","coordinates":[-94.85166906942062,29.477703066379455]},"properties":{"substrate":"Mud","lease_number":null,"poll_year":2023}},{"type":"Feature","id":"8e9d9ef6-3da3-4c79-84e0-b02e7d68dbcf","geometry":{"type":"Point","coordinates":[-94.85011820893095,29.477236887933113]},"properties":{"substrate":"Mud","lease_number":null,"poll_year":2023}},{"type":"Feature","id":"f43e33c1-12a8-404b-949b-034b77e5dae4","geometry":{"type":"Point","coordinates":[-94.85093499761146,29.47739456529142]},"properties":{"substrate":"Mud","lease_number":null,"poll_year":2023}}]}