{"type":"FeatureCollection","features":[{"type":"Feature","id":"01223aa4-5ffa-4827-a6b3-64167d100e3c","geometry":{"type":"Point","coordinates":[-94.8353830948165,29.504914901340673]},"properties":{"substrate":"Mud","lease_number":null,"poll_year":2025}},{"type":"Feature","id":"01ce468c-f599-433d-ace0-e611fea2ef63","geometry":{"type":"Point","coordinates":[-94.83646709007324,29.50443201474065]},"properties":{"substrate":"Mud","lease_number":null,"poll_year":2025}},{"type":"Feature","id":"01e017b7-cd34-431e-84bf-f7734107589e","geometry":{"type":"Point","coordinates":[-94.83437302372117,29.507476450345155]},"properties":{"substrate":"Mud","lease_number":null,"poll_year":2025}},{"type":"Feature","id":"03fa85d0-41b1-4ebb-906c-597cc8382eb1","geometry":{"type":"Point","coordinates":[-94.83443755240296,29.5073226427916]},"properties":{"substrate":"Mud","lease_number":null,"poll_year":2025}},{"type":"Feature","id":"050b383a-e3ba-4f3f-b9b6-e44c397f2a79","geometry":{"type":"Point","coordinates":[-94.8363652965785,29.50535480628759]},"properties":{"substrate":"Mud","lease_number":null,"poll_year":2025}},{"type":"Feature","id":"05d1d045-5087-49f6-acc8-a778a3215924","geometry":{"type":"Point","coordinates":[-94.8349006195589,29.50564891120608]},"properties":{"substrate":"Mud","lease_number":null,"poll_year":2025}},{"type":"Feature","id":"077e92c2-1ad7-401a-87eb-38c9fae03935","geometry":{"type":"Point","coordinates":[-94.83576665118832,29.504200308162964]},"properties":{"substrate":"Mud","lease_number":null,"poll_year":2025}},{"type":"Feature","id":"09ae1ee8-b298-467d-9f59-7b0cad27e4c1","geometry":{"type":"Point","coordinates":[-94.83674326722588,29.504706661340734]},"properties":{"substrate":"Mud","lease_number":null,"poll_year":2025}},{"type":"Feature","id":"0acf1326-8248-451e-9f66-a4de3bf9e8e5","geometry":{"type":"Point","coordinates":[-94.83763361984332,29.50359805606132]},"properties":{"substrate":"Buried Shell","lease_number":null,"poll_year":2025}},{"type":"Feature","id":"11064e36-7c75-43d4-9220-2e3f53ce56b5","geometry":{"type":"Point","coordinates":[-94.8347849695509,29.506744006387372]},"properties":{"substrate":"Mud","lease_number":null,"poll_year":2025}},{"type":"Feature","id":"12a13f0b-11bf-4298-a323-3007ad801c94","geometry":{"type":"Point","coordinates":[-94.83559914413391,29.504285870660134]},"properties":{"substrate":"Mud","lease_number":null,"poll_year":2025}},{"type":"Feature","id":"13a59738-b429-4b77-a0cc-694f5f890a74","geometry":{"type":"Point","coordinates":[-94.83506939503447,29.505574669699676]},"properties":{"substrate":"Mud","lease_number":null,"poll_year":2025}},{"type":"Feature","id":"18a7e8f0-d7d0-4850-9c29-24c4a8e9bef7","geometry":{"type":"Point","coordinates":[-94.83470619358869,29.504960997194274]},"properties":{"substrate":"Mud","lease_number":null,"poll_year":2025}},{"type":"Feature","id":"1b0b87b7-28bd-4193-828b-3cb1845220f6","geometry":{"type":"Point","coordinates":[-94.8557505002353,29.51434070005124]},"properties":{"substrate":"Solid Reef","lease_number":null,"poll_year":2025}},{"type":"Feature","id":"1b42c25a-ba0f-4a26-92fc-b49c32c01e98","geometry":{"type":"Point","coordinates":[-94.83447863415755,29.505828886883286]},"properties":{"substrate":"Mud","lease_number":null,"poll_year":2025}},{"type":"Feature","id":"206de5ee-2639-44ca-a33c-2ec389a184fd","geometry":{"type":"Point","coordinates":[-94.83533610663896,29.505848956695438]},"properties":{"substrate":"Mud","lease_number":null,"poll_year":2025}},{"type":"Feature","id":"216887a5-5126-4643-9ed0-b402b98b4c23","geometry":{"type":"Point","coordinates":[-94.83446664793671,29.506362437941757]},"properties":{"substrate":"Mud","lease_number":null,"poll_year":2025}},{"type":"Feature","id":"217d1855-d4d2-486a-b228-55ba1d55ebac","geometry":{"type":"Point","coordinates":[-94.83552989121205,29.505390529638923]},"properties":{"substrate":"Mud","lease_number":null,"poll_year":2025}},{"type":"Feature","id":"23f8aee6-901f-4474-b452-d9f3c043382a","geometry":{"type":"Point","coordinates":[-94.83465665060244,29.506798914654972]},"properties":{"substrate":"Mud","lease_number":null,"poll_year":2025}},{"type":"Feature","id":"2461c831-964b-4a6d-aeb9-7cadc0a5f83e","geometry":{"type":"Point","coordinates":[-94.83565022683256,29.505849404671814]},"properties":{"substrate":"Mud","lease_number":null,"poll_year":2025}},{"type":"Feature","id":"24f16dad-2c32-4c06-8c41-0d84fe75ce11","geometry":{"type":"Point","coordinates":[-94.8366448864309,29.50436155166064]},"properties":{"substrate":"Mud","lease_number":null,"poll_year":2025}},{"type":"Feature","id":"26525616-f95e-4e2f-ab2a-99085341d1c3","geometry":{"type":"Point","coordinates":[-94.83440865719353,29.5047826391171]},"properties":{"substrate":"Mud","lease_number":null,"poll_year":2025}},{"type":"Feature","id":"277470f7-579a-489e-b064-37152cd3b5f4","geometry":{"type":"Point","coordinates":[-94.83411116032426,29.505693381342784]},"properties":{"substrate":"Mud","lease_number":null,"poll_year":2025}},{"type":"Feature","id":"28f7eb8c-8407-41bf-ae1e-f0ceba741791","geometry":{"type":"Point","coordinates":[-94.83556997044677,29.505203092335094]},"properties":{"substrate":"Mud","lease_number":null,"poll_year":2025}},{"type":"Feature","id":"2c61f5c4-f459-462c-bec2-770f8b48b362","geometry":{"type":"Point","coordinates":[-94.83418780278767,29.506807094641886]},"properties":{"substrate":"Mud","lease_number":null,"poll_year":2025}},{"type":"Feature","id":"2cc2a8d6-61ca-4511-9ef9-f7d196511633","geometry":{"type":"Point","coordinates":[-94.83487402044331,29.50458681490407]},"properties":{"substrate":"Mud","lease_number":null,"poll_year":2025}},{"type":"Feature","id":"2e32ddfc-2143-4cbe-943e-6abd800e7a84","geometry":{"type":"Point","coordinates":[-94.8355165296705,29.505887438092348]},"properties":{"substrate":"Mud","lease_number":null,"poll_year":2025}},{"type":"Feature","id":"3600a028-c470-4114-934f-1452548a6c6e","geometry":{"type":"Point","coordinates":[-94.83454292298916,29.504731881987826]},"properties":{"substrate":"Mud","lease_number":null,"poll_year":2025}},{"type":"Feature","id":"3785d810-ed7e-4130-9458-c8090204de65","geometry":{"type":"Point","coordinates":[-94.83642391434574,29.503940775964136]},"properties":{"substrate":"Mud","lease_number":null,"poll_year":2025}},{"type":"Feature","id":"37f25313-298c-460e-bc2c-4406c54ee783","geometry":{"type":"Point","coordinates":[-94.83522976677055,29.504987572663943]},"properties":{"substrate":"Mud","lease_number":null,"poll_year":2025}},{"type":"Feature","id":"382889f7-cc90-489b-b4e3-110f4a27bd5e","geometry":{"type":"Point","coordinates":[-94.83487636235127,29.505137105677846]},"properties":{"substrate":"Mud","lease_number":null,"poll_year":2025}},{"type":"Feature","id":"3acf3045-da8f-4fba-a80a-880084c2243c","geometry":{"type":"Point","coordinates":[-94.83460646442246,29.505241558341243]},"properties":{"substrate":"Mud","lease_number":null,"poll_year":2025}},{"type":"Feature","id":"3b2b6545-19fe-4eb6-a0d0-17a56c11f408","geometry":{"type":"Point","coordinates":[-94.8352453327778,29.5054995509465]},"properties":{"substrate":"Mud","lease_number":null,"poll_year":2025}},{"type":"Feature","id":"3bb7b863-e81a-40ca-bbc8-726c7ee84f81","geometry":{"type":"Point","coordinates":[-94.83621069831474,29.505470911628667]},"properties":{"substrate":"Mud","lease_number":null,"poll_year":2025}},{"type":"Feature","id":"3f04f8b7-ce06-46a9-86ad-660726d7f3ff","geometry":{"type":"Point","coordinates":[-94.83497121186886,29.505963379019526]},"properties":{"substrate":"Mud","lease_number":null,"poll_year":2025}},{"type":"Feature","id":"3fb22a73-81d9-43a3-a4cf-558b70418d91","geometry":{"type":"Point","coordinates":[-94.83490202542231,29.506687546994538]},"properties":{"substrate":"Mud","lease_number":null,"poll_year":2025}},{"type":"Feature","id":"40486374-24ee-4859-b983-363e7aa74bde","geometry":{"type":"Point","coordinates":[-94.83407379669664,29.50797427185746]},"properties":{"substrate":"Mud","lease_number":null,"poll_year":2025}},{"type":"Feature","id":"43e958f4-ea92-4da9-8ded-2416fd79cb0d","geometry":{"type":"Point","coordinates":[-94.83541130191644,29.505240093223016]},"properties":{"substrate":"Mud","lease_number":null,"poll_year":2025}},{"type":"Feature","id":"4414bd7b-d5e8-4f32-af4c-74ac6beb06c3","geometry":{"type":"Point","coordinates":[-94.83421228816736,29.505140168043866]},"properties":{"substrate":"Mud","lease_number":null,"poll_year":2025}},{"type":"Feature","id":"450924a7-b0aa-454b-b9e0-436d3d37e9c9","geometry":{"type":"Point","coordinates":[-94.834716679623,29.50465658904576]},"properties":{"substrate":"Mud","lease_number":null,"poll_year":2025}},{"type":"Feature","id":"475d97d4-602f-406f-9616-cf328212ab78","geometry":{"type":"Point","coordinates":[-94.83526562033018,29.506842687701845]},"properties":{"substrate":"Mud","lease_number":null,"poll_year":2025}},{"type":"Feature","id":"4829a0a3-668d-4d42-b05c-bcafd1832e63","geometry":{"type":"Point","coordinates":[-94.83504570825706,29.50483940369884]},"properties":{"substrate":"Mud","lease_number":null,"poll_year":2025}},{"type":"Feature","id":"4951267e-8574-4381-a425-b0b8f62ecb9c","geometry":{"type":"Point","coordinates":[-94.83446199286689,29.506124894123587]},"properties":{"substrate":"Mud","lease_number":null,"poll_year":2025}},{"type":"Feature","id":"496a9563-9cd2-437d-bbcd-9dea0bc78c53","geometry":{"type":"Point","coordinates":[-94.8357597781781,29.505142034234204]},"properties":{"substrate":"Mud","lease_number":null,"poll_year":2025}},{"type":"Feature","id":"5051ceb6-1dde-4f62-b0b9-d936c04103c0","geometry":{"type":"Point","coordinates":[-94.83613493440367,29.50406072714789]},"properties":{"substrate":"Mud","lease_number":null,"poll_year":2025}},{"type":"Feature","id":"50ab88fe-7327-4653-a91b-2660df479229","geometry":{"type":"Point","coordinates":[-94.8347396720027,29.50717998423177]},"properties":{"substrate":"Mud","lease_number":null,"poll_year":2025}},{"type":"Feature","id":"5553a106-c65f-4c5a-a063-899ac8c47277","geometry":{"type":"Point","coordinates":[-94.83493312060588,29.50540510418094]},"properties":{"substrate":"Mud","lease_number":null,"poll_year":2025}},{"type":"Feature","id":"55f2e754-1124-4915-a461-cb9d31c677f9","geometry":{"type":"Point","coordinates":[-94.85588170008087,29.514046399932038]},"properties":{"substrate":"Solid Reef","lease_number":null,"poll_year":2025}},{"type":"Feature","id":"58491941-1a47-4ee6-8fe2-ba1ddf0100f8","geometry":{"type":"Point","coordinates":[-94.83590795079263,29.50415291726627]},"properties":{"substrate":"Mud","lease_number":null,"poll_year":2025}},{"type":"Feature","id":"58e9ce74-22ff-4b38-a289-0a335a8591cc","geometry":{"type":"Point","coordinates":[-94.83541672055422,29.506350347331395]},"properties":{"substrate":"Mud","lease_number":null,"poll_year":2025}},{"type":"Feature","id":"59bc14ef-bdeb-4b96-8f8d-055257c65cf6","geometry":{"type":"Point","coordinates":[-94.83521981703048,29.50477123084433]},"properties":{"substrate":"Mud","lease_number":null,"poll_year":2025}},{"type":"Feature","id":"5ca9928f-8bd2-44a4-af9d-b7ef51a6a6ea","geometry":{"type":"Point","coordinates":[-94.83501790360239,29.50452365568416]},"properties":{"substrate":"Mud","lease_number":null,"poll_year":2025}},{"type":"Feature","id":"5f1267ae-d005-4c21-941b-ecfc15f989ba","geometry":{"type":"Point","coordinates":[-94.83540017358669,29.50469626394945]},"properties":{"substrate":"Mud","lease_number":null,"poll_year":2025}},{"type":"Feature","id":"61f6fbb9-80e1-4c4c-acac-6c1b0dbf694a","geometry":{"type":"Point","coordinates":[-94.83585600571132,29.50607051633737]},"properties":{"substrate":"Mud","lease_number":null,"poll_year":2025}},{"type":"Feature","id":"6237bde0-5536-4689-bca6-6fe608b2e9e9","geometry":{"type":"Point","coordinates":[-94.83457378461077,29.50667133867026]},"properties":{"substrate":"Mud","lease_number":null,"poll_year":2025}},{"type":"Feature","id":"65b70a0f-7539-486f-9706-fe145fa220ed","geometry":{"type":"Point","coordinates":[-94.85579819987858,29.514842799879805]},"properties":{"substrate":"Solid Reef","lease_number":null,"poll_year":2025}},{"type":"Feature","id":"6612dad8-d0ed-4583-8228-a7f9a34d99c8","geometry":{"type":"Point","coordinates":[-94.8342713640754,29.50738945985617]},"properties":{"substrate":"Mud","lease_number":null,"poll_year":2025}},{"type":"Feature","id":"66269215-bd20-4570-9fbe-6ef46300c560","geometry":{"type":"Point","coordinates":[-94.83753750998939,29.50375482222556]},"properties":{"substrate":"Buried Shell","lease_number":null,"poll_year":2025}},{"type":"Feature","id":"66be15e6-0b22-4d79-b339-f48ba98909f7","geometry":{"type":"Point","coordinates":[-94.83726510306599,29.503986334366942]},"properties":{"substrate":"Buried Shell","lease_number":null,"poll_year":2025}},{"type":"Feature","id":"66db901f-13ea-4bec-b210-5e981ec1e92e","geometry":{"type":"Point","coordinates":[-94.83513610482578,29.50447426035422]},"properties":{"substrate":"Mud","lease_number":null,"poll_year":2025}},{"type":"Feature","id":"66e34f2c-62ed-461a-832a-15b0b7387946","geometry":{"type":"Point","coordinates":[-94.83436335695039,29.50641157279152]},"properties":{"substrate":"Mud","lease_number":null,"poll_year":2025}},{"type":"Feature","id":"66eef2f6-e6e3-4b03-916d-6bff98e83cc7","geometry":{"type":"Point","coordinates":[-94.83500086166313,29.507039429293332]},"properties":{"substrate":"Mud","lease_number":null,"poll_year":2025}},{"type":"Feature","id":"6719d963-d133-4f65-a926-40692877c44e","geometry":{"type":"Point","coordinates":[-94.83474189892627,29.50518798691244]},"properties":{"substrate":"Mud","lease_number":null,"poll_year":2025}},{"type":"Feature","id":"678a49e0-2f12-48d7-80f9-7f506988a502","geometry":{"type":"Point","coordinates":[-94.83537468838209,29.505449009956642]},"properties":{"substrate":"Mud","lease_number":null,"poll_year":2025}},{"type":"Feature","id":"68add2bd-0823-4271-85b5-9cc0a0371ab8","geometry":{"type":"Point","coordinates":[-94.83431386696476,29.506749837064703]},"properties":{"substrate":"Mud","lease_number":null,"poll_year":2025}},{"type":"Feature","id":"69b1184b-9238-4900-aa26-e9ca936bebfd","geometry":{"type":"Point","coordinates":[-94.83603667398295,29.504622827017254]},"properties":{"substrate":"Mud","lease_number":null,"poll_year":2025}},{"type":"Feature","id":"70ab9b0e-2679-40a8-89b3-a470bd2c8778","geometry":{"type":"Point","coordinates":[-94.8364477987525,29.504875690921477]},"properties":{"substrate":"Mud","lease_number":null,"poll_year":2025}},{"type":"Feature","id":"712b3bf6-4046-4f0d-99ef-98d9e4d9c7f2","geometry":{"type":"Point","coordinates":[-94.8347079515917,29.50625383661109]},"properties":{"substrate":"Mud","lease_number":null,"poll_year":2025}},{"type":"Feature","id":"722b4c27-8302-429a-ba44-79bb62bb56e2","geometry":{"type":"Point","coordinates":[-94.85593159969828,29.51391429973386]},"properties":{"substrate":"Mud","lease_number":null,"poll_year":2025}},{"type":"Feature","id":"722d1447-d2fa-4b6b-a93d-7d1bab2f3591","geometry":{"type":"Point","coordinates":[-94.83472825441542,29.50662887663234]},"properties":{"substrate":"Mud","lease_number":null,"poll_year":2025}},{"type":"Feature","id":"74a885d3-0937-42c3-ac54-68ea339631d2","geometry":{"type":"Point","coordinates":[-94.83590250790031,29.505106864319835]},"properties":{"substrate":"Mud","lease_number":null,"poll_year":2025}},{"type":"Feature","id":"74ccfd84-1ad8-4422-865b-f160a238b13a","geometry":{"type":"Point","coordinates":[-94.83670293915782,29.50381928522621]},"properties":{"substrate":"Mud","lease_number":null,"poll_year":2025}},{"type":"Feature","id":"74d75a80-0ffe-4c38-8924-c0d280dbe66d","geometry":{"type":"Point","coordinates":[-94.83437066115197,29.505084480971224]},"properties":{"substrate":"Mud","lease_number":null,"poll_year":2025}},{"type":"Feature","id":"77c2365b-bb71-4b55-b227-cfe11f64d90b","geometry":{"type":"Point","coordinates":[-94.83679486106591,29.50429384132221]},"properties":{"substrate":"Mud","lease_number":null,"poll_year":2025}},{"type":"Feature","id":"7c0d398b-6643-481b-b69b-58c2b0e46700","geometry":{"type":"Point","coordinates":[-94.83504795943514,29.50535107313294]},"properties":{"substrate":"Mud","lease_number":null,"poll_year":2025}},{"type":"Feature","id":"7c419dfe-631e-4f52-ae71-c4f9fc41c5fb","geometry":{"type":"Point","coordinates":[-94.83602646103648,29.504484557695385]},"properties":{"substrate":"Mud","lease_number":null,"poll_year":2025}},{"type":"Feature","id":"7ccd3e35-4f90-447a-a78b-2c2a39997d2b","geometry":{"type":"Point","coordinates":[-94.83413730399398,29.507441285932444]},"properties":{"substrate":"Mud","lease_number":null,"poll_year":2025}},{"type":"Feature","id":"7dd77649-29b8-48af-b616-608bce7cb65b","geometry":{"type":"Point","coordinates":[-94.83512751603334,29.50695166131956]},"properties":{"substrate":"Mud","lease_number":null,"poll_year":2025}},{"type":"Feature","id":"7e4efc9d-4628-41ae-b908-86217ab2898d","geometry":{"type":"Point","coordinates":[-94.83572757627009,29.50616442538134]},"properties":{"substrate":"Mud","lease_number":null,"poll_year":2025}},{"type":"Feature","id":"7f4f044d-358a-431c-9722-79451e787e52","geometry":{"type":"Point","coordinates":[-94.83426715277335,29.50538482319147]},"properties":{"substrate":"Mud","lease_number":null,"poll_year":2025}},{"type":"Feature","id":"8027164e-f12b-4d09-9ce5-cbfaba93b99d","geometry":{"type":"Point","coordinates":[-94.83412823729782,29.505438771349397]},"properties":{"substrate":"Mud","lease_number":null,"poll_year":2025}},{"type":"Feature","id":"814969a0-4506-4b93-914d-d8e732e0b723","geometry":{"type":"Point","coordinates":[-94.83647975991201,29.50524123936141]},"properties":{"substrate":"Mud","lease_number":null,"poll_year":2025}},{"type":"Feature","id":"8274b728-0dc7-4943-a6d4-800ff042b94a","geometry":{"type":"Point","coordinates":[-94.83604710522002,29.505566896154782]},"properties":{"substrate":"Mud","lease_number":null,"poll_year":2025}},{"type":"Feature","id":"86b14169-d893-40b6-8985-0fa901e10db3","geometry":{"type":"Point","coordinates":[-94.83693800760642,29.5041915220538]},"properties":{"substrate":"Mud","lease_number":null,"poll_year":2025}},{"type":"Feature","id":"86e4bbe1-5d5e-4688-940b-b0938fd3db27","geometry":{"type":"Point","coordinates":[-94.8356806698392,29.505323861363138]},"properties":{"substrate":"Mud","lease_number":null,"poll_year":2025}},{"type":"Feature","id":"87828c61-4720-4407-ad74-74fa0d6f1b2f","geometry":{"type":"Point","coordinates":[-94.85583160013917,29.514151700194905]},"properties":{"substrate":"Solid Reef","lease_number":null,"poll_year":2025}},{"type":"Feature","id":"88bebfcf-cbe0-4f5e-ba8f-07039eec8e03","geometry":{"type":"Point","coordinates":[-94.83401594698898,29.508083596845104]},"properties":{"substrate":"Mud","lease_number":null,"poll_year":2025}},{"type":"Feature","id":"88f7071a-7431-496e-86a9-6a56494de687","geometry":{"type":"Point","coordinates":[-94.83399575106478,29.50748533780277]},"properties":{"substrate":"Mud","lease_number":null,"poll_year":2025}},{"type":"Feature","id":"89cb0c82-296b-40eb-b7c0-b3df603a6dea","geometry":{"type":"Point","coordinates":[-94.83539739060595,29.50593204024986]},"properties":{"substrate":"Mud","lease_number":null,"poll_year":2025}},{"type":"Feature","id":"8a6e63e2-b0dc-46a5-9e38-3384adc40243","geometry":{"type":"Point","coordinates":[-94.83444559501969,29.506709725938393]},"properties":{"substrate":"Mud","lease_number":null,"poll_year":2025}},{"type":"Feature","id":"8adb9a57-1718-4cdd-bde7-ec978e99c33b","geometry":{"type":"Point","coordinates":[-94.8371289103841,29.504082205372523]},"properties":{"substrate":"Mud","lease_number":null,"poll_year":2025}},{"type":"Feature","id":"8b4714ac-179c-47aa-8a5b-6d6c66a71d6c","geometry":{"type":"Point","coordinates":[-94.83687668770682,29.504603717816668]},"properties":{"substrate":"Mud","lease_number":null,"poll_year":2025}},{"type":"Feature","id":"8bc27b56-57d1-4eef-8128-c0dc404634bd","geometry":{"type":"Point","coordinates":[-94.83455219000963,29.505022543256914]},"properties":{"substrate":"Mud","lease_number":null,"poll_year":2025}},{"type":"Feature","id":"8d0b9050-4cec-423b-a6cb-8e912d340e7c","geometry":{"type":"Point","coordinates":[-94.83417122258248,29.50595643969346]},"properties":{"substrate":"Mud","lease_number":null,"poll_year":2025}},{"type":"Feature","id":"8e5a0236-1411-4000-986d-a59f50894401","geometry":{"type":"Point","coordinates":[-94.83442617703653,29.505322301646736]},"properties":{"substrate":"Mud","lease_number":null,"poll_year":2025}},{"type":"Feature","id":"8ecc50cc-1b0d-48b7-bdf7-cd8860af4b3a","geometry":{"type":"Point","coordinates":[-94.83430885167053,29.50561723537872]},"properties":{"substrate":"Mud","lease_number":null,"poll_year":2025}},{"type":"Feature","id":"906074a0-5811-4541-b4f3-9bba0309b73e","geometry":{"type":"Point","coordinates":[-94.8345484970355,29.50740565868394]},"properties":{"substrate":"Mud","lease_number":null,"poll_year":2025}},{"type":"Feature","id":"95b94c00-20dd-4e42-8e94-02e4f6138ec3","geometry":{"type":"Point","coordinates":[-94.83425433022099,29.504851151272263]},"properties":{"substrate":"Mud","lease_number":null,"poll_year":2025}},{"type":"Feature","id":"9817df89-632c-44da-ad49-40f302facc25","geometry":{"type":"Point","coordinates":[-94.83592415640035,29.50522614410796]},"properties":{"substrate":"Mud","lease_number":null,"poll_year":2025}},{"type":"Feature","id":"99134220-e140-4e9a-8815-37c71bcd38fd","geometry":{"type":"Point","coordinates":[-94.835217866788,29.506018282237807]},"properties":{"substrate":"Mud","lease_number":null,"poll_year":2025}},{"type":"Feature","id":"99da1931-3e9a-4357-8685-0fe746a3be71","geometry":{"type":"Point","coordinates":[-94.83656796009986,29.503877363030313]},"properties":{"substrate":"Mud","lease_number":null,"poll_year":2025}},{"type":"Feature","id":"9a2fc51d-86ff-476d-adc6-7c4a0df2af8c","geometry":{"type":"Point","coordinates":[-94.83428850033778,29.506954078645556]},"properties":{"substrate":"Mud","lease_number":null,"poll_year":2025}},{"type":"Feature","id":"9d8be7d9-361e-4066-a382-3768a3869415","geometry":{"type":"Point","coordinates":[-94.83528258770929,29.504406868291785]},"properties":{"substrate":"Mud","lease_number":null,"poll_year":2025}},{"type":"Feature","id":"9f12c6e1-ac07-4843-b572-76c2a9c2d6a1","geometry":{"type":"Point","coordinates":[-94.83698765659386,29.503686334346934]},"properties":{"substrate":"Mud","lease_number":null,"poll_year":2025}},{"type":"Feature","id":"9f3009ca-435e-4042-b672-bf710b872693","geometry":{"type":"Point","coordinates":[-94.83433315199728,29.50616751273409]},"properties":{"substrate":"Mud","lease_number":null,"poll_year":2025}},{"type":"Feature","id":"9f5fae4b-54e4-44dc-923e-56db0f24b9e0","geometry":{"type":"Point","coordinates":[-94.83399706440171,29.50602708617003]},"properties":{"substrate":"Mud","lease_number":null,"poll_year":2025}},{"type":"Feature","id":"a047fe1e-1d04-4528-bf34-4d8252a81df5","geometry":{"type":"Point","coordinates":[-94.83510192482753,29.505047742716307]},"properties":{"substrate":"Mud","lease_number":null,"poll_year":2025}},{"type":"Feature","id":"a1c357a6-e4b0-4c31-b510-1d8f6e3771cc","geometry":{"type":"Point","coordinates":[-94.83494958941998,29.5061444033219]},"properties":{"substrate":"Mud","lease_number":null,"poll_year":2025}},{"type":"Feature","id":"a683d327-de25-4c7b-b667-f74988017240","geometry":{"type":"Point","coordinates":[-94.83441254420377,29.50690375728592]},"properties":{"substrate":"Mud","lease_number":null,"poll_year":2025}},{"type":"Feature","id":"a7709a80-6594-40e3-b92d-7cc5aaecda4e","geometry":{"type":"Point","coordinates":[-94.8374351379796,29.503487250922774]},"properties":{"substrate":"Buried Shell","lease_number":null,"poll_year":2025}},{"type":"Feature","id":"a857e238-3cad-45a0-83a2-8bcb332a3f60","geometry":{"type":"Point","coordinates":[-94.83623838439179,29.50443197877699]},"properties":{"substrate":"Mud","lease_number":null,"poll_year":2025}},{"type":"Feature","id":"a9f3350a-294a-4c34-9039-b484d33afad0","geometry":{"type":"Point","coordinates":[-94.83654866967746,29.5043510213245]},"properties":{"substrate":"Mud","lease_number":null,"poll_year":2025}},{"type":"Feature","id":"aa3618a4-9377-4ff6-b1e0-8bb32bdf6a64","geometry":{"type":"Point","coordinates":[-94.83509253204294,29.50659846997769]},"properties":{"substrate":"Mud","lease_number":null,"poll_year":2025}},{"type":"Feature","id":"ab47985f-347f-4390-991a-83932b379b0f","geometry":{"type":"Point","coordinates":[-94.8356744966166,29.504786499728862]},"properties":{"substrate":"Buried Shell","lease_number":null,"poll_year":2025}},{"type":"Feature","id":"aee61fa2-936e-4f2c-8c75-c89548ba074e","geometry":{"type":"Point","coordinates":[-94.83498706893026,29.506541016049876]},"properties":{"substrate":"Mud","lease_number":null,"poll_year":2025}},{"type":"Feature","id":"af074ffe-b783-42f2-86b3-a0f18cda9a79","geometry":{"type":"Point","coordinates":[-94.83448969241869,29.50555388134891]},"properties":{"substrate":"Buried Shell","lease_number":null,"poll_year":2025}},{"type":"Feature","id":"b0e0a025-88f5-499c-9756-67aa0995df0f","geometry":{"type":"Point","coordinates":[-94.83536965781649,29.506738206200033]},"properties":{"substrate":"Mud","lease_number":null,"poll_year":2025}},{"type":"Feature","id":"b11c522f-7786-47cd-91fe-45ffe8be7fd7","geometry":{"type":"Point","coordinates":[-94.85585100015604,29.514711400378598]},"properties":{"substrate":"Firm/Hard Bottom","lease_number":null,"poll_year":2025}},{"type":"Feature","id":"b162f49f-db2e-4393-b866-ed80f60cbfb1","geometry":{"type":"Point","coordinates":[-94.83486459262441,29.50490696825471]},"properties":{"substrate":"Mud","lease_number":null,"poll_year":2025}},{"type":"Feature","id":"b19055fd-4f25-4f39-902f-c6eb529ddd7f","geometry":{"type":"Point","coordinates":[-94.83418971530092,29.507548075350886]},"properties":{"substrate":"Mud","lease_number":null,"poll_year":2025}},{"type":"Feature","id":"b446a249-0af3-4971-bb49-8fceb9c84a0e","geometry":{"type":"Point","coordinates":[-94.83418092079428,29.508344230910655]},"properties":{"substrate":"Mud","lease_number":null,"poll_year":2025}},{"type":"Feature","id":"b5ea1e2a-17d9-4ec4-949d-43d10e86f7cd","geometry":{"type":"Point","coordinates":[-94.83692493442409,29.504236515868882]},"properties":{"substrate":"Mud","lease_number":null,"poll_year":2025}},{"type":"Feature","id":"b5fccbbe-d9a0-414f-be92-02c1ef6ac340","geometry":{"type":"Point","coordinates":[-94.83627964401279,29.505067732156423]},"properties":{"substrate":"Mud","lease_number":null,"poll_year":2025}},{"type":"Feature","id":"b625d57f-1d04-4743-8dc2-d4a1df4bd415","geometry":{"type":"Point","coordinates":[-94.85565459968883,29.514555199963105]},"properties":{"substrate":"Solid Reef","lease_number":null,"poll_year":2025}},{"type":"Feature","id":"b824ed43-513d-4379-aa0c-73a43c74a12a","geometry":{"type":"Point","coordinates":[-94.83628826514457,29.50399891233534]},"properties":{"substrate":"Mud","lease_number":null,"poll_year":2025}},{"type":"Feature","id":"bcefdad7-1106-4df8-ad07-746aee94b6ca","geometry":{"type":"Point","coordinates":[-94.83514288441123,29.5064763663673]},"properties":{"substrate":"Mud","lease_number":null,"poll_year":2025}},{"type":"Feature","id":"bd4d1068-3cf3-4905-9f63-b27e8ee0c381","geometry":{"type":"Point","coordinates":[-94.83676035138595,29.50427502133325]},"properties":{"substrate":"Mud","lease_number":null,"poll_year":2025}},{"type":"Feature","id":"bd8bc7cb-d2dc-468d-a522-5aa5051be4aa","geometry":{"type":"Point","coordinates":[-94.83566512179829,29.50460919132627]},"properties":{"substrate":"Mud","lease_number":null,"poll_year":2025}},{"type":"Feature","id":"bfe9adca-1a3f-43ee-9d4a-124baf491ffc","geometry":{"type":"Point","coordinates":[-94.83472253843529,29.50732810989984]},"properties":{"substrate":"Mud","lease_number":null,"poll_year":2025}},{"type":"Feature","id":"c30304c8-dd73-4936-b530-e5cdf0f428ee","geometry":{"type":"Point","coordinates":[-94.83487127159854,29.507113101357827]},"properties":{"substrate":"Mud","lease_number":null,"poll_year":2025}},{"type":"Feature","id":"c4b997df-1490-424e-b329-b66a03cf9d3f","geometry":{"type":"Point","coordinates":[-94.8354591955958,29.504349854848712]},"properties":{"substrate":"Mud","lease_number":null,"poll_year":2025}},{"type":"Feature","id":"c63380d6-65c9-40ed-bd27-493d18feb463","geometry":{"type":"Point","coordinates":[-94.83618546194346,29.504553307725114]},"properties":{"substrate":"Mud","lease_number":null,"poll_year":2025}},{"type":"Feature","id":"c73e4449-75c2-4d71-8384-80f4bad6c40d","geometry":{"type":"Point","coordinates":[-94.83756458970362,29.50343437986493]},"properties":{"substrate":"Buried Shell","lease_number":null,"poll_year":2025}},{"type":"Feature","id":"c83dc980-feec-42ed-a3b2-a43472e7a52e","geometry":{"type":"Point","coordinates":[-94.83518036841309,29.50589969919222]},"properties":{"substrate":"Mud","lease_number":null,"poll_year":2025}},{"type":"Feature","id":"c987adb5-5e67-4c4c-8c30-01cb527c7e29","geometry":{"type":"Point","coordinates":[-94.8557014998315,29.514450699842314]},"properties":{"substrate":"Solid Reef","lease_number":null,"poll_year":2025}},{"type":"Feature","id":"cb448174-ee55-4899-b25b-a8e57fb7b920","geometry":{"type":"Point","coordinates":[-94.83459959141224,29.506303474996034]},"properties":{"substrate":"Mud","lease_number":null,"poll_year":2025}},{"type":"Feature","id":"cc3dfbed-cbea-4db3-a1b3-e06ab5831856","geometry":{"type":"Point","coordinates":[-94.83477627924883,29.50545800470044]},"properties":{"substrate":"Mud","lease_number":null,"poll_year":2025}},{"type":"Feature","id":"ce1c6f6b-a4eb-4403-82b0-94406ece06ff","geometry":{"type":"Point","coordinates":[-94.83551697703152,29.504854613155086]},"properties":{"substrate":"Buried Shell","lease_number":null,"poll_year":2025}},{"type":"Feature","id":"cebf06ee-08b9-46c3-b89b-ad1205e7baba","geometry":{"type":"Point","coordinates":[-94.85591219968138,29.514534700355625]},"properties":{"substrate":"Buried Shell","lease_number":null,"poll_year":2025}},{"type":"Feature","id":"cf1e6230-c867-4042-aa0d-02051e44fad5","geometry":{"type":"Point","coordinates":[-94.8346679981211,29.506062419162436]},"properties":{"substrate":"Mud","lease_number":null,"poll_year":2025}},{"type":"Feature","id":"d0e68589-3c9c-4974-9a35-0af2d1a68e09","geometry":{"type":"Point","coordinates":[-94.837122992283,29.503624537287816]},"properties":{"substrate":"Buried Shell","lease_number":null,"poll_year":2025}},{"type":"Feature","id":"d4688f76-06ed-450e-bbc2-f64c6bf373bc","geometry":{"type":"Point","coordinates":[-94.83609313938676,29.50514663364661]},"properties":{"substrate":"Mud","lease_number":null,"poll_year":2025}},{"type":"Feature","id":"d493e479-1ef4-4741-b820-433076afef8a","geometry":{"type":"Point","coordinates":[-94.85595210015137,29.51440999998828]},"properties":{"substrate":"Solid Reef","lease_number":null,"poll_year":2025}},{"type":"Feature","id":"da57a8e9-eb7b-40d2-913a-328ad44b1161","geometry":{"type":"Point","coordinates":[-94.83436731941909,29.50803660022549]},"properties":{"substrate":"Mud","lease_number":null,"poll_year":2025}},{"type":"Feature","id":"dc954221-8b59-4698-b70b-3cf59ac338f9","geometry":{"type":"Point","coordinates":[-94.83482025357861,29.50620468135783]},"properties":{"substrate":"Mud","lease_number":null,"poll_year":2025}},{"type":"Feature","id":"ddb52556-430c-4bce-9646-b3d57bcec643","geometry":{"type":"Point","coordinates":[-94.83417641125156,29.50622124313301]},"properties":{"substrate":"Mud","lease_number":null,"poll_year":2025}},{"type":"Feature","id":"de38b484-18ab-4535-8025-400943c1576b","geometry":{"type":"Point","coordinates":[-94.83685965115744,29.503742592920783]},"properties":{"substrate":"Mud","lease_number":null,"poll_year":2025}},{"type":"Feature","id":"dea22b0c-adb5-4bab-ac5f-5619936d0917","geometry":{"type":"Point","coordinates":[-94.8340598521485,29.50684851368266]},"properties":{"substrate":"Mud","lease_number":null,"poll_year":2025}},{"type":"Feature","id":"dfa3c263-ff38-42e4-8c2d-1665d3be65ce","geometry":{"type":"Point","coordinates":[-94.83402467771522,29.506281227946186]},"properties":{"substrate":"Mud","lease_number":null,"poll_year":2025}},{"type":"Feature","id":"dfc622a8-4820-40bd-bf51-f697f8fe66de","geometry":{"type":"Point","coordinates":[-94.83405814624777,29.50759563430796]},"properties":{"substrate":"Mud","lease_number":null,"poll_year":2025}},{"type":"Feature","id":"e04dc93e-6ada-4f3d-a7bd-4177a1bb2ff6","geometry":{"type":"Point","coordinates":[-94.83481766283735,29.50600997162526]},"properties":{"substrate":"Mud","lease_number":null,"poll_year":2025}},{"type":"Feature","id":"e18acc90-782c-4e15-bb5d-f1a92c56ab2d","geometry":{"type":"Point","coordinates":[-94.83624259210058,29.504965757668828]},"properties":{"substrate":"Mud","lease_number":null,"poll_year":2025}},{"type":"Feature","id":"e32cebd4-4da6-4513-91ef-b8a590f206cc","geometry":{"type":"Point","coordinates":[-94.83457594056742,29.50725593513461]},"properties":{"substrate":"Mud","lease_number":null,"poll_year":2025}},{"type":"Feature","id":"e48bbfc5-765a-4325-abe8-e7da68144962","geometry":{"type":"Point","coordinates":[-94.83633795275956,29.504493049815153]},"properties":{"substrate":"Mud","lease_number":null,"poll_year":2025}},{"type":"Feature","id":"e6bd5093-8e97-40f3-9ef7-9e9c616b844a","geometry":{"type":"Point","coordinates":[-94.83742376620641,29.503872948852564]},"properties":{"substrate":"Buried Shell","lease_number":null,"poll_year":2025}},{"type":"Feature","id":"e8511752-5077-4c2e-bbec-4a25a3a24fa2","geometry":{"type":"Point","coordinates":[-94.83584473634609,29.504539341315493]},"properties":{"substrate":"Mud","lease_number":null,"poll_year":2025}},{"type":"Feature","id":"e95a43f7-9880-4ae3-82bc-4b6b7416a574","geometry":{"type":"Point","coordinates":[-94.83411486587481,29.504913902180018]},"properties":{"substrate":"Mud","lease_number":null,"poll_year":2025}},{"type":"Feature","id":"e97756ef-b237-423d-a7d4-aef38d0e0b4b","geometry":{"type":"Point","coordinates":[-94.83463552043033,29.505512223326107]},"properties":{"substrate":"Mud","lease_number":null,"poll_year":2025}},{"type":"Feature","id":"e9fc1f90-e104-4473-b559-a14c5cc28383","geometry":{"type":"Point","coordinates":[-94.83415055055116,29.508029583644163]},"properties":{"substrate":"Mud","lease_number":null,"poll_year":2025}},{"type":"Feature","id":"eb270761-0009-46b6-b8bc-f7966f2d4ad7","geometry":{"type":"Point","coordinates":[-94.83429919657785,29.505898506152814]},"properties":{"substrate":"Mud","lease_number":null,"poll_year":2025}},{"type":"Feature","id":"eb3a5515-e36a-4a79-ba08-627042699614","geometry":{"type":"Point","coordinates":[-94.8349188230198,29.507329183307448]},"properties":{"substrate":"Mud","lease_number":null,"poll_year":2025}},{"type":"Feature","id":"ed0cf325-ff20-451b-929f-83a0fe8cb8bd","geometry":{"type":"Point","coordinates":[-94.83526845541323,29.50641830334467]},"properties":{"substrate":"Mud","lease_number":null,"poll_year":2025}},{"type":"Feature","id":"f115741f-bb09-4cf8-a216-2b00b75b7744","geometry":{"type":"Point","coordinates":[-94.8345463033496,29.507737780206988]},"properties":{"substrate":"Mud","lease_number":null,"poll_year":2025}},{"type":"Feature","id":"f208121d-1222-4c1a-b005-61b3e4a0866a","geometry":{"type":"Point","coordinates":[-94.83578138176236,29.50579997793447]},"properties":{"substrate":"Mud","lease_number":null,"poll_year":2025}},{"type":"Feature","id":"f54fc65d-b7d4-4080-8bc1-157f4fc09aba","geometry":{"type":"Point","coordinates":[-94.8373017031256,29.503547619668844]},"properties":{"substrate":"Buried Shell","lease_number":null,"poll_year":2025}},{"type":"Feature","id":"f67677cf-73fb-43e2-8fef-df222f316bab","geometry":{"type":"Point","coordinates":[-94.83469556741719,29.505737291684298]},"properties":{"substrate":"Mud","lease_number":null,"poll_year":2025}},{"type":"Feature","id":"f6ce227e-986e-4a7c-a24a-59ae85d47672","geometry":{"type":"Point","coordinates":[-94.83411011917686,29.507024551648332]},"properties":{"substrate":"Mud","lease_number":null,"poll_year":2025}},{"type":"Feature","id":"f6f717f4-14f7-4168-ae2e-90d325e361d4","geometry":{"type":"Point","coordinates":[-94.83425491412592,29.506465128718606]},"properties":{"substrate":"Mud","lease_number":null,"poll_year":2025}},{"type":"Feature","id":"f71277bd-2323-4447-9dd4-a5fc34f11ad0","geometry":{"type":"Point","coordinates":[-94.83508175944604,29.506080349904792]},"properties":{"substrate":"Mud","lease_number":null,"poll_year":2025}},{"type":"Feature","id":"f73b66d0-ab56-448a-b8ac-cd94c9a8541d","geometry":{"type":"Point","coordinates":[-94.83559536671817,29.505766317140587]},"properties":{"substrate":"Mud","lease_number":null,"poll_year":2025}},{"type":"Feature","id":"f7f44f60-dce6-49ae-8a13-1b02c6398765","geometry":{"type":"Point","coordinates":[-94.83525409764003,29.50528626320071]},"properties":{"substrate":"Mud","lease_number":null,"poll_year":2025}},{"type":"Feature","id":"f860ad30-24ce-4cf3-9d7c-06b9192d8436","geometry":{"type":"Point","coordinates":[-94.83438250903225,29.507828329901955]},"properties":{"substrate":"Mud","lease_number":null,"poll_year":2025}},{"type":"Feature","id":"f860f82d-e8cb-41c5-910f-be82e4e5946e","geometry":{"type":"Point","coordinates":[-94.83485851372488,29.50657960507252]},"properties":{"substrate":"Mud","lease_number":null,"poll_year":2025}},{"type":"Feature","id":"f8cd8ae7-de4e-42f7-ad0b-e93b3ca72cf7","geometry":{"type":"Point","coordinates":[-94.833984491581,29.505495315092457]},"properties":{"substrate":"Mud","lease_number":null,"poll_year":2025}},{"type":"Feature","id":"fde9845c-a3c1-4958-8a6d-a16a12e2142a","geometry":{"type":"Point","coordinates":[-94.83453582001022,29.506853023892194]},"properties":{"substrate":"Mud","lease_number":null,"poll_year":2025}},{"type":"Feature","id":"ff203777-06a5-4201-bd3a-e6b94d1db620","geometry":{"type":"Point","coordinates":[-94.83555981319584,29.50627390477543]},"properties":{"substrate":"Mud","lease_number":null,"poll_year":2025}}]}