{"type":"FeatureCollection","features":[{"type":"Feature","id":"144678c0-1a7e-489e-96a9-c5276056114a","geometry":{"type":"Point","coordinates":[-94.8558601665652,29.650203483169214]},"properties":{"substrate":"Mud","lease_number":null,"poll_year":2024}},{"type":"Feature","id":"39bc29e7-7ee6-4548-989f-9d15b3124707","geometry":{"type":"Point","coordinates":[-94.85555968100098,29.64993062721868]},"properties":{"substrate":"Mud","lease_number":null,"poll_year":2025}},{"type":"Feature","id":"3c8238fe-3f21-4719-9d2e-0a848cd5d398","geometry":{"type":"Point","coordinates":[-94.85574073644649,29.65040605835561]},"properties":{"substrate":"Mud","lease_number":null,"poll_year":2025}},{"type":"Feature","id":"5061bedf-4069-4c1d-9ff9-0e97b665899c","geometry":{"type":"Point","coordinates":[-94.8558523260694,29.650200104336356]},"properties":{"substrate":"Mud","lease_number":null,"poll_year":2025}},{"type":"Feature","id":"a032f7f2-ecba-4454-87e4-c6675aa002f6","geometry":{"type":"Point","coordinates":[-94.85571054317147,29.65030207977249]},"properties":{"substrate":"Mud","lease_number":null,"poll_year":2025}},{"type":"Feature","id":"bd12cab9-2af2-4b9a-a883-45a8711dfbc7","geometry":{"type":"Point","coordinates":[-94.85580889072877,29.649912580703557]},"properties":{"substrate":"Mud","lease_number":null,"poll_year":2025}},{"type":"Feature","id":"e11c4df5-dbdb-41a2-9b1a-27d120fc49e1","geometry":{"type":"Point","coordinates":[-94.85595202559121,29.65036813165135]},"properties":{"substrate":"Mud","lease_number":null,"poll_year":2025}}]}