{"type":"FeatureCollection","features":[{"type":"Feature","id":"07ddadd5-30b1-429f-b897-b7eb3b60e0e6","geometry":{"type":"Point","coordinates":[-94.83304274724446,29.487240848376263]},"properties":{"substrate":"Mud","lease_number":null,"poll_year":2025}},{"type":"Feature","id":"0b3e7550-d338-4e8c-9ded-d11147c81b2c","geometry":{"type":"Point","coordinates":[-94.83352851482762,29.487527958181776]},"properties":{"substrate":"Mud","lease_number":null,"poll_year":2025}},{"type":"Feature","id":"13f9dbaf-3cb8-483a-b959-4ce5274f400c","geometry":{"type":"Point","coordinates":[-94.83112646018208,29.478671036222323]},"properties":{"substrate":"Mud","lease_number":null,"poll_year":2024}},{"type":"Feature","id":"3410dbcf-3dee-481e-9962-e7cd4724e438","geometry":{"type":"Point","coordinates":[-94.83397056320251,29.488591659644534]},"properties":{"substrate":"Buried Shell","lease_number":null,"poll_year":2025}},{"type":"Feature","id":"3488bd32-2d50-429d-ba1a-fb98f47033d7","geometry":{"type":"Point","coordinates":[-94.83332710625272,29.4877816193476]},"properties":{"substrate":"Buried Shell","lease_number":null,"poll_year":2025}},{"type":"Feature","id":"3ef5e2c7-adad-47e2-ae4b-b1552e56276c","geometry":{"type":"Point","coordinates":[-94.83362728099983,29.48775068234673]},"properties":{"substrate":"Mud","lease_number":null,"poll_year":2025}},{"type":"Feature","id":"3fedee91-2373-4365-87a1-e18e165771f1","geometry":{"type":"Point","coordinates":[-94.83357619021636,29.488314226283283]},"properties":{"substrate":"Buried Shell","lease_number":null,"poll_year":2025}},{"type":"Feature","id":"47fa694a-4c0b-4185-bb01-d4e399fae0d1","geometry":{"type":"Point","coordinates":[-94.83121599975802,29.481864135348545]},"properties":{"substrate":"Mud","lease_number":null,"poll_year":2024}},{"type":"Feature","id":"4df65c24-b1c5-49ec-afcb-a5883ed170dd","geometry":{"type":"Point","coordinates":[-94.833837685304,29.48764690836055]},"properties":{"substrate":"Buried Shell","lease_number":null,"poll_year":2025}},{"type":"Feature","id":"589eabc1-1ac9-4ba6-93a2-fab4ad8c77b3","geometry":{"type":"Point","coordinates":[-94.83380532708915,29.488826341245375]},"properties":{"substrate":"Solid Reef","lease_number":null,"poll_year":2025}},{"type":"Feature","id":"59b40996-a955-4b41-acd0-b627af231514","geometry":{"type":"Point","coordinates":[-94.83356534485594,29.478589595225195]},"properties":{"substrate":"Mud","lease_number":null,"poll_year":2024}},{"type":"Feature","id":"5bf8f6e8-8e49-429a-886f-8f88748548b8","geometry":{"type":"Point","coordinates":[-94.83387964740756,29.48900350681729]},"properties":{"substrate":"Solid Reef","lease_number":null,"poll_year":2025}},{"type":"Feature","id":"60c9902f-fc95-4948-b223-be782ed123f7","geometry":{"type":"Point","coordinates":[-94.8333996272456,29.487938878379605]},"properties":{"substrate":"Buried Shell","lease_number":null,"poll_year":2025}},{"type":"Feature","id":"79c6dfbf-af86-4e4e-9edd-2db54fb3d0c0","geometry":{"type":"Point","coordinates":[-94.833745991568,29.488700673232078]},"properties":{"substrate":"Buried Shell","lease_number":null,"poll_year":2025}},{"type":"Feature","id":"7f7e4404-b32c-4728-83cf-b64fee9e9432","geometry":{"type":"Point","coordinates":[-94.83374789958968,29.486815553786666]},"properties":{"substrate":"Mud","lease_number":null,"poll_year":2025}},{"type":"Feature","id":"938c8bb9-7d84-476c-bab9-03dc54a68776","geometry":{"type":"Point","coordinates":[-94.833948756599,29.489161556055404]},"properties":{"substrate":"Solid Reef","lease_number":null,"poll_year":2025}},{"type":"Feature","id":"9c410dcd-680b-4a01-a1cf-c57be62c367d","geometry":{"type":"Point","coordinates":[-94.83362836975796,29.488430642043255]},"properties":{"substrate":"Buried Shell","lease_number":null,"poll_year":2025}},{"type":"Feature","id":"9e786e20-4dcd-4db4-8861-e75daa133892","geometry":{"type":"Point","coordinates":[-94.83080092958772,29.478710047986734]},"properties":{"substrate":"Mud","lease_number":null,"poll_year":2024}},{"type":"Feature","id":"9fd3ff64-f640-4286-8b1f-fde8d41d7d74","geometry":{"type":"Point","coordinates":[-94.83368164614252,29.487893219706418]},"properties":{"substrate":"Buried Shell","lease_number":null,"poll_year":2025}},{"type":"Feature","id":"a040299f-f2f3-4a42-9d80-11c3209f437c","geometry":{"type":"Point","coordinates":[-94.83398384479399,29.487960463240203]},"properties":{"substrate":"Solid Reef","lease_number":null,"poll_year":2025}},{"type":"Feature","id":"a5a55036-ca3c-4988-b349-790f5867bf55","geometry":{"type":"Point","coordinates":[-94.83373898830206,29.478599644951732]},"properties":{"substrate":"Mud","lease_number":null,"poll_year":2024}},{"type":"Feature","id":"a7f3a9b0-d9cc-4776-8c62-9667d3282acc","geometry":{"type":"Point","coordinates":[-94.8338910524184,29.487030958083256]},"properties":{"substrate":"Mud","lease_number":null,"poll_year":2025}},{"type":"Feature","id":"a98cb995-e3ef-4e28-8c82-0836e926d55f","geometry":{"type":"Point","coordinates":[-94.83318555601845,29.48751582466138]},"properties":{"substrate":"Buried Shell","lease_number":null,"poll_year":2025}},{"type":"Feature","id":"ae603312-e446-4956-a085-9143fd8e3887","geometry":{"type":"Point","coordinates":[-94.83382830868906,29.486920717376062]},"properties":{"substrate":"Mud","lease_number":null,"poll_year":2025}},{"type":"Feature","id":"b170be0e-1b65-4589-af44-d8d1f4f4771d","geometry":{"type":"Point","coordinates":[-94.83361359696312,29.487159343890145]},"properties":{"substrate":"Mud","lease_number":null,"poll_year":2025}},{"type":"Feature","id":"bc35a089-9bca-411d-b21b-8798e67f2f5b","geometry":{"type":"Point","coordinates":[-94.83377523981535,29.487527516379952]},"properties":{"substrate":"Buried Shell","lease_number":null,"poll_year":2025}},{"type":"Feature","id":"bd21b86d-932b-4e14-bbcd-5338920d328a","geometry":{"type":"Point","coordinates":[-94.8333411002082,29.47857001268379]},"properties":{"substrate":"Mud","lease_number":null,"poll_year":2024}},{"type":"Feature","id":"c8dffa3b-8898-4365-9ef0-ece0f4192f12","geometry":{"type":"Point","coordinates":[-94.83345375074147,29.48805305664129]},"properties":{"substrate":"Buried Shell","lease_number":null,"poll_year":2025}},{"type":"Feature","id":"c9da03ae-5c29-4ce1-8fff-27051c6c41da","geometry":{"type":"Point","coordinates":[-94.83326864928392,29.487656578725616]},"properties":{"substrate":"Buried Shell","lease_number":null,"poll_year":2025}},{"type":"Feature","id":"ca4fe9dc-e560-4fd5-9449-062555383435","geometry":{"type":"Point","coordinates":[-94.83326735660823,29.48703011435496]},"properties":{"substrate":"Mud","lease_number":null,"poll_year":2025}},{"type":"Feature","id":"d341fb24-afc8-4441-b551-ccef5d9c9d06","geometry":{"type":"Point","coordinates":[-94.83346351632692,29.48738416762243]},"properties":{"substrate":"Mud","lease_number":null,"poll_year":2025}},{"type":"Feature","id":"d4ac4bdf-26cf-49ed-bfaf-a90b2bebd43a","geometry":{"type":"Point","coordinates":[-94.8335100400755,29.488168694665983]},"properties":{"substrate":"Buried Shell","lease_number":null,"poll_year":2025}},{"type":"Feature","id":"df5b778b-6249-41f9-bc7e-ea1ed8cc43f2","geometry":{"type":"Point","coordinates":[-94.83296086939959,29.47862829890559]},"properties":{"substrate":"Mud","lease_number":null,"poll_year":2024}},{"type":"Feature","id":"e1765165-41ad-49ff-8890-90ebe688bfea","geometry":{"type":"Point","coordinates":[-94.83369876982847,29.48857507700157]},"properties":{"substrate":"Buried Shell","lease_number":null,"poll_year":2025}},{"type":"Feature","id":"e6a72fc8-ce3b-493e-9286-b63ef9c9b36e","geometry":{"type":"Point","coordinates":[-94.83389436001528,29.487781933690773]},"properties":{"substrate":"Solid Reef","lease_number":null,"poll_year":2025}},{"type":"Feature","id":"e8c1742c-e2ad-4a57-9092-69a335ce0582","geometry":{"type":"Point","coordinates":[-94.83368996544036,29.48731467168522]},"properties":{"substrate":"Buried Shell","lease_number":null,"poll_year":2025}},{"type":"Feature","id":"e9a20d42-e62e-48c7-ab3c-8d1a4fc09358","geometry":{"type":"Point","coordinates":[-94.83340960663008,29.48728240365945]},"properties":{"substrate":"Mud","lease_number":null,"poll_year":2025}},{"type":"Feature","id":"eb548835-c040-4edd-8c40-9ba9000d79ea","geometry":{"type":"Point","coordinates":[-94.83355514628254,29.487032196698273]},"properties":{"substrate":"Mud","lease_number":null,"poll_year":2025}},{"type":"Feature","id":"ec0c9bb0-2bb6-4606-9ba0-df1220dbe586","geometry":{"type":"Point","coordinates":[-94.83396542394078,29.48718828631017]},"properties":{"substrate":"Mud","lease_number":null,"poll_year":2025}},{"type":"Feature","id":"edea53dc-1637-4fe1-a887-3b7472408c5d","geometry":{"type":"Point","coordinates":[-94.83383828178535,29.488302487738817]},"properties":{"substrate":"Buried Shell","lease_number":null,"poll_year":2025}},{"type":"Feature","id":"ef20e53e-2c67-4bed-9c05-be99aacd45bf","geometry":{"type":"Point","coordinates":[-94.83095102729192,29.478689850802237]},"properties":{"substrate":"Mud","lease_number":null,"poll_year":2024}},{"type":"Feature","id":"f00c5777-2ee0-4a29-99d1-70d564500fcb","geometry":{"type":"Point","coordinates":[-94.83308593914163,29.48735469274938]},"properties":{"substrate":"Buried Shell","lease_number":null,"poll_year":2025}},{"type":"Feature","id":"f04d0910-158d-4d24-828e-1cd4dff45de5","geometry":{"type":"Point","coordinates":[-94.83335534569197,29.487156052650143]},"properties":{"substrate":"Mud","lease_number":null,"poll_year":2025}},{"type":"Feature","id":"fedce110-6b0a-42b2-a3ab-1fa9cd520a79","geometry":{"type":"Point","coordinates":[-94.83388284990154,29.488428179704282]},"properties":{"substrate":"Buried Shell","lease_number":null,"poll_year":2025}},{"type":"Feature","id":"ffaeaf81-2a94-452f-ad04-7d68a4645075","geometry":{"type":"Point","coordinates":[-94.83376426330089,29.48809813816656]},"properties":{"substrate":"Buried Shell","lease_number":null,"poll_year":2025}}]}