{"type":"FeatureCollection","features":[{"type":"Feature","id":"0014eb46-e2c9-4644-91c0-8dbfcb2e4d30","geometry":{"type":"Point","coordinates":[-94.77893781506161,29.479337408367055]},"properties":{"substrate":"Scattered Shell","lease_number":null,"poll_year":2024}},{"type":"Feature","id":"001ba407-ff55-4a3a-ab8b-6c1b96be3b26","geometry":{"type":"Point","coordinates":[-94.78976292925691,29.495126796381893]},"properties":{"substrate":"Solid Reef","lease_number":null,"poll_year":2025}},{"type":"Feature","id":"01a572dc-2896-4773-905e-261d8d004f0b","geometry":{"type":"Point","coordinates":[-94.7881590861318,29.496431753068922]},"properties":{"substrate":"Mud","lease_number":null,"poll_year":2025}},{"type":"Feature","id":"02fbbbd4-20ac-43e3-a49b-6cc76fa0b425","geometry":{"type":"Point","coordinates":[-94.78935399368171,29.496157995701882]},"properties":{"substrate":"Buried Shell","lease_number":null,"poll_year":2025}},{"type":"Feature","id":"034017d2-aa7a-4a2d-8abd-666c8a9836d0","geometry":{"type":"Point","coordinates":[-94.7892698466924,29.49520361562345]},"properties":{"substrate":"Buried Shell","lease_number":null,"poll_year":2025}},{"type":"Feature","id":"04878096-9d16-411f-864b-f790c7f98b8e","geometry":{"type":"Point","coordinates":[-94.78772013065641,29.496886791367263]},"properties":{"substrate":"Mud","lease_number":null,"poll_year":2025}},{"type":"Feature","id":"05a075bb-5897-46f3-9c38-0e503318a0a1","geometry":{"type":"Point","coordinates":[-94.7896875381467,29.495637600865425]},"properties":{"substrate":"Solid Reef","lease_number":null,"poll_year":2025}},{"type":"Feature","id":"07742e8f-8fd5-4cd4-b6f0-fad532ba8466","geometry":{"type":"Point","coordinates":[-94.77881253601208,29.478825104686184]},"properties":{"substrate":"Mud","lease_number":null,"poll_year":2024}},{"type":"Feature","id":"09c24266-6182-42df-9dcf-bd8ce0d35baf","geometry":{"type":"Point","coordinates":[-94.78970788858113,29.494485773162612]},"properties":{"substrate":"Solid Reef","lease_number":null,"poll_year":2025}},{"type":"Feature","id":"0aeeb7f4-eb4a-46c2-a851-8b871cba64e1","geometry":{"type":"Point","coordinates":[-94.78890102269128,29.495728984707885]},"properties":{"substrate":"Mud","lease_number":null,"poll_year":2025}},{"type":"Feature","id":"0df5bfb0-0299-4e3a-bab1-77fcce153661","geometry":{"type":"Point","coordinates":[-94.7898633258714,29.494077583328096]},"properties":{"substrate":"Scattered Shell","lease_number":null,"poll_year":2025}},{"type":"Feature","id":"108ce000-98ac-471f-92ac-3fb8de832e96","geometry":{"type":"Point","coordinates":[-94.78942534596641,29.495910477672254]},"properties":{"substrate":"Mud","lease_number":null,"poll_year":2025}},{"type":"Feature","id":"11b24b09-c357-4b10-8a63-ef7a3a623f6e","geometry":{"type":"Point","coordinates":[-94.78808274101075,29.49689615513606]},"properties":{"substrate":"Mud","lease_number":null,"poll_year":2025}},{"type":"Feature","id":"1305a125-533b-4e91-a37b-0b8c0ac8ea99","geometry":{"type":"Point","coordinates":[-94.78918432258578,29.496779142366485]},"properties":{"substrate":"Mud","lease_number":null,"poll_year":2025}},{"type":"Feature","id":"131a7892-bfe8-4e1e-906c-336015deb427","geometry":{"type":"Point","coordinates":[-94.79003156505274,29.495084744687457]},"properties":{"substrate":"Buried Shell","lease_number":null,"poll_year":2025}},{"type":"Feature","id":"154c6f10-fdeb-43e4-b275-fc2dbfe928b9","geometry":{"type":"Point","coordinates":[-94.78789725956582,29.496680291741136]},"properties":{"substrate":"Mud","lease_number":null,"poll_year":2025}},{"type":"Feature","id":"199ba4f2-db6f-4f23-8ac3-74f27fd4b1d3","geometry":{"type":"Point","coordinates":[-94.78945018168906,29.495031504881027]},"properties":{"substrate":"Buried Shell","lease_number":null,"poll_year":2025}},{"type":"Feature","id":"1a003df0-d237-4b6c-99df-a2548b4cb435","geometry":{"type":"Point","coordinates":[-94.78967375260035,29.496153266870454]},"properties":{"substrate":"Mud","lease_number":null,"poll_year":2025}},{"type":"Feature","id":"1a5601c7-25c3-4320-a3bb-7a833a362e59","geometry":{"type":"Point","coordinates":[-94.78859517957467,29.495992373097355]},"properties":{"substrate":"Scattered Shell","lease_number":null,"poll_year":2025}},{"type":"Feature","id":"1c4453ce-c3a3-4d29-860f-68dfd94ec468","geometry":{"type":"Point","coordinates":[-94.78913781410857,29.495078778853106]},"properties":{"substrate":"Solid Reef","lease_number":null,"poll_year":2025}},{"type":"Feature","id":"1fa37d94-05bd-43fb-a442-3acd656004f5","geometry":{"type":"Point","coordinates":[-94.78884772115387,29.49681507203151]},"properties":{"substrate":"Mud","lease_number":null,"poll_year":2025}},{"type":"Feature","id":"26c42522-cc75-4c64-9051-a28b00a81494","geometry":{"type":"Point","coordinates":[-94.78987842655131,29.493296583867224]},"properties":{"substrate":"Solid Reef","lease_number":null,"poll_year":2025}},{"type":"Feature","id":"28895ca4-fc39-46e8-9480-d24e278e9167","geometry":{"type":"Point","coordinates":[-94.78957785025725,29.494963635053203]},"properties":{"substrate":"Solid Reef","lease_number":null,"poll_year":2025}},{"type":"Feature","id":"2aa4f4c3-4794-41f1-8723-47657780dc49","geometry":{"type":"Point","coordinates":[-94.78815487482974,29.496639281373664]},"properties":{"substrate":"Mud","lease_number":null,"poll_year":2025}},{"type":"Feature","id":"2b2c994c-2376-4332-b7d8-4ef9b01526dd","geometry":{"type":"Point","coordinates":[-94.7891699243884,29.49656126616213]},"properties":{"substrate":"Scattered Shell","lease_number":null,"poll_year":2025}},{"type":"Feature","id":"307366e0-4f21-4c5f-89cd-b78077bbd32a","geometry":{"type":"Point","coordinates":[-94.78931063110461,29.49471478566595]},"properties":{"substrate":"Buried Shell","lease_number":null,"poll_year":2025}},{"type":"Feature","id":"31bb5f57-7aaf-43f8-9506-223f7be2c53b","geometry":{"type":"Point","coordinates":[-94.78982847393331,29.493837427289836]},"properties":{"substrate":"Buried Shell","lease_number":null,"poll_year":2025}},{"type":"Feature","id":"32686d77-08db-4b39-a86b-6c4e341a14ce","geometry":{"type":"Point","coordinates":[-94.78958292304364,29.495530596376764]},"properties":{"substrate":"Buried Shell","lease_number":null,"poll_year":2025}},{"type":"Feature","id":"326cf9e2-ef35-4385-8498-78a5cfa4b9e8","geometry":{"type":"Point","coordinates":[-94.79002951958883,29.492846194309447]},"properties":{"substrate":"Solid Reef","lease_number":null,"poll_year":2025}},{"type":"Feature","id":"32dedb5a-43a4-408b-a68f-3fb21d4a8df9","geometry":{"type":"Point","coordinates":[-94.78965479904616,29.496454534743876]},"properties":{"substrate":"Scattered Shell","lease_number":null,"poll_year":2025}},{"type":"Feature","id":"334a9992-7cf5-48c1-863e-1465a292e227","geometry":{"type":"Point","coordinates":[-94.78988951355853,29.494332143697076]},"properties":{"substrate":"Buried Shell","lease_number":null,"poll_year":2025}},{"type":"Feature","id":"35684979-2d4f-4497-b521-31cc9746ffa7","geometry":{"type":"Point","coordinates":[-94.78964086976936,29.493652724809454]},"properties":{"substrate":"Buried Shell","lease_number":null,"poll_year":2025}},{"type":"Feature","id":"3584aea8-4ea2-4f27-90a7-a5365f38a0ff","geometry":{"type":"Point","coordinates":[-94.78971064910402,29.49333167734701]},"properties":{"substrate":"Solid Reef","lease_number":null,"poll_year":2025}},{"type":"Feature","id":"3a17fca0-c152-45f3-acf5-66144bff317d","geometry":{"type":"Point","coordinates":[-94.78985798089545,29.494914071644438]},"properties":{"substrate":"Buried Shell","lease_number":null,"poll_year":2025}},{"type":"Feature","id":"3a41fa98-8fc1-49df-81f9-8d3f40fd3716","geometry":{"type":"Point","coordinates":[-94.7890021631108,29.49468220332973]},"properties":{"substrate":"Solid Reef","lease_number":null,"poll_year":2025}},{"type":"Feature","id":"3b41271a-9d75-4be1-995c-a5e7a8ac3eed","geometry":{"type":"Point","coordinates":[-94.78935863437846,29.49674842469375]},"properties":{"substrate":"Mud","lease_number":null,"poll_year":2025}},{"type":"Feature","id":"3d1e0a82-2f39-47a1-9322-6daa4784fed2","geometry":{"type":"Point","coordinates":[-94.78924539185543,29.495734020840633]},"properties":{"substrate":"Mud","lease_number":null,"poll_year":2025}},{"type":"Feature","id":"3f3b7d11-b742-4679-a79d-1cbc804819c1","geometry":{"type":"Point","coordinates":[-94.78980775429127,29.49689556325458]},"properties":{"substrate":"Mud","lease_number":null,"poll_year":2025}},{"type":"Feature","id":"40859f2f-63ba-41ed-90e1-25492542d5f1","geometry":{"type":"Point","coordinates":[-94.78983733311864,29.493467002389128]},"properties":{"substrate":"Solid Reef","lease_number":null,"poll_year":2025}},{"type":"Feature","id":"4203593a-f9a4-42b4-9cb8-3448f854ee0a","geometry":{"type":"Point","coordinates":[-94.78962771034877,29.493300362034866]},"properties":{"substrate":"Solid Reef","lease_number":null,"poll_year":2025}},{"type":"Feature","id":"42f63470-5c82-4e26-b031-d0b9d00cda03","geometry":{"type":"Point","coordinates":[-94.78823503509581,29.49622684364685]},"properties":{"substrate":"Mud","lease_number":null,"poll_year":2025}},{"type":"Feature","id":"540198f1-3121-4be3-b726-e63e4eebc2ea","geometry":{"type":"Point","coordinates":[-94.7884233291659,29.496909945113643]},"properties":{"substrate":"Mud","lease_number":null,"poll_year":2025}},{"type":"Feature","id":"54742952-a7e4-40d5-a303-a8bfbdee666e","geometry":{"type":"Point","coordinates":[-94.78843007820862,29.496416517327365]},"properties":{"substrate":"Mud","lease_number":null,"poll_year":2025}},{"type":"Feature","id":"548ac3fd-4ac9-4f20-ad6e-0fb82ea7aa38","geometry":{"type":"Point","coordinates":[-94.78958948344017,29.49386979878445]},"properties":{"substrate":"Buried Shell","lease_number":null,"poll_year":2025}},{"type":"Feature","id":"56aeddec-8c8c-47bc-b94d-03d88db8adcd","geometry":{"type":"Point","coordinates":[-94.78999186221212,29.493410370611723]},"properties":{"substrate":"Solid Reef","lease_number":null,"poll_year":2025}},{"type":"Feature","id":"58d7c776-55da-4048-ba29-0bdda693f893","geometry":{"type":"Point","coordinates":[-94.78982400571309,29.496306225846325]},"properties":{"substrate":"Mud","lease_number":null,"poll_year":2025}},{"type":"Feature","id":"5a0b2a8f-ba8e-4068-acea-a37f8f734ea4","geometry":{"type":"Point","coordinates":[-94.78843522196193,29.49553744728205]},"properties":{"substrate":"Scattered Shell","lease_number":null,"poll_year":2025}},{"type":"Feature","id":"5a910b8f-cf19-4ef1-9368-0ba35adedd44","geometry":{"type":"Point","coordinates":[-94.78973911491875,29.493982805330507]},"properties":{"substrate":"Buried Shell","lease_number":null,"poll_year":2025}},{"type":"Feature","id":"5ae0e5f7-7fe3-449a-a80e-23ea966a125e","geometry":{"type":"Point","coordinates":[-94.78977665192119,29.49657048374938]},"properties":{"substrate":"Mud","lease_number":null,"poll_year":2025}},{"type":"Feature","id":"5b6dbce8-4ff9-4298-88d8-f50c5047b1c7","geometry":{"type":"Point","coordinates":[-94.7787059203609,29.478877488098238]},"properties":{"substrate":"Mud","lease_number":null,"poll_year":2024}},{"type":"Feature","id":"5db7f1ef-8464-47d7-a147-81c9f14970c6","geometry":{"type":"Point","coordinates":[-94.7887500976387,29.495830804301043]},"properties":{"substrate":"Mud","lease_number":null,"poll_year":2025}},{"type":"Feature","id":"5f995d33-5dcd-456f-9f08-9466134f1ed3","geometry":{"type":"Point","coordinates":[-94.77966683025403,29.479559233234664]},"properties":{"substrate":"Buried Shell","lease_number":null,"poll_year":2024}},{"type":"Feature","id":"6365ae94-d340-4a9e-bacd-6b3eb31f2195","geometry":{"type":"Point","coordinates":[-94.78893461339467,29.495999877627014]},"properties":{"substrate":"Mud","lease_number":null,"poll_year":2025}},{"type":"Feature","id":"63b5b9cd-349e-41eb-9029-a586ed876201","geometry":{"type":"Point","coordinates":[-94.7886806497824,29.496860111345587]},"properties":{"substrate":"Mud","lease_number":null,"poll_year":2025}},{"type":"Feature","id":"6721ec00-7190-4735-b709-839a5c01a22b","geometry":{"type":"Point","coordinates":[-94.78877844757073,29.495610842325952]},"properties":{"substrate":"Mud","lease_number":null,"poll_year":2025}},{"type":"Feature","id":"69b654f7-87f2-4bd9-85f6-5163b22c3e77","geometry":{"type":"Point","coordinates":[-94.78953329292084,29.494312415637374]},"properties":{"substrate":"Solid Reef","lease_number":null,"poll_year":2025}},{"type":"Feature","id":"6af12a99-ad99-4973-b655-0f3839f76ea6","geometry":{"type":"Point","coordinates":[-94.789880913088,29.494664853862854]},"properties":{"substrate":"Mud","lease_number":null,"poll_year":2025}},{"type":"Feature","id":"710be526-04fb-4edf-b980-72ce0dd674d5","geometry":{"type":"Point","coordinates":[-94.77959684520518,29.479380793673574]},"properties":{"substrate":"Buried Shell","lease_number":null,"poll_year":2024}},{"type":"Feature","id":"7116a367-93f8-4ee2-8692-dad27c1d38ee","geometry":{"type":"Point","coordinates":[-94.78797327500517,29.496262854041728]},"properties":{"substrate":"Mud","lease_number":null,"poll_year":2025}},{"type":"Feature","id":"7622b572-33d4-4c62-bfda-34b30e7f1bd2","geometry":{"type":"Point","coordinates":[-94.7895255153071,29.496916394040547]},"properties":{"substrate":"Mud","lease_number":null,"poll_year":2025}},{"type":"Feature","id":"78038806-8a8e-41cc-88b2-eb3e9ae0f505","geometry":{"type":"Point","coordinates":[-94.78923722077961,29.494823174186617]},"properties":{"substrate":"Solid Reef","lease_number":null,"poll_year":2025}},{"type":"Feature","id":"7b3b2a09-11ad-4183-82d9-ebb4af09489e","geometry":{"type":"Point","coordinates":[-94.78860850787854,29.495714792679653]},"properties":{"substrate":"Scattered Shell","lease_number":null,"poll_year":2025}},{"type":"Feature","id":"7ca1fbd0-7720-401a-bc8e-716da6a33536","geometry":{"type":"Point","coordinates":[-94.78976436476474,29.49420584604809]},"properties":{"substrate":"Buried Shell","lease_number":null,"poll_year":2025}},{"type":"Feature","id":"7ece9405-4bad-4b17-9437-1c6c295c7e09","geometry":{"type":"Point","coordinates":[-94.78919417530781,29.4943536841912]},"properties":{"substrate":"Buried Shell","lease_number":null,"poll_year":2025}},{"type":"Feature","id":"816e8c76-be11-4a5c-ab6b-02de2af37a02","geometry":{"type":"Point","coordinates":[-94.7885713885927,29.496216716698346]},"properties":{"substrate":"Mud","lease_number":null,"poll_year":2025}},{"type":"Feature","id":"82524581-8bca-47f9-82aa-95788e085fdd","geometry":{"type":"Point","coordinates":[-94.78965432743065,29.495838763118407]},"properties":{"substrate":"Mud","lease_number":null,"poll_year":2025}},{"type":"Feature","id":"8b93e0bc-3a2b-4d85-a7d9-e97974c43fdf","geometry":{"type":"Point","coordinates":[-94.78943573857593,29.494499836350187]},"properties":{"substrate":"Buried Shell","lease_number":null,"poll_year":2025}},{"type":"Feature","id":"8bfca8c8-70ab-44da-93cf-97d02b1c3b00","geometry":{"type":"Point","coordinates":[-94.78934456676112,29.494928707118166]},"properties":{"substrate":"Buried Shell","lease_number":null,"poll_year":2025}},{"type":"Feature","id":"8c662c16-a5a4-49c9-ba57-4a50c3d5aada","geometry":{"type":"Point","coordinates":[-94.79002948724948,29.49482673962223]},"properties":{"substrate":"Buried Shell","lease_number":null,"poll_year":2025}},{"type":"Feature","id":"8cdbd299-89eb-44ff-9545-a9bfee91293c","geometry":{"type":"Point","coordinates":[-94.79003404979281,29.493660373382557]},"properties":{"substrate":"Solid Reef","lease_number":null,"poll_year":2025}},{"type":"Feature","id":"90d8b64e-8862-4c78-89f8-1e1106029c9d","geometry":{"type":"Point","coordinates":[-94.78945057335453,29.49375932234717]},"properties":{"substrate":"Buried Shell","lease_number":null,"poll_year":2025}},{"type":"Feature","id":"91ed93fb-cad8-4a8d-8ea8-b4470f443641","geometry":{"type":"Point","coordinates":[-94.78953924875115,29.496018098666585]},"properties":{"substrate":"Mud","lease_number":null,"poll_year":2025}},{"type":"Feature","id":"95af19a8-8cfe-46f3-aee4-ab2cd9aefa2e","geometry":{"type":"Point","coordinates":[-94.77892522157964,29.47884693469542]},"properties":{"substrate":"Mud","lease_number":null,"poll_year":2024}},{"type":"Feature","id":"9819211b-ccf3-40ff-b06e-048bebd55fad","geometry":{"type":"Point","coordinates":[-94.78906556081364,29.496126796982296]},"properties":{"substrate":"Mud","lease_number":null,"poll_year":2025}},{"type":"Feature","id":"983306af-9789-41c2-8f5b-bceeda0484c8","geometry":{"type":"Point","coordinates":[-94.78897681804337,29.495152454146385]},"properties":{"substrate":"Buried Shell","lease_number":null,"poll_year":2025}},{"type":"Feature","id":"98e649aa-ade4-442e-bcd1-14b7d093135c","geometry":{"type":"Point","coordinates":[-94.78867296200019,29.49550490821436]},"properties":{"substrate":"Scattered Shell","lease_number":null,"poll_year":2025}},{"type":"Feature","id":"9b36646e-0928-4e74-a049-bfea975e4c65","geometry":{"type":"Point","coordinates":[-94.78902985098448,29.496631311672875]},"properties":{"substrate":"Mud","lease_number":null,"poll_year":2025}},{"type":"Feature","id":"9c8f663a-6c9c-49d0-afd1-43800a5a61a8","geometry":{"type":"Point","coordinates":[-94.78903978904647,29.49643688377435]},"properties":{"substrate":"Scattered Shell","lease_number":null,"poll_year":2025}},{"type":"Feature","id":"a3f466ad-5936-4165-a756-b400311168ef","geometry":{"type":"Point","coordinates":[-94.78878390483608,29.495088555627888]},"properties":{"substrate":"Buried Shell","lease_number":null,"poll_year":2025}},{"type":"Feature","id":"a5d90de6-8c58-45e2-9eba-094b439444b1","geometry":{"type":"Point","coordinates":[-94.78963317659726,29.49522274536321]},"properties":{"substrate":"Buried Shell","lease_number":null,"poll_year":2025}},{"type":"Feature","id":"a773cb7b-dd72-4180-8d76-de46f37ac36d","geometry":{"type":"Point","coordinates":[-94.78936366584237,29.49554583537914]},"properties":{"substrate":"Buried Shell","lease_number":null,"poll_year":2025}},{"type":"Feature","id":"a7a3a31d-7cc0-4edc-a846-fb326e569c6a","geometry":{"type":"Point","coordinates":[-94.77869020702995,29.479244646689104]},"properties":{"substrate":"Scattered Shell","lease_number":null,"poll_year":2024}},{"type":"Feature","id":"a7fd6cc9-b758-4318-932b-ae8eb31fe083","geometry":{"type":"Point","coordinates":[-94.78918951215317,29.494592204061856]},"properties":{"substrate":"Buried Shell","lease_number":null,"poll_year":2025}},{"type":"Feature","id":"aa87765e-ee1d-4c7e-830d-bcda14c521e8","geometry":{"type":"Point","coordinates":[-94.77947145296794,29.47938152798376]},"properties":{"substrate":"Buried Shell","lease_number":null,"poll_year":2024}},{"type":"Feature","id":"ab178887-2d3b-4ba2-96b7-c5cd1ac41c2e","geometry":{"type":"Point","coordinates":[-94.78981971535929,29.496002142746992]},"properties":{"substrate":"Mud","lease_number":null,"poll_year":2025}},{"type":"Feature","id":"ac3ffb0b-459c-4192-8e38-dfdb8e6d1111","geometry":{"type":"Point","coordinates":[-94.78963996696253,29.49672114337053]},"properties":{"substrate":"Mud","lease_number":null,"poll_year":2025}},{"type":"Feature","id":"ae2709cf-d148-47e0-9b4c-bc64c69a9b21","geometry":{"type":"Point","coordinates":[-94.7885029809855,29.49669324200969]},"properties":{"substrate":"Mud","lease_number":null,"poll_year":2025}},{"type":"Feature","id":"aeb1e68c-666c-40b7-88c6-d0c193b10f2a","geometry":{"type":"Point","coordinates":[-94.78893030776953,29.49544202324634]},"properties":{"substrate":"Mud","lease_number":null,"poll_year":2025}},{"type":"Feature","id":"b0ad024d-4b65-42fd-aa63-56dd97fb1e28","geometry":{"type":"Point","coordinates":[-94.78920261587822,29.496011267340908]},"properties":{"substrate":"Buried Shell","lease_number":null,"poll_year":2025}},{"type":"Feature","id":"b3015e90-b881-43f9-ad9f-4d822623c7d3","geometry":{"type":"Point","coordinates":[-94.78987096424623,29.495233912325688]},"properties":{"substrate":"Buried Shell","lease_number":null,"poll_year":2025}},{"type":"Feature","id":"b6a3ca9b-d376-4992-8f61-7c0238167652","geometry":{"type":"Point","coordinates":[-94.78917355358216,29.496237664906364]},"properties":{"substrate":"Mud","lease_number":null,"poll_year":2025}},{"type":"Feature","id":"b791598c-cb14-419e-9e05-b14ebd9872aa","geometry":{"type":"Point","coordinates":[-94.78932541288262,29.49639092477925]},"properties":{"substrate":"Mud","lease_number":null,"poll_year":2025}},{"type":"Feature","id":"b8c01f0b-920a-453c-87b1-89dd8dbcef95","geometry":{"type":"Point","coordinates":[-94.78953551086127,29.493977377378638]},"properties":{"substrate":"Buried Shell","lease_number":null,"poll_year":2025}},{"type":"Feature","id":"b924911a-2984-4913-b51a-2d8a86c6ed4f","geometry":{"type":"Point","coordinates":[-94.78860651361862,29.49657876698894]},"properties":{"substrate":"Mud","lease_number":null,"poll_year":2025}},{"type":"Feature","id":"bc41230c-a61f-43b4-a8b9-10b1692d1363","geometry":{"type":"Point","coordinates":[-94.78942810379434,29.496498210618007]},"properties":{"substrate":"Scattered Shell","lease_number":null,"poll_year":2025}},{"type":"Feature","id":"be730d31-c642-47f1-aa6a-6f2fc852c6b9","geometry":{"type":"Point","coordinates":[-94.7895608559287,29.4946256566765]},"properties":{"substrate":"Buried Shell","lease_number":null,"poll_year":2025}},{"type":"Feature","id":"c2307a8c-399a-4c82-9e89-744768aa9590","geometry":{"type":"Point","coordinates":[-94.7894794649707,29.496282619251964]},"properties":{"substrate":"Scattered Shell","lease_number":null,"poll_year":2025}},{"type":"Feature","id":"c2a43edb-a47d-4547-bc0a-8d5c7e07efe5","geometry":{"type":"Point","coordinates":[-94.78892640638625,29.494785820767756]},"properties":{"substrate":"Solid Reef","lease_number":null,"poll_year":2025}},{"type":"Feature","id":"c323eca0-8326-4c11-a8b7-d481c9e3e0bc","geometry":{"type":"Point","coordinates":[-94.78880376029882,29.496201144714696]},"properties":{"substrate":"Mud","lease_number":null,"poll_year":2025}},{"type":"Feature","id":"c7baa4b3-91c7-4fa4-bc36-bc0bafba1748","geometry":{"type":"Point","coordinates":[-94.78832052955804,29.495788516769174]},"properties":{"substrate":"Mud","lease_number":null,"poll_year":2025}},{"type":"Feature","id":"cd03d844-c3e3-4918-8d7e-37bb7f25be1c","geometry":{"type":"Point","coordinates":[-94.78999649662067,29.49399977100126]},"properties":{"substrate":"Mud","lease_number":null,"poll_year":2025}},{"type":"Feature","id":"cd293457-0b4a-44ed-b6f9-3bff4374ea71","geometry":{"type":"Point","coordinates":[-94.78980171222268,29.49538831371212]},"properties":{"substrate":"Solid Reef","lease_number":null,"poll_year":2025}},{"type":"Feature","id":"cdcc2059-779c-446e-a01d-e3bab644ddd7","geometry":{"type":"Point","coordinates":[-94.78996451569824,29.495553307102544]},"properties":{"substrate":"Scattered Shell","lease_number":null,"poll_year":2025}},{"type":"Feature","id":"ce47bce0-1652-4401-9088-f876e81bf89f","geometry":{"type":"Point","coordinates":[-94.78970896925443,29.49476992016854]},"properties":{"substrate":"Buried Shell","lease_number":null,"poll_year":2025}},{"type":"Feature","id":"cfa2e945-d543-439d-a8fc-41a36877ff30","geometry":{"type":"Point","coordinates":[-94.78910932403934,29.495609725008425]},"properties":{"substrate":"Mud","lease_number":null,"poll_year":2025}},{"type":"Feature","id":"d1ee1a3e-9b91-4a82-b3e8-67d6e6880a1e","geometry":{"type":"Point","coordinates":[-94.78966404540539,29.49410363465374]},"properties":{"substrate":"Buried Shell","lease_number":null,"poll_year":2025}},{"type":"Feature","id":"d3acc0c7-8544-4d82-946b-8de98614fba8","geometry":{"type":"Point","coordinates":[-94.78904893569268,29.49587661968329]},"properties":{"substrate":"Mud","lease_number":null,"poll_year":2025}},{"type":"Feature","id":"d4ce11d7-b416-46d3-a110-e31689ca25bc","geometry":{"type":"Point","coordinates":[-94.77903705105274,29.47907340971772]},"properties":{"substrate":"Mud","lease_number":null,"poll_year":2024}},{"type":"Feature","id":"db2568e4-0970-48d7-a101-bc1f425e69d0","geometry":{"type":"Point","coordinates":[-94.78801550390837,29.496534250627914]},"properties":{"substrate":"Mud","lease_number":null,"poll_year":2025}},{"type":"Feature","id":"dbafc837-07e1-4dd8-a03a-68042059fccc","geometry":{"type":"Point","coordinates":[-94.78938445555299,29.49416335063466]},"properties":{"substrate":"Buried Shell","lease_number":null,"poll_year":2025}},{"type":"Feature","id":"e2267bd3-66ce-4a86-ac09-af12feb77805","geometry":{"type":"Point","coordinates":[-94.78987502463133,29.495839031305284]},"properties":{"substrate":"Buried Shell","lease_number":null,"poll_year":2025}},{"type":"Feature","id":"e3fb043b-4522-4da6-b0f3-656783ef3c18","geometry":{"type":"Point","coordinates":[-94.78831257497619,29.496541121012303]},"properties":{"substrate":"Mud","lease_number":null,"poll_year":2025}},{"type":"Feature","id":"e83661e2-0132-4d3c-a79e-5667314bbef2","geometry":{"type":"Point","coordinates":[-94.78991021972585,29.496695334318815]},"properties":{"substrate":"Mud","lease_number":null,"poll_year":2025}},{"type":"Feature","id":"e9aff44f-e9d1-4e56-9d22-ad28f218d869","geometry":{"type":"Point","coordinates":[-94.77900834898108,29.4789263328588]},"properties":{"substrate":"Mud","lease_number":null,"poll_year":2024}},{"type":"Feature","id":"eb857aa6-7c19-4bc3-8aa7-e0abec714ac3","geometry":{"type":"Point","coordinates":[-94.78946588603685,29.494857768289457]},"properties":{"substrate":"Buried Shell","lease_number":null,"poll_year":2025}},{"type":"Feature","id":"ebc0d936-b004-4012-8a1e-17c99a66d1d0","geometry":{"type":"Point","coordinates":[-94.78828092643042,29.496762952785012]},"properties":{"substrate":"Mud","lease_number":null,"poll_year":2025}},{"type":"Feature","id":"eda9e96c-3661-4c34-be98-b6b6dbd43b36","geometry":{"type":"Point","coordinates":[-94.78897326340977,29.496939126348188]},"properties":{"substrate":"Mud","lease_number":null,"poll_year":2025}},{"type":"Feature","id":"f003f825-e9ff-441a-bc87-d390e15bd286","geometry":{"type":"Point","coordinates":[-94.78943977740144,29.49537746968709]},"properties":{"substrate":"Buried Shell","lease_number":null,"poll_year":2025}},{"type":"Feature","id":"f0671551-4c4e-4e96-9b9a-4ede34629b7a","geometry":{"type":"Point","coordinates":[-94.78899495233401,29.49492805267374]},"properties":{"substrate":"Solid Reef","lease_number":null,"poll_year":2025}},{"type":"Feature","id":"f0b6dfe5-4952-464b-8b71-cd60a6fb8d1e","geometry":{"type":"Point","coordinates":[-94.78930985226526,29.49690985832521]},"properties":{"substrate":"Mud","lease_number":null,"poll_year":2025}},{"type":"Feature","id":"f0cadf09-c1be-40ae-a3ef-3f293200991f","geometry":{"type":"Point","coordinates":[-94.78834753830536,29.496047740687946]},"properties":{"substrate":"Mud","lease_number":null,"poll_year":2025}},{"type":"Feature","id":"f1add591-09f1-4884-bdf2-7e1c40c72a02","geometry":{"type":"Point","coordinates":[-94.78878930820254,29.495289765884685]},"properties":{"substrate":"Buried Shell","lease_number":null,"poll_year":2025}},{"type":"Feature","id":"f537ef46-0f4c-406e-9f6e-be1d4265330b","geometry":{"type":"Point","coordinates":[-94.78952915078905,29.495714346222247]},"properties":{"substrate":"Buried Shell","lease_number":null,"poll_year":2025}},{"type":"Feature","id":"f6c50c2f-ed2e-45e1-826c-c2adaeeaf01c","geometry":{"type":"Point","coordinates":[-94.78924357725856,29.495416366337047]},"properties":{"substrate":"Buried Shell","lease_number":null,"poll_year":2025}},{"type":"Feature","id":"f76d080e-0efc-4e25-80e3-a8605503d9ef","geometry":{"type":"Point","coordinates":[-94.77869829815573,29.47900599919136]},"properties":{"substrate":"Mud","lease_number":null,"poll_year":2024}},{"type":"Feature","id":"f9c3a4fb-e728-43bb-9d48-99b86061dc69","geometry":{"type":"Point","coordinates":[-94.78912150160133,29.494474678052182]},"properties":{"substrate":"Buried Shell","lease_number":null,"poll_year":2025}},{"type":"Feature","id":"fc4d5463-6c26-43a2-8daa-613d89ca8700","geometry":{"type":"Point","coordinates":[-94.78993393435103,29.496418228084057]},"properties":{"substrate":"Mud","lease_number":null,"poll_year":2025}},{"type":"Feature","id":"fc9f71b8-667b-4d4e-aa2a-ce057b8471fa","geometry":{"type":"Point","coordinates":[-94.78880613993601,29.496424698153067]},"properties":{"substrate":"Mud","lease_number":null,"poll_year":2025}},{"type":"Feature","id":"fe26613d-43fa-4337-a62f-2aba5ab77c50","geometry":{"type":"Point","coordinates":[-94.7896824249361,29.493191418295012]},"properties":{"substrate":"Solid Reef","lease_number":null,"poll_year":2025}}]}