{"type":"FeatureCollection","features":[{"type":"Feature","id":"04bc3f65-5618-499e-9474-9306bdac8535","geometry":{"type":"Point","coordinates":[-94.78758968000581,29.54143409936256]},"properties":{"substrate":"Scattered Shell","lease_number":null,"poll_year":2024}},{"type":"Feature","id":"0b0b3932-fc35-431a-931a-322ac636c7e2","geometry":{"type":"Point","coordinates":[-94.78762834529226,29.541482957713292]},"properties":{"substrate":"Firm/Hard Bottom","lease_number":null,"poll_year":2024}},{"type":"Feature","id":"0f9436c8-b9a5-4663-ae5b-d0e00ff81573","geometry":{"type":"Point","coordinates":[-94.78614522675818,29.535993737354904]},"properties":{"substrate":"Firm/Hard Bottom","lease_number":null,"poll_year":2024}},{"type":"Feature","id":"11a4c753-ea74-4abe-bc7f-c862663a118a","geometry":{"type":"Point","coordinates":[-94.786204313446,29.536119950041098]},"properties":{"substrate":"Firm/Hard Bottom","lease_number":null,"poll_year":2024}},{"type":"Feature","id":"1f550055-e7e9-4ed9-82e8-9c350c85aed6","geometry":{"type":"Point","coordinates":[-94.7876332959078,29.540006647629138]},"properties":{"substrate":"Solid Reef","lease_number":null,"poll_year":2024}},{"type":"Feature","id":"20e946b4-4059-4ba8-b3eb-deb851a4e5a0","geometry":{"type":"Point","coordinates":[-94.78764343609072,29.54132642584043]},"properties":{"substrate":"Firm/Hard Bottom","lease_number":null,"poll_year":2024}},{"type":"Feature","id":"24216060-98d5-4403-9d18-6cdc3648b783","geometry":{"type":"Point","coordinates":[-94.78730171605834,29.539810500023634]},"properties":{"substrate":"Solid Reef","lease_number":null,"poll_year":2024}},{"type":"Feature","id":"2881f32c-3d40-4422-986b-8fd818c053c7","geometry":{"type":"Point","coordinates":[-94.78610412434236,29.536967723804725]},"properties":{"substrate":"Firm/Hard Bottom","lease_number":null,"poll_year":2024}},{"type":"Feature","id":"3a5412f1-12fd-4846-a3c6-4af68bf7e62a","geometry":{"type":"Point","coordinates":[-94.78775981103915,29.540210869758685]},"properties":{"substrate":"Solid Reef","lease_number":null,"poll_year":2024}},{"type":"Feature","id":"4ab459ad-cb03-483b-b40d-2d7570e0858b","geometry":{"type":"Point","coordinates":[-94.78636854883614,29.535606812053405]},"properties":{"substrate":"Firm/Hard Bottom","lease_number":null,"poll_year":2024}},{"type":"Feature","id":"4adee356-166f-4bf3-a07d-ac1a09c42064","geometry":{"type":"Point","coordinates":[-94.7864193988711,29.53572194166721]},"properties":{"substrate":"Firm/Hard Bottom","lease_number":null,"poll_year":2024}},{"type":"Feature","id":"4cc66007-1492-4eb7-bf55-9f060741a68c","geometry":{"type":"Point","coordinates":[-94.78609233844583,29.536755116695787]},"properties":{"substrate":"Firm/Hard Bottom","lease_number":null,"poll_year":2024}},{"type":"Feature","id":"4d3ff058-4b0f-4101-9a4f-6dcbf7cc26cd","geometry":{"type":"Point","coordinates":[-94.78763868490118,29.540464739675517]},"properties":{"substrate":"Solid Reef","lease_number":null,"poll_year":2024}},{"type":"Feature","id":"5aa6abfd-8bef-4636-a636-805f6c9a507c","geometry":{"type":"Point","coordinates":[-94.78633915955331,29.537930809042138]},"properties":{"substrate":"Firm/Hard Bottom","lease_number":null,"poll_year":2024}},{"type":"Feature","id":"5e18cf7d-a048-42f7-94ce-bd1b9f753d3b","geometry":{"type":"Point","coordinates":[-94.78781591891348,29.54085963214504]},"properties":{"substrate":"Solid Reef","lease_number":null,"poll_year":2024}},{"type":"Feature","id":"61e40f00-c851-4f5a-84a3-ebbe64406d2e","geometry":{"type":"Point","coordinates":[-94.78612393399101,29.53708239699686]},"properties":{"substrate":"Firm/Hard Bottom","lease_number":null,"poll_year":2024}},{"type":"Feature","id":"622e392a-7aa2-4845-8701-71149441ac95","geometry":{"type":"Point","coordinates":[-94.78754611890105,29.540277987883492]},"properties":{"substrate":"Solid Reef","lease_number":null,"poll_year":2024}},{"type":"Feature","id":"6e306aa5-6432-4974-bc43-4dd6dcf9be29","geometry":{"type":"Point","coordinates":[-94.78721002142402,29.53958023668896]},"properties":{"substrate":"Buried Shell","lease_number":null,"poll_year":2024}},{"type":"Feature","id":"6f463f7a-a8ac-48c1-a7b2-a4b014158698","geometry":{"type":"Point","coordinates":[-94.78592508022477,29.53633826865891]},"properties":{"substrate":"Firm/Hard Bottom","lease_number":null,"poll_year":2024}},{"type":"Feature","id":"7588b323-0287-4d34-a616-c2d178179577","geometry":{"type":"Point","coordinates":[-94.78614332143145,29.53717511038315]},"properties":{"substrate":"Firm/Hard Bottom","lease_number":null,"poll_year":2024}},{"type":"Feature","id":"777514db-9a7c-4d4f-bb55-00e7abee59eb","geometry":{"type":"Point","coordinates":[-94.786007189835,29.535955133756577]},"properties":{"substrate":"Firm/Hard Bottom","lease_number":null,"poll_year":2024}},{"type":"Feature","id":"7a5d8765-92f9-483d-ac97-25a091c4a6a2","geometry":{"type":"Point","coordinates":[-94.78627904070122,29.535402554832668]},"properties":{"substrate":"Firm/Hard Bottom","lease_number":null,"poll_year":2024}},{"type":"Feature","id":"7bb0baa4-204b-44b0-986e-360234441b6a","geometry":{"type":"Point","coordinates":[-94.78787043856639,29.5409565397054]},"properties":{"substrate":"Solid Reef","lease_number":null,"poll_year":2024}},{"type":"Feature","id":"85f5cab3-aaeb-406e-ac06-6b45b046a4be","geometry":{"type":"Point","coordinates":[-94.7858960296068,29.536227923761235]},"properties":{"substrate":"Firm/Hard Bottom","lease_number":null,"poll_year":2024}},{"type":"Feature","id":"8dfa7e04-1258-404d-a2d0-61a62ad740f1","geometry":{"type":"Point","coordinates":[-94.78750290185106,29.54018562669222]},"properties":{"substrate":"Solid Reef","lease_number":null,"poll_year":2024}},{"type":"Feature","id":"91feed5e-b089-4148-bc7f-b24807ac71b5","geometry":{"type":"Point","coordinates":[-94.7858931909305,29.536040755379833]},"properties":{"substrate":"Firm/Hard Bottom","lease_number":null,"poll_year":2024}},{"type":"Feature","id":"92666879-e9bd-4182-805f-cecd933b1eef","geometry":{"type":"Point","coordinates":[-94.78618298744115,29.536055598277475]},"properties":{"substrate":"Firm/Hard Bottom","lease_number":null,"poll_year":2024}},{"type":"Feature","id":"94874c48-91f5-484e-844a-a656b49a9b75","geometry":{"type":"Point","coordinates":[-94.7863262408812,29.537817460777713]},"properties":{"substrate":"Firm/Hard Bottom","lease_number":null,"poll_year":2024}},{"type":"Feature","id":"9976bae2-1f10-41fe-9041-e05a7056dac9","geometry":{"type":"Point","coordinates":[-94.78771018091633,29.54064334435158]},"properties":{"substrate":"Solid Reef","lease_number":null,"poll_year":2024}},{"type":"Feature","id":"a05142b6-d346-467e-b259-e1e84da2948b","geometry":{"type":"Point","coordinates":[-94.78980176163002,29.543688488763614]},"properties":{"substrate":"Firm/Hard Bottom","lease_number":null,"poll_year":2024}},{"type":"Feature","id":"ab743f8a-dc68-427c-bf25-1dd0c6bee0e3","geometry":{"type":"Point","coordinates":[-94.785947780652,29.535987820044543]},"properties":{"substrate":"Firm/Hard Bottom","lease_number":null,"poll_year":2024}},{"type":"Feature","id":"ac35ce5b-6532-4471-8741-4142d23fed9e","geometry":{"type":"Point","coordinates":[-94.7878298140543,29.541367478279515]},"properties":{"substrate":"Scattered Shell","lease_number":null,"poll_year":2024}},{"type":"Feature","id":"ad42714f-e8b6-4da6-8a05-a1cc419be3ee","geometry":{"type":"Point","coordinates":[-94.78632581238482,29.53551756666045]},"properties":{"substrate":"Firm/Hard Bottom","lease_number":null,"poll_year":2024}},{"type":"Feature","id":"ae38ec1b-c046-40bf-aa43-d4afb9317caf","geometry":{"type":"Point","coordinates":[-94.78594547557498,29.53642752036171]},"properties":{"substrate":"Firm/Hard Bottom","lease_number":null,"poll_year":2024}},{"type":"Feature","id":"b02dcc2a-965f-41da-a55a-1f838877ffff","geometry":{"type":"Point","coordinates":[-94.78735274575635,29.539905199941895]},"properties":{"substrate":"Solid Reef","lease_number":null,"poll_year":2024}},{"type":"Feature","id":"b4f703e6-3c0d-4ee8-9a58-64a4cbb1b718","geometry":{"type":"Point","coordinates":[-94.78773243757581,29.541318475289017]},"properties":{"substrate":"Firm/Hard Bottom","lease_number":null,"poll_year":2024}},{"type":"Feature","id":"b681756f-e698-4831-b346-7261d105d307","geometry":{"type":"Point","coordinates":[-94.78608412155592,29.535961484843614]},"properties":{"substrate":"Firm/Hard Bottom","lease_number":null,"poll_year":2024}},{"type":"Feature","id":"b7c320ee-c3d2-4127-8656-88d2d118193f","geometry":{"type":"Point","coordinates":[-94.78626977098581,29.535311667939254]},"properties":{"substrate":"Firm/Hard Bottom","lease_number":null,"poll_year":2024}},{"type":"Feature","id":"bef90a69-9770-4863-98c2-66de53685576","geometry":{"type":"Point","coordinates":[-94.7874447592926,29.54007414806466]},"properties":{"substrate":"Solid Reef","lease_number":null,"poll_year":2024}},{"type":"Feature","id":"bfcc93c2-062a-4ced-8079-312f24b0ef2c","geometry":{"type":"Point","coordinates":[-94.78777872416914,29.54163778794839]},"properties":{"substrate":"Firm/Hard Bottom","lease_number":null,"poll_year":2024}},{"type":"Feature","id":"c256d1b7-2ee0-4f46-b6c5-218effe873da","geometry":{"type":"Point","coordinates":[-94.78610957711614,29.536873934789394]},"properties":{"substrate":"Firm/Hard Bottom","lease_number":null,"poll_year":2024}},{"type":"Feature","id":"c3407f40-b3d8-49c8-b307-09721c1b4c37","geometry":{"type":"Point","coordinates":[-94.78587833728727,29.536111282376158]},"properties":{"substrate":"Firm/Hard Bottom","lease_number":null,"poll_year":2024}},{"type":"Feature","id":"c4fbc7e7-dd39-4363-b6e7-ce0e02582972","geometry":{"type":"Point","coordinates":[-94.78757980213095,29.541382254746345]},"properties":{"substrate":"Firm/Hard Bottom","lease_number":null,"poll_year":2024}},{"type":"Feature","id":"c6d16342-54de-46d7-ae6c-024c9178850a","geometry":{"type":"Point","coordinates":[-94.78751304023734,29.539752556947445]},"properties":{"substrate":"Solid Reef","lease_number":null,"poll_year":2024}},{"type":"Feature","id":"c87815e7-9a08-4003-b813-b0304e8a793f","geometry":{"type":"Point","coordinates":[-94.78758121877416,29.540349215312247]},"properties":{"substrate":"Solid Reef","lease_number":null,"poll_year":2024}},{"type":"Feature","id":"cb9d5fe9-5d38-4e32-a061-fec874df7a75","geometry":{"type":"Point","coordinates":[-94.78603274241325,29.536627273663928]},"properties":{"substrate":"Firm/Hard Bottom","lease_number":null,"poll_year":2024}},{"type":"Feature","id":"cf4b0200-ba29-4a3f-bc70-e01be024cce3","geometry":{"type":"Point","coordinates":[-94.7877646565518,29.540764994080774]},"properties":{"substrate":"Solid Reef","lease_number":null,"poll_year":2024}},{"type":"Feature","id":"d1f259d7-f74c-4b19-8f2e-97b48c0c5c4d","geometry":{"type":"Point","coordinates":[-94.78598606774774,29.536543696346936]},"properties":{"substrate":"Firm/Hard Bottom","lease_number":null,"poll_year":2024}},{"type":"Feature","id":"d6534dbf-e7a6-4e14-85bb-eb56c618a38a","geometry":{"type":"Point","coordinates":[-94.78788389532934,29.54180592819912]},"properties":{"substrate":"Firm/Hard Bottom","lease_number":null,"poll_year":2024}},{"type":"Feature","id":"e31b902f-aef4-46a6-a35b-a79446f28e99","geometry":{"type":"Point","coordinates":[-94.78771915328939,29.54156717961974]},"properties":{"substrate":"Firm/Hard Bottom","lease_number":null,"poll_year":2024}},{"type":"Feature","id":"e9b213d1-5ea8-4158-99a9-0ee076d751d4","geometry":{"type":"Point","coordinates":[-94.78759349155757,29.539924759680414]},"properties":{"substrate":"Solid Reef","lease_number":null,"poll_year":2024}},{"type":"Feature","id":"ecfa1005-bbaa-43d1-8e43-73b2041e6d33","geometry":{"type":"Point","coordinates":[-94.78767827455408,29.540562756620268]},"properties":{"substrate":"Solid Reef","lease_number":null,"poll_year":2024}},{"type":"Feature","id":"ef212522-0b31-476c-a976-d80ccfc21ff4","geometry":{"type":"Point","coordinates":[-94.78856430178344,29.543639428284454]},"properties":{"substrate":"Buried Shell","lease_number":null,"poll_year":2024}},{"type":"Feature","id":"f1d9e179-0f34-4b51-85bb-870c0dbf9025","geometry":{"type":"Point","coordinates":[-94.78769497333688,29.54010828122212]},"properties":{"substrate":"Solid Reef","lease_number":null,"poll_year":2024}},{"type":"Feature","id":"f5779e55-beac-47da-8759-2000bee90cc3","geometry":{"type":"Point","coordinates":[-94.787262729175,29.53970724285806]},"properties":{"substrate":"Solid Reef","lease_number":null,"poll_year":2024}},{"type":"Feature","id":"f687dce5-59f3-4206-929e-a22916bcf16c","geometry":{"type":"Point","coordinates":[-94.78740643716257,29.540001473021174]},"properties":{"substrate":"Solid Reef","lease_number":null,"poll_year":2024}},{"type":"Feature","id":"f8019b7b-4967-4fc8-9ca4-ab061a451003","geometry":{"type":"Point","coordinates":[-94.78646215059379,29.53583998486886]},"properties":{"substrate":"Firm/Hard Bottom","lease_number":null,"poll_year":2024}},{"type":"Feature","id":"fe0700a1-6128-4274-9885-14ff1650ad4d","geometry":{"type":"Point","coordinates":[-94.78782811803505,29.541718256811453]},"properties":{"substrate":"Firm/Hard Bottom","lease_number":null,"poll_year":2024}},{"type":"Feature","id":"fe5eaffd-7417-486b-9231-4fa1b9e9989d","geometry":{"type":"Point","coordinates":[-94.7861782883539,29.537288867345058]},"properties":{"substrate":"Firm/Hard Bottom","lease_number":null,"poll_year":2024}},{"type":"Feature","id":"feecac4c-d4da-493f-ac6d-384dad4107a3","geometry":{"type":"Point","coordinates":[-94.78622599518371,29.537394195001223]},"properties":{"substrate":"Firm/Hard Bottom","lease_number":null,"poll_year":2024}},{"type":"Feature","id":"ff111f5b-9e6c-47ff-b09f-e1d7d5b0e178","geometry":{"type":"Point","coordinates":[-94.78651218406019,29.535955784027877]},"properties":{"substrate":"Firm/Hard Bottom","lease_number":null,"poll_year":2024}}]}