{"type":"FeatureCollection","features":[{"type":"Feature","id":"0099ea5b-b3ad-42d6-b7bc-42db5822b19f","geometry":{"type":"Point","coordinates":[-94.78984056435871,29.524278005364945]},"properties":{"substrate":"Mud","lease_number":null,"poll_year":2025}},{"type":"Feature","id":"0247e7e4-2b02-4343-b75a-5b371a56a5bc","geometry":{"type":"Point","coordinates":[-94.78551109971092,29.525840300387618]},"properties":{"substrate":"Mud","lease_number":null,"poll_year":2024}},{"type":"Feature","id":"034637a3-ee52-49a3-9e69-f7733c61b19c","geometry":{"type":"Point","coordinates":[-94.7887125004491,29.52384559366988]},"properties":{"substrate":"Mud","lease_number":null,"poll_year":2025}},{"type":"Feature","id":"0379fb1c-e16c-4659-bcad-726da837690e","geometry":{"type":"Point","coordinates":[-94.78861262036592,29.53386972737304]},"properties":{"substrate":"Buried Shell","lease_number":null,"poll_year":2024}},{"type":"Feature","id":"03d036ab-7018-47f9-986c-db531e6868df","geometry":{"type":"Point","coordinates":[-94.78932116744458,29.533283666742776]},"properties":{"substrate":"Firm/Hard Bottom","lease_number":null,"poll_year":2024}},{"type":"Feature","id":"060e5c31-f43b-458f-b71b-900204d6250f","geometry":{"type":"Point","coordinates":[-94.79000586604909,29.52384669582411]},"properties":{"substrate":"Mud","lease_number":null,"poll_year":2025}},{"type":"Feature","id":"087e66fb-ed7d-468c-b627-0917d0091860","geometry":{"type":"Point","coordinates":[-94.78968632362442,29.52388004028247]},"properties":{"substrate":"Mud","lease_number":null,"poll_year":2025}},{"type":"Feature","id":"08be9f7b-a12a-4e64-8d1b-4660b7c7840e","geometry":{"type":"Point","coordinates":[-94.78691366631345,29.527082167051297]},"properties":{"substrate":"Mud","lease_number":null,"poll_year":2024}},{"type":"Feature","id":"0a1c72a4-c395-411d-94d2-6b4927330ab7","geometry":{"type":"Point","coordinates":[-94.78955581368501,29.523994558691733]},"properties":{"substrate":"Mud","lease_number":null,"poll_year":2025}},{"type":"Feature","id":"0a7a7b4c-7451-46f8-8e80-1877accb9864","geometry":{"type":"Point","coordinates":[-94.78794470139262,29.5341422322516]},"properties":{"substrate":"Firm/Hard Bottom","lease_number":null,"poll_year":2024}},{"type":"Feature","id":"0b19c0dc-492a-44e4-8a60-6b6931faf333","geometry":{"type":"Point","coordinates":[-94.79001497855933,29.52443895033141]},"properties":{"substrate":"Mud","lease_number":null,"poll_year":2025}},{"type":"Feature","id":"0bda578e-743e-465b-832b-6e3a19349442","geometry":{"type":"Point","coordinates":[-94.78927919995114,29.53312298361542]},"properties":{"substrate":"Firm/Hard Bottom","lease_number":null,"poll_year":2024}},{"type":"Feature","id":"10168505-fa91-4823-8820-da4fde9dbd8a","geometry":{"type":"Point","coordinates":[-94.78929994564432,29.525079257065865]},"properties":{"substrate":"Mud","lease_number":null,"poll_year":2025}},{"type":"Feature","id":"1037d7bd-bd7e-471d-99c0-9075ff276230","geometry":{"type":"Point","coordinates":[-94.78808515029233,29.527883649793253]},"properties":{"substrate":"Mud","lease_number":null,"poll_year":2024}},{"type":"Feature","id":"104ba486-5efa-4ed5-b77d-37557190c0c5","geometry":{"type":"Point","coordinates":[-94.79001945396607,29.525839668811006]},"properties":{"substrate":"Mud","lease_number":null,"poll_year":2025}},{"type":"Feature","id":"1286ccc0-63d3-4df5-bea1-841f74897fcc","geometry":{"type":"Point","coordinates":[-94.78845432643307,29.524187933133632]},"properties":{"substrate":"Mud","lease_number":null,"poll_year":2025}},{"type":"Feature","id":"15245535-5e9b-4724-b8bd-0671f36b53b8","geometry":{"type":"Point","coordinates":[-94.78292993357412,29.52875791566316]},"properties":{"substrate":"Firm/Hard Bottom","lease_number":null,"poll_year":2024}},{"type":"Feature","id":"15b09912-d586-4033-86fe-95fa70e11b58","geometry":{"type":"Point","coordinates":[-94.78841270299439,29.53414514132992]},"properties":{"substrate":"Firm/Hard Bottom","lease_number":null,"poll_year":2024}},{"type":"Feature","id":"17adccb4-4fbc-4ce2-b0e6-5366254523a8","geometry":{"type":"Point","coordinates":[-94.78944146533586,29.52387503837992]},"properties":{"substrate":"Mud","lease_number":null,"poll_year":2025}},{"type":"Feature","id":"17d96cc7-abb7-48b7-98ab-bb359e61740a","geometry":{"type":"Point","coordinates":[-94.78437085015447,29.525292534369534]},"properties":{"substrate":"Mud","lease_number":null,"poll_year":2024}},{"type":"Feature","id":"18ade340-dba4-4046-85f7-b9e4c92378e9","geometry":{"type":"Point","coordinates":[-94.78926863306847,29.53304988307584]},"properties":{"substrate":"Firm/Hard Bottom","lease_number":null,"poll_year":2024}},{"type":"Feature","id":"19c0a837-5af9-49f0-ba0c-8abccf78f797","geometry":{"type":"Point","coordinates":[-94.78601821665511,29.526326699986935]},"properties":{"substrate":"Mud","lease_number":null,"poll_year":2024}},{"type":"Feature","id":"1c9c0c89-e04e-4f55-9383-b5070cb8353d","geometry":{"type":"Point","coordinates":[-94.78991651511936,29.52481358138371]},"properties":{"substrate":"Mud","lease_number":null,"poll_year":2025}},{"type":"Feature","id":"1ce25fca-3ae5-4a6a-830d-216b6d0d56dd","geometry":{"type":"Point","coordinates":[-94.7894336329249,29.529237766823858]},"properties":{"substrate":"Firm/Hard Bottom","lease_number":null,"poll_year":2024}},{"type":"Feature","id":"1ecb7e0e-29fc-4933-8805-6aee821d6b62","geometry":{"type":"Point","coordinates":[-94.7875674511941,29.534276889192338]},"properties":{"substrate":"Firm/Hard Bottom","lease_number":null,"poll_year":2024}},{"type":"Feature","id":"1ef8513e-4535-4c30-9550-d7272461ffe3","geometry":{"type":"Point","coordinates":[-94.78389228256833,29.5262356329744]},"properties":{"substrate":"Mud","lease_number":null,"poll_year":2024}},{"type":"Feature","id":"20b7dfa4-086b-430d-9076-499be710eb7b","geometry":{"type":"Point","coordinates":[-94.785622117107,29.525940766357827]},"properties":{"substrate":"Mud","lease_number":null,"poll_year":2024}},{"type":"Feature","id":"22faa72f-7f8f-45f2-9d2d-99177be951b2","geometry":{"type":"Point","coordinates":[-94.78886297095413,29.524167894316104]},"properties":{"substrate":"Mud","lease_number":null,"poll_year":2025}},{"type":"Feature","id":"29231d99-8479-4695-82cc-d5cc3defa095","geometry":{"type":"Point","coordinates":[-94.78922031628258,29.529003099942706]},"properties":{"substrate":"Firm/Hard Bottom","lease_number":null,"poll_year":2024}},{"type":"Feature","id":"2928480e-f765-425d-85fd-d9b329f062ce","geometry":{"type":"Point","coordinates":[-94.78900429571127,29.523827272894792]},"properties":{"substrate":"Mud","lease_number":null,"poll_year":2025}},{"type":"Feature","id":"293a962b-4771-4e6d-9102-3ebe156712d4","geometry":{"type":"Point","coordinates":[-94.78446074995486,29.525003600154022]},"properties":{"substrate":"Mud","lease_number":null,"poll_year":2024}},{"type":"Feature","id":"29d26231-9816-41f0-8de4-9c6cc526282a","geometry":{"type":"Point","coordinates":[-94.78986518718065,29.524500672931662]},"properties":{"substrate":"Mud","lease_number":null,"poll_year":2025}},{"type":"Feature","id":"2c013083-6584-4863-aaa4-9519b85e27c0","geometry":{"type":"Point","coordinates":[-94.78977228341397,29.52961464994391]},"properties":{"substrate":"Firm/Hard Bottom","lease_number":null,"poll_year":2024}},{"type":"Feature","id":"2d485265-f4f6-445b-be9b-7ca33ae2a7dc","geometry":{"type":"Point","coordinates":[-94.78410665023952,29.526013016907147]},"properties":{"substrate":"Mud","lease_number":null,"poll_year":2024}},{"type":"Feature","id":"32e30aa8-f1b1-464d-ad79-00d193c2566b","geometry":{"type":"Point","coordinates":[-94.78915957220308,29.524408698325253]},"properties":{"substrate":"Mud","lease_number":null,"poll_year":2025}},{"type":"Feature","id":"34c90f14-dca1-4c84-9234-c727f7f63973","geometry":{"type":"Point","coordinates":[-94.78910066697495,29.528871416338696]},"properties":{"substrate":"Firm/Hard Bottom","lease_number":null,"poll_year":2024}},{"type":"Feature","id":"3908f0f5-3b4b-42fc-aa56-ef95999666a7","geometry":{"type":"Point","coordinates":[-94.78350734997753,29.527765200232253]},"properties":{"substrate":"Mud","lease_number":null,"poll_year":2024}},{"type":"Feature","id":"39804205-cf40-4f7d-bbf0-53e3f1c0f24b","geometry":{"type":"Point","coordinates":[-94.78743648311388,29.52740595032278]},"properties":{"substrate":"Mud","lease_number":null,"poll_year":2024}},{"type":"Feature","id":"3a40b80b-6417-4294-b95e-991d14d79ae0","geometry":{"type":"Point","coordinates":[-94.78925438309311,29.532983132975883]},"properties":{"substrate":"Firm/Hard Bottom","lease_number":null,"poll_year":2024}},{"type":"Feature","id":"3d2d3849-2e38-4cfd-a2c2-e6946950ea57","geometry":{"type":"Point","coordinates":[-94.78615886677747,29.52648103363125]},"properties":{"substrate":"Firm/Hard Bottom","lease_number":null,"poll_year":2024}},{"type":"Feature","id":"40a5a49d-8729-4fa6-89ae-cb46ec083ead","geometry":{"type":"Point","coordinates":[-94.78758957041136,29.534397862691524]},"properties":{"substrate":"Firm/Hard Bottom","lease_number":null,"poll_year":2024}},{"type":"Feature","id":"41cbdac1-a5e6-4ddd-9446-f460d6d1ed75","geometry":{"type":"Point","coordinates":[-94.78894538329662,29.53348513325906]},"properties":{"substrate":"Firm/Hard Bottom","lease_number":null,"poll_year":2024}},{"type":"Feature","id":"4256d413-4b06-4489-80c3-dc2a7ad2b529","geometry":{"type":"Point","coordinates":[-94.78841664929342,29.524405891365102]},"properties":{"substrate":"Mud","lease_number":null,"poll_year":2025}},{"type":"Feature","id":"427a78d4-6593-430c-b1a0-dd4ca076d7bb","geometry":{"type":"Point","coordinates":[-94.79000981683971,29.529832250224057]},"properties":{"substrate":"Firm/Hard Bottom","lease_number":null,"poll_year":2024}},{"type":"Feature","id":"436ddfab-398f-40e3-a111-f8e525fcac46","geometry":{"type":"Point","coordinates":[-94.78900394985988,29.528780283615042]},"properties":{"substrate":"Firm/Hard Bottom","lease_number":null,"poll_year":2024}},{"type":"Feature","id":"488b100a-be12-4f0c-a1ea-2bcec1c613ff","geometry":{"type":"Point","coordinates":[-94.78701484985213,29.527143500343445]},"properties":{"substrate":"Mud","lease_number":null,"poll_year":2024}},{"type":"Feature","id":"491671ad-6870-424a-adf5-0de2aae70b8e","geometry":{"type":"Point","coordinates":[-94.78967446586267,29.52431813610567]},"properties":{"substrate":"Mud","lease_number":null,"poll_year":2025}},{"type":"Feature","id":"49b75dee-f935-4b64-b670-3e8a805147d1","geometry":{"type":"Point","coordinates":[-94.78956502680657,29.52536675437804]},"properties":{"substrate":"Mud","lease_number":null,"poll_year":2025}},{"type":"Feature","id":"49eba44f-3cbd-4079-ab49-f2bc3bb3aaa7","geometry":{"type":"Point","coordinates":[-94.78721568620021,29.534334414130047]},"properties":{"substrate":"Firm/Hard Bottom","lease_number":null,"poll_year":2024}},{"type":"Feature","id":"4b37b377-4f0c-4f5d-8590-543a50259057","geometry":{"type":"Point","coordinates":[-94.78387896684089,29.525921417306062]},"properties":{"substrate":"Mud","lease_number":null,"poll_year":2024}},{"type":"Feature","id":"4e72ffb3-7b66-4ce0-b1cb-19b6d3c69c1f","geometry":{"type":"Point","coordinates":[-94.78908875531428,29.52412973097285]},"properties":{"substrate":"Mud","lease_number":null,"poll_year":2025}},{"type":"Feature","id":"5208a0b7-c322-4e9b-952f-4026fd67b0e3","geometry":{"type":"Point","coordinates":[-94.7899868765623,29.524621765993345]},"properties":{"substrate":"Mud","lease_number":null,"poll_year":2025}},{"type":"Feature","id":"52f0d507-0933-4bd1-b53e-52b9b7d25eec","geometry":{"type":"Point","coordinates":[-94.78930298464492,29.524020037173518]},"properties":{"substrate":"Mud","lease_number":null,"poll_year":2025}},{"type":"Feature","id":"56428264-947f-4df8-9476-2c4abc2a32c8","geometry":{"type":"Point","coordinates":[-94.78838643356055,29.528073200067833]},"properties":{"substrate":"Firm/Hard Bottom","lease_number":null,"poll_year":2024}},{"type":"Feature","id":"597e60a5-142b-4cfe-9e26-af0c83d86630","geometry":{"type":"Point","coordinates":[-94.78967777705282,29.525484979285242]},"properties":{"substrate":"Mud","lease_number":null,"poll_year":2025}},{"type":"Feature","id":"5aea54a6-0e45-418a-bab0-f6dabf25d107","geometry":{"type":"Point","coordinates":[-94.78884256662077,29.528614600262806]},"properties":{"substrate":"Firm/Hard Bottom","lease_number":null,"poll_year":2024}},{"type":"Feature","id":"5b19dba0-6400-414c-8aa6-356aafd57b99","geometry":{"type":"Point","coordinates":[-94.78915219523796,29.523921532848565]},"properties":{"substrate":"Mud","lease_number":null,"poll_year":2025}},{"type":"Feature","id":"5b1eadf4-1045-4847-b4ad-56a6f662bf1e","geometry":{"type":"Point","coordinates":[-94.78637099944024,29.53518087417347]},"properties":{"substrate":"Firm/Hard Bottom","lease_number":null,"poll_year":2024}},{"type":"Feature","id":"5c394a87-f83c-4815-a215-cb1751823d14","geometry":{"type":"Point","coordinates":[-94.78958897858698,29.524931082337382]},"properties":{"substrate":"Mud","lease_number":null,"poll_year":2025}},{"type":"Feature","id":"5de54940-9421-4d3f-ad4d-bbe2acfab570","geometry":{"type":"Point","coordinates":[-94.78939284941099,29.52472540828825]},"properties":{"substrate":"Mud","lease_number":null,"poll_year":2025}},{"type":"Feature","id":"5fe066e0-5f56-4a78-aa33-0514f0b62045","geometry":{"type":"Point","coordinates":[-94.78939448344649,29.533526783675406]},"properties":{"substrate":"Firm/Hard Bottom","lease_number":null,"poll_year":2024}},{"type":"Feature","id":"60912a9a-d617-45e8-806f-418cfec87500","geometry":{"type":"Point","coordinates":[-94.78858894975819,29.52833630030029]},"properties":{"substrate":"Firm/Hard Bottom","lease_number":null,"poll_year":2024}},{"type":"Feature","id":"617cad87-0337-414d-9b27-5662e6cde070","geometry":{"type":"Point","coordinates":[-94.7884631667538,29.528153499949]},"properties":{"substrate":"Firm/Hard Bottom","lease_number":null,"poll_year":2024}},{"type":"Feature","id":"62331107-c6bf-4090-a451-687c1b0386b3","geometry":{"type":"Point","coordinates":[-94.78891923333869,29.532918115638136]},"properties":{"substrate":"Firm/Hard Bottom","lease_number":null,"poll_year":2024}},{"type":"Feature","id":"67bbddba-dac8-4e9a-aa58-a0d038da5b49","geometry":{"type":"Point","coordinates":[-94.7879806124444,29.534291886321938]},"properties":{"substrate":"Firm/Hard Bottom","lease_number":null,"poll_year":2024}},{"type":"Feature","id":"6db7c8b6-d071-44e3-a301-9c7aa3844ff6","geometry":{"type":"Point","coordinates":[-94.78431244977953,29.52522456679708]},"properties":{"substrate":"Mud","lease_number":null,"poll_year":2024}},{"type":"Feature","id":"6e84c63a-6330-4894-87b9-4906dcc794cf","geometry":{"type":"Point","coordinates":[-94.78936815023226,29.533442649644698]},"properties":{"substrate":"Firm/Hard Bottom","lease_number":null,"poll_year":2024}},{"type":"Feature","id":"7099b486-804c-428b-9052-9a2bd29b622d","geometry":{"type":"Point","coordinates":[-94.78301561668255,29.529016034351898]},"properties":{"substrate":"Firm/Hard Bottom","lease_number":null,"poll_year":2024}},{"type":"Feature","id":"726107cc-1a62-4b5f-af20-a164455546bd","geometry":{"type":"Point","coordinates":[-94.78282078377553,29.528332132622637]},"properties":{"substrate":"Firm/Hard Bottom","lease_number":null,"poll_year":2024}},{"type":"Feature","id":"729b9d3f-2702-4f15-921f-d5ad9a5b77ed","geometry":{"type":"Point","coordinates":[-94.78902581934547,29.524295747625434]},"properties":{"substrate":"Mud","lease_number":null,"poll_year":2025}},{"type":"Feature","id":"735d4315-b702-4e45-8da9-a4018a0d7f2c","geometry":{"type":"Point","coordinates":[-94.78369426693025,29.526748866970607]},"properties":{"substrate":"Mud","lease_number":null,"poll_year":2024}},{"type":"Feature","id":"73f4bd7c-6609-42dc-83da-a03734561794","geometry":{"type":"Point","coordinates":[-94.7872742662382,29.527277749986368]},"properties":{"substrate":"Mud","lease_number":null,"poll_year":2024}},{"type":"Feature","id":"751bc46a-6666-4cd7-93e5-0310b31b31df","geometry":{"type":"Point","coordinates":[-94.78972201638562,29.533095000059483]},"properties":{"substrate":"Firm/Hard Bottom","lease_number":null,"poll_year":2024}},{"type":"Feature","id":"75f51f15-b670-4c1b-8d10-cbf348fdeed2","geometry":{"type":"Point","coordinates":[-94.78677998442278,29.527002966876196]},"properties":{"substrate":"Buried Shell","lease_number":null,"poll_year":2024}},{"type":"Feature","id":"7663e44c-c5b7-4f2b-be03-635687d3167b","geometry":{"type":"Point","coordinates":[-94.78929418295178,29.533197266659016]},"properties":{"substrate":"Firm/Hard Bottom","lease_number":null,"poll_year":2024}},{"type":"Feature","id":"77e5fa17-65b1-4834-9abe-f52419a4cc35","geometry":{"type":"Point","coordinates":[-94.7897269993405,29.524641931350455]},"properties":{"substrate":"Mud","lease_number":null,"poll_year":2025}},{"type":"Feature","id":"7b62f604-fbf5-46b3-b07e-3965c9d05600","geometry":{"type":"Point","coordinates":[-94.78953037070121,29.524500213312905]},"properties":{"substrate":"Mud","lease_number":null,"poll_year":2025}},{"type":"Feature","id":"7d5e54a7-bcb8-4417-b488-7dd2d0ecd5d5","geometry":{"type":"Point","coordinates":[-94.78426466659295,29.52506718432451]},"properties":{"substrate":"Mud","lease_number":null,"poll_year":2024}},{"type":"Feature","id":"7e9838ee-6299-4c35-a5fc-9023913cbf8d","geometry":{"type":"Point","coordinates":[-94.78867401662234,29.528443917307417]},"properties":{"substrate":"Firm/Hard Bottom","lease_number":null,"poll_year":2024}},{"type":"Feature","id":"855ebc62-c54a-4479-bf83-a13b1e5329ac","geometry":{"type":"Point","coordinates":[-94.78898516159573,29.52502176516568]},"properties":{"substrate":"Mud","lease_number":null,"poll_year":2025}},{"type":"Feature","id":"879d6a11-040c-4200-86b0-54881c754e0e","geometry":{"type":"Point","coordinates":[-94.78633618343474,29.526655049718983]},"properties":{"substrate":"Mud","lease_number":null,"poll_year":2024}},{"type":"Feature","id":"8bdc328a-809f-4f8f-9568-7ba2ccd09237","geometry":{"type":"Point","coordinates":[-94.789493999712,29.529303433715068]},"properties":{"substrate":"Firm/Hard Bottom","lease_number":null,"poll_year":2024}},{"type":"Feature","id":"8edc91df-6d59-4015-9b36-ab36ea3ceed9","geometry":{"type":"Point","coordinates":[-94.78799467377355,29.534380021378098]},"properties":{"substrate":"Firm/Hard Bottom","lease_number":null,"poll_year":2024}},{"type":"Feature","id":"9047f235-bc6e-4a78-9e85-b9e01c9b2d49","geometry":{"type":"Point","coordinates":[-94.78325846633814,29.528582315696138]},"properties":{"substrate":"Firm/Hard Bottom","lease_number":null,"poll_year":2024}},{"type":"Feature","id":"90c5668a-4d44-4d99-8305-8a08b85f1361","geometry":{"type":"Point","coordinates":[-94.784574833301,29.525059933644034]},"properties":{"substrate":"Firm/Hard Bottom","lease_number":null,"poll_year":2024}},{"type":"Feature","id":"91a9645e-45f2-4f93-88a6-8d7e5f81f024","geometry":{"type":"Point","coordinates":[-94.78930022861363,29.52428356692066]},"properties":{"substrate":"Mud","lease_number":null,"poll_year":2025}},{"type":"Feature","id":"92a3c8c6-9e89-46df-8974-baac669ccd70","geometry":{"type":"Point","coordinates":[-94.78882959943965,29.524854420879247]},"properties":{"substrate":"Mud","lease_number":null,"poll_year":2025}},{"type":"Feature","id":"92df22e8-2e05-4626-a6f7-1378c187b2e3","geometry":{"type":"Point","coordinates":[-94.78660073369267,29.526890732715813]},"properties":{"substrate":"Buried Shell","lease_number":null,"poll_year":2024}},{"type":"Feature","id":"94ccea90-4e3d-4c09-bfc3-24c952cb7741","geometry":{"type":"Point","coordinates":[-94.78933991708121,29.533354183156426]},"properties":{"substrate":"Firm/Hard Bottom","lease_number":null,"poll_year":2024}},{"type":"Feature","id":"94eb533d-53c0-4043-8d34-9d1ba99b033b","geometry":{"type":"Point","coordinates":[-94.78916858320368,29.532665149845446]},"properties":{"substrate":"Firm/Hard Bottom","lease_number":null,"poll_year":2024}},{"type":"Feature","id":"99d3218c-6d80-44c4-ac64-e5d31ea83088","geometry":{"type":"Point","coordinates":[-94.78884980614366,29.52456789371958]},"properties":{"substrate":"Mud","lease_number":null,"poll_year":2025}},{"type":"Feature","id":"9cacef64-7818-4e29-95df-7bf2aa328461","geometry":{"type":"Point","coordinates":[-94.78486848358422,29.52530470010135]},"properties":{"substrate":"Mud","lease_number":null,"poll_year":2024}},{"type":"Feature","id":"9d5405ef-70d3-4751-bb7b-7049f4578fea","geometry":{"type":"Point","coordinates":[-94.78838070141072,29.534031635630164]},"properties":{"substrate":"Firm/Hard Bottom","lease_number":null,"poll_year":2024}},{"type":"Feature","id":"9d8e1c86-78db-4b20-8420-637168e0f4b2","geometry":{"type":"Point","coordinates":[-94.78538450013792,29.525736934377456]},"properties":{"substrate":"Mud","lease_number":null,"poll_year":2024}},{"type":"Feature","id":"9f0d0151-1d33-4468-a715-3894f09a5c36","geometry":{"type":"Point","coordinates":[-94.78956510226504,29.524220347296055]},"properties":{"substrate":"Mud","lease_number":null,"poll_year":2025}},{"type":"Feature","id":"a281394f-2d3a-4b94-9b78-61f609d476ff","geometry":{"type":"Point","coordinates":[-94.78951832788651,29.523753846715636]},"properties":{"substrate":"Mud","lease_number":null,"poll_year":2025}},{"type":"Feature","id":"a3220582-140e-4026-8b64-460753026a60","geometry":{"type":"Point","coordinates":[-94.789269717335,29.52371679709687]},"properties":{"substrate":"Mud","lease_number":null,"poll_year":2025}},{"type":"Feature","id":"a730f5b1-f310-464e-af50-bd6d7cc614d2","geometry":{"type":"Point","coordinates":[-94.78975806667628,29.533365432669644]},"properties":{"substrate":"Firm/Hard Bottom","lease_number":null,"poll_year":2024}},{"type":"Feature","id":"a7e326c0-3d4b-44ac-9f1e-93acec61c35a","geometry":{"type":"Point","coordinates":[-94.7885937000494,29.53376777878027]},"properties":{"substrate":"Buried Shell","lease_number":null,"poll_year":2024}},{"type":"Feature","id":"a8736076-a815-4702-8f1e-2fbe77059916","geometry":{"type":"Point","coordinates":[-94.78314964981453,29.528510167031055]},"properties":{"substrate":"Firm/Hard Bottom","lease_number":null,"poll_year":2024}},{"type":"Feature","id":"a9e085c3-31d7-4f01-b884-3f1868f31d43","geometry":{"type":"Point","coordinates":[-94.789961873753,29.524103478667715]},"properties":{"substrate":"Mud","lease_number":null,"poll_year":2025}},{"type":"Feature","id":"aa380e64-e05f-4f13-bb4f-2d8cad7e31e0","geometry":{"type":"Point","coordinates":[-94.78294091637679,29.528845834340235]},"properties":{"substrate":"Firm/Hard Bottom","lease_number":null,"poll_year":2024}},{"type":"Feature","id":"abe96349-54f5-4ceb-8c26-d633b75d177d","geometry":{"type":"Point","coordinates":[-94.78796612441552,29.534219475207628]},"properties":{"substrate":"Firm/Hard Bottom","lease_number":null,"poll_year":2024}},{"type":"Feature","id":"ac636ea3-7d29-4cf2-850c-6ea84d8c11c4","geometry":{"type":"Point","coordinates":[-94.78967351634343,29.524114093714054]},"properties":{"substrate":"Mud","lease_number":null,"poll_year":2025}},{"type":"Feature","id":"ac94c1c3-e5f2-4031-ae80-0f3ecc6e6e53","geometry":{"type":"Point","coordinates":[-94.78755583058759,29.5341766589445]},"properties":{"substrate":"Firm/Hard Bottom","lease_number":null,"poll_year":2024}},{"type":"Feature","id":"ad9235f9-6aa9-4a88-9f72-876ae8f96032","geometry":{"type":"Point","coordinates":[-94.78427736697444,29.525168449918457]},"properties":{"substrate":"Mud","lease_number":null,"poll_year":2024}},{"type":"Feature","id":"b08bf48c-d200-4103-b824-d8d187cbe2f5","geometry":{"type":"Point","coordinates":[-94.78835386424159,29.533916540826773]},"properties":{"substrate":"Firm/Hard Bottom","lease_number":null,"poll_year":2024}},{"type":"Feature","id":"b0abcba2-62a4-4d6e-aa49-cd4d4f58ab46","geometry":{"type":"Point","coordinates":[-94.7889204667256,29.528696866300734]},"properties":{"substrate":"Firm/Hard Bottom","lease_number":null,"poll_year":2024}},{"type":"Feature","id":"b1549aa7-2a87-48d9-868a-0e359ad154fb","geometry":{"type":"Point","coordinates":[-94.7876949670487,29.52762285031467]},"properties":{"substrate":"Mud","lease_number":null,"poll_year":2024}},{"type":"Feature","id":"b315a9dd-8352-428a-9c45-7ead466fdb57","geometry":{"type":"Point","coordinates":[-94.78300966624212,29.528440384321108]},"properties":{"substrate":"Firm/Hard Bottom","lease_number":null,"poll_year":2024}},{"type":"Feature","id":"b6b023b9-4599-4483-9fac-fe6bd52346c3","geometry":{"type":"Point","coordinates":[-94.78398299983562,29.526274016730458]},"properties":{"substrate":"Mud","lease_number":null,"poll_year":2024}},{"type":"Feature","id":"b99d1f64-6cd1-456b-a6ff-d83139aa12a9","geometry":{"type":"Point","coordinates":[-94.78845385481756,29.524149707264534]},"properties":{"substrate":"Mud","lease_number":null,"poll_year":2025}},{"type":"Feature","id":"b9c95b4e-5802-4cd9-8d3a-553e9e50d17e","geometry":{"type":"Point","coordinates":[-94.7829628164051,29.52893940022]},"properties":{"substrate":"Firm/Hard Bottom","lease_number":null,"poll_year":2024}},{"type":"Feature","id":"bab92cc5-ca12-4afb-9273-2c9ca190aba5","geometry":{"type":"Point","coordinates":[-94.78761400189212,29.53449928307764]},"properties":{"substrate":"Firm/Hard Bottom","lease_number":null,"poll_year":2024}},{"type":"Feature","id":"bb99360a-56cc-48b6-b52e-b7f8efef0374","geometry":{"type":"Point","coordinates":[-94.78515399962254,29.5255354336681]},"properties":{"substrate":"Mud","lease_number":null,"poll_year":2024}},{"type":"Feature","id":"bbd84160-8401-4407-a39b-697c625d19c1","geometry":{"type":"Point","coordinates":[-94.78646008357032,29.526777683173087]},"properties":{"substrate":"Mud","lease_number":null,"poll_year":2024}},{"type":"Feature","id":"bc3d8ecd-00e7-4cb6-9078-c1e0dc07daa3","geometry":{"type":"Point","coordinates":[-94.78690310122742,29.534641363049253]},"properties":{"substrate":"Firm/Hard Bottom","lease_number":null,"poll_year":2024}},{"type":"Feature","id":"bdbed364-60e0-4cce-a85f-07d99e2a4918","geometry":{"type":"Point","coordinates":[-94.78943005583345,29.525224225212135]},"properties":{"substrate":"Mud","lease_number":null,"poll_year":2025}},{"type":"Feature","id":"be0c6e1d-eba5-4453-a69c-d0e6cb48c965","geometry":{"type":"Point","coordinates":[-94.78941071959694,29.523661478249714]},"properties":{"substrate":"Mud","lease_number":null,"poll_year":2025}},{"type":"Feature","id":"beefa4bf-0af2-4b83-806c-8a7aa908c1ea","geometry":{"type":"Point","coordinates":[-94.78988206742316,29.52972169969504]},"properties":{"substrate":"Solid Reef","lease_number":null,"poll_year":2024}},{"type":"Feature","id":"bf6351e0-5ade-438e-99a5-744538463795","geometry":{"type":"Point","coordinates":[-94.7895699666423,29.5293915832796]},"properties":{"substrate":"Firm/Hard Bottom","lease_number":null,"poll_year":2024}},{"type":"Feature","id":"bfbe86c5-d629-40cf-b003-5c285c0f399e","geometry":{"type":"Point","coordinates":[-94.78308185036678,29.529103034390573]},"properties":{"substrate":"Firm/Hard Bottom","lease_number":null,"poll_year":2024}},{"type":"Feature","id":"c09318c5-686b-4b18-875c-45eb6f14caa9","geometry":{"type":"Point","coordinates":[-94.78399618440903,29.525945284314794]},"properties":{"substrate":"Mud","lease_number":null,"poll_year":2024}},{"type":"Feature","id":"c0d41adf-5987-4167-9f79-70b8e34cf70d","geometry":{"type":"Point","coordinates":[-94.78887869057328,29.523950819639353]},"properties":{"substrate":"Mud","lease_number":null,"poll_year":2025}},{"type":"Feature","id":"c2197111-ec3b-4786-95d3-10355d335ee2","geometry":{"type":"Point","coordinates":[-94.78951794520422,29.52348042821399]},"properties":{"substrate":"Mud","lease_number":null,"poll_year":2025}},{"type":"Feature","id":"c60309fc-d2aa-4e60-9f6f-2459fb0133f2","geometry":{"type":"Point","coordinates":[-94.78644833180977,29.535153080329874]},"properties":{"substrate":"Firm/Hard Bottom","lease_number":null,"poll_year":2024}},{"type":"Feature","id":"c6cb9fe9-9655-4dd6-aab8-b9667029f89f","geometry":{"type":"Point","coordinates":[-94.78574703323714,29.526036099896576]},"properties":{"substrate":"Mud","lease_number":null,"poll_year":2024}},{"type":"Feature","id":"c77094c3-0a60-4a26-ac39-56dd3fdb9c92","geometry":{"type":"Point","coordinates":[-94.78823714973,29.527983300049332]},"properties":{"substrate":"Firm/Hard Bottom","lease_number":null,"poll_year":2024}},{"type":"Feature","id":"c96610b5-c983-419d-a917-5824393cafe0","geometry":{"type":"Point","coordinates":[-94.78587080042205,29.526163915670562]},"properties":{"substrate":"Mud","lease_number":null,"poll_year":2024}},{"type":"Feature","id":"ca83831c-1006-460b-9b6d-fc2469b72503","geometry":{"type":"Point","coordinates":[-94.78975448329662,29.533246100070745]},"properties":{"substrate":"Firm/Hard Bottom","lease_number":null,"poll_year":2024}},{"type":"Feature","id":"ccf3732e-ee0e-4608-b8c2-412705deb20d","geometry":{"type":"Point","coordinates":[-94.78889124991929,29.533406833024657]},"properties":{"substrate":"Firm/Hard Bottom","lease_number":null,"poll_year":2024}},{"type":"Feature","id":"ce0f9ddb-7379-4e4b-8b2c-01d5ce5c92e2","geometry":{"type":"Point","coordinates":[-94.78942591729493,29.52410912230811]},"properties":{"substrate":"Mud","lease_number":null,"poll_year":2025}},{"type":"Feature","id":"d147a7fb-d2c4-4099-a3d9-ca50cf29ec62","geometry":{"type":"Point","coordinates":[-94.78927052312382,29.52450429672868]},"properties":{"substrate":"Mud","lease_number":null,"poll_year":2025}},{"type":"Feature","id":"d1f9b158-ade2-4b6a-906a-621d9a492668","geometry":{"type":"Point","coordinates":[-94.78894335220576,29.523702008668756]},"properties":{"substrate":"Mud","lease_number":null,"poll_year":2025}},{"type":"Feature","id":"d230ed2b-4acc-4501-a622-1dc7be0724dd","geometry":{"type":"Point","coordinates":[-94.79002916026272,29.52334044230139]},"properties":{"substrate":"Mud","lease_number":null,"poll_year":2025}},{"type":"Feature","id":"d2d4a8d2-a7d0-47cb-9839-3fd3c7a83b22","geometry":{"type":"Point","coordinates":[-94.7898657477294,29.523705452710093]},"properties":{"substrate":"Mud","lease_number":null,"poll_year":2025}},{"type":"Feature","id":"d313097c-5d02-4d08-a109-7b31a95e27c7","geometry":{"type":"Point","coordinates":[-94.78291418341225,29.52867774992091]},"properties":{"substrate":"Firm/Hard Bottom","lease_number":null,"poll_year":2024}},{"type":"Feature","id":"d500b230-c17f-46c5-a8cc-f436c7c2daac","geometry":{"type":"Point","coordinates":[-94.78996780532881,29.52523242872303]},"properties":{"substrate":"Mud","lease_number":null,"poll_year":2025}},{"type":"Feature","id":"d9708bd3-0428-45ed-88b4-ea31c276b8ef","geometry":{"type":"Point","coordinates":[-94.78864371285455,29.5243638377617]},"properties":{"substrate":"Mud","lease_number":null,"poll_year":2025}},{"type":"Feature","id":"dd124142-2f6d-460c-81b3-4d32dfeaa762","geometry":{"type":"Point","coordinates":[-94.78793451629393,29.527771050021162]},"properties":{"substrate":"Mud","lease_number":null,"poll_year":2024}},{"type":"Feature","id":"dd3260ad-0fb0-4e09-8add-1cdfe6c7abfc","geometry":{"type":"Point","coordinates":[-94.78940904962883,29.53359963297851]},"properties":{"substrate":"Firm/Hard Bottom","lease_number":null,"poll_year":2024}},{"type":"Feature","id":"df0c95bb-09e3-4374-ac13-738b2f10520a","geometry":{"type":"Point","coordinates":[-94.78408445017392,29.530376650237784]},"properties":{"substrate":"Buried Shell","lease_number":null,"poll_year":2024}},{"type":"Feature","id":"e06e164f-423e-41c0-947c-9c37388d3e5e","geometry":{"type":"Point","coordinates":[-94.78859936662221,29.52458867582022]},"properties":{"substrate":"Mud","lease_number":null,"poll_year":2025}},{"type":"Feature","id":"e1c0bb9b-09f1-4e5c-8a3b-e637daab19d0","geometry":{"type":"Point","coordinates":[-94.78969584127486,29.52355512402676]},"properties":{"substrate":"Mud","lease_number":null,"poll_year":2025}},{"type":"Feature","id":"e21834de-0399-4c7b-815a-fb3d0e4e8ec9","geometry":{"type":"Point","coordinates":[-94.78933903313896,29.529140065622524]},"properties":{"substrate":"Mud","lease_number":null,"poll_year":2024}},{"type":"Feature","id":"e4009e7c-c289-495f-bc6e-7076f3caefe1","geometry":{"type":"Point","coordinates":[-94.78871625271205,29.524065983626272]},"properties":{"substrate":"Mud","lease_number":null,"poll_year":2025}},{"type":"Feature","id":"e637c0d6-293f-4863-95a9-627cc7ce1383","geometry":{"type":"Point","coordinates":[-94.78737706943932,29.5346558966442]},"properties":{"substrate":"Firm/Hard Bottom","lease_number":null,"poll_year":2024}},{"type":"Feature","id":"e63b82a3-e792-4f5e-a385-5c0fe7f6d7e6","geometry":{"type":"Point","coordinates":[-94.78497973364395,29.52540021636567]},"properties":{"substrate":"Firm/Hard Bottom","lease_number":null,"poll_year":2024}},{"type":"Feature","id":"eac0c3ec-5747-48fa-b964-62d837be0f75","geometry":{"type":"Point","coordinates":[-94.7891035963811,29.52361891234212]},"properties":{"substrate":"Mud","lease_number":null,"poll_year":2025}},{"type":"Feature","id":"eadf98bb-98af-4c1f-b8ee-ee9699648332","geometry":{"type":"Point","coordinates":[-94.7883113595556,29.52405571172713]},"properties":{"substrate":"Mud","lease_number":null,"poll_year":2025}},{"type":"Feature","id":"eb523ecc-0888-4014-b2d4-0ead1f79df93","geometry":{"type":"Point","coordinates":[-94.78986669455371,29.525130613686347]},"properties":{"substrate":"Mud","lease_number":null,"poll_year":2025}},{"type":"Feature","id":"ecafcb47-9c35-4127-aae7-d99736379464","geometry":{"type":"Point","coordinates":[-94.78472883328678,29.52517581627667]},"properties":{"substrate":"Firm/Hard Bottom","lease_number":null,"poll_year":2024}},{"type":"Feature","id":"edbe4bad-2f03-4f1a-89a6-f6473393f7b6","geometry":{"type":"Point","coordinates":[-94.78917465671333,29.52493233065042]},"properties":{"substrate":"Mud","lease_number":null,"poll_year":2025}},{"type":"Feature","id":"eebc4bea-9b80-4b2f-8433-ca4eb9090953","geometry":{"type":"Point","coordinates":[-94.7883332002951,29.53380340925341]},"properties":{"substrate":"Firm/Hard Bottom","lease_number":null,"poll_year":2024}},{"type":"Feature","id":"ef46a22e-f919-450d-a203-d927fad0c2ce","geometry":{"type":"Point","coordinates":[-94.78990989633235,29.523561307833]},"properties":{"substrate":"Mud","lease_number":null,"poll_year":2025}},{"type":"Feature","id":"efdc50b6-ce2f-43dd-956e-4be2efd4f06d","geometry":{"type":"Point","coordinates":[-94.78865031098029,29.53399555582251]},"properties":{"substrate":"Buried Shell","lease_number":null,"poll_year":2024}},{"type":"Feature","id":"efe2a2f0-a3c7-4e62-a39d-44cb2001d768","geometry":{"type":"Point","coordinates":[-94.78754890008517,29.52751543331586]},"properties":{"substrate":"Mud","lease_number":null,"poll_year":2024}},{"type":"Feature","id":"f0291e93-0689-440c-838a-d8ded1828306","geometry":{"type":"Point","coordinates":[-94.7898513962444,29.52332201200052]},"properties":{"substrate":"Mud","lease_number":null,"poll_year":2025}},{"type":"Feature","id":"f1af6418-2a85-41a6-9a60-74b80adee84b","geometry":{"type":"Point","coordinates":[-94.78902015007772,29.533612599626874]},"properties":{"substrate":"Firm/Hard Bottom","lease_number":null,"poll_year":2024}},{"type":"Feature","id":"f1b95f8b-d1fa-42bf-b40d-c967d6682b4c","geometry":{"type":"Point","coordinates":[-94.78837099601236,29.53369634897219]},"properties":{"substrate":"Firm/Hard Bottom","lease_number":null,"poll_year":2024}},{"type":"Feature","id":"f29cf9ed-06e8-4658-ac9a-75a58bd1534d","geometry":{"type":"Point","coordinates":[-94.78964570001067,29.529478532971105]},"properties":{"substrate":"Firm/Hard Bottom","lease_number":null,"poll_year":2024}},{"type":"Feature","id":"f3f3e960-6e90-442e-86b0-5ee4133e9e07","geometry":{"type":"Point","coordinates":[-94.78902592893994,29.524759434066794]},"properties":{"substrate":"Mud","lease_number":null,"poll_year":2025}},{"type":"Feature","id":"f7b58a32-847f-4d24-9a2f-f03ad8169cf7","geometry":{"type":"Point","coordinates":[-94.78524176682244,29.525612733223063]},"properties":{"substrate":"Mud","lease_number":null,"poll_year":2024}},{"type":"Feature","id":"f8d6818b-c245-4c19-92e9-a263b55f9c61","geometry":{"type":"Point","coordinates":[-94.78982676084607,29.52398988431398]},"properties":{"substrate":"Mud","lease_number":null,"poll_year":2025}},{"type":"Feature","id":"f908795a-87f5-4831-a571-b7480a3c9642","geometry":{"type":"Point","coordinates":[-94.78717058358643,29.52722411674662]},"properties":{"substrate":"Mud","lease_number":null,"poll_year":2024}},{"type":"Feature","id":"f944192e-97ea-45a8-81c5-4359f7050883","geometry":{"type":"Point","coordinates":[-94.78906786678898,29.533721815631182]},"properties":{"substrate":"Firm/Hard Bottom","lease_number":null,"poll_year":2024}},{"type":"Feature","id":"fa967f69-db6c-4b67-b875-0dcd3e7fff12","geometry":{"type":"Point","coordinates":[-94.78822495330338,29.524228193666737]},"properties":{"substrate":"Mud","lease_number":null,"poll_year":2025}},{"type":"Feature","id":"fc6bb8ca-0055-406f-8f43-61ef3acd2d6f","geometry":{"type":"Point","coordinates":[-94.78694780588754,29.53488530363425]},"properties":{"substrate":"Firm/Hard Bottom","lease_number":null,"poll_year":2024}},{"type":"Feature","id":"fdb209c5-41a5-4fc3-ae33-e2f27382d1c8","geometry":{"type":"Point","coordinates":[-94.7869241541444,29.53476543119016]},"properties":{"substrate":"Firm/Hard Bottom","lease_number":null,"poll_year":2024}},{"type":"Feature","id":"ff401345-9786-4892-9322-858bc7b3959e","geometry":{"type":"Point","coordinates":[-94.78376993292495,29.526827967293876]},"properties":{"substrate":"Mud","lease_number":null,"poll_year":2024}}]}