{"type":"FeatureCollection","features":[{"type":"Feature","id":"0079812e-32b2-4215-a20a-6961d2fde61f","geometry":{"type":"Point","coordinates":[-94.749845463157,29.51076140886303]},"properties":{"substrate":"Mud","lease_number":null,"poll_year":2024}},{"type":"Feature","id":"0941eab9-03bd-40b7-a622-8637b4bce989","geometry":{"type":"Point","coordinates":[-94.74916280372818,29.510723446851195]},"properties":{"substrate":"Mud","lease_number":null,"poll_year":2024}},{"type":"Feature","id":"0ab46a7f-20dc-4f99-9a81-d7a7a105eefd","geometry":{"type":"Point","coordinates":[-94.75027396763237,29.510817621289757]},"properties":{"substrate":"Mud","lease_number":null,"poll_year":2024}},{"type":"Feature","id":"0d4eb1de-6300-421c-a08d-e0513dcc8158","geometry":{"type":"Point","coordinates":[-94.75070173459088,29.51083878224583]},"properties":{"substrate":"Mud","lease_number":null,"poll_year":2024}},{"type":"Feature","id":"1775fd91-b647-47c1-929c-65b6595ac9c7","geometry":{"type":"Point","coordinates":[-94.74825278070098,29.510575940624033]},"properties":{"substrate":"Mud","lease_number":null,"poll_year":2024}},{"type":"Feature","id":"25baf27f-382a-43b3-baf3-7fa49d6b2c1e","geometry":{"type":"Point","coordinates":[-94.75089902798348,29.51086125422576]},"properties":{"substrate":"Mud","lease_number":null,"poll_year":2024}},{"type":"Feature","id":"2d3f9ecc-ffbb-4a38-94b9-7ff88a2a2635","geometry":{"type":"Point","coordinates":[-94.75129179388357,29.510883201633092]},"properties":{"substrate":"Mud","lease_number":null,"poll_year":2024}},{"type":"Feature","id":"38763a61-0445-4075-af8f-2ad3da1749e4","geometry":{"type":"Point","coordinates":[-94.75005454334445,29.510845621170724]},"properties":{"substrate":"Mud","lease_number":null,"poll_year":2024}},{"type":"Feature","id":"3c5df48d-1a4a-4f9a-beff-c2153722e3b8","geometry":{"type":"Point","coordinates":[-94.74736057665574,29.510434092656933]},"properties":{"substrate":"Mud","lease_number":null,"poll_year":2024}},{"type":"Feature","id":"49f43ca3-a6ed-4411-9cb9-d682ad9db2a9","geometry":{"type":"Point","coordinates":[-94.74893618213821,29.51068827965749]},"properties":{"substrate":"Mud","lease_number":null,"poll_year":2024}},{"type":"Feature","id":"64d144ed-e240-4276-b620-3a53180626ff","geometry":{"type":"Point","coordinates":[-94.74965083237092,29.510742727668003]},"properties":{"substrate":"Mud","lease_number":null,"poll_year":2024}},{"type":"Feature","id":"7d3d24f6-c79b-4c31-85fc-a772fef7a9f6","geometry":{"type":"Point","coordinates":[-94.75023052420691,29.51072798815894]},"properties":{"substrate":"Mud","lease_number":null,"poll_year":2024}},{"type":"Feature","id":"7eb06394-93ff-4925-85ae-e1817e42c375","geometry":{"type":"Point","coordinates":[-94.75140757504559,29.51097231084122]},"properties":{"substrate":"Mud","lease_number":null,"poll_year":2024}},{"type":"Feature","id":"933e85ce-3a47-4627-9939-86d47bb25c84","geometry":{"type":"Point","coordinates":[-94.75021551515513,29.51083274385318]},"properties":{"substrate":"Mud","lease_number":null,"poll_year":2024}},{"type":"Feature","id":"970a653a-98c6-4855-b453-1a0a0cc41d59","geometry":{"type":"Point","coordinates":[-94.75060452789398,29.510864721375434]},"properties":{"substrate":"Mud","lease_number":null,"poll_year":2024}},{"type":"Feature","id":"a9a75f74-b7a7-41b9-9af5-3d99b0dda802","geometry":{"type":"Point","coordinates":[-94.74844444255505,29.510600414780285]},"properties":{"substrate":"Mud","lease_number":null,"poll_year":2024}},{"type":"Feature","id":"ab405329-2f7f-4263-a15a-3eaaed62f161","geometry":{"type":"Point","coordinates":[-94.74764768900032,29.510507577752712]},"properties":{"substrate":"Mud","lease_number":null,"poll_year":2024}},{"type":"Feature","id":"af989b7b-b1f3-47c7-9617-de5387e7be67","geometry":{"type":"Point","coordinates":[-94.74783325488688,29.51055297528246]},"properties":{"substrate":"Mud","lease_number":null,"poll_year":2024}},{"type":"Feature","id":"b442b8b0-5657-48fd-a1b4-572abd22fb8b","geometry":{"type":"Point","coordinates":[-94.75109806680265,29.51088492309017]},"properties":{"substrate":"Mud","lease_number":null,"poll_year":2024}},{"type":"Feature","id":"bb609b97-cab8-4d33-9f89-3615995cc3fb","geometry":{"type":"Point","coordinates":[-94.75085169395452,29.510948710011167]},"properties":{"substrate":"Mud","lease_number":null,"poll_year":2024}},{"type":"Feature","id":"bc6e29cf-6558-4895-80d1-239e302f8cfb","geometry":{"type":"Point","coordinates":[-94.74802612228007,29.510562332315146]},"properties":{"substrate":"Mud","lease_number":null,"poll_year":2024}},{"type":"Feature","id":"c1541c47-7a8e-4898-be26-f0f4ae65625b","geometry":{"type":"Point","coordinates":[-94.75122888216927,29.51095381183735]},"properties":{"substrate":"Mud","lease_number":null,"poll_year":2024}},{"type":"Feature","id":"ca2bb2c7-6e2c-4756-96dd-2945c62817a6","geometry":{"type":"Point","coordinates":[-94.74939247509856,29.51074564367333]},"properties":{"substrate":"Mud","lease_number":null,"poll_year":2024}},{"type":"Feature","id":"cdfb4c6b-e672-4758-b040-581fe747c386","geometry":{"type":"Point","coordinates":[-94.75004217893287,29.51078938374287]},"properties":{"substrate":"Mud","lease_number":null,"poll_year":2024}},{"type":"Feature","id":"ceaeb3c0-3891-4b7d-b59e-46d7d20aebe5","geometry":{"type":"Point","coordinates":[-94.75150373879843,29.511048639620125]},"properties":{"substrate":"Mud","lease_number":null,"poll_year":2024}},{"type":"Feature","id":"d7792a2f-d799-485a-95e4-e7974f6d2faf","geometry":{"type":"Point","coordinates":[-94.75043833507486,29.510906953359953]},"properties":{"substrate":"Mud","lease_number":null,"poll_year":2024}},{"type":"Feature","id":"e283c5c8-e44d-443d-b96d-a82ebca8d02d","geometry":{"type":"Point","coordinates":[-94.75151978540437,29.51087226780029]},"properties":{"substrate":"Mud","lease_number":null,"poll_year":2024}},{"type":"Feature","id":"e47427f7-7dbd-4797-85b0-ed9b90a3b1a8","geometry":{"type":"Point","coordinates":[-94.74870961175219,29.510643727283533]},"properties":{"substrate":"Mud","lease_number":null,"poll_year":2024}},{"type":"Feature","id":"ed33121f-b2b9-4742-bdc3-15b0f4865740","geometry":{"type":"Point","coordinates":[-94.75046864962242,29.510824159234513]},"properties":{"substrate":"Mud","lease_number":null,"poll_year":2024}},{"type":"Feature","id":"f71090ec-689d-4226-9ca7-9ee8eecee554","geometry":{"type":"Point","coordinates":[-94.7507044573845,29.510932980030223]},"properties":{"substrate":"Mud","lease_number":null,"poll_year":2024}}]}