{"type":"FeatureCollection","features":[{"type":"Feature","id":"004ebaa4-fac8-4c98-973d-d6669e36ff36","geometry":{"type":"Point","coordinates":[-94.7347424062887,29.517869049238673]},"properties":{"substrate":"Mud","lease_number":null,"poll_year":2024}},{"type":"Feature","id":"077a5909-8498-48df-a37e-c86a427df731","geometry":{"type":"Point","coordinates":[-94.73746762716279,29.519174943225075]},"properties":{"substrate":"Mud","lease_number":null,"poll_year":2024}},{"type":"Feature","id":"0ecc1a9c-c19b-4280-94d8-3d75df93d1e7","geometry":{"type":"Point","coordinates":[-94.73425008100398,29.518905091008268]},"properties":{"substrate":"Mud","lease_number":null,"poll_year":2024}},{"type":"Feature","id":"0fc734d6-b3f1-4590-9e54-e35b2cb0b78e","geometry":{"type":"Point","coordinates":[-94.73435485241389,29.518415897850588]},"properties":{"substrate":"Mud","lease_number":null,"poll_year":2024}},{"type":"Feature","id":"1f903e2a-18e5-4aa4-86fd-9ae4b54404e6","geometry":{"type":"Point","coordinates":[-94.73699843439493,29.518906499645773]},"properties":{"substrate":"Mud","lease_number":null,"poll_year":2024}},{"type":"Feature","id":"22a0c75e-0e0c-4bca-bc31-4cb1703ef616","geometry":{"type":"Point","coordinates":[-94.73434396662928,29.519309859292296]},"properties":{"substrate":"Mud","lease_number":null,"poll_year":2024}},{"type":"Feature","id":"25241446-56fc-4164-b57d-5662d00a5921","geometry":{"type":"Point","coordinates":[-94.73411340502847,29.519398156707933]},"properties":{"substrate":"Mud","lease_number":null,"poll_year":2024}},{"type":"Feature","id":"29ecf36e-d2a9-4397-8b28-7bb4154d5cd0","geometry":{"type":"Point","coordinates":[-94.73623397527466,29.51850219330287]},"properties":{"substrate":"Mud","lease_number":null,"poll_year":2024}},{"type":"Feature","id":"2c648489-a0ce-44fd-9ee3-0e9589b9fe64","geometry":{"type":"Point","coordinates":[-94.73397156823161,29.52064550082955]},"properties":{"substrate":"Mud","lease_number":null,"poll_year":2024}},{"type":"Feature","id":"2d761ff0-ef4e-49fb-ba82-e0bba38d66ab","geometry":{"type":"Point","coordinates":[-94.73430978213946,29.51942566096]},"properties":{"substrate":"Mud","lease_number":null,"poll_year":2024}},{"type":"Feature","id":"2f487cd8-a70a-41ff-b653-b20c19579f1b","geometry":{"type":"Point","coordinates":[-94.73407629742069,29.520316588314067]},"properties":{"substrate":"Mud","lease_number":null,"poll_year":2024}},{"type":"Feature","id":"2fe23f43-7a9e-4460-aa35-da36bb8de75c","geometry":{"type":"Point","coordinates":[-94.73415287340877,29.52001103503344]},"properties":{"substrate":"Mud","lease_number":null,"poll_year":2024}},{"type":"Feature","id":"30020c48-385f-4259-b374-1c73f2482ea4","geometry":{"type":"Point","coordinates":[-94.73419442408394,29.51903966973793]},"properties":{"substrate":"Mud","lease_number":null,"poll_year":2024}},{"type":"Feature","id":"3b8d70e3-0d4c-4a40-982b-6b39dec024bb","geometry":{"type":"Point","coordinates":[-94.73804340324243,29.51950040119648]},"properties":{"substrate":"Mud","lease_number":null,"poll_year":2024}},{"type":"Feature","id":"3f6906d8-e893-415c-b6a7-2d5cda692985","geometry":{"type":"Point","coordinates":[-94.73442270126898,29.519075493008497]},"properties":{"substrate":"Mud","lease_number":null,"poll_year":2024}},{"type":"Feature","id":"4636b965-7a4d-4632-b3f5-288fd3d07061","geometry":{"type":"Point","coordinates":[-94.73462722699793,29.51793741104648]},"properties":{"substrate":"Mud","lease_number":null,"poll_year":2024}},{"type":"Feature","id":"468d4eda-6760-49b3-918f-8562b2757514","geometry":{"type":"Point","coordinates":[-94.73578417443886,29.518247987622143]},"properties":{"substrate":"Mud","lease_number":null,"poll_year":2024}},{"type":"Feature","id":"4a7b5a86-9bb6-4faf-9bd3-7741835eddb9","geometry":{"type":"Point","coordinates":[-94.73437728604148,29.5191897776538]},"properties":{"substrate":"Mud","lease_number":null,"poll_year":2024}},{"type":"Feature","id":"4dc8d410-5bc0-4889-8276-ad352b29db8b","geometry":{"type":"Point","coordinates":[-94.73761855940187,29.51926230036728]},"properties":{"substrate":"Mud","lease_number":null,"poll_year":2024}},{"type":"Feature","id":"4ed30c70-cad4-4113-a083-81f617a590d7","geometry":{"type":"Point","coordinates":[-94.73461790697684,29.518217305386084]},"properties":{"substrate":"Mud","lease_number":null,"poll_year":2024}},{"type":"Feature","id":"52b1f252-d33a-43c0-9fe6-be4718c8493a","geometry":{"type":"Point","coordinates":[-94.73462200958276,29.517836554088152]},"properties":{"substrate":"Mud","lease_number":null,"poll_year":2024}},{"type":"Feature","id":"5dbe89e4-94e5-47d3-aab0-22cd5b2a74d5","geometry":{"type":"Point","coordinates":[-94.73397097444523,29.5200852901843]},"properties":{"substrate":"Mud","lease_number":null,"poll_year":2024}},{"type":"Feature","id":"610c5ce2-3839-4f50-a654-2085a50bfc7a","geometry":{"type":"Point","coordinates":[-94.7341412258528,29.51927979961538]},"properties":{"substrate":"Mud","lease_number":null,"poll_year":2024}},{"type":"Feature","id":"676c6522-dbf4-4790-835e-e915f6f327ef","geometry":{"type":"Point","coordinates":[-94.7354205391068,29.518069591981973]},"properties":{"substrate":"Mud","lease_number":null,"poll_year":2024}},{"type":"Feature","id":"67e403f7-721e-49a9-937e-57d4a0626b2e","geometry":{"type":"Point","coordinates":[-94.73431693093248,29.518557338304248]},"properties":{"substrate":"Mud","lease_number":null,"poll_year":2024}},{"type":"Feature","id":"701b7a3d-bc0c-4f94-8e3c-ee9638010fb8","geometry":{"type":"Point","coordinates":[-94.73487604955184,29.517692716663863]},"properties":{"substrate":"Mud","lease_number":null,"poll_year":2024}},{"type":"Feature","id":"7229aa0d-1da7-446e-b545-c9a36b45fc1a","geometry":{"type":"Point","coordinates":[-94.7363875081365,29.518587552192688]},"properties":{"substrate":"Mud","lease_number":null,"poll_year":2024}},{"type":"Feature","id":"73245322-5375-4665-a0e6-e0ec266f2621","geometry":{"type":"Point","coordinates":[-94.7344860262083,29.51879900694713]},"properties":{"substrate":"Mud","lease_number":null,"poll_year":2024}},{"type":"Feature","id":"77907bdf-e608-457e-80f9-22e972727899","geometry":{"type":"Point","coordinates":[-94.73776664757477,29.519351915778]},"properties":{"substrate":"Mud","lease_number":null,"poll_year":2024}},{"type":"Feature","id":"7a83fcb6-ecaf-47c3-a95f-1368c6949b2d","geometry":{"type":"Point","coordinates":[-94.7341037993431,29.520198821695903]},"properties":{"substrate":"Mud","lease_number":null,"poll_year":2024}},{"type":"Feature","id":"7d5de8a8-1877-484f-a4cc-98261453ad0b","geometry":{"type":"Point","coordinates":[-94.73406323411983,29.519662860884218]},"properties":{"substrate":"Mud","lease_number":null,"poll_year":2024}},{"type":"Feature","id":"80a54044-eca5-420f-9291-4afbf43db8b3","geometry":{"type":"Point","coordinates":[-94.73509435094567,29.517883216273606]},"properties":{"substrate":"Mud","lease_number":null,"poll_year":2024}},{"type":"Feature","id":"8110f349-37c4-4139-96f5-66eb68c2ed67","geometry":{"type":"Point","coordinates":[-94.73430099302271,29.518700972818515]},"properties":{"substrate":"Mud","lease_number":null,"poll_year":2024}},{"type":"Feature","id":"822cff0d-4d1b-4b3f-8694-13b192f8a4cc","geometry":{"type":"Point","coordinates":[-94.7346300872338,29.518102166010774]},"properties":{"substrate":"Mud","lease_number":null,"poll_year":2024}},{"type":"Feature","id":"8a350789-a43f-4f81-b588-3dad62988ae3","geometry":{"type":"Point","coordinates":[-94.73714710018457,29.518991475158025]},"properties":{"substrate":"Mud","lease_number":null,"poll_year":2024}},{"type":"Feature","id":"8b3874ac-5fc5-4fcc-89cc-ac53aead45c5","geometry":{"type":"Point","coordinates":[-94.73392308256248,29.520221379929367]},"properties":{"substrate":"Mud","lease_number":null,"poll_year":2024}},{"type":"Feature","id":"8e087fcf-ef26-4636-8338-0f51bd7668d5","geometry":{"type":"Point","coordinates":[-94.73498167256463,29.517804435714506]},"properties":{"substrate":"Mud","lease_number":null,"poll_year":2024}},{"type":"Feature","id":"905823dc-a0b4-4892-91bd-69af392c8b33","geometry":{"type":"Point","coordinates":[-94.73664604058033,29.518717859303607]},"properties":{"substrate":"Mud","lease_number":null,"poll_year":2024}},{"type":"Feature","id":"9b37b912-c237-4961-989b-629543b67be6","geometry":{"type":"Point","coordinates":[-94.73382724310144,29.52065789068472]},"properties":{"substrate":"Mud","lease_number":null,"poll_year":2024}},{"type":"Feature","id":"9bd78135-723f-4441-b257-4c75be32ec83","geometry":{"type":"Point","coordinates":[-94.73416857775658,29.51915847268378]},"properties":{"substrate":"Mud","lease_number":null,"poll_year":2024}},{"type":"Feature","id":"9cf71d1e-cc8e-4e51-a289-282d3be72c2c","geometry":{"type":"Point","coordinates":[-94.73860291442558,29.519793778682267]},"properties":{"substrate":"Mud","lease_number":null,"poll_year":2024}},{"type":"Feature","id":"9db8d423-5e6d-4a08-a6df-7a8aa32bfaac","geometry":{"type":"Point","coordinates":[-94.73562983668653,29.51817047997659]},"properties":{"substrate":"Mud","lease_number":null,"poll_year":2024}},{"type":"Feature","id":"9ebff2ae-c2ba-4d40-b9c4-e7afd9143d65","geometry":{"type":"Point","coordinates":[-94.73791839997573,29.519433005067004]},"properties":{"substrate":"Mud","lease_number":null,"poll_year":2024}},{"type":"Feature","id":"a0e873f0-e1d0-4ecf-b8a7-2981c56fafcb","geometry":{"type":"Point","coordinates":[-94.73422642117603,29.519730185725784]},"properties":{"substrate":"Mud","lease_number":null,"poll_year":2024}},{"type":"Feature","id":"a293a86a-e061-4d73-8441-95cfcb5d01bd","geometry":{"type":"Point","coordinates":[-94.73418914558333,29.51987099898212]},"properties":{"substrate":"Mud","lease_number":null,"poll_year":2024}},{"type":"Feature","id":"acffaa0e-9e42-4c3e-9ca7-acdb86ada491","geometry":{"type":"Point","coordinates":[-94.73467260719114,29.517699773224695]},"properties":{"substrate":"Mud","lease_number":null,"poll_year":2024}},{"type":"Feature","id":"ad2880db-7782-422e-b964-ee9b2ae31fa4","geometry":{"type":"Point","coordinates":[-94.73526764494713,29.51798921999646]},"properties":{"substrate":"Mud","lease_number":null,"poll_year":2024}},{"type":"Feature","id":"bb4473a6-1313-4013-b8b6-02063cdfe310","geometry":{"type":"Point","coordinates":[-94.7344582377233,29.518937539694882]},"properties":{"substrate":"Mud","lease_number":null,"poll_year":2024}},{"type":"Feature","id":"be6dd25c-d880-48a6-ba06-b7cfb82a516d","geometry":{"type":"Point","coordinates":[-94.73450597689246,29.518682461156455]},"properties":{"substrate":"Mud","lease_number":null,"poll_year":2024}},{"type":"Feature","id":"c1624a88-4a14-43b9-b6b6-10d90b7a9b04","geometry":{"type":"Point","coordinates":[-94.73447688225703,29.518147474145632]},"properties":{"substrate":"Mud","lease_number":null,"poll_year":2024}},{"type":"Feature","id":"c5959c34-dc73-48c0-aa85-bf66cc47cb30","geometry":{"type":"Point","coordinates":[-94.73400396237908,29.519946317347518]},"properties":{"substrate":"Mud","lease_number":null,"poll_year":2024}},{"type":"Feature","id":"c75cce45-a9f0-4791-8efc-a72d4450900d","geometry":{"type":"Point","coordinates":[-94.73459024066274,29.518333604691435]},"properties":{"substrate":"Mud","lease_number":null,"poll_year":2024}},{"type":"Feature","id":"c9291b50-e78a-4196-84a0-bc5c96399c36","geometry":{"type":"Point","coordinates":[-94.73608004356083,29.518420882825364]},"properties":{"substrate":"Mud","lease_number":null,"poll_year":2024}},{"type":"Feature","id":"c9f33bb4-628b-4ae9-b82d-3c3496d98809","geometry":{"type":"Point","coordinates":[-94.73819246159584,29.519583539990677]},"properties":{"substrate":"Mud","lease_number":null,"poll_year":2024}},{"type":"Feature","id":"cd881b79-f85a-4668-8248-3b70c92392a8","geometry":{"type":"Point","coordinates":[-94.73839572070025,29.519688865760365]},"properties":{"substrate":"Mud","lease_number":null,"poll_year":2024}},{"type":"Feature","id":"d3d924bf-6951-480b-addb-640dabd05ffa","geometry":{"type":"Point","coordinates":[-94.73441035123047,29.51828064836358]},"properties":{"substrate":"Mud","lease_number":null,"poll_year":2024}},{"type":"Feature","id":"d6f78aac-0546-4c26-86af-3fb31396c526","geometry":{"type":"Point","coordinates":[-94.73409121664095,29.519518058307415]},"properties":{"substrate":"Mud","lease_number":null,"poll_year":2024}},{"type":"Feature","id":"dacfc88e-68e5-4913-b7b6-82cc3beb7730","geometry":{"type":"Point","coordinates":[-94.73455833430046,29.51847482169072]},"properties":{"substrate":"Mud","lease_number":null,"poll_year":2024}},{"type":"Feature","id":"e0e1cd7c-b1b4-4f77-b360-4540741cfe37","geometry":{"type":"Point","coordinates":[-94.73682593899575,29.51880686468211]},"properties":{"substrate":"Mud","lease_number":null,"poll_year":2024}},{"type":"Feature","id":"e6536ffd-1acf-4909-b0be-51fcf95d404f","geometry":{"type":"Point","coordinates":[-94.73403547078767,29.519806689254466]},"properties":{"substrate":"Mud","lease_number":null,"poll_year":2024}},{"type":"Feature","id":"e65e2660-52e8-4b14-9a9f-03a88c65ae2f","geometry":{"type":"Point","coordinates":[-94.73379042834446,29.520486432933403]},"properties":{"substrate":"Mud","lease_number":null,"poll_year":2024}},{"type":"Feature","id":"e834283b-1add-4400-92af-b106b5a04da6","geometry":{"type":"Point","coordinates":[-94.7372752358767,29.519056129354656]},"properties":{"substrate":"Mud","lease_number":null,"poll_year":2024}},{"type":"Feature","id":"ed555505-a1ce-4e5f-8ed2-381a609f06b6","geometry":{"type":"Point","coordinates":[-94.73592853101007,29.51833547063849]},"properties":{"substrate":"Mud","lease_number":null,"poll_year":2024}},{"type":"Feature","id":"fc30c876-52e9-475d-b40a-32e744c30834","geometry":{"type":"Point","coordinates":[-94.73454052340334,29.51801553017142]},"properties":{"substrate":"Mud","lease_number":null,"poll_year":2024}},{"type":"Feature","id":"fd7e1aa7-fec3-4e1f-ad9d-7eb2d19806eb","geometry":{"type":"Point","coordinates":[-94.73385701776152,29.520353921370425]},"properties":{"substrate":"Mud","lease_number":null,"poll_year":2024}}]}