{"type":"FeatureCollection","features":[{"type":"Feature","id":"003bcb3c-71b2-481a-874d-c1129463fb00","geometry":{"type":"Point","coordinates":[-94.70327840142271,29.455702468369566]},"properties":{"substrate":"Solid Reef","lease_number":null,"poll_year":2024}},{"type":"Feature","id":"02bbd05a-a656-4fb0-9937-b6f601335655","geometry":{"type":"Point","coordinates":[-94.70312467991467,29.457168986111753]},"properties":{"substrate":"Solid Reef","lease_number":null,"poll_year":2024}},{"type":"Feature","id":"052f1a19-846b-4fe0-aeec-02e7c444c22e","geometry":{"type":"Point","coordinates":[-94.71081884913784,29.45730010514263]},"properties":{"substrate":"Mud","lease_number":null,"poll_year":2025}},{"type":"Feature","id":"05d83010-bcab-4d9f-abdf-668d12b17272","geometry":{"type":"Point","coordinates":[-94.71057716190222,29.458468612170204]},"properties":{"substrate":"Mud","lease_number":null,"poll_year":2025}},{"type":"Feature","id":"05ec3b5a-1bea-4b77-95b5-9362a91a9193","geometry":{"type":"Point","coordinates":[-94.70939853901179,29.458708751899067]},"properties":{"substrate":"Mud","lease_number":null,"poll_year":2025}},{"type":"Feature","id":"07abfd88-42fa-467b-982f-04e5df1c94c4","geometry":{"type":"Point","coordinates":[-94.71237544357393,29.458223584054235]},"properties":{"substrate":"Mud","lease_number":null,"poll_year":2025}},{"type":"Feature","id":"0849829e-c2f8-4df1-9653-a862b25c6fea","geometry":{"type":"Point","coordinates":[-94.71298100868675,29.458454436042913]},"properties":{"substrate":"Buried Shell","lease_number":null,"poll_year":2025}},{"type":"Feature","id":"097fd200-1e85-4ebc-8957-f3bedd3f7b0b","geometry":{"type":"Point","coordinates":[-94.70353881943034,29.455440864281794]},"properties":{"substrate":"Solid Reef","lease_number":null,"poll_year":2024}},{"type":"Feature","id":"0b3e5d57-fc19-4a54-b41f-a2777f8a6f55","geometry":{"type":"Point","coordinates":[-94.70272453435452,29.456087641083602]},"properties":{"substrate":"Solid Reef","lease_number":null,"poll_year":2024}},{"type":"Feature","id":"0f779289-ac9a-4229-bddd-e77395409e77","geometry":{"type":"Point","coordinates":[-94.70308062204155,29.45585632768968]},"properties":{"substrate":"Solid Reef","lease_number":null,"poll_year":2024}},{"type":"Feature","id":"12981104-38b7-4a96-a792-d696fba5ce0f","geometry":{"type":"Point","coordinates":[-94.70252176662858,29.456414962354575]},"properties":{"substrate":"Solid Reef","lease_number":null,"poll_year":2024}},{"type":"Feature","id":"147a159b-6b0e-40d0-b45e-9250be81ae56","geometry":{"type":"Point","coordinates":[-94.71183010331443,29.458176383623464]},"properties":{"substrate":"Mud","lease_number":null,"poll_year":2025}},{"type":"Feature","id":"15521034-b13f-4001-90e0-171e6a77199c","geometry":{"type":"Point","coordinates":[-94.71115538139946,29.45762925124015]},"properties":{"substrate":"Mud","lease_number":null,"poll_year":2025}},{"type":"Feature","id":"1588f5bf-2e8b-4235-bd87-f2d5c15d524a","geometry":{"type":"Point","coordinates":[-94.71046101332924,29.457661843923916]},"properties":{"substrate":"Mud","lease_number":null,"poll_year":2025}},{"type":"Feature","id":"17c60b42-1623-491a-840b-e72dbac92cb9","geometry":{"type":"Point","coordinates":[-94.71212722828116,29.458015058024614]},"properties":{"substrate":"Mud","lease_number":null,"poll_year":2025}},{"type":"Feature","id":"1b35b0be-1b52-47e4-ba4d-e8139ede00bc","geometry":{"type":"Point","coordinates":[-94.71053158857123,29.4586125368253]},"properties":{"substrate":"Mud","lease_number":null,"poll_year":2025}},{"type":"Feature","id":"2107db52-bb71-45d8-ac56-8d81783a1926","geometry":{"type":"Point","coordinates":[-94.71064139144504,29.458045136665863]},"properties":{"substrate":"Mud","lease_number":null,"poll_year":2025}},{"type":"Feature","id":"21859da3-d795-41e5-8993-fea189599c58","geometry":{"type":"Point","coordinates":[-94.71153384342529,29.45749148017879]},"properties":{"substrate":"Mud","lease_number":null,"poll_year":2025}},{"type":"Feature","id":"21d39280-f256-4d34-933b-85843125bb9b","geometry":{"type":"Point","coordinates":[-94.71138282225299,29.4570043596523]},"properties":{"substrate":"Mud","lease_number":null,"poll_year":2025}},{"type":"Feature","id":"24975d5c-9023-4787-80bc-f6986c3a2d98","geometry":{"type":"Point","coordinates":[-94.70973881095993,29.458152506118136]},"properties":{"substrate":"Mud","lease_number":null,"poll_year":2025}},{"type":"Feature","id":"2608472d-0260-4a62-a1c6-d47ef2def2e7","geometry":{"type":"Point","coordinates":[-94.71218605355922,29.45870378510416]},"properties":{"substrate":"Mud","lease_number":null,"poll_year":2025}},{"type":"Feature","id":"26f17716-0a39-47ea-bba2-89480c62ba06","geometry":{"type":"Point","coordinates":[-94.70449526828972,29.454527002276468]},"properties":{"substrate":"Solid Reef","lease_number":null,"poll_year":2024}},{"type":"Feature","id":"293edcda-c63b-460d-95e1-63867c48e96c","geometry":{"type":"Point","coordinates":[-94.70353394337496,29.457667585910656]},"properties":{"substrate":"Solid Reef","lease_number":null,"poll_year":2024}},{"type":"Feature","id":"29705f87-ad2c-4eea-956d-9fb4a94a4bc7","geometry":{"type":"Point","coordinates":[-94.71223048692812,29.458106295890428]},"properties":{"substrate":"Mud","lease_number":null,"poll_year":2025}},{"type":"Feature","id":"29855199-c9f7-4b01-b1de-e06b09a5fb9d","geometry":{"type":"Point","coordinates":[-94.71219995408993,29.45775888900996]},"properties":{"substrate":"Mud","lease_number":null,"poll_year":2025}},{"type":"Feature","id":"299baa24-84f1-454e-bf88-b5e3e583a384","geometry":{"type":"Point","coordinates":[-94.71066800762858,29.45855805610411]},"properties":{"substrate":"Mud","lease_number":null,"poll_year":2025}},{"type":"Feature","id":"2af8b23d-72b9-48c9-b808-98b9646a4ea3","geometry":{"type":"Point","coordinates":[-94.70265125877677,29.456623175669133]},"properties":{"substrate":"Solid Reef","lease_number":null,"poll_year":2024}},{"type":"Feature","id":"2ce07adc-71db-4c0c-b427-cb1094ee400d","geometry":{"type":"Point","coordinates":[-94.70429359022023,29.454619866352417]},"properties":{"substrate":"Solid Reef","lease_number":null,"poll_year":2024}},{"type":"Feature","id":"2d2c1d71-bacd-4d12-a672-2c90223f3b1a","geometry":{"type":"Point","coordinates":[-94.71134771429504,29.458458073935834]},"properties":{"substrate":"Mud","lease_number":null,"poll_year":2025}},{"type":"Feature","id":"2da54235-285d-48f3-9706-161d95f2573b","geometry":{"type":"Point","coordinates":[-94.70942793727777,29.458471035346037]},"properties":{"substrate":"Mud","lease_number":null,"poll_year":2025}},{"type":"Feature","id":"35b7d48f-09f2-4752-8263-3acd8e2800aa","geometry":{"type":"Point","coordinates":[-94.70532136890648,29.454803263285932]},"properties":{"substrate":"Mud","lease_number":null,"poll_year":2024}},{"type":"Feature","id":"3bcdb1c0-41f3-43a9-b67f-5d70670c8f7c","geometry":{"type":"Point","coordinates":[-94.71138983001052,29.45736917268416]},"properties":{"substrate":"Mud","lease_number":null,"poll_year":2025}},{"type":"Feature","id":"3c218b59-7cb9-430b-8d93-2219c0436ba6","geometry":{"type":"Point","coordinates":[-94.71144635200818,29.458542903054393]},"properties":{"substrate":"Mud","lease_number":null,"poll_year":2025}},{"type":"Feature","id":"3c94ad24-a525-45c7-9857-062ba05d212b","geometry":{"type":"Point","coordinates":[-94.71102166716942,29.45771925282636]},"properties":{"substrate":"Mud","lease_number":null,"poll_year":2025}},{"type":"Feature","id":"3d1e2ba0-f394-41bb-9a0d-28a38c1fb679","geometry":{"type":"Point","coordinates":[-94.70248896284934,29.45624092412674]},"properties":{"substrate":"Solid Reef","lease_number":null,"poll_year":2024}},{"type":"Feature","id":"44b41352-2673-4969-8723-f0535a9cd3fb","geometry":{"type":"Point","coordinates":[-94.71128408931841,29.45727637135286]},"properties":{"substrate":"Mud","lease_number":null,"poll_year":2025}},{"type":"Feature","id":"46453dde-90d3-4023-95a1-5cacbe616d26","geometry":{"type":"Point","coordinates":[-94.71074129668102,29.457169248143494]},"properties":{"substrate":"Mud","lease_number":null,"poll_year":2025}},{"type":"Feature","id":"46c199d7-b0f1-4ed6-9f32-42cb7e849d15","geometry":{"type":"Point","coordinates":[-94.70674643830691,29.455673731281735]},"properties":{"substrate":"Solid Reef","lease_number":null,"poll_year":2024}},{"type":"Feature","id":"4748396c-b444-47c2-a2a3-30ccca8c985b","geometry":{"type":"Point","coordinates":[-94.71039077136223,29.45753340902528]},"properties":{"substrate":"Mud","lease_number":null,"poll_year":2025}},{"type":"Feature","id":"4c4dbd8b-ee05-4df3-8bc6-798d45ae8fe9","geometry":{"type":"Point","coordinates":[-94.70724076324143,29.455942747619304]},"properties":{"substrate":"Solid Reef","lease_number":null,"poll_year":2024}},{"type":"Feature","id":"4cc4df82-a9b9-418c-9ecb-0a67abc4e080","geometry":{"type":"Point","coordinates":[-94.71175792188471,29.458338322191103]},"properties":{"substrate":"Mud","lease_number":null,"poll_year":2025}},{"type":"Feature","id":"4d0a934f-a8eb-4895-82ed-7b3741162594","geometry":{"type":"Point","coordinates":[-94.70259207327429,29.456165143827583]},"properties":{"substrate":"Solid Reef","lease_number":null,"poll_year":2024}},{"type":"Feature","id":"4d954dfc-3fa7-4f9c-ab6f-37816339ca06","geometry":{"type":"Point","coordinates":[-94.71214440137445,29.45843044362341]},"properties":{"substrate":"Mud","lease_number":null,"poll_year":2025}},{"type":"Feature","id":"4f5ebbc4-5959-4661-8340-0e6e9d805da7","geometry":{"type":"Point","coordinates":[-94.70272343930816,29.45671167321852]},"properties":{"substrate":"Firm/Hard Bottom","lease_number":null,"poll_year":2024}},{"type":"Feature","id":"5161ee74-615e-4e45-8d91-39e282ac6f67","geometry":{"type":"Point","coordinates":[-94.71116111175266,29.45783298877997]},"properties":{"substrate":"Mud","lease_number":null,"poll_year":2025}},{"type":"Feature","id":"53364403-50dc-435b-a086-6a8b849ac202","geometry":{"type":"Point","coordinates":[-94.71040420476899,29.457839129668383]},"properties":{"substrate":"Mud","lease_number":null,"poll_year":2025}},{"type":"Feature","id":"534fe2f3-7402-4292-9300-79edc4a79517","geometry":{"type":"Point","coordinates":[-94.7096573768828,29.458531035132303]},"properties":{"substrate":"Mud","lease_number":null,"poll_year":2025}},{"type":"Feature","id":"53d0e350-1cac-44ba-98d6-1fe383da3a13","geometry":{"type":"Point","coordinates":[-94.70258601144275,29.456510747744098]},"properties":{"substrate":"Solid Reef","lease_number":null,"poll_year":2024}},{"type":"Feature","id":"544fb429-c9b0-4520-85c0-b5cd22b5b39b","geometry":{"type":"Point","coordinates":[-94.70653690536855,29.455489125862634]},"properties":{"substrate":"Solid Reef","lease_number":null,"poll_year":2024}},{"type":"Feature","id":"55585e70-2087-4456-bff3-c7ae55e0a229","geometry":{"type":"Point","coordinates":[-94.70515733743392,29.454668482662008]},"properties":{"substrate":"Scattered Shell","lease_number":null,"poll_year":2024}},{"type":"Feature","id":"58d682c2-01c9-4565-bd16-d6debca91474","geometry":{"type":"Point","coordinates":[-94.71092453772764,29.457417190871176]},"properties":{"substrate":"Mud","lease_number":null,"poll_year":2025}},{"type":"Feature","id":"5aec2f84-0a2b-4679-963c-98b437e54698","geometry":{"type":"Point","coordinates":[-94.70415250441499,29.454678507382337]},"properties":{"substrate":"Solid Reef","lease_number":null,"poll_year":2024}},{"type":"Feature","id":"5e6e5287-9315-4076-9205-f1b66738c613","geometry":{"type":"Point","coordinates":[-94.71166621197904,29.458037033306372]},"properties":{"substrate":"Mud","lease_number":null,"poll_year":2025}},{"type":"Feature","id":"60419baf-7cd1-49dc-aa29-005e92c373a0","geometry":{"type":"Point","coordinates":[-94.70622833766174,29.455370068333977]},"properties":{"substrate":"Solid Reef","lease_number":null,"poll_year":2024}},{"type":"Feature","id":"60c2eea1-1591-496a-9bbe-203245a77e88","geometry":{"type":"Point","coordinates":[-94.70452767411528,29.454588910626956]},"properties":{"substrate":"Solid Reef","lease_number":null,"poll_year":2024}},{"type":"Feature","id":"6104a62f-688e-4559-8797-ab4779b39f44","geometry":{"type":"Point","coordinates":[-94.71000758060474,29.45867743527531]},"properties":{"substrate":"Mud","lease_number":null,"poll_year":2025}},{"type":"Feature","id":"6158eec7-1cb0-49ae-b785-a7de7118aa88","geometry":{"type":"Point","coordinates":[-94.70285381360198,29.456003891685302]},"properties":{"substrate":"Solid Reef","lease_number":null,"poll_year":2024}},{"type":"Feature","id":"6515fea5-3c8c-4cad-bb1d-e53fb52984c6","geometry":{"type":"Point","coordinates":[-94.710693070625,29.457434961270835]},"properties":{"substrate":"Mud","lease_number":null,"poll_year":2025}},{"type":"Feature","id":"659084d4-6aa6-44aa-8993-8ea5b2b32b2a","geometry":{"type":"Point","coordinates":[-94.71011115096711,29.457736500676955]},"properties":{"substrate":"Mud","lease_number":null,"poll_year":2025}},{"type":"Feature","id":"6614c76f-4445-4bd7-900f-e813e6c7296c","geometry":{"type":"Point","coordinates":[-94.71206076013665,29.458598782309465]},"properties":{"substrate":"Mud","lease_number":null,"poll_year":2025}},{"type":"Feature","id":"67ef3a75-b162-43ef-b17f-d3275d783238","geometry":{"type":"Point","coordinates":[-94.70336334970924,29.455615876152095]},"properties":{"substrate":"Solid Reef","lease_number":null,"poll_year":2024}},{"type":"Feature","id":"6958e221-2b75-4185-8d0f-05e6699c084b","geometry":{"type":"Point","coordinates":[-94.7107627942641,29.457988947363283]},"properties":{"substrate":"Mud","lease_number":null,"poll_year":2025}},{"type":"Feature","id":"6c20bbdc-7634-42a3-afc5-47c0443f744b","geometry":{"type":"Point","coordinates":[-94.71087759536415,29.45759305503808]},"properties":{"substrate":"Mud","lease_number":null,"poll_year":2025}},{"type":"Feature","id":"6cca1cab-9a95-4c73-b1cc-8d5a7c32f258","geometry":{"type":"Point","coordinates":[-94.71020478865738,29.458336005387945]},"properties":{"substrate":"Mud","lease_number":null,"poll_year":2025}},{"type":"Feature","id":"6ebf676c-c348-40ec-8c73-a90485d400f3","geometry":{"type":"Point","coordinates":[-94.71140135539562,29.45803371687332]},"properties":{"substrate":"Mud","lease_number":null,"poll_year":2025}},{"type":"Feature","id":"6f507e15-93c7-4616-b6ca-756b949f7d05","geometry":{"type":"Point","coordinates":[-94.71152267377305,29.458137953719607]},"properties":{"substrate":"Mud","lease_number":null,"poll_year":2025}},{"type":"Feature","id":"70755601-fafa-42a2-ba2e-c4c978e2fbca","geometry":{"type":"Point","coordinates":[-94.70567678734864,29.45501691464003]},"properties":{"substrate":"Mud","lease_number":null,"poll_year":2024}},{"type":"Feature","id":"719cfb4d-72d7-4416-9e76-53b3945b38bd","geometry":{"type":"Point","coordinates":[-94.71165935603678,29.457601340681247]},"properties":{"substrate":"Mud","lease_number":null,"poll_year":2025}},{"type":"Feature","id":"71c17935-cb39-4647-8a00-02a9c53873bd","geometry":{"type":"Point","coordinates":[-94.71099742433483,29.458348713389007]},"properties":{"substrate":"Mud","lease_number":null,"poll_year":2025}},{"type":"Feature","id":"729a1f06-c1f2-4d69-bcbd-8e970889e573","geometry":{"type":"Point","coordinates":[-94.7093569919299,29.458555175358818]},"properties":{"substrate":"Mud","lease_number":null,"poll_year":2025}},{"type":"Feature","id":"785ecc49-1f24-4e25-b713-348a00ca98cf","geometry":{"type":"Point","coordinates":[-94.70361904886666,29.455344613256322]},"properties":{"substrate":"Solid Reef","lease_number":null,"poll_year":2024}},{"type":"Feature","id":"794ac07c-2bec-4b36-a861-f8d221f785f1","geometry":{"type":"Point","coordinates":[-94.70974831064407,29.45838950381673]},"properties":{"substrate":"Mud","lease_number":null,"poll_year":2025}},{"type":"Feature","id":"79a4bb06-3cfd-49f9-83a7-172a8f709416","geometry":{"type":"Point","coordinates":[-94.71030967056006,29.458419205338814]},"properties":{"substrate":"Mud","lease_number":null,"poll_year":2025}},{"type":"Feature","id":"79aa277a-1620-4634-b58f-a81e0eb68b67","geometry":{"type":"Point","coordinates":[-94.71076137402764,29.458142929146188]},"properties":{"substrate":"Mud","lease_number":null,"poll_year":2025}},{"type":"Feature","id":"7b5d1f9c-ad7f-485a-84c5-915d8dc7c583","geometry":{"type":"Point","coordinates":[-94.71286592821065,29.458646042771104]},"properties":{"substrate":"Mud","lease_number":null,"poll_year":2025}},{"type":"Feature","id":"7c8930a5-3dc5-46ae-bb13-e90291b1f845","geometry":{"type":"Point","coordinates":[-94.71102546794138,29.457071479754475]},"properties":{"substrate":"Mud","lease_number":null,"poll_year":2025}},{"type":"Feature","id":"7cf38522-31d9-45e5-958c-d40cb1f76354","geometry":{"type":"Point","coordinates":[-94.7096945222198,29.458258211768715]},"properties":{"substrate":"Mud","lease_number":null,"poll_year":2025}},{"type":"Feature","id":"7e96b825-7510-4a00-b740-5f5af0dfbd34","geometry":{"type":"Point","coordinates":[-94.71041002764865,29.458505016118178]},"properties":{"substrate":"Mud","lease_number":null,"poll_year":2025}},{"type":"Feature","id":"7ee00bb6-d315-4abf-917e-38ea8c4c0b4e","geometry":{"type":"Point","coordinates":[-94.70606520180951,29.455241747081594]},"properties":{"substrate":"Mud","lease_number":null,"poll_year":2024}},{"type":"Feature","id":"827d4fcc-8358-4576-b489-a146a5cbb0a5","geometry":{"type":"Point","coordinates":[-94.71011858811936,29.45802349537573]},"properties":{"substrate":"Mud","lease_number":null,"poll_year":2025}},{"type":"Feature","id":"884e98b2-0771-4d32-8bc0-5078767ea8fa","geometry":{"type":"Point","coordinates":[-94.7031100939694,29.457325382956284]},"properties":{"substrate":"Solid Reef","lease_number":null,"poll_year":2024}},{"type":"Feature","id":"88b29802-55c6-4d56-96dc-b549f253cc02","geometry":{"type":"Point","coordinates":[-94.71249893407774,29.458335267014448]},"properties":{"substrate":"Mud","lease_number":null,"poll_year":2025}},{"type":"Feature","id":"89be3396-e6dc-4098-a215-082a9e8eb130","geometry":{"type":"Point","coordinates":[-94.7111610910914,29.457164652028556]},"properties":{"substrate":"Mud","lease_number":null,"poll_year":2025}},{"type":"Feature","id":"8b44fccd-8e8c-41da-874d-1e8d17d36451","geometry":{"type":"Point","coordinates":[-94.70626672357214,29.455381095762924]},"properties":{"substrate":"Buried Shell","lease_number":null,"poll_year":2024}},{"type":"Feature","id":"8c0ecb07-311d-4d87-a62c-39249283724b","geometry":{"type":"Point","coordinates":[-94.71198318342535,29.458294801167803]},"properties":{"substrate":"Mud","lease_number":null,"poll_year":2025}},{"type":"Feature","id":"8ce3f076-5db5-4c7a-8eba-51c5773cbbf9","geometry":{"type":"Point","coordinates":[-94.7108077971649,29.45867131008108]},"properties":{"substrate":"Mud","lease_number":null,"poll_year":2025}},{"type":"Feature","id":"8d46cbc6-31f8-4087-a9bd-843c866dc10f","geometry":{"type":"Point","coordinates":[-94.71150705566352,29.457112147110596]},"properties":{"substrate":"Mud","lease_number":null,"poll_year":2025}},{"type":"Feature","id":"8fcc6734-14da-4277-b077-8eed5ed59bf0","geometry":{"type":"Point","coordinates":[-94.71275250871949,29.45825059337532]},"properties":{"substrate":"Mud","lease_number":null,"poll_year":2025}},{"type":"Feature","id":"9063fd69-95a1-4940-ad0a-051d61623869","geometry":{"type":"Point","coordinates":[-94.70345148162514,29.455529104737618]},"properties":{"substrate":"Solid Reef","lease_number":null,"poll_year":2024}},{"type":"Feature","id":"92d8abfe-1a18-4417-917c-c06dcb9cffb8","geometry":{"type":"Point","coordinates":[-94.71261015628968,29.458423652001525]},"properties":{"substrate":"Mud","lease_number":null,"poll_year":2025}},{"type":"Feature","id":"9530d138-ea40-4391-909a-bf074d12bb9c","geometry":{"type":"Point","coordinates":[-94.7110142605599,29.45750917625819]},"properties":{"substrate":"Mud","lease_number":null,"poll_year":2025}},{"type":"Feature","id":"97191c6b-9546-4095-bc45-777be206b8bb","geometry":{"type":"Point","coordinates":[-94.70389020084359,29.458000009705593]},"properties":{"substrate":"Solid Reef","lease_number":null,"poll_year":2024}},{"type":"Feature","id":"9b19f68a-0d4b-4f01-afd6-207bb753d92b","geometry":{"type":"Point","coordinates":[-94.711278651816,29.457934913713284]},"properties":{"substrate":"Mud","lease_number":null,"poll_year":2025}},{"type":"Feature","id":"9c1167ca-a74d-4385-97c9-2328847d8dde","geometry":{"type":"Point","coordinates":[-94.71121322392061,29.45836081833141]},"properties":{"substrate":"Mud","lease_number":null,"poll_year":2025}},{"type":"Feature","id":"9ef9b2e8-02d8-4b78-b3bf-e300e2a12498","geometry":{"type":"Point","coordinates":[-94.7117893242921,29.45770418881983]},"properties":{"substrate":"Mud","lease_number":null,"poll_year":2025}},{"type":"Feature","id":"9f38f98a-ec01-425a-adb0-7058b8ec2269","geometry":{"type":"Point","coordinates":[-94.70601526536117,29.45512818265347]},"properties":{"substrate":"Solid Reef","lease_number":null,"poll_year":2024}},{"type":"Feature","id":"9fd0b071-3791-4ddf-b72f-aded7faabee4","geometry":{"type":"Point","coordinates":[-94.71192816610576,29.457834236355698]},"properties":{"substrate":"Mud","lease_number":null,"poll_year":2025}},{"type":"Feature","id":"a0eee446-4bdb-4efd-9a1c-70da3f42d7c0","geometry":{"type":"Point","coordinates":[-94.70578313440355,29.454984783387406]},"properties":{"substrate":"Buried Shell","lease_number":null,"poll_year":2024}},{"type":"Feature","id":"a22b03ae-f437-4ed6-b48f-4806fd277277","geometry":{"type":"Point","coordinates":[-94.7108562460031,29.45823151766665]},"properties":{"substrate":"Mud","lease_number":null,"poll_year":2025}},{"type":"Feature","id":"a2cb4c6c-c92b-4b5f-b379-207dec8a655d","geometry":{"type":"Point","coordinates":[-94.70989142035366,29.458716334278158]},"properties":{"substrate":"Mud","lease_number":null,"poll_year":2025}},{"type":"Feature","id":"a59f94f9-c7d5-49e0-957f-9fbf0fa3a48e","geometry":{"type":"Point","coordinates":[-94.70300460121231,29.457228205266496]},"properties":{"substrate":"Solid Reef","lease_number":null,"poll_year":2024}},{"type":"Feature","id":"a606856c-6064-4154-a89b-57c5ea7ff48d","geometry":{"type":"Point","coordinates":[-94.71139210813807,29.457820296357927]},"properties":{"substrate":"Mud","lease_number":null,"poll_year":2025}},{"type":"Feature","id":"a68dad96-8b4f-479f-a548-27418d478310","geometry":{"type":"Point","coordinates":[-94.70295389041623,29.456959405874333]},"properties":{"substrate":"Firm/Hard Bottom","lease_number":null,"poll_year":2024}},{"type":"Feature","id":"a81f7645-54ff-467d-9595-793b2a65cc2b","geometry":{"type":"Point","coordinates":[-94.7112839410964,29.45773397267144]},"properties":{"substrate":"Mud","lease_number":null,"poll_year":2025}},{"type":"Feature","id":"a916fbb6-489b-4d9e-96d8-73672f15dbc2","geometry":{"type":"Point","coordinates":[-94.70462588423037,29.454466756856288]},"properties":{"substrate":"Solid Reef","lease_number":null,"poll_year":2024}},{"type":"Feature","id":"ac4dbc5b-69e3-45ca-8cf4-1bddfef79ca4","geometry":{"type":"Point","coordinates":[-94.71010243730885,29.458254964956573]},"properties":{"substrate":"Mud","lease_number":null,"poll_year":2025}},{"type":"Feature","id":"ad8f3ef0-5cff-4b40-b7f0-f1aa7e835259","geometry":{"type":"Point","coordinates":[-94.7119601757743,29.45850959809325]},"properties":{"substrate":"Mud","lease_number":null,"poll_year":2025}},{"type":"Feature","id":"afdf43e9-b473-4243-8ae8-ee1fe9eaa6e9","geometry":{"type":"Point","coordinates":[-94.71186081401905,29.4584251553411]},"properties":{"substrate":"Mud","lease_number":null,"poll_year":2025}},{"type":"Feature","id":"b1948e3e-b3bf-449b-aaab-2769961c6248","geometry":{"type":"Point","coordinates":[-94.7039102611222,29.454887411033944]},"properties":{"substrate":"Solid Reef","lease_number":null,"poll_year":2024}},{"type":"Feature","id":"b347e0c5-34f4-48fc-8558-29ad3345b7cf","geometry":{"type":"Point","coordinates":[-94.71035842482549,29.458277058294854]},"properties":{"substrate":"Mud","lease_number":null,"poll_year":2025}},{"type":"Feature","id":"b4a514cb-9573-4570-987e-0ac6530bfcca","geometry":{"type":"Point","coordinates":[-94.7106528332868,29.457875508030316]},"properties":{"substrate":"Mud","lease_number":null,"poll_year":2025}},{"type":"Feature","id":"b4ea9bec-5089-4ce5-a4e9-a34a684ad0b8","geometry":{"type":"Point","coordinates":[-94.70380754865094,29.455037456797307]},"properties":{"substrate":"Solid Reef","lease_number":null,"poll_year":2024}},{"type":"Feature","id":"b5a454d2-5de4-43d6-8d78-72fbadeb1762","geometry":{"type":"Point","coordinates":[-94.7029786812231,29.455925365708605]},"properties":{"substrate":"Solid Reef","lease_number":null,"poll_year":2024}},{"type":"Feature","id":"b89609dd-39cc-4ce0-8df1-9fb37b759767","geometry":{"type":"Point","coordinates":[-94.70643387669033,29.45543828694067]},"properties":{"substrate":"Solid Reef","lease_number":null,"poll_year":2024}},{"type":"Feature","id":"b9b35f25-95b2-44a4-a0e5-beb5f1937310","geometry":{"type":"Point","coordinates":[-94.70303867341272,29.457040375379655]},"properties":{"substrate":"Firm/Hard Bottom","lease_number":null,"poll_year":2024}},{"type":"Feature","id":"bbc76245-3eea-404f-8371-65cf50471f04","geometry":{"type":"Point","coordinates":[-94.70656637280483,29.455420075031707]},"properties":{"substrate":"Solid Reef","lease_number":null,"poll_year":2024}},{"type":"Feature","id":"bd6125f5-6083-456b-adcc-3ebc4822b237","geometry":{"type":"Point","coordinates":[-94.71231990882475,29.45856345075509]},"properties":{"substrate":"Mud","lease_number":null,"poll_year":2025}},{"type":"Feature","id":"bff5b1f3-b153-42c1-9c5a-f78dfab3902a","geometry":{"type":"Point","coordinates":[-94.7036910856676,29.455251173363003]},"properties":{"substrate":"Solid Reef","lease_number":null,"poll_year":2024}},{"type":"Feature","id":"c0097cc8-37b1-46ad-8589-7de60b885f13","geometry":{"type":"Point","coordinates":[-94.70978882017181,29.458628056703795]},"properties":{"substrate":"Mud","lease_number":null,"poll_year":2025}},{"type":"Feature","id":"c68857c9-e525-4b97-8d3d-2446937bf840","geometry":{"type":"Point","coordinates":[-94.70549219164258,29.454859156333946]},"properties":{"substrate":"Mud","lease_number":null,"poll_year":2024}},{"type":"Feature","id":"c7df7a6a-8360-4e87-8ebe-0c07fb622232","geometry":{"type":"Point","coordinates":[-94.71102359136076,29.458211536194288]},"properties":{"substrate":"Mud","lease_number":null,"poll_year":2025}},{"type":"Feature","id":"c8188ed7-0794-4382-9905-2904e3a533cb","geometry":{"type":"Point","coordinates":[-94.71050140787263,29.4579256503743]},"properties":{"substrate":"Mud","lease_number":null,"poll_year":2025}},{"type":"Feature","id":"c82b6ecc-94fc-444b-8528-aca9718d5e12","geometry":{"type":"Point","coordinates":[-94.71259029633539,29.45811080983413]},"properties":{"substrate":"Mud","lease_number":null,"poll_year":2025}},{"type":"Feature","id":"c853a7ec-68e6-4310-b6b3-0e4c666b9fc0","geometry":{"type":"Point","coordinates":[-94.71202888341878,29.4579225998783]},"properties":{"substrate":"Mud","lease_number":null,"poll_year":2025}},{"type":"Feature","id":"c9451bcb-dc39-448e-9d0b-cbaf3f98b32e","geometry":{"type":"Point","coordinates":[-94.70402600186004,29.45476165010323]},"properties":{"substrate":"Solid Reef","lease_number":null,"poll_year":2024}},{"type":"Feature","id":"ca98052d-a1b2-441b-9e92-945d06c45178","geometry":{"type":"Point","coordinates":[-94.71046247668484,29.458362525819627]},"properties":{"substrate":"Mud","lease_number":null,"poll_year":2025}},{"type":"Feature","id":"cb83947b-8af8-4a81-8c6a-f31b5d231114","geometry":{"type":"Point","coordinates":[-94.70318211819392,29.455789737111704]},"properties":{"substrate":"Solid Reef","lease_number":null,"poll_year":2024}},{"type":"Feature","id":"cc42793e-0ac8-4807-ac97-371bd747a8af","geometry":{"type":"Point","coordinates":[-94.70477466680099,29.45430658537035]},"properties":{"substrate":"Solid Reef","lease_number":null,"poll_year":2024}},{"type":"Feature","id":"cc79cc3f-c7ed-41ff-96ad-3e34b0eda2db","geometry":{"type":"Point","coordinates":[-94.70729043199182,29.456014006225907]},"properties":{"substrate":"Solid Reef","lease_number":null,"poll_year":2024}},{"type":"Feature","id":"ce73c3eb-ac1c-4c98-89e6-971f52343ff5","geometry":{"type":"Point","coordinates":[-94.71179975373254,29.457383116654903]},"properties":{"substrate":"Mud","lease_number":null,"poll_year":2025}},{"type":"Feature","id":"d15cdc79-b830-4258-9abb-327b781a612e","geometry":{"type":"Point","coordinates":[-94.70991230708235,29.458585001980083]},"properties":{"substrate":"Mud","lease_number":null,"poll_year":2025}},{"type":"Feature","id":"d24721a0-958f-45bb-a0ad-b3db0b7d18e5","geometry":{"type":"Point","coordinates":[-94.71273898368459,29.458534934268553]},"properties":{"substrate":"Mud","lease_number":null,"poll_year":2025}},{"type":"Feature","id":"d24c9604-2efa-4056-b529-88f64ed64e2d","geometry":{"type":"Point","coordinates":[-94.71130189572398,29.458598101818758]},"properties":{"substrate":"Mud","lease_number":null,"poll_year":2025}},{"type":"Feature","id":"d31eb88b-3bd5-49c4-8cc6-b38d36f0d758","geometry":{"type":"Point","coordinates":[-94.71118149003486,29.45849722410066]},"properties":{"substrate":"Mud","lease_number":null,"poll_year":2025}},{"type":"Feature","id":"d333b5b4-4939-40f5-a8d4-ece4b0b0e7f9","geometry":{"type":"Point","coordinates":[-94.7115410209644,29.457938094050505]},"properties":{"substrate":"Mud","lease_number":null,"poll_year":2025}},{"type":"Feature","id":"d3e09bf7-b861-48ce-8b4c-ef8dc087a85f","geometry":{"type":"Point","coordinates":[-94.70438174459402,29.454713981086375]},"properties":{"substrate":"Solid Reef","lease_number":null,"poll_year":2024}},{"type":"Feature","id":"d5d24631-6a14-48b8-ac18-c53e5047644c","geometry":{"type":"Point","coordinates":[-94.71121334968475,29.456868232680705]},"properties":{"substrate":"Mud","lease_number":null,"poll_year":2025}},{"type":"Feature","id":"d8e7b56d-78c5-4395-97c3-ac0cf484eba2","geometry":{"type":"Point","coordinates":[-94.7131760374265,29.45862087870162]},"properties":{"substrate":"Mud","lease_number":null,"poll_year":2025}},{"type":"Feature","id":"d95367f2-3898-4b63-8302-f97d52e0f2a8","geometry":{"type":"Point","coordinates":[-94.7037445929192,29.455149703320252]},"properties":{"substrate":"Solid Reef","lease_number":null,"poll_year":2024}},{"type":"Feature","id":"d98b281a-05a9-42f4-be27-0906f577eedd","geometry":{"type":"Point","coordinates":[-94.70567214575357,29.45490596798949]},"properties":{"substrate":"Mud","lease_number":null,"poll_year":2024}},{"type":"Feature","id":"dc3046d9-7103-4de4-ace1-01d46390607a","geometry":{"type":"Point","coordinates":[-94.71160611019495,29.457200368904715]},"properties":{"substrate":"Mud","lease_number":null,"poll_year":2025}},{"type":"Feature","id":"dc625809-c046-42d0-93dd-350e36d4f092","geometry":{"type":"Point","coordinates":[-94.71140080113507,29.458681856897233]},"properties":{"substrate":"Mud","lease_number":null,"poll_year":2025}},{"type":"Feature","id":"e21e9bd5-9248-4e6d-968b-2e27e6489738","geometry":{"type":"Point","coordinates":[-94.7044147864268,29.454384634672277]},"properties":{"substrate":"Solid Reef","lease_number":null,"poll_year":2024}},{"type":"Feature","id":"e2285a87-7153-4838-9b96-4aee36cbec5f","geometry":{"type":"Point","coordinates":[-94.70994424758058,29.458165772616294]},"properties":{"substrate":"Mud","lease_number":null,"poll_year":2025}},{"type":"Feature","id":"e542c0d4-fd21-4d8c-943b-bb1ea4809bbd","geometry":{"type":"Point","coordinates":[-94.71024362282711,29.45816495289521]},"properties":{"substrate":"Mud","lease_number":null,"poll_year":2025}},{"type":"Feature","id":"e5df810d-04e2-47cd-8793-cbd1add78031","geometry":{"type":"Point","coordinates":[-94.70657235288968,29.455583059885026]},"properties":{"substrate":"Solid Reef","lease_number":null,"poll_year":2024}},{"type":"Feature","id":"ef00a3e8-7266-4f6e-833e-34a388446fcd","geometry":{"type":"Point","coordinates":[-94.70288732974524,29.45686946775333]},"properties":{"substrate":"Firm/Hard Bottom","lease_number":null,"poll_year":2024}},{"type":"Feature","id":"ef6e7c70-5e4f-4448-b13a-15f177af9ea0","geometry":{"type":"Point","coordinates":[-94.7106340019035,29.458699067039817]},"properties":{"substrate":"Mud","lease_number":null,"poll_year":2025}},{"type":"Feature","id":"f0809e31-e5ef-42ad-beb5-dfcad963f2dc","geometry":{"type":"Point","coordinates":[-94.71164282344229,29.458236420346264]},"properties":{"substrate":"Mud","lease_number":null,"poll_year":2025}},{"type":"Feature","id":"f23a6dbd-f587-483d-b4f2-057afd0290c3","geometry":{"type":"Point","coordinates":[-94.71196674964553,29.457539040731717]},"properties":{"substrate":"Mud","lease_number":null,"poll_year":2025}},{"type":"Feature","id":"f7382618-ddb5-4515-9012-7ba2ddf7d690","geometry":{"type":"Point","coordinates":[-94.7124447665644,29.45866116138981]},"properties":{"substrate":"Mud","lease_number":null,"poll_year":2025}},{"type":"Feature","id":"f86d0ca0-daca-4feb-993b-3d423977950c","geometry":{"type":"Point","coordinates":[-94.70505311399634,29.45453054566349]},"properties":{"substrate":"Mud","lease_number":null,"poll_year":2024}},{"type":"Feature","id":"fa4def33-dbd3-403f-bae2-ed2ee9c57ebc","geometry":{"type":"Point","coordinates":[-94.70623921356488,29.45527137365191]},"properties":{"substrate":"Mud","lease_number":null,"poll_year":2024}},{"type":"Feature","id":"faad613e-51a0-4a82-89fd-319b675dc933","geometry":{"type":"Point","coordinates":[-94.71242491110169,29.45796463179413]},"properties":{"substrate":"Mud","lease_number":null,"poll_year":2025}},{"type":"Feature","id":"fbd80f91-644f-493b-ad46-4ad05acb7399","geometry":{"type":"Point","coordinates":[-94.7032299058721,29.457280589668155]},"properties":{"substrate":"Solid Reef","lease_number":null,"poll_year":2024}},{"type":"Feature","id":"fbf2f6c4-2aa2-4d58-8153-0cbca1b69226","geometry":{"type":"Point","coordinates":[-94.71164678141943,29.45870158328872]},"properties":{"substrate":"Mud","lease_number":null,"poll_year":2025}},{"type":"Feature","id":"fd86fe2e-23ad-4529-bf94-19ed17078b8a","geometry":{"type":"Point","coordinates":[-94.71080731656622,29.456999693915357]},"properties":{"substrate":"Mud","lease_number":null,"poll_year":2025}}]}