{"type":"FeatureCollection","features":[{"type":"Feature","id":"07aaaccd-3f95-41b1-b218-0213d1397121","geometry":{"type":"Point","coordinates":[-94.68045711305805,29.514585190686738]},"properties":{"substrate":"Solid Reef","lease_number":null,"poll_year":2024}},{"type":"Feature","id":"2b97c66b-9e75-467d-96bf-64caea3b3ce5","geometry":{"type":"Point","coordinates":[-94.68039414025833,29.51447600874398]},"properties":{"substrate":"Solid Reef","lease_number":null,"poll_year":2024}},{"type":"Feature","id":"2dcd99a0-453a-4cfa-b44e-6be982c1a35e","geometry":{"type":"Point","coordinates":[-94.68153449222271,29.515453291798003]},"properties":{"substrate":"Solid Reef","lease_number":null,"poll_year":2024}},{"type":"Feature","id":"2e58dbc9-52e9-47e9-816a-cd2d83535013","geometry":{"type":"Point","coordinates":[-94.68179637268759,29.51538726726326]},"properties":{"substrate":"Buried Shell","lease_number":null,"poll_year":2024}},{"type":"Feature","id":"36f66692-8a63-4358-abb1-1eda7df06bc1","geometry":{"type":"Point","coordinates":[-94.68190218344827,29.515625592186527]},"properties":{"substrate":"Scattered Shell","lease_number":null,"poll_year":2024}},{"type":"Feature","id":"4031dd87-20d0-4c93-9ca4-2849a6be447f","geometry":{"type":"Point","coordinates":[-94.68165847859653,29.515212087334007]},"properties":{"substrate":"Scattered Shell","lease_number":null,"poll_year":2024}},{"type":"Feature","id":"5c15e467-b68a-45db-937d-7fdd31deb8f5","geometry":{"type":"Point","coordinates":[-94.68053805306178,29.51471395276037]},"properties":{"substrate":"Solid Reef","lease_number":null,"poll_year":2024}},{"type":"Feature","id":"825bad13-5f13-40ec-b201-c5cd0d020ebd","geometry":{"type":"Point","coordinates":[-94.6817271610882,29.515259215080743]},"properties":{"substrate":"Scattered Shell","lease_number":null,"poll_year":2024}},{"type":"Feature","id":"89d3c15e-6c0c-4c4f-b910-06b9155fa41c","geometry":{"type":"Point","coordinates":[-94.68022687305411,29.51417368597602]},"properties":{"substrate":"Solid Reef","lease_number":null,"poll_year":2024}},{"type":"Feature","id":"b1a64338-afef-4d34-aef3-55f8104e9d0b","geometry":{"type":"Point","coordinates":[-94.68157779640929,29.515225093862604]},"properties":{"substrate":"Scattered Shell","lease_number":null,"poll_year":2024}},{"type":"Feature","id":"c0969b32-b35f-48aa-b0c1-e96f5c886c1e","geometry":{"type":"Point","coordinates":[-94.68195782240203,29.51575700379026]},"properties":{"substrate":"Scattered Shell","lease_number":null,"poll_year":2024}},{"type":"Feature","id":"c6d9e871-3908-45cf-a302-1b734daac62a","geometry":{"type":"Point","coordinates":[-94.68151829829307,29.51531916874109]},"properties":{"substrate":"Solid Reef","lease_number":null,"poll_year":2024}},{"type":"Feature","id":"d8903a4e-26f9-446c-a249-fc08e1566f1f","geometry":{"type":"Point","coordinates":[-94.68033962240204,29.514370182705537]},"properties":{"substrate":"Solid Reef","lease_number":null,"poll_year":2024}},{"type":"Feature","id":"e396d1b3-b595-428b-9771-19033857882d","geometry":{"type":"Point","coordinates":[-94.68028655801989,29.514271981683986]},"properties":{"substrate":"Solid Reef","lease_number":null,"poll_year":2024}},{"type":"Feature","id":"e931c97a-7231-4c1e-a606-69036d737807","geometry":{"type":"Point","coordinates":[-94.68184168371052,29.5154951083306]},"properties":{"substrate":"Buried Shell","lease_number":null,"poll_year":2024}}]}