{"type":"FeatureCollection","features":[{"type":"Feature","id":"0a30fb28-e693-4e01-8f94-e6f14b21ef5e","geometry":{"type":"Point","coordinates":[-94.69909435425647,29.456554056777385]},"properties":{"substrate":"Mud","lease_number":null,"poll_year":2025}},{"type":"Feature","id":"0c6875e9-7717-4826-9792-8874dec143c2","geometry":{"type":"Point","coordinates":[-94.69966216766947,29.456620204917204]},"properties":{"substrate":"Mud","lease_number":null,"poll_year":2025}},{"type":"Feature","id":"0dd91efd-6568-4e61-99a4-a9204af53bd8","geometry":{"type":"Point","coordinates":[-94.69787421392856,29.457076811909705]},"properties":{"substrate":"Mud","lease_number":null,"poll_year":2025}},{"type":"Feature","id":"110eb83f-18d5-457c-b004-5b469135f5cd","geometry":{"type":"Point","coordinates":[-94.69971011884103,29.457773633879043]},"properties":{"substrate":"Mud","lease_number":null,"poll_year":2025}},{"type":"Feature","id":"113a003d-e4cc-447f-b8dc-f0f79aa01dd0","geometry":{"type":"Point","coordinates":[-94.7003649520556,29.458622747313097]},"properties":{"substrate":"Mud","lease_number":null,"poll_year":2025}},{"type":"Feature","id":"12376984-46c3-4989-83af-b4bef1b956f9","geometry":{"type":"Point","coordinates":[-94.69751835531191,29.457272568376855]},"properties":{"substrate":"Mud","lease_number":null,"poll_year":2025}},{"type":"Feature","id":"12eb6ac4-7231-4b83-b4fa-194b5cbcd4cb","geometry":{"type":"Point","coordinates":[-94.69937069400417,29.456878565365134]},"properties":{"substrate":"Mud","lease_number":null,"poll_year":2025}},{"type":"Feature","id":"1306516d-558d-4f66-ae77-b5c54f32fb62","geometry":{"type":"Point","coordinates":[-94.70098599514074,29.458639087689477]},"properties":{"substrate":"Mud","lease_number":null,"poll_year":2025}},{"type":"Feature","id":"15675bdb-1721-48d3-bcb8-4548b7668da1","geometry":{"type":"Point","coordinates":[-94.69848591902634,29.45779741995846]},"properties":{"substrate":"Mud","lease_number":null,"poll_year":2025}},{"type":"Feature","id":"15a2ddfa-833f-43fe-9632-16ba9bd5fb1a","geometry":{"type":"Point","coordinates":[-94.70036026644307,29.458490808709005]},"properties":{"substrate":"Mud","lease_number":null,"poll_year":2025}},{"type":"Feature","id":"1813122e-3892-413b-bf6a-3b006754beb5","geometry":{"type":"Point","coordinates":[-94.69877158238837,29.456659768786693]},"properties":{"substrate":"Mud","lease_number":null,"poll_year":2025}},{"type":"Feature","id":"1864e9c0-9567-421d-b192-5eef5c72afd3","geometry":{"type":"Point","coordinates":[-94.69880726975968,29.458205165368554]},"properties":{"substrate":"Mud","lease_number":null,"poll_year":2025}},{"type":"Feature","id":"18a9880c-4bc4-4646-aa1b-6ebd4c2fc77d","geometry":{"type":"Point","coordinates":[-94.6975529548234,29.458302293627582]},"properties":{"substrate":"Solid Reef","lease_number":null,"poll_year":2025}},{"type":"Feature","id":"199a60db-9573-4f9d-ac7f-e35b18ca9637","geometry":{"type":"Point","coordinates":[-94.6983878229973,29.45577371462977]},"properties":{"substrate":"Mud","lease_number":null,"poll_year":2025}},{"type":"Feature","id":"1abd5481-f417-4750-9bc1-f6f3bbf7d705","geometry":{"type":"Point","coordinates":[-94.69788014191111,29.45776307992885]},"properties":{"substrate":"Mud","lease_number":null,"poll_year":2025}},{"type":"Feature","id":"1c6a72ca-9df0-49e9-96bb-95262d489529","geometry":{"type":"Point","coordinates":[-94.69814876872378,29.45682875336867]},"properties":{"substrate":"Mud","lease_number":null,"poll_year":2025}},{"type":"Feature","id":"1edbea56-fb30-4714-9257-b261c2552c97","geometry":{"type":"Point","coordinates":[-94.69754725141965,29.45799252269871]},"properties":{"substrate":"Mud","lease_number":null,"poll_year":2025}},{"type":"Feature","id":"2060b4a3-f57a-4705-baa9-c7f19c27fd1b","geometry":{"type":"Point","coordinates":[-94.69846013558104,29.456513091965576]},"properties":{"substrate":"Mud","lease_number":null,"poll_year":2025}},{"type":"Feature","id":"20a98f02-395c-4c85-8b36-de0edb1cda47","geometry":{"type":"Point","coordinates":[-94.6994050321059,29.457545158172483]},"properties":{"substrate":"Mud","lease_number":null,"poll_year":2025}},{"type":"Feature","id":"20bdd8ea-db59-4977-b27c-93cdaab729e8","geometry":{"type":"Point","coordinates":[-94.69816895296992,29.457693234386163]},"properties":{"substrate":"Mud","lease_number":null,"poll_year":2025}},{"type":"Feature","id":"21c5866f-11ab-416c-ae30-8d2f616218a6","geometry":{"type":"Point","coordinates":[-94.69881651611888,29.458686997335494]},"properties":{"substrate":"Mud","lease_number":null,"poll_year":2025}},{"type":"Feature","id":"21ee705b-14e8-4dd7-9eac-2f8a2964e6d7","geometry":{"type":"Point","coordinates":[-94.69879033112667,29.457267010963037]},"properties":{"substrate":"Mud","lease_number":null,"poll_year":2025}},{"type":"Feature","id":"25631ad4-4d22-42d0-b03f-d9a631dd67b8","geometry":{"type":"Point","coordinates":[-94.70034512893221,29.458050788680502]},"properties":{"substrate":"Mud","lease_number":null,"poll_year":2025}},{"type":"Feature","id":"279e565f-0e58-493a-97ce-eec60db4bc76","geometry":{"type":"Point","coordinates":[-94.69939530155476,29.457390300219906]},"properties":{"substrate":"Mud","lease_number":null,"poll_year":2025}},{"type":"Feature","id":"282ca6c3-1541-4647-bb64-67ee9d59b12d","geometry":{"type":"Point","coordinates":[-94.69876475070063,29.456078886001297]},"properties":{"substrate":"Mud","lease_number":null,"poll_year":2025}},{"type":"Feature","id":"2b6a2ad0-27a0-4113-8123-fde957e6e19e","geometry":{"type":"Point","coordinates":[-94.70066160630512,29.458497773186867]},"properties":{"substrate":"Mud","lease_number":null,"poll_year":2025}},{"type":"Feature","id":"2bbe3d8d-85b6-4840-89fa-d88a7526e0b2","geometry":{"type":"Point","coordinates":[-94.69905681366075,29.45568715610751]},"properties":{"substrate":"Mud","lease_number":null,"poll_year":2025}},{"type":"Feature","id":"2bbe7872-4034-40cb-9e01-3d46dbbb2148","geometry":{"type":"Point","coordinates":[-94.70025167359994,29.4572525718541]},"properties":{"substrate":"Mud","lease_number":null,"poll_year":2025}},{"type":"Feature","id":"2d163678-8105-4e70-98e2-0593c312dc8b","geometry":{"type":"Point","coordinates":[-94.69968784511356,29.45705597919245]},"properties":{"substrate":"Mud","lease_number":null,"poll_year":2025}},{"type":"Feature","id":"2d9a85d7-9f55-4641-9c2d-dbd459055e5e","geometry":{"type":"Point","coordinates":[-94.6978852829695,29.45790573923779]},"properties":{"substrate":"Solid Reef","lease_number":null,"poll_year":2025}},{"type":"Feature","id":"2df6670a-e74d-4dee-8a58-8646486321d7","geometry":{"type":"Point","coordinates":[-94.69971873817617,29.45848957287393]},"properties":{"substrate":"Mud","lease_number":null,"poll_year":2025}},{"type":"Feature","id":"2ea09d1d-3d13-4e80-83ab-859caf5f0408","geometry":{"type":"Point","coordinates":[-94.6997121571184,29.458351738842573]},"properties":{"substrate":"Mud","lease_number":null,"poll_year":2025}},{"type":"Feature","id":"2fdae72e-d648-410a-80a9-c70c0b75ea2f","geometry":{"type":"Point","coordinates":[-94.7000560699384,29.458226116740555]},"properties":{"substrate":"Mud","lease_number":null,"poll_year":2025}},{"type":"Feature","id":"309c8bd1-56a3-4399-96d9-f017fbfbb0ac","geometry":{"type":"Point","coordinates":[-94.69847601959191,29.457142190039104]},"properties":{"substrate":"Mud","lease_number":null,"poll_year":2025}},{"type":"Feature","id":"30d85f17-51d2-444b-a448-63c42f45a84b","geometry":{"type":"Point","coordinates":[-94.69943400906203,29.45856936711554]},"properties":{"substrate":"Mud","lease_number":null,"poll_year":2025}},{"type":"Feature","id":"327bc6ac-1eca-4035-a54e-6304aa4e658e","geometry":{"type":"Point","coordinates":[-94.69880516590527,29.457791847712024]},"properties":{"substrate":"Mud","lease_number":null,"poll_year":2025}},{"type":"Feature","id":"33135c12-5fb0-4a84-91c0-135cdbc98e46","geometry":{"type":"Point","coordinates":[-94.69845917258708,29.456374687378513]},"properties":{"substrate":"Mud","lease_number":null,"poll_year":2025}},{"type":"Feature","id":"33fa1846-9475-4dc6-b16a-7e1131fc77af","geometry":{"type":"Point","coordinates":[-94.69909879103568,29.457407394036498]},"properties":{"substrate":"Mud","lease_number":null,"poll_year":2025}},{"type":"Feature","id":"340220f6-a647-4dfd-ab75-14d062883792","geometry":{"type":"Point","coordinates":[-94.69941075167932,29.45766933408397]},"properties":{"substrate":"Mud","lease_number":null,"poll_year":2025}},{"type":"Feature","id":"3851d96e-65e2-4016-bffe-a6d5418c252a","geometry":{"type":"Point","coordinates":[-94.69750547886062,29.457119073356047]},"properties":{"substrate":"Mud","lease_number":null,"poll_year":2025}},{"type":"Feature","id":"38b2a768-dd14-43ea-81cc-b2a90548dde3","geometry":{"type":"Point","coordinates":[-94.69937630308482,29.457000112384677]},"properties":{"substrate":"Mud","lease_number":null,"poll_year":2025}},{"type":"Feature","id":"3c1c6366-d529-4998-ae51-b7f158adfbea","geometry":{"type":"Point","coordinates":[-94.69911537573245,29.457291136628843]},"properties":{"substrate":"Mud","lease_number":null,"poll_year":2025}},{"type":"Feature","id":"3c7f7a30-1897-4482-a282-c34f985cd423","geometry":{"type":"Point","coordinates":[-94.69912404806819,29.458671212309525]},"properties":{"substrate":"Mud","lease_number":null,"poll_year":2025}},{"type":"Feature","id":"3e9eafde-30f0-4bc7-a2ee-6c6b7f4ed682","geometry":{"type":"Point","coordinates":[-94.69754581591184,29.457866822716174]},"properties":{"substrate":"Mud","lease_number":null,"poll_year":2025}},{"type":"Feature","id":"3fe436b9-a08f-4507-996a-b7d759645da9","geometry":{"type":"Point","coordinates":[-94.6981754639591,29.458539765755667]},"properties":{"substrate":"Solid Reef","lease_number":null,"poll_year":2025}},{"type":"Feature","id":"4119b488-d571-4b7d-bbba-73790a10a2a1","geometry":{"type":"Point","coordinates":[-94.70035735140996,29.458355688044893]},"properties":{"substrate":"Mud","lease_number":null,"poll_year":2025}},{"type":"Feature","id":"41e30cce-1484-41ac-a6c6-d2d8dd6e45dc","geometry":{"type":"Point","coordinates":[-94.69876500492387,29.455857936663573]},"properties":{"substrate":"Mud","lease_number":null,"poll_year":2025}},{"type":"Feature","id":"4306e082-5807-449c-ae8e-934dfbca05fc","geometry":{"type":"Point","coordinates":[-94.69815983417146,29.457290022799782]},"properties":{"substrate":"Mud","lease_number":null,"poll_year":2025}},{"type":"Feature","id":"4343115f-e87c-4f3e-92e1-c3e28620152e","geometry":{"type":"Point","coordinates":[-94.69937007057337,29.456639004816378]},"properties":{"substrate":"Mud","lease_number":null,"poll_year":2025}},{"type":"Feature","id":"4375ae7e-bf7b-45f8-b7ba-655f5d4d4fe7","geometry":{"type":"Point","coordinates":[-94.69814121299393,29.45667589281311]},"properties":{"substrate":"Mud","lease_number":null,"poll_year":2025}},{"type":"Feature","id":"447276af-6796-4e79-856c-961f68054757","geometry":{"type":"Point","coordinates":[-94.70003120277471,29.457831148312355]},"properties":{"substrate":"Mud","lease_number":null,"poll_year":2025}},{"type":"Feature","id":"4741ba0a-f360-4802-a3c1-3e82ae753980","geometry":{"type":"Point","coordinates":[-94.6981783493478,29.458121015679346]},"properties":{"substrate":"Solid Reef","lease_number":null,"poll_year":2025}},{"type":"Feature","id":"48328570-876c-4205-8a7c-457e3b461283","geometry":{"type":"Point","coordinates":[-94.69942121974734,29.457915655697587]},"properties":{"substrate":"Mud","lease_number":null,"poll_year":2025}},{"type":"Feature","id":"495c589b-e7b8-4570-8a9b-c2afaec9e297","geometry":{"type":"Point","coordinates":[-94.69960935571392,29.456470997655355]},"properties":{"substrate":"Mud","lease_number":null,"poll_year":2025}},{"type":"Feature","id":"49afd177-c74f-4489-bd30-46d4744b3e14","geometry":{"type":"Point","coordinates":[-94.69878191570909,29.456880194659664]},"properties":{"substrate":"Mud","lease_number":null,"poll_year":2025}},{"type":"Feature","id":"4d0598a4-5937-4876-b5d5-bb2810b36876","geometry":{"type":"Point","coordinates":[-94.70098558640728,29.45847544837307]},"properties":{"substrate":"Mud","lease_number":null,"poll_year":2025}},{"type":"Feature","id":"4df6cd2c-d23b-4714-8973-c908184d0f7a","geometry":{"type":"Point","coordinates":[-94.69883692584213,29.455558226707183]},"properties":{"substrate":"Mud","lease_number":null,"poll_year":2025}},{"type":"Feature","id":"50e8ef8d-6de7-4a87-8e1a-206d2f7146be","geometry":{"type":"Point","coordinates":[-94.6965876090494,29.45836809725259]},"properties":{"substrate":"Mud","lease_number":null,"poll_year":2025}},{"type":"Feature","id":"51020351-717f-4dbe-913b-289cb25e324f","geometry":{"type":"Point","coordinates":[-94.69946401369086,29.456392232690018]},"properties":{"substrate":"Mud","lease_number":null,"poll_year":2025}},{"type":"Feature","id":"511c58aa-a6ba-46b1-a610-5684349b79b2","geometry":{"type":"Point","coordinates":[-94.69728556409255,29.45836585162801]},"properties":{"substrate":"Mud","lease_number":null,"poll_year":2025}},{"type":"Feature","id":"54e3d47f-08ef-4a57-9495-fbeb1f85b900","geometry":{"type":"Point","coordinates":[-94.69849072141986,29.458250981334576]},"properties":{"substrate":"Solid Reef","lease_number":null,"poll_year":2025}},{"type":"Feature","id":"555e811d-b6e2-4ed9-995a-a72287bc6c1a","geometry":{"type":"Point","coordinates":[-94.69846216757023,29.45665047717255]},"properties":{"substrate":"Mud","lease_number":null,"poll_year":2025}},{"type":"Feature","id":"5767fa3c-235e-4d19-b6dc-5a6fe0c05012","geometry":{"type":"Point","coordinates":[-94.6981608708273,29.457140004615635]},"properties":{"substrate":"Mud","lease_number":null,"poll_year":2025}},{"type":"Feature","id":"5877243a-f225-4faa-acf3-e9a7c9543864","geometry":{"type":"Point","coordinates":[-94.69969715076157,29.45732871896705]},"properties":{"substrate":"Mud","lease_number":null,"poll_year":2025}},{"type":"Feature","id":"58e6314c-f748-4a92-8298-2c68e8aab446","geometry":{"type":"Point","coordinates":[-94.6987958692404,29.457412862273838]},"properties":{"substrate":"Mud","lease_number":null,"poll_year":2025}},{"type":"Feature","id":"58e6c107-ee49-4f05-b35e-69a82ed0b75f","geometry":{"type":"Point","coordinates":[-94.69848984556245,29.458448323350044]},"properties":{"substrate":"Solid Reef","lease_number":null,"poll_year":2025}},{"type":"Feature","id":"5a56c587-8ae8-4c33-b50a-748ef9cac371","geometry":{"type":"Point","coordinates":[-94.69727920402033,29.45819538738223]},"properties":{"substrate":"Mud","lease_number":null,"poll_year":2025}},{"type":"Feature","id":"5a91e76d-ba2f-4eab-80d7-ab07a0a53d59","geometry":{"type":"Point","coordinates":[-94.69881377535896,29.458563732337613]},"properties":{"substrate":"Mud","lease_number":null,"poll_year":2025}},{"type":"Feature","id":"5bf30092-2a45-475e-a0b1-14a383374b16","geometry":{"type":"Point","coordinates":[-94.69753868867836,29.457686689101692]},"properties":{"substrate":"Mud","lease_number":null,"poll_year":2025}},{"type":"Feature","id":"5caf5860-cee7-438d-ac1c-19be6e82a455","geometry":{"type":"Point","coordinates":[-94.69908822864456,29.45639440561458]},"properties":{"substrate":"Mud","lease_number":null,"poll_year":2025}},{"type":"Feature","id":"5ccb2d6c-39eb-4188-95d6-0dc3410698de","geometry":{"type":"Point","coordinates":[-94.70067727561863,29.45822772098379]},"properties":{"substrate":"Mud","lease_number":null,"poll_year":2025}},{"type":"Feature","id":"5d97ed8f-f35d-4961-bbb2-824f2a4fc069","geometry":{"type":"Point","coordinates":[-94.6984887136852,29.458083896683604]},"properties":{"substrate":"Solid Reef","lease_number":null,"poll_year":2025}},{"type":"Feature","id":"5e1ecb90-2b89-4134-ad10-76a68e5aa377","geometry":{"type":"Point","coordinates":[-94.69789129269876,29.45842670326465]},"properties":{"substrate":"Mud","lease_number":null,"poll_year":2025}},{"type":"Feature","id":"6035ce01-3d22-4a3b-a139-ee0a90f6bf3c","geometry":{"type":"Point","coordinates":[-94.7000325475527,29.457424249284585]},"properties":{"substrate":"Mud","lease_number":null,"poll_year":2025}},{"type":"Feature","id":"61e3c686-1ee1-4766-9efd-188238dd25fb","geometry":{"type":"Point","coordinates":[-94.69912019429563,29.458479238007023]},"properties":{"substrate":"Mud","lease_number":null,"poll_year":2025}},{"type":"Feature","id":"6392d6ed-73ab-4945-8b67-010981600204","geometry":{"type":"Point","coordinates":[-94.69755664959415,29.45858668991021]},"properties":{"substrate":"Solid Reef","lease_number":null,"poll_year":2025}},{"type":"Feature","id":"650d3b9e-cea0-4c11-8c94-e9de49fe4988","geometry":{"type":"Point","coordinates":[-94.70004706163274,29.45810148706579]},"properties":{"substrate":"Mud","lease_number":null,"poll_year":2025}},{"type":"Feature","id":"67722346-26b6-4f64-883b-2102f7f82f28","geometry":{"type":"Point","coordinates":[-94.69911565600681,29.458340964379097]},"properties":{"substrate":"Mud","lease_number":null,"poll_year":2025}},{"type":"Feature","id":"6ac30e88-8dca-40a6-b9cd-539f3fe47f6a","geometry":{"type":"Point","coordinates":[-94.70006089029822,29.458371921306252]},"properties":{"substrate":"Mud","lease_number":null,"poll_year":2025}},{"type":"Feature","id":"6d37bf45-46cb-414d-b16d-67e221eacd78","geometry":{"type":"Point","coordinates":[-94.6997154305793,29.458629559258206]},"properties":{"substrate":"Mud","lease_number":null,"poll_year":2025}},{"type":"Feature","id":"6d8f9bcd-9f0d-4bad-8920-dbe21b9da86b","geometry":{"type":"Point","coordinates":[-94.69843643802386,29.45593138312587]},"properties":{"substrate":"Mud","lease_number":null,"poll_year":2025}},{"type":"Feature","id":"6f9386ac-db4e-4741-ae8e-1dae0116e95e","geometry":{"type":"Point","coordinates":[-94.6987644542566,29.456516564104025]},"properties":{"substrate":"Mud","lease_number":null,"poll_year":2025}},{"type":"Feature","id":"704ed71d-a63d-4412-9123-866a7731e97e","geometry":{"type":"Point","coordinates":[-94.69788698707357,29.45863516978511]},"properties":{"substrate":"Mud","lease_number":null,"poll_year":2025}},{"type":"Feature","id":"71f76bd2-c5d5-4f4c-bf59-0c405f44e30a","geometry":{"type":"Point","coordinates":[-94.69848716409132,29.457939037357587]},"properties":{"substrate":"Solid Reef","lease_number":null,"poll_year":2025}},{"type":"Feature","id":"742b0b43-f882-4d4f-8ca1-91dce178e75b","geometry":{"type":"Point","coordinates":[-94.69816836726835,29.457560100182327]},"properties":{"substrate":"Mud","lease_number":null,"poll_year":2025}},{"type":"Feature","id":"74b7f2cd-d44f-4ffc-af1e-004516fe4514","geometry":{"type":"Point","coordinates":[-94.69816736924008,29.457438470922412]},"properties":{"substrate":"Mud","lease_number":null,"poll_year":2025}},{"type":"Feature","id":"74e76eb0-b9fa-4db8-8cf6-c6f27d57533d","geometry":{"type":"Point","coordinates":[-94.6984774766593,29.457288851089093]},"properties":{"substrate":"Mud","lease_number":null,"poll_year":2025}},{"type":"Feature","id":"76381272-3e29-4944-90b2-e3b8beb2a2c2","geometry":{"type":"Point","coordinates":[-94.69693622544824,29.457987756888432]},"properties":{"substrate":"Mud","lease_number":null,"poll_year":2025}},{"type":"Feature","id":"785d36de-41bc-446c-b950-30cdb67b0842","geometry":{"type":"Point","coordinates":[-94.69911356023725,29.457125248703854]},"properties":{"substrate":"Mud","lease_number":null,"poll_year":2025}},{"type":"Feature","id":"78d2b9ef-d206-4040-8ec6-330166ac2364","geometry":{"type":"Point","coordinates":[-94.69722918762194,29.4575458300663]},"properties":{"substrate":"Mud","lease_number":null,"poll_year":2025}},{"type":"Feature","id":"79ec6df0-f0ad-4180-a1d6-568faaa64c22","geometry":{"type":"Point","coordinates":[-94.69910672944783,29.456959401963395]},"properties":{"substrate":"Mud","lease_number":null,"poll_year":2025}},{"type":"Feature","id":"7d02d2be-3b1a-454a-b39f-bd5a56524297","geometry":{"type":"Point","coordinates":[-94.70006252074046,29.458616701897242]},"properties":{"substrate":"Mud","lease_number":null,"poll_year":2025}},{"type":"Feature","id":"7d635614-de57-4e4f-acac-c10e5fb16972","geometry":{"type":"Point","coordinates":[-94.69786452559823,29.45690859819441]},"properties":{"substrate":"Mud","lease_number":null,"poll_year":2025}},{"type":"Feature","id":"7d6f125a-a5d9-4178-b02e-6e587e6d62d4","geometry":{"type":"Point","coordinates":[-94.698786764815,29.457049371292094]},"properties":{"substrate":"Mud","lease_number":null,"poll_year":2025}},{"type":"Feature","id":"7f80f098-9488-47d4-8a11-0899ca2c1f52","geometry":{"type":"Point","coordinates":[-94.69849223328447,29.458619844668778]},"properties":{"substrate":"Solid Reef","lease_number":null,"poll_year":2025}},{"type":"Feature","id":"7f9dcfb9-2b9e-492b-85cb-fddd05ecc407","geometry":{"type":"Point","coordinates":[-94.69911041343882,29.458204570132395]},"properties":{"substrate":"Mud","lease_number":null,"poll_year":2025}},{"type":"Feature","id":"8090ce91-d6ce-435e-9f90-da7fc4e34188","geometry":{"type":"Point","coordinates":[-94.70034778075895,29.457911708042516]},"properties":{"substrate":"Mud","lease_number":null,"poll_year":2025}},{"type":"Feature","id":"8175057c-3923-4c8e-a07d-225cf7a3a20d","geometry":{"type":"Point","coordinates":[-94.69788875495807,29.45807913869942]},"properties":{"substrate":"Solid Reef","lease_number":null,"poll_year":2025}},{"type":"Feature","id":"82c43771-3459-4f5c-99d8-ff88b6f5d8c1","geometry":{"type":"Point","coordinates":[-94.69909611944603,29.456255848338277]},"properties":{"substrate":"Mud","lease_number":null,"poll_year":2025}},{"type":"Feature","id":"83830837-566a-4922-b79e-c3319370f0a8","geometry":{"type":"Point","coordinates":[-94.69845154139873,29.456069447281667]},"properties":{"substrate":"Mud","lease_number":null,"poll_year":2025}},{"type":"Feature","id":"83b6021a-a81b-4fc8-9dea-37cb5ae1c782","geometry":{"type":"Point","coordinates":[-94.6994173444152,29.457792230979987]},"properties":{"substrate":"Mud","lease_number":null,"poll_year":2025}},{"type":"Feature","id":"83bc8c6f-131e-4960-9e72-da81cbca44ab","geometry":{"type":"Point","coordinates":[-94.6972693926208,29.4577666451039]},"properties":{"substrate":"Mud","lease_number":null,"poll_year":2025}},{"type":"Feature","id":"86030625-9c94-4472-a163-90c16eaf95c9","geometry":{"type":"Point","coordinates":[-94.70002239838662,29.457593299078543]},"properties":{"substrate":"Mud","lease_number":null,"poll_year":2025}},{"type":"Feature","id":"8ada0bfc-28f1-4a73-9b73-12c73ae6ce63","geometry":{"type":"Point","coordinates":[-94.69847694575496,29.45699573762063]},"properties":{"substrate":"Mud","lease_number":null,"poll_year":2025}},{"type":"Feature","id":"8b95a11a-f3cf-4bf6-ab8e-5d24a024fdc6","geometry":{"type":"Point","coordinates":[-94.69943485976661,29.4586878053198]},"properties":{"substrate":"Mud","lease_number":null,"poll_year":2025}},{"type":"Feature","id":"8f6a5bbd-a830-4d74-ae0f-95963436925a","geometry":{"type":"Point","coordinates":[-94.69910558229921,29.457551004978164]},"properties":{"substrate":"Mud","lease_number":null,"poll_year":2025}},{"type":"Feature","id":"8fea5356-416f-4239-b82f-83863a66ea0f","geometry":{"type":"Point","coordinates":[-94.6997109048669,29.457939226644747]},"properties":{"substrate":"Mud","lease_number":null,"poll_year":2025}},{"type":"Feature","id":"909e7a39-a274-4ba9-b579-fe70f0117d1e","geometry":{"type":"Point","coordinates":[-94.70097347532064,29.45833917163342]},"properties":{"substrate":"Mud","lease_number":null,"poll_year":2025}},{"type":"Feature","id":"926d2990-ff43-43a8-8ba6-faed61b5c74b","geometry":{"type":"Point","coordinates":[-94.69908901467042,29.455983096292996]},"properties":{"substrate":"Mud","lease_number":null,"poll_year":2025}},{"type":"Feature","id":"9343b757-5d60-44cb-a33a-279871d47071","geometry":{"type":"Point","coordinates":[-94.69787608601762,29.457390983847517]},"properties":{"substrate":"Mud","lease_number":null,"poll_year":2025}},{"type":"Feature","id":"965fa5f1-e472-49d3-8a09-c846fa31152b","geometry":{"type":"Point","coordinates":[-94.69943118655542,29.45842649364186]},"properties":{"substrate":"Mud","lease_number":null,"poll_year":2025}},{"type":"Feature","id":"9737f112-03db-408c-a246-bd165af9d2f6","geometry":{"type":"Point","coordinates":[-94.69627872962717,29.45868287137509]},"properties":{"substrate":"Firm/Hard Bottom","lease_number":null,"poll_year":2025}},{"type":"Feature","id":"97cd1b2b-2bf0-4e60-8cab-01b67bd7e988","geometry":{"type":"Point","coordinates":[-94.69847904062621,29.457572095713488]},"properties":{"substrate":"Mud","lease_number":null,"poll_year":2025}},{"type":"Feature","id":"97e81d47-cebb-4098-810a-58bdaf59dfe6","geometry":{"type":"Point","coordinates":[-94.69815624270696,29.45698336735432]},"properties":{"substrate":"Mud","lease_number":null,"poll_year":2025}},{"type":"Feature","id":"9886c4e8-ccf5-48bc-b145-8e27be23e966","geometry":{"type":"Point","coordinates":[-94.69814256136517,29.456147452206835]},"properties":{"substrate":"Mud","lease_number":null,"poll_year":2025}},{"type":"Feature","id":"9bca05f0-9065-4655-879e-f1dc07d7fa15","geometry":{"type":"Point","coordinates":[-94.6984770239084,29.457428533297044]},"properties":{"substrate":"Mud","lease_number":null,"poll_year":2025}},{"type":"Feature","id":"a0acfc3b-2ab4-4865-a393-430d8ab18bbe","geometry":{"type":"Point","coordinates":[-94.69788824112173,29.45828160899325]},"properties":{"substrate":"Solid Reef","lease_number":null,"poll_year":2025}},{"type":"Feature","id":"a0b1ebe0-fe0a-47c4-adcf-a9f3a0a96fa7","geometry":{"type":"Point","coordinates":[-94.69939092406437,29.45727230087012]},"properties":{"substrate":"Mud","lease_number":null,"poll_year":2025}},{"type":"Feature","id":"a3c6587c-dc06-4f39-9e3d-c6a54a8db7b0","geometry":{"type":"Point","coordinates":[-94.69813790629539,29.45654802062455]},"properties":{"substrate":"Mud","lease_number":null,"poll_year":2025}},{"type":"Feature","id":"a53d4c0f-f369-4c49-9304-527ade9bdd59","geometry":{"type":"Point","coordinates":[-94.69880927390106,29.45801123786839]},"properties":{"substrate":"Mud","lease_number":null,"poll_year":2025}},{"type":"Feature","id":"a54efc3c-7a64-4c40-827a-fb184286bed0","geometry":{"type":"Point","coordinates":[-94.69692569719311,29.45786000133372]},"properties":{"substrate":"Mud","lease_number":null,"poll_year":2025}},{"type":"Feature","id":"a5537944-c253-4027-a985-b261758b2bad","geometry":{"type":"Point","coordinates":[-94.69846770568395,29.45682225495968]},"properties":{"substrate":"Mud","lease_number":null,"poll_year":2025}},{"type":"Feature","id":"a6578eec-3b1e-4dc8-99b5-0811b42450d7","geometry":{"type":"Point","coordinates":[-94.69881150890949,29.458446682348058]},"properties":{"substrate":"Mud","lease_number":null,"poll_year":2025}},{"type":"Feature","id":"a8e6609c-fb86-46dc-9744-d2e8baadd17d","geometry":{"type":"Point","coordinates":[-94.69753559398222,29.45755833167043]},"properties":{"substrate":"Mud","lease_number":null,"poll_year":2025}},{"type":"Feature","id":"a96b6020-b8a7-41a9-99ee-a2b7535f64ea","geometry":{"type":"Point","coordinates":[-94.69911111681968,29.457689123246727]},"properties":{"substrate":"Mud","lease_number":null,"poll_year":2025}},{"type":"Feature","id":"a9f31b0e-a08c-4e26-82d4-4d8b17e23341","geometry":{"type":"Point","coordinates":[-94.69818333409931,29.45871994635002]},"properties":{"substrate":"Solid Reef","lease_number":null,"poll_year":2025}},{"type":"Feature","id":"aa81acc5-48ae-4630-a9a4-be872e0a6184","geometry":{"type":"Point","coordinates":[-94.69938360728639,29.457123952623903]},"properties":{"substrate":"Mud","lease_number":null,"poll_year":2025}},{"type":"Feature","id":"aac3a023-0eb1-42a6-b632-10ce38d3e155","geometry":{"type":"Point","coordinates":[-94.69876565440582,29.456250061686717]},"properties":{"substrate":"Mud","lease_number":null,"poll_year":2025}},{"type":"Feature","id":"abc032bc-c15a-4feb-a60d-7d10810567da","geometry":{"type":"Point","coordinates":[-94.69911394291957,29.458040287165105]},"properties":{"substrate":"Mud","lease_number":null,"poll_year":2025}},{"type":"Feature","id":"aeb994d8-2cd8-479d-82e3-7824db0f21ec","geometry":{"type":"Point","coordinates":[-94.69813453761307,29.45639954616881]},"properties":{"substrate":"Mud","lease_number":null,"poll_year":2025}},{"type":"Feature","id":"aeef5fe2-0ff5-47ef-bca8-cc8f1ca866b5","geometry":{"type":"Point","coordinates":[-94.69912258740754,29.457895214241976]},"properties":{"substrate":"Mud","lease_number":null,"poll_year":2025}},{"type":"Feature","id":"b059b6e1-8865-4e45-bb12-f88f4f4bbb5d","geometry":{"type":"Point","coordinates":[-94.69814776171236,29.45599018061859]},"properties":{"substrate":"Mud","lease_number":null,"poll_year":2025}},{"type":"Feature","id":"b2c78a60-a112-41fb-907a-ca7bdb41d04d","geometry":{"type":"Point","coordinates":[-94.69752944591242,29.457430898616245]},"properties":{"substrate":"Mud","lease_number":null,"poll_year":2025}},{"type":"Feature","id":"b9fa3b9a-0b5d-4124-af87-bba981606c07","geometry":{"type":"Point","coordinates":[-94.69936653031284,29.456757102676246]},"properties":{"substrate":"Mud","lease_number":null,"poll_year":2025}},{"type":"Feature","id":"becc276b-01af-49d3-8479-45c023198129","geometry":{"type":"Point","coordinates":[-94.69969070175617,29.457192803620366]},"properties":{"substrate":"Mud","lease_number":null,"poll_year":2025}},{"type":"Feature","id":"bff725f1-5b9a-4279-8da2-21a41cc687b3","geometry":{"type":"Point","coordinates":[-94.69756349206168,29.45871565926341]},"properties":{"substrate":"Mud","lease_number":null,"poll_year":2025}},{"type":"Feature","id":"c1fdda49-2f68-413e-b56f-2906f4ac364b","geometry":{"type":"Point","coordinates":[-94.69817617272986,29.457818983861102]},"properties":{"substrate":"Solid Reef","lease_number":null,"poll_year":2025}},{"type":"Feature","id":"c2c4b742-cbbd-4463-9b96-1dde54010d1a","geometry":{"type":"Point","coordinates":[-94.69754901301593,29.458121561638883]},"properties":{"substrate":"Solid Reef","lease_number":null,"poll_year":2025}},{"type":"Feature","id":"c304d025-f8ea-461f-bc28-49100c370199","geometry":{"type":"Point","coordinates":[-94.69813393304688,29.456274994033485]},"properties":{"substrate":"Mud","lease_number":null,"poll_year":2025}},{"type":"Feature","id":"c34170b8-43aa-4244-b02f-f51a3acf5e4a","geometry":{"type":"Point","coordinates":[-94.70093876262142,29.45815245371229]},"properties":{"substrate":"Mud","lease_number":null,"poll_year":2025}},{"type":"Feature","id":"c474539e-eb7e-4e46-a387-426e848fba92","geometry":{"type":"Point","coordinates":[-94.6962674764316,29.458438305259605]},"properties":{"substrate":"Mud","lease_number":null,"poll_year":2025}},{"type":"Feature","id":"c8ec353e-358a-4f9e-987f-7ed9b4f6200f","geometry":{"type":"Point","coordinates":[-94.6969303450764,29.457671015771837]},"properties":{"substrate":"Mud","lease_number":null,"poll_year":2025}},{"type":"Feature","id":"c9a3d412-aa8c-4e0d-8393-8f80dc1b17b6","geometry":{"type":"Point","coordinates":[-94.69755628038658,29.45843340415406]},"properties":{"substrate":"Solid Reef","lease_number":null,"poll_year":2025}},{"type":"Feature","id":"cb6c17dd-a15d-46f9-b3a4-99db69402e9c","geometry":{"type":"Point","coordinates":[-94.70034980825653,29.45821713735822]},"properties":{"substrate":"Mud","lease_number":null,"poll_year":2025}},{"type":"Feature","id":"cf31bc42-9fec-4b61-bdfa-89848115dfe5","geometry":{"type":"Point","coordinates":[-94.70034521786543,29.457556889328142]},"properties":{"substrate":"Mud","lease_number":null,"poll_year":2025}},{"type":"Feature","id":"d0b9e80a-ed22-4662-b932-aba292d37ac3","geometry":{"type":"Point","coordinates":[-94.69942319065107,29.458060913967522]},"properties":{"substrate":"Mud","lease_number":null,"poll_year":2025}},{"type":"Feature","id":"d1498293-ede2-49d1-929c-9883c019f0e1","geometry":{"type":"Point","coordinates":[-94.70066497858072,29.458645048629304]},"properties":{"substrate":"Mud","lease_number":null,"poll_year":2025}},{"type":"Feature","id":"d2be0dcc-e479-46a6-b0a1-7f6e95aaea13","geometry":{"type":"Point","coordinates":[-94.69939163193682,29.456498518994945]},"properties":{"substrate":"Mud","lease_number":null,"poll_year":2025}},{"type":"Feature","id":"d47d4ceb-aa5c-4b9f-9284-444338197015","geometry":{"type":"Point","coordinates":[-94.69880183315557,29.45762363909328]},"properties":{"substrate":"Mud","lease_number":null,"poll_year":2025}},{"type":"Feature","id":"d4819a23-d482-4b8d-9071-06bd0c558b58","geometry":{"type":"Point","coordinates":[-94.69845380605156,29.456236761303817]},"properties":{"substrate":"Mud","lease_number":null,"poll_year":2025}},{"type":"Feature","id":"d5377417-a905-4c06-b6c4-4efdc2f8f2b9","geometry":{"type":"Point","coordinates":[-94.6990945968016,29.45611683720116]},"properties":{"substrate":"Mud","lease_number":null,"poll_year":2025}},{"type":"Feature","id":"d5f96f38-5eb5-4d5f-8362-0204a1be7ca3","geometry":{"type":"Point","coordinates":[-94.69970572428267,29.45763582781556]},"properties":{"substrate":"Mud","lease_number":null,"poll_year":2025}},{"type":"Feature","id":"d7999530-81f7-4e05-9b57-353846590c76","geometry":{"type":"Point","coordinates":[-94.69787223314337,29.457251288290752]},"properties":{"substrate":"Mud","lease_number":null,"poll_year":2025}},{"type":"Feature","id":"d9a532bf-503e-46d4-a1e2-7445a82db6d8","geometry":{"type":"Point","coordinates":[-94.69942705071185,29.458307397322905]},"properties":{"substrate":"Mud","lease_number":null,"poll_year":2025}},{"type":"Feature","id":"dca3f168-bb68-422f-85e1-a9a2ec602320","geometry":{"type":"Point","coordinates":[-94.69968566310573,29.456890514827926]},"properties":{"substrate":"Mud","lease_number":null,"poll_year":2025}},{"type":"Feature","id":"df8c4b1f-8e03-4d9c-8e28-1348c92954b2","geometry":{"type":"Point","coordinates":[-94.69658795040922,29.45854359684243]},"properties":{"substrate":"Mud","lease_number":null,"poll_year":2025}},{"type":"Feature","id":"e1e14fdd-d59f-4241-adc5-bbaf712a4543","geometry":{"type":"Point","coordinates":[-94.7003487257866,29.457719899689252]},"properties":{"substrate":"Mud","lease_number":null,"poll_year":2025}},{"type":"Feature","id":"e77ebf25-79e0-49a3-8684-5980cec2b1d4","geometry":{"type":"Point","coordinates":[-94.69971161812923,29.458075000981605]},"properties":{"substrate":"Mud","lease_number":null,"poll_year":2025}},{"type":"Feature","id":"e9403590-bff8-4a18-9bdf-dfcbbe9d13d9","geometry":{"type":"Point","coordinates":[-94.70003867585956,29.45797972861344]},"properties":{"substrate":"Mud","lease_number":null,"poll_year":2025}},{"type":"Feature","id":"e9efb583-bf1a-4246-b52d-f33c8d25d8ea","geometry":{"type":"Point","coordinates":[-94.70006025069775,29.458493806000057]},"properties":{"substrate":"Mud","lease_number":null,"poll_year":2025}},{"type":"Feature","id":"ea0e5872-324f-48c9-a679-fd4ae1bc431d","geometry":{"type":"Point","coordinates":[-94.69967816037646,29.45675533571481]},"properties":{"substrate":"Mud","lease_number":null,"poll_year":2025}},{"type":"Feature","id":"eb1199ee-1810-49cd-8cde-1bcde6a64794","geometry":{"type":"Point","coordinates":[-94.7007125794093,29.458117266705198]},"properties":{"substrate":"Mud","lease_number":null,"poll_year":2025}},{"type":"Feature","id":"ec0be2aa-3131-4d86-ade7-f577b8f876d2","geometry":{"type":"Point","coordinates":[-94.70066394282317,29.458374460246326]},"properties":{"substrate":"Mud","lease_number":null,"poll_year":2025}},{"type":"Feature","id":"edb524d1-744c-4cc7-896c-4c3e689334ec","geometry":{"type":"Point","coordinates":[-94.69787767513735,29.457534235008907]},"properties":{"substrate":"Mud","lease_number":null,"poll_year":2025}},{"type":"Feature","id":"f0aef7ee-7419-4315-95b6-72af0126b5a1","geometry":{"type":"Point","coordinates":[-94.70002086586074,29.45770863316737]},"properties":{"substrate":"Mud","lease_number":null,"poll_year":2025}},{"type":"Feature","id":"f1ab7062-ac89-4b0f-91a6-a6d639d56d54","geometry":{"type":"Point","coordinates":[-94.69910193424084,29.456825205368833]},"properties":{"substrate":"Mud","lease_number":null,"poll_year":2025}},{"type":"Feature","id":"f35d2d01-8fc0-4772-9bb5-dd47206d1c8f","geometry":{"type":"Point","coordinates":[-94.69942331282193,29.458184363387947]},"properties":{"substrate":"Mud","lease_number":null,"poll_year":2025}},{"type":"Feature","id":"f49f6687-1a7a-4919-b1bb-0a6f77e2c55b","geometry":{"type":"Point","coordinates":[-94.69727729959193,29.457999948695736]},"properties":{"substrate":"Mud","lease_number":null,"poll_year":2025}},{"type":"Feature","id":"f5e63c6d-bb71-47a1-8725-009ce6bd0914","geometry":{"type":"Point","coordinates":[-94.69910074037983,29.45668988224606]},"properties":{"substrate":"Mud","lease_number":null,"poll_year":2025}},{"type":"Feature","id":"f812812d-3e0b-4924-870d-5c0b6792f534","geometry":{"type":"Point","coordinates":[-94.69728370457992,29.458556387727892]},"properties":{"substrate":"Mud","lease_number":null,"poll_year":2025}},{"type":"Feature","id":"fba3173f-2eeb-4d69-9e77-6ca450cf3a66","geometry":{"type":"Point","coordinates":[-94.699719427184,29.458212499835412]},"properties":{"substrate":"Mud","lease_number":null,"poll_year":2025}},{"type":"Feature","id":"fe3d3e37-da77-41f8-9829-cbf5e00badd9","geometry":{"type":"Point","coordinates":[-94.69970035864546,29.45749485685752]},"properties":{"substrate":"Mud","lease_number":null,"poll_year":2025}}]}