{"type":"FeatureCollection","features":[{"type":"Feature","id":"0001753e-35d3-4d70-886d-e285ad2d1ee2","geometry":{"type":"Point","coordinates":[-94.70084284231201,29.478043394881144]},"properties":{"substrate":"Buried Shell","lease_number":null,"poll_year":2025}},{"type":"Feature","id":"00e944fe-e6b7-4917-86c4-15bf9a66ec32","geometry":{"type":"Point","coordinates":[-94.6997382118549,29.47799083273664]},"properties":{"substrate":"Mud","lease_number":null,"poll_year":2025}},{"type":"Feature","id":"01bd39f5-e17e-4d3c-8842-ab0c890b06e2","geometry":{"type":"Point","coordinates":[-94.69864967920769,29.477864474052367]},"properties":{"substrate":"Mud","lease_number":null,"poll_year":2025}},{"type":"Feature","id":"02c548ef-a4f5-4aa9-a5f9-6ff5c72458cf","geometry":{"type":"Point","coordinates":[-94.70074101468128,29.47862514189575]},"properties":{"substrate":"Mud","lease_number":null,"poll_year":2025}},{"type":"Feature","id":"05a229c3-c256-413f-a8f8-a90161be9b22","geometry":{"type":"Point","coordinates":[-94.70008710134157,29.47921928831752]},"properties":{"substrate":"Mud","lease_number":null,"poll_year":2025}},{"type":"Feature","id":"08138667-8c5f-427c-b5c1-ba3d3117ef72","geometry":{"type":"Point","coordinates":[-94.69851527057993,29.4778913756972]},"properties":{"substrate":"Mud","lease_number":null,"poll_year":2025}},{"type":"Feature","id":"0a699e83-4df5-462b-bbb4-fea9d4dd598d","geometry":{"type":"Point","coordinates":[-94.70155262277756,29.480130014064912]},"properties":{"substrate":"Scattered Shell","lease_number":null,"poll_year":2025}},{"type":"Feature","id":"0d22a30c-7666-4225-b483-a7ed4fecd695","geometry":{"type":"Point","coordinates":[-94.70049741493244,29.47810024170171]},"properties":{"substrate":"Buried Shell","lease_number":null,"poll_year":2025}},{"type":"Feature","id":"0ecae4b9-8954-49f5-944b-aad542cc272a","geometry":{"type":"Point","coordinates":[-94.70117783575957,29.47944597365115]},"properties":{"substrate":"Mud","lease_number":null,"poll_year":2025}},{"type":"Feature","id":"0fdd034a-f486-481d-b4a9-558c20ddb20b","geometry":{"type":"Point","coordinates":[-94.7004401778758,29.478997310212794]},"properties":{"substrate":"Mud","lease_number":null,"poll_year":2025}},{"type":"Feature","id":"161e7d5d-0a48-4056-b267-2b92632c9166","geometry":{"type":"Point","coordinates":[-94.70177141465155,29.47879288478829]},"properties":{"substrate":"Buried Shell","lease_number":null,"poll_year":2025}},{"type":"Feature","id":"16f16c4b-c68e-496a-acd7-84c3f646f735","geometry":{"type":"Point","coordinates":[-94.7010606954465,29.47891054863709]},"properties":{"substrate":"Mud","lease_number":null,"poll_year":2025}},{"type":"Feature","id":"17ae4641-5142-42fa-a99b-186715dbd521","geometry":{"type":"Point","coordinates":[-94.70065657124796,29.479210780784584]},"properties":{"substrate":"Mud","lease_number":null,"poll_year":2025}},{"type":"Feature","id":"1c03ce26-5460-4517-9e75-39dceea25b00","geometry":{"type":"Point","coordinates":[-94.70211519541918,29.47988874031944]},"properties":{"substrate":"Scattered Shell","lease_number":null,"poll_year":2025}},{"type":"Feature","id":"1cf69431-1893-4832-a7c6-5f461e4a46c9","geometry":{"type":"Point","coordinates":[-94.70121063325057,29.47829480332441]},"properties":{"substrate":"Mud","lease_number":null,"poll_year":2025}},{"type":"Feature","id":"22f0718a-620f-44c9-8bf5-ade8763e813c","geometry":{"type":"Point","coordinates":[-94.70192405099472,29.479418065186632]},"properties":{"substrate":"Solid Reef","lease_number":null,"poll_year":2025}},{"type":"Feature","id":"2322df3c-4729-4cd9-8f67-2c252f21a4f4","geometry":{"type":"Point","coordinates":[-94.7000729555708,29.47911390402774]},"properties":{"substrate":"Mud","lease_number":null,"poll_year":2025}},{"type":"Feature","id":"23243cc8-be3c-4af8-b10b-59a95cbb268b","geometry":{"type":"Point","coordinates":[-94.69888368674594,29.478117859892805]},"properties":{"substrate":"Mud","lease_number":null,"poll_year":2025}},{"type":"Feature","id":"2d949b9b-2a25-43d2-90e9-98d68ca905b5","geometry":{"type":"Point","coordinates":[-94.70061002144826,29.478083633099175]},"properties":{"substrate":"Buried Shell","lease_number":null,"poll_year":2025}},{"type":"Feature","id":"2db6a899-9910-4c15-8103-36f6d4801626","geometry":{"type":"Point","coordinates":[-94.69836896376623,29.477909832254692]},"properties":{"substrate":"Mud","lease_number":null,"poll_year":2025}},{"type":"Feature","id":"2f7ae0cc-e189-4f35-bd60-8c8a71f86534","geometry":{"type":"Point","coordinates":[-94.70056517036275,29.47897958034629]},"properties":{"substrate":"Mud","lease_number":null,"poll_year":2025}},{"type":"Feature","id":"30dc3df4-93cd-4570-9150-1f520bc482da","geometry":{"type":"Point","coordinates":[-94.70035715108567,29.4781293532799]},"properties":{"substrate":"Mud","lease_number":null,"poll_year":2025}},{"type":"Feature","id":"311f6532-106f-4d86-bdb5-e11c759f0ddd","geometry":{"type":"Point","coordinates":[-94.69993569569033,29.47819526916302]},"properties":{"substrate":"Mud","lease_number":null,"poll_year":2025}},{"type":"Feature","id":"31b268c3-43e9-49e2-8398-d032c85c1561","geometry":{"type":"Point","coordinates":[-94.69999915358034,29.478752116643804]},"properties":{"substrate":"Mud","lease_number":null,"poll_year":2025}},{"type":"Feature","id":"3ae6ccc1-f614-4c77-a4be-017b6036dd95","geometry":{"type":"Point","coordinates":[-94.7012438116273,29.478538542661468]},"properties":{"substrate":"Scattered Shell","lease_number":null,"poll_year":2025}},{"type":"Feature","id":"3b625962-490e-4792-91bd-41e669b0234d","geometry":{"type":"Point","coordinates":[-94.69923761578136,29.47831494662817]},"properties":{"substrate":"Mud","lease_number":null,"poll_year":2025}},{"type":"Feature","id":"3cd5c41d-cb33-4c11-b396-2ac58fc6b35f","geometry":{"type":"Point","coordinates":[-94.70206937684813,29.47840376073554]},"properties":{"substrate":"Buried Shell","lease_number":null,"poll_year":2025}},{"type":"Feature","id":"3dccd744-ef23-4cb2-8a30-faafee41006e","geometry":{"type":"Point","coordinates":[-94.70167520957618,29.48016145935089]},"properties":{"substrate":"Solid Reef","lease_number":null,"poll_year":2025}},{"type":"Feature","id":"3ddbde12-7bed-487a-a55d-c0b11fe731d1","geometry":{"type":"Point","coordinates":[-94.70190335381058,29.47838243425218]},"properties":{"substrate":"Buried Shell","lease_number":null,"poll_year":2025}},{"type":"Feature","id":"3e3b3759-db52-40d2-bab6-55542ed8167d","geometry":{"type":"Point","coordinates":[-94.70209362237763,29.479558027372768]},"properties":{"substrate":"Scattered Shell","lease_number":null,"poll_year":2025}},{"type":"Feature","id":"3ee53fdf-b23f-4a23-9a60-e2adc562a9b3","geometry":{"type":"Point","coordinates":[-94.70108501733283,29.47831276635305]},"properties":{"substrate":"Mud","lease_number":null,"poll_year":2025}},{"type":"Feature","id":"3f255d4b-4dab-44bd-bf3d-298122ff30f7","geometry":{"type":"Point","coordinates":[-94.70192155996644,29.47843144034743]},"properties":{"substrate":"Buried Shell","lease_number":null,"poll_year":2025}},{"type":"Feature","id":"455eb9da-e0ca-4c8f-81cc-af64f5bd0d33","geometry":{"type":"Point","coordinates":[-94.70191300800494,29.479562770272988]},"properties":{"substrate":"Scattered Shell","lease_number":null,"poll_year":2025}},{"type":"Feature","id":"4746a3b2-ddaa-44a2-90bb-c180e74f9221","geometry":{"type":"Point","coordinates":[-94.70092033727661,29.478347513113246]},"properties":{"substrate":"Mud","lease_number":null,"poll_year":2025}},{"type":"Feature","id":"48908525-f57f-4cc3-91ee-26b7b777f073","geometry":{"type":"Point","coordinates":[-94.6998822845585,29.47796460365872]},"properties":{"substrate":"Mud","lease_number":null,"poll_year":2025}},{"type":"Feature","id":"4b29f334-6c4a-4ba1-9edf-35a8320136f4","geometry":{"type":"Point","coordinates":[-94.7019469948654,29.478769357007074]},"properties":{"substrate":"Buried Shell","lease_number":null,"poll_year":2025}},{"type":"Feature","id":"4c628975-2cea-4a10-9e98-92fb4ad694e4","geometry":{"type":"Point","coordinates":[-94.69996624918977,29.478502236619413]},"properties":{"substrate":"Mud","lease_number":null,"poll_year":2025}},{"type":"Feature","id":"53b626b7-f354-40e0-8c52-3fa6551ed7d3","geometry":{"type":"Point","coordinates":[-94.69972452691988,29.478803642220473]},"properties":{"substrate":"Mud","lease_number":null,"poll_year":2025}},{"type":"Feature","id":"5585e6d5-a86d-40ff-b4b3-bcad223f499f","geometry":{"type":"Point","coordinates":[-94.69823347087194,29.47792932264481]},"properties":{"substrate":"Mud","lease_number":null,"poll_year":2025}},{"type":"Feature","id":"5916af36-6cb1-4d24-a32b-c6bc370ac084","geometry":{"type":"Point","coordinates":[-94.70018117201982,29.478719303170983]},"properties":{"substrate":"Mud","lease_number":null,"poll_year":2025}},{"type":"Feature","id":"591ced5d-bee4-4d41-918a-d18b28d40a88","geometry":{"type":"Point","coordinates":[-94.70012623644693,29.478168688228006]},"properties":{"substrate":"Mud","lease_number":null,"poll_year":2025}},{"type":"Feature","id":"5b6c8631-8e84-48c5-9ba7-4a7e28bba73d","geometry":{"type":"Point","coordinates":[-94.70176619723635,29.47845552109532]},"properties":{"substrate":"Buried Shell","lease_number":null,"poll_year":2025}},{"type":"Feature","id":"5cc0a697-969a-45ee-a34a-ae565f828627","geometry":{"type":"Point","coordinates":[-94.7007160828389,29.47960625401649]},"properties":{"substrate":"Mud","lease_number":null,"poll_year":2025}},{"type":"Feature","id":"5ef3d1d3-55ee-401d-8228-23a3b0c2fe9a","geometry":{"type":"Point","coordinates":[-94.7007528167475,29.47970704895713]},"properties":{"substrate":"Buried Shell","lease_number":null,"poll_year":2025}},{"type":"Feature","id":"67b7112b-a504-4dce-b205-6da3419ed362","geometry":{"type":"Point","coordinates":[-94.7014616485921,29.479670766793934]},"properties":{"substrate":"Buried Shell","lease_number":null,"poll_year":2025}},{"type":"Feature","id":"696d02d2-b839-4155-a2ea-765362e050ac","geometry":{"type":"Point","coordinates":[-94.7012876637862,29.479108728652204]},"properties":{"substrate":"Solid Reef","lease_number":null,"poll_year":2025}},{"type":"Feature","id":"6c8ea77f-c554-49b2-8e37-7ceb3f6522f5","geometry":{"type":"Point","coordinates":[-94.70195953534675,29.479886584320457]},"properties":{"substrate":"Scattered Shell","lease_number":null,"poll_year":2025}},{"type":"Feature","id":"6d7c40b2-f92e-47d3-bd1f-d3b5250e6ecc","geometry":{"type":"Point","coordinates":[-94.69944747840141,29.478788454659046]},"properties":{"substrate":"Mud","lease_number":null,"poll_year":2025}},{"type":"Feature","id":"718b7c87-155e-40e9-a4fd-bc5f347e2f5f","geometry":{"type":"Point","coordinates":[-94.70160210018678,29.47848377234962]},"properties":{"substrate":"Buried Shell","lease_number":null,"poll_year":2025}},{"type":"Feature","id":"73e77ec8-3479-4df4-bbdc-622fd93ac40b","geometry":{"type":"Point","coordinates":[-94.69972478473635,29.478541830271254]},"properties":{"substrate":"Mud","lease_number":null,"poll_year":2025}},{"type":"Feature","id":"74e91e24-92e3-4030-b30a-b6100ff80c51","geometry":{"type":"Point","coordinates":[-94.70100510859504,29.479452637179108]},"properties":{"substrate":"Mud","lease_number":null,"poll_year":2025}},{"type":"Feature","id":"76e0eb56-9937-4794-88ae-3750fdc5038b","geometry":{"type":"Point","coordinates":[-94.70090505334039,29.479778602887745]},"properties":{"substrate":"Buried Shell","lease_number":null,"poll_year":2025}},{"type":"Feature","id":"77c56c5d-8893-401c-bd22-00ea20e29abd","geometry":{"type":"Point","coordinates":[-94.70204715701958,29.480118304288673]},"properties":{"substrate":"Scattered Shell","lease_number":null,"poll_year":2025}},{"type":"Feature","id":"78526a63-e744-4b6e-9f3e-becc13fc319a","geometry":{"type":"Point","coordinates":[-94.69938201187844,29.478695242818212]},"properties":{"substrate":"Mud","lease_number":null,"poll_year":2025}},{"type":"Feature","id":"7b776d9c-5ba4-461d-8362-b6a2fe87c145","geometry":{"type":"Point","coordinates":[-94.70162605735709,29.478812425057683]},"properties":{"substrate":"Buried Shell","lease_number":null,"poll_year":2025}},{"type":"Feature","id":"7b7b3521-d8f5-424a-bc3e-eb68f0fc7ab5","geometry":{"type":"Point","coordinates":[-94.70136093487234,29.478270135240177]},"properties":{"substrate":"Buried Shell","lease_number":null,"poll_year":2025}},{"type":"Feature","id":"7c9f8dd1-8293-4d9f-8e4b-0bff1903a564","geometry":{"type":"Point","coordinates":[-94.70152021874863,29.477917165296443]},"properties":{"substrate":"Buried Shell","lease_number":null,"poll_year":2025}},{"type":"Feature","id":"7d82b666-273d-430e-bdd5-67c709b07e7c","geometry":{"type":"Point","coordinates":[-94.70104206798078,29.478575707347613]},"properties":{"substrate":"Scattered Shell","lease_number":null,"poll_year":2025}},{"type":"Feature","id":"8457ccee-e2e5-42eb-97f1-c434529aa1e4","geometry":{"type":"Point","coordinates":[-94.70177484621591,29.479591379379855]},"properties":{"substrate":"Solid Reef","lease_number":null,"poll_year":2025}},{"type":"Feature","id":"87aef84c-708e-459c-9b8c-36d18509491a","geometry":{"type":"Point","coordinates":[-94.70027920786173,29.479027126911554]},"properties":{"substrate":"Mud","lease_number":null,"poll_year":2025}},{"type":"Feature","id":"88f14e39-278e-43f5-9e38-efe6d216cce3","geometry":{"type":"Point","coordinates":[-94.7003420665754,29.479258217759455]},"properties":{"substrate":"Mud","lease_number":null,"poll_year":2025}},{"type":"Feature","id":"8a0600ba-2728-44c1-b9bb-52f2e7ab27ae","geometry":{"type":"Point","coordinates":[-94.70117999710614,29.479127550970993]},"properties":{"substrate":"Buried Shell","lease_number":null,"poll_year":2025}},{"type":"Feature","id":"8a49d5e8-db04-415a-978c-0c939ad69afa","geometry":{"type":"Point","coordinates":[-94.70066664944713,29.478389524051288]},"properties":{"substrate":"Mud","lease_number":null,"poll_year":2025}},{"type":"Feature","id":"8a50dcdf-2f1c-448a-96df-ad406eb22530","geometry":{"type":"Point","coordinates":[-94.69909839398032,29.478335925908407]},"properties":{"substrate":"Mud","lease_number":null,"poll_year":2025}},{"type":"Feature","id":"8a7c86f1-77d0-4cd5-81b3-105817c054f7","geometry":{"type":"Point","coordinates":[-94.69977116295784,29.478225886106056]},"properties":{"substrate":"Mud","lease_number":null,"poll_year":2025}},{"type":"Feature","id":"8d1a2434-c18e-4ffc-ade4-d97acd0d713a","geometry":{"type":"Point","coordinates":[-94.70184170333094,29.480153934097796]},"properties":{"substrate":"Solid Reef","lease_number":null,"poll_year":2025}},{"type":"Feature","id":"8dbd16d0-fcaf-48d6-be18-e9b5c67b299d","geometry":{"type":"Point","coordinates":[-94.7019896720279,29.478474337279255]},"properties":{"substrate":"Buried Shell","lease_number":null,"poll_year":2025}},{"type":"Feature","id":"8f105318-82ff-4e56-8f12-01c5f4af9b3e","geometry":{"type":"Point","coordinates":[-94.70207382800035,29.47939750372526]},"properties":{"substrate":"Solid Reef","lease_number":null,"poll_year":2025}},{"type":"Feature","id":"938e6b69-f80a-46da-868c-403e689659d9","geometry":{"type":"Point","coordinates":[-94.70208470300518,29.478740295661815]},"properties":{"substrate":"Buried Shell","lease_number":null,"poll_year":2025}},{"type":"Feature","id":"93e2a39a-885a-4f93-b6c6-55fdc5234b2c","geometry":{"type":"Point","coordinates":[-94.70133068590178,29.479448138261674]},"properties":{"substrate":"Buried Shell","lease_number":null,"poll_year":2025}},{"type":"Feature","id":"93f894c2-4188-4c4e-9397-6547960ff86f","geometry":{"type":"Point","coordinates":[-94.70144085079666,29.478508362179902]},"properties":{"substrate":"Scattered Shell","lease_number":null,"poll_year":2025}},{"type":"Feature","id":"9707be03-62e8-4e6a-9508-c6a704d3e0da","geometry":{"type":"Point","coordinates":[-94.70021754390734,29.47791520163349]},"properties":{"substrate":"Mud","lease_number":null,"poll_year":2025}},{"type":"Feature","id":"98475a4e-7048-4e79-97ed-cdf933321f73","geometry":{"type":"Point","coordinates":[-94.70130887121343,29.477957305811554]},"properties":{"substrate":"Buried Shell","lease_number":null,"poll_year":2025}},{"type":"Feature","id":"9cd11958-ea9e-433d-ad0f-26113cf009b5","geometry":{"type":"Point","coordinates":[-94.69884017055695,29.478361568374588]},"properties":{"substrate":"Mud","lease_number":null,"poll_year":2025}},{"type":"Feature","id":"9e165d66-955b-41c0-9ddc-b7a724173658","geometry":{"type":"Point","coordinates":[-94.70033450904891,29.478693796866445]},"properties":{"substrate":"Mud","lease_number":null,"poll_year":2025}},{"type":"Feature","id":"a21aea6d-9212-44a5-8e74-233c622c1980","geometry":{"type":"Point","coordinates":[-94.70077339265909,29.479198327206472]},"properties":{"substrate":"Mud","lease_number":null,"poll_year":2025}},{"type":"Feature","id":"a4b12584-18ce-48f1-8047-a7b5e46121fa","geometry":{"type":"Point","coordinates":[-94.70159629707004,29.47963241619862]},"properties":{"substrate":"Solid Reef","lease_number":null,"poll_year":2025}},{"type":"Feature","id":"a5866cf2-3367-4482-9d32-2887aa8e8a80","geometry":{"type":"Point","coordinates":[-94.70197763100983,29.47901139666467]},"properties":{"substrate":"Scattered Shell","lease_number":null,"poll_year":2025}},{"type":"Feature","id":"a5b75125-e3ac-439d-b6ae-60ffbcaa1cc6","geometry":{"type":"Point","coordinates":[-94.70172996638433,29.47787936771099]},"properties":{"substrate":"Buried Shell","lease_number":null,"poll_year":2025}},{"type":"Feature","id":"ac6090d0-99df-4dd9-bcd5-395447dc69cd","geometry":{"type":"Point","coordinates":[-94.69870246062052,29.47820926735788]},"properties":{"substrate":"Mud","lease_number":null,"poll_year":2025}},{"type":"Feature","id":"afe9cc90-f72a-4903-aab0-b21374c25711","geometry":{"type":"Point","coordinates":[-94.70088985564242,29.4786037427312]},"properties":{"substrate":"Scattered Shell","lease_number":null,"poll_year":2025}},{"type":"Feature","id":"b07e6294-898e-4e49-97d8-70e65a1a5a4e","geometry":{"type":"Point","coordinates":[-94.70068900312467,29.47896393220371]},"properties":{"substrate":"Mud","lease_number":null,"poll_year":2025}},{"type":"Feature","id":"b70db063-6d28-41ab-966f-9a3d3b57d9fb","geometry":{"type":"Point","coordinates":[-94.69963838926391,29.47824273867607]},"properties":{"substrate":"Mud","lease_number":null,"poll_year":2025}},{"type":"Feature","id":"b9b1a86c-6d46-44ba-8963-4ecfd4a20b25","geometry":{"type":"Point","coordinates":[-94.7017150480624,29.47991296773876]},"properties":{"substrate":"Scattered Shell","lease_number":null,"poll_year":2025}},{"type":"Feature","id":"bb74f24f-c987-4990-a195-26ba50c23e17","geometry":{"type":"Point","coordinates":[-94.7012374704197,29.47971863913326]},"properties":{"substrate":"Buried Shell","lease_number":null,"poll_year":2025}},{"type":"Feature","id":"bbe6c56c-1a36-4bcf-871d-34ebc50a6729","geometry":{"type":"Point","coordinates":[-94.70097664008537,29.479160506638337]},"properties":{"substrate":"Mud","lease_number":null,"poll_year":2025}},{"type":"Feature","id":"be879b02-f6a0-4919-afd3-d762af15056c","geometry":{"type":"Point","coordinates":[-94.70168224787642,29.47905307575295]},"properties":{"substrate":"Solid Reef","lease_number":null,"poll_year":2025}},{"type":"Feature","id":"bf3899b2-6d01-4bf9-ba8f-e56f64483528","geometry":{"type":"Point","coordinates":[-94.70147306617936,29.479085745226868]},"properties":{"substrate":"Solid Reef","lease_number":null,"poll_year":2025}},{"type":"Feature","id":"c085e802-3904-4b52-974f-e9c7dbfa363b","geometry":{"type":"Point","coordinates":[-94.70150288665354,29.47884092332995]},"properties":{"substrate":"Buried Shell","lease_number":null,"poll_year":2025}},{"type":"Feature","id":"c2ca7e3d-1b4e-4089-81fe-ffb3d14f4e1a","geometry":{"type":"Point","coordinates":[-94.69905304073657,29.47807907625121]},"properties":{"substrate":"Mud","lease_number":null,"poll_year":2025}},{"type":"Feature","id":"c3f6da91-7a4a-4b7c-a9f4-362e6baf693b","geometry":{"type":"Point","coordinates":[-94.70172567333557,29.479435503285767]},"properties":{"substrate":"Solid Reef","lease_number":null,"poll_year":2025}},{"type":"Feature","id":"c6ebc54e-b20e-4aa2-a195-8656812fbe80","geometry":{"type":"Point","coordinates":[-94.70045258091493,29.47924097122318]},"properties":{"substrate":"Mud","lease_number":null,"poll_year":2025}},{"type":"Feature","id":"c8133c6c-ed59-4bcc-a2e6-e3b5caf909d6","geometry":{"type":"Point","coordinates":[-94.70015877612147,29.479065903152243]},"properties":{"substrate":"Mud","lease_number":null,"poll_year":2025}},{"type":"Feature","id":"c8a7930e-59cc-4394-822f-b09395d85796","geometry":{"type":"Point","coordinates":[-94.70080109041423,29.47951861867273]},"properties":{"substrate":"Mud","lease_number":null,"poll_year":2025}},{"type":"Feature","id":"caa0555e-521e-432b-80d3-e3c5f8dbc5fd","geometry":{"type":"Point","coordinates":[-94.70116574443583,29.47797995087646]},"properties":{"substrate":"Buried Shell","lease_number":null,"poll_year":2025}},{"type":"Feature","id":"ce4ee2c6-7166-428d-b0b7-0f2a119997d3","geometry":{"type":"Point","coordinates":[-94.70097919938561,29.478011399175532]},"properties":{"substrate":"Buried Shell","lease_number":null,"poll_year":2025}},{"type":"Feature","id":"d3c30045-397a-4bf1-b145-960a086b876c","geometry":{"type":"Point","coordinates":[-94.7005150147255,29.47841512896693]},"properties":{"substrate":"Mud","lease_number":null,"poll_year":2025}},{"type":"Feature","id":"d51ec59f-fc61-4faa-9142-33b158663093","geometry":{"type":"Point","coordinates":[-94.70147467955363,29.48003192920247]},"properties":{"substrate":"Mud","lease_number":null,"poll_year":2025}},{"type":"Feature","id":"d5c4b865-5ae2-4896-acb3-c516d9fe462d","geometry":{"type":"Point","coordinates":[-94.70079192131013,29.478364919333757]},"properties":{"substrate":"Mud","lease_number":null,"poll_year":2025}},{"type":"Feature","id":"dd92be26-35a9-4646-a156-1231818e62f0","geometry":{"type":"Point","coordinates":[-94.7001447722845,29.478471476650203]},"properties":{"substrate":"Mud","lease_number":null,"poll_year":2025}},{"type":"Feature","id":"dfb78d99-cfde-46c2-89b9-c2099ce7a3a0","geometry":{"type":"Point","coordinates":[-94.69933258657153,29.4780305696985]},"properties":{"substrate":"Mud","lease_number":null,"poll_year":2025}},{"type":"Feature","id":"e279bc85-0bc8-4b39-aa90-35b30e56ecde","geometry":{"type":"Point","coordinates":[-94.69948145358377,29.478011399175532]},"properties":{"substrate":"Mud","lease_number":null,"poll_year":2025}},{"type":"Feature","id":"e2928df4-793c-4f11-9c88-8f0bf149d607","geometry":{"type":"Point","coordinates":[-94.6995667423318,29.478816101321172]},"properties":{"substrate":"Mud","lease_number":null,"poll_year":2025}},{"type":"Feature","id":"e401dde8-7051-48dd-9ad4-5f0673fd234c","geometry":{"type":"Point","coordinates":[-94.70004228259543,29.477939310656918]},"properties":{"substrate":"Mud","lease_number":null,"poll_year":2025}},{"type":"Feature","id":"e4b23339-54d9-4b63-b0df-f69a1ad09632","geometry":{"type":"Point","coordinates":[-94.69947181016919,29.478268531314]},"properties":{"substrate":"Mud","lease_number":null,"poll_year":2025}},{"type":"Feature","id":"e51bff6b-6add-4e0e-beac-64403e7caa83","geometry":{"type":"Point","coordinates":[-94.7012040279383,29.47889859238472]},"properties":{"substrate":"Buried Shell","lease_number":null,"poll_year":2025}},{"type":"Feature","id":"e884a825-09bc-4b77-a694-c911c2df7106","geometry":{"type":"Point","coordinates":[-94.70180231759562,29.47826225637292]},"properties":{"substrate":"Buried Shell","lease_number":null,"poll_year":2025}},{"type":"Feature","id":"e8cd05fc-3f5a-4d85-9c52-f95ff827769c","geometry":{"type":"Point","coordinates":[-94.6980968703549,29.477899103662583]},"properties":{"substrate":"Mud","lease_number":null,"poll_year":2025}},{"type":"Feature","id":"eb28e831-9016-4dd6-871e-283f16bac6ad","geometry":{"type":"Point","coordinates":[-94.70110474523477,29.479746153381925]},"properties":{"substrate":"Mud","lease_number":null,"poll_year":2025}},{"type":"Feature","id":"ec45e597-2b18-4765-9b22-f1aaf198d8d9","geometry":{"type":"Point","coordinates":[-94.70159623867954,29.479949159102237]},"properties":{"substrate":"Mud","lease_number":null,"poll_year":2025}},{"type":"Feature","id":"f448aff6-26cd-4a73-80ab-8dcca666a1d4","geometry":{"type":"Point","coordinates":[-94.7016541872019,29.478220385364036]},"properties":{"substrate":"Buried Shell","lease_number":null,"poll_year":2025}},{"type":"Feature","id":"f4630f55-f48e-4b7f-b905-95598bedb034","geometry":{"type":"Point","coordinates":[-94.7004873088855,29.478667113617767]},"properties":{"substrate":"Mud","lease_number":null,"poll_year":2025}},{"type":"Feature","id":"faa3af41-e10a-4cc0-af6d-44abcb658e54","geometry":{"type":"Point","coordinates":[-94.69957313474335,29.478589222202142]},"properties":{"substrate":"Mud","lease_number":null,"poll_year":2025}},{"type":"Feature","id":"fb9fe940-6245-4800-9c09-4fe9e2eefb8d","geometry":{"type":"Point","coordinates":[-94.70041998464653,29.4778833693305]},"properties":{"substrate":"Mud","lease_number":null,"poll_year":2025}},{"type":"Feature","id":"fc92bbf4-2de7-4415-b59c-6e950b0aae6d","geometry":{"type":"Point","coordinates":[-94.70150771779313,29.479446432692484]},"properties":{"substrate":"Buried Shell","lease_number":null,"poll_year":2025}},{"type":"Feature","id":"fe1d88f3-e7d1-4bfd-830c-ecb0116fd8f2","geometry":{"type":"Point","coordinates":[-94.70088557157682,29.478937673661015]},"properties":{"substrate":"Mud","lease_number":null,"poll_year":2025}},{"type":"Feature","id":"ff8b6c29-7bab-46a2-81f7-9885e0d710db","geometry":{"type":"Point","coordinates":[-94.701791084163,29.479035714225503]},"properties":{"substrate":"Scattered Shell","lease_number":null,"poll_year":2025}}]}