{"type":"FeatureCollection","features":[{"type":"Feature","id":"0159b826-d4d6-4893-bae0-ed327637c6a7","geometry":{"type":"Point","coordinates":[-94.6987449653065,29.535391754173205]},"properties":{"substrate":"Scattered Shell","lease_number":null,"poll_year":2026}},{"type":"Feature","id":"019e42d3-8f62-4089-86a7-14ad67f625b7","geometry":{"type":"Point","coordinates":[-94.69797783908817,29.53546020574599]},"properties":{"substrate":"Mud","lease_number":null,"poll_year":2026}},{"type":"Feature","id":"02c3c13a-d21d-4bf3-97b8-185b7aaa069c","geometry":{"type":"Point","coordinates":[-94.6977471930457,29.53567462180491]},"properties":{"substrate":"Mud","lease_number":null,"poll_year":2026}},{"type":"Feature","id":"06500e19-f7f0-41ec-9669-09434224334c","geometry":{"type":"Point","coordinates":[-94.69697129208366,29.53572110850517]},"properties":{"substrate":"Mud","lease_number":null,"poll_year":2026}},{"type":"Feature","id":"08acee8c-e714-46af-8c7c-33420ecbbc4e","geometry":{"type":"Point","coordinates":[-94.69520898973569,29.53553369455137]},"properties":{"substrate":"Mud","lease_number":null,"poll_year":2026}},{"type":"Feature","id":"0ddb0eba-02f2-4b24-a45e-140f2c87eec5","geometry":{"type":"Point","coordinates":[-94.69589700222528,29.53542739345311]},"properties":{"substrate":"Mud","lease_number":null,"poll_year":2026}},{"type":"Feature","id":"1050bbe1-7097-4228-8be2-dec2c04a3415","geometry":{"type":"Point","coordinates":[-94.69849695393128,29.535485835310993]},"properties":{"substrate":"Mud","lease_number":null,"poll_year":2026}},{"type":"Feature","id":"10be56cf-4bb9-465a-8734-530c35e51cce","geometry":{"type":"Point","coordinates":[-94.69514230150395,29.535726690534275]},"properties":{"substrate":"Mud","lease_number":null,"poll_year":2026}},{"type":"Feature","id":"11310994-a39c-468e-97b3-749dbdce08e1","geometry":{"type":"Point","coordinates":[-94.69690369206191,29.53574918590531]},"properties":{"substrate":"Mud","lease_number":null,"poll_year":2026}},{"type":"Feature","id":"11543cb4-8e0a-4796-858f-e3d76097ae8a","geometry":{"type":"Point","coordinates":[-94.69466729483958,29.535631187147644]},"properties":{"substrate":"Mud","lease_number":null,"poll_year":2026}},{"type":"Feature","id":"16a126b9-732d-40bf-85c3-db67b2abe6a3","geometry":{"type":"Point","coordinates":[-94.69614181020819,29.53532669539699]},"properties":{"substrate":"Mud","lease_number":null,"poll_year":2026}},{"type":"Feature","id":"1b3f693b-15ee-4e23-a4da-3ffa8f0668fa","geometry":{"type":"Point","coordinates":[-94.69443361698305,29.535422339755677]},"properties":{"substrate":"Mud","lease_number":null,"poll_year":2026}},{"type":"Feature","id":"1b7ee2b5-4a21-4298-875a-d7aacb431246","geometry":{"type":"Point","coordinates":[-94.69527636158537,29.535791972584256]},"properties":{"substrate":"Mud","lease_number":null,"poll_year":2026}},{"type":"Feature","id":"236f4d0e-6963-451a-a328-9442fb5c1187","geometry":{"type":"Point","coordinates":[-94.69517391950701,29.535329931142048]},"properties":{"substrate":"Mud","lease_number":null,"poll_year":2026}},{"type":"Feature","id":"244a1860-a38a-4631-8147-56e6dfa89f77","geometry":{"type":"Point","coordinates":[-94.69487032217863,29.535450681412847]},"properties":{"substrate":"Mud","lease_number":null,"poll_year":2026}},{"type":"Feature","id":"26ab6ba3-9863-4050-9c43-a48450365292","geometry":{"type":"Point","coordinates":[-94.69590826979389,29.535243662548982]},"properties":{"substrate":"Mud","lease_number":null,"poll_year":2026}},{"type":"Feature","id":"287ae70b-295e-4fbc-bbe9-68c066a37ef9","geometry":{"type":"Point","coordinates":[-94.69784344034187,29.53535890512383]},"properties":{"substrate":"Mud","lease_number":null,"poll_year":2026}},{"type":"Feature","id":"29548e28-60d1-4df4-8ee1-98ff274d2cc5","geometry":{"type":"Point","coordinates":[-94.6956399717646,29.53534406603184]},"properties":{"substrate":"Mud","lease_number":null,"poll_year":2026}},{"type":"Feature","id":"29dd1707-d607-4ba7-b025-da0648e0a774","geometry":{"type":"Point","coordinates":[-94.6945541897588,29.53551880859021]},"properties":{"substrate":"Mud","lease_number":null,"poll_year":2026}},{"type":"Feature","id":"2ad3fc49-5683-46a7-86c9-081eee308250","geometry":{"type":"Point","coordinates":[-94.69455795459815,29.535308973047727]},"properties":{"substrate":"Mud","lease_number":null,"poll_year":2026}},{"type":"Feature","id":"3043c10f-4d31-4c2d-b7fb-3325e9316c6d","geometry":{"type":"Point","coordinates":[-94.69572730777317,29.535496942339574]},"properties":{"substrate":"Mud","lease_number":null,"poll_year":2026}},{"type":"Feature","id":"30f76439-1dad-4a70-8305-860f12ab7565","geometry":{"type":"Point","coordinates":[-94.698700296579,29.535407815649833]},"properties":{"substrate":"Mud","lease_number":null,"poll_year":2026}},{"type":"Feature","id":"32c650d4-6789-44e2-9c7d-e44fd04cf7b7","geometry":{"type":"Point","coordinates":[-94.69643507870744,29.53558009065328]},"properties":{"substrate":"Scattered Shell","lease_number":null,"poll_year":2026}},{"type":"Feature","id":"3b691c4c-3f06-4522-b1ec-d38436436e69","geometry":{"type":"Point","coordinates":[-94.69445326942652,29.535471219769388]},"properties":{"substrate":"Mud","lease_number":null,"poll_year":2026}},{"type":"Feature","id":"3dd07d0b-fe79-4767-af76-d3474d2b8763","geometry":{"type":"Point","coordinates":[-94.69614645000664,29.53566789632387]},"properties":{"substrate":"Mud","lease_number":null,"poll_year":2026}},{"type":"Feature","id":"3eb93056-f3ce-4dca-a006-28bc3e3d84b7","geometry":{"type":"Point","coordinates":[-94.6972194346129,29.5356229500906]},"properties":{"substrate":"Mud","lease_number":null,"poll_year":2026}},{"type":"Feature","id":"3f335f23-7cd7-4ad8-8981-fadfbd46ffe1","geometry":{"type":"Point","coordinates":[-94.69593907931319,29.53574441046562]},"properties":{"substrate":"Mud","lease_number":null,"poll_year":2026}},{"type":"Feature","id":"3ff09e83-28e4-4634-ac9d-c2735aca8145","geometry":{"type":"Point","coordinates":[-94.69804386975314,29.535280090496624]},"properties":{"substrate":"Mud","lease_number":null,"poll_year":2026}},{"type":"Feature","id":"41860320-9078-403c-ba65-4c8800c4a920","geometry":{"type":"Point","coordinates":[-94.694650004067,29.535303063513066]},"properties":{"substrate":"Mud","lease_number":null,"poll_year":2026}},{"type":"Feature","id":"4cb16192-14b3-4a05-96cc-1089593c79c9","geometry":{"type":"Point","coordinates":[-94.69460362584552,29.53530446410643]},"properties":{"substrate":"Mud","lease_number":null,"poll_year":2026}},{"type":"Feature","id":"4fd1e89b-0abb-483f-abce-15df879857b9","geometry":{"type":"Point","coordinates":[-94.69527636158537,29.535791972584256]},"properties":{"substrate":"Mud","lease_number":null,"poll_year":2026}},{"type":"Feature","id":"50fe6b6e-7160-4415-b810-516ff43cc981","geometry":{"type":"Point","coordinates":[-94.69558267272421,29.535549134649987]},"properties":{"substrate":"Mud","lease_number":null,"poll_year":2026}},{"type":"Feature","id":"5403eada-8f05-4e09-a858-6cfbf8157450","geometry":{"type":"Point","coordinates":[-94.69531574462573,29.535263438905762]},"properties":{"substrate":"Mud","lease_number":null,"poll_year":2026}},{"type":"Feature","id":"54e4333c-8ba8-4feb-834c-87bc2e1d0007","geometry":{"type":"Point","coordinates":[-94.69534576093265,29.535493276731053]},"properties":{"substrate":"Mud","lease_number":null,"poll_year":2026}},{"type":"Feature","id":"5b04b177-e918-4356-9fe2-fac71bc73e5c","geometry":{"type":"Point","coordinates":[-94.69889830233562,29.535323555786338]},"properties":{"substrate":"Mud","lease_number":null,"poll_year":2026}},{"type":"Feature","id":"5f250aab-23ca-4be1-b154-741a50d8a585","geometry":{"type":"Point","coordinates":[-94.69423050520236,29.535294631034006]},"properties":{"substrate":"Mud","lease_number":null,"poll_year":2026}},{"type":"Feature","id":"5fa6468c-f64b-49b2-b7f4-7fe7b3534ba4","geometry":{"type":"Point","coordinates":[-94.6980381492814,29.53565437658154]},"properties":{"substrate":"Mud","lease_number":null,"poll_year":2026}},{"type":"Feature","id":"611f9b79-8c40-4dec-a2a7-f6c9a6d1d6b6","geometry":{"type":"Point","coordinates":[-94.69428116569281,29.535303452740475]},"properties":{"substrate":"Mud","lease_number":null,"poll_year":2026}},{"type":"Feature","id":"618f2fd0-e34a-4d9a-8443-d923bdf4b7ef","geometry":{"type":"Point","coordinates":[-94.69445935551256,29.535356285265365]},"properties":{"substrate":"Mud","lease_number":null,"poll_year":2026}},{"type":"Feature","id":"61ed5cab-7db4-4640-8d01-3af5d0949dae","geometry":{"type":"Point","coordinates":[-94.69839425762969,29.535324897760855]},"properties":{"substrate":"Mud","lease_number":null,"poll_year":2026}},{"type":"Feature","id":"653b1c9e-203e-413d-a23e-364faa69a11f","geometry":{"type":"Point","coordinates":[-94.69598780034094,29.535731377656536]},"properties":{"substrate":"Mud","lease_number":null,"poll_year":2026}},{"type":"Feature","id":"6a6b1813-a987-4445-9c70-c43da3380903","geometry":{"type":"Point","coordinates":[-94.6971247297241,29.535651870059535]},"properties":{"substrate":"Mud","lease_number":null,"poll_year":2026}},{"type":"Feature","id":"6b38b935-9c0c-4743-a343-98ce0e57680a","geometry":{"type":"Point","coordinates":[-94.69552247302376,29.535395290824606]},"properties":{"substrate":"Mud","lease_number":null,"poll_year":2026}},{"type":"Feature","id":"6b58714b-eb5c-4c5e-b39c-ea3051d01ab1","geometry":{"type":"Point","coordinates":[-94.69552699783785,29.535571159549892]},"properties":{"substrate":"Mud","lease_number":null,"poll_year":2026}},{"type":"Feature","id":"6b5fbeec-14a4-46c5-ab5f-8601bf278c5b","geometry":{"type":"Point","coordinates":[-94.69498078351755,29.535246896733508]},"properties":{"substrate":"Mud","lease_number":null,"poll_year":2026}},{"type":"Feature","id":"6dde7fca-4ec0-419a-89cc-673c03b81c12","geometry":{"type":"Point","coordinates":[-94.69777174040915,29.53538814483474]},"properties":{"substrate":"Mud","lease_number":null,"poll_year":2026}},{"type":"Feature","id":"6f0f9000-c3f8-4653-b703-50797e13bf07","geometry":{"type":"Point","coordinates":[-94.69771881796082,29.535246746669873]},"properties":{"substrate":"Scattered Shell","lease_number":null,"poll_year":2026}},{"type":"Feature","id":"6f171676-4da6-4b01-a6de-e00131f7ce9a","geometry":{"type":"Point","coordinates":[-94.6984314559673,29.53551292564156]},"properties":{"substrate":"Mud","lease_number":null,"poll_year":2026}},{"type":"Feature","id":"700bde08-998c-4250-a67e-e22b95c1c651","geometry":{"type":"Point","coordinates":[-94.69497664767398,29.53540627202873]},"properties":{"substrate":"Mud","lease_number":null,"poll_year":2026}},{"type":"Feature","id":"71b810f8-5240-490d-b5ee-39acf9b7eb5c","geometry":{"type":"Point","coordinates":[-94.69481214009431,29.535469791823044]},"properties":{"substrate":"Mud","lease_number":null,"poll_year":2026}},{"type":"Feature","id":"730203e5-f3ce-496b-b3e5-926cba694a5d","geometry":{"type":"Point","coordinates":[-94.69462886401342,29.53552115645488]},"properties":{"substrate":"Mud","lease_number":null,"poll_year":2026}},{"type":"Feature","id":"7743b9d5-a57b-4067-80d3-89ca0e8edc7d","geometry":{"type":"Point","coordinates":[-94.69832613299181,29.53555093384534]},"properties":{"substrate":"Mud","lease_number":null,"poll_year":2026}},{"type":"Feature","id":"8097acc8-4073-4875-9f6d-c7c385d544b2","geometry":{"type":"Point","coordinates":[-94.69440764219661,29.535263926612558]},"properties":{"substrate":"Mud","lease_number":null,"poll_year":2026}},{"type":"Feature","id":"8249f513-c0ad-4a3b-91ac-f1da3fbbf9c0","geometry":{"type":"Point","coordinates":[-94.69444403833866,29.535382205604613]},"properties":{"substrate":"Mud","lease_number":null,"poll_year":2026}},{"type":"Feature","id":"824af314-0a0d-49fd-b03f-2e384c38df10","geometry":{"type":"Point","coordinates":[-94.6962305421987,29.53529294750816]},"properties":{"substrate":"Mud","lease_number":null,"poll_year":2026}},{"type":"Feature","id":"8486c5e9-5e27-4f78-bb73-38bc4e266d37","geometry":{"type":"Point","coordinates":[-94.69807894986327,29.53543773610285]},"properties":{"substrate":"Mud","lease_number":null,"poll_year":2026}},{"type":"Feature","id":"84daab95-b59c-46ef-b49d-c53e3af0ee98","geometry":{"type":"Point","coordinates":[-94.69447901244762,29.535493819147366]},"properties":{"substrate":"Mud","lease_number":null,"poll_year":2026}},{"type":"Feature","id":"881e865c-6dae-4d73-841e-5733a4f48c8b","geometry":{"type":"Point","coordinates":[-94.6954707471314,29.5359460033844]},"properties":{"substrate":"Mud","lease_number":null,"poll_year":2026}},{"type":"Feature","id":"88bd97bc-7992-4a51-855d-cd9cf2054899","geometry":{"type":"Point","coordinates":[-94.69510519928609,29.535358111819452]},"properties":{"substrate":"Mud","lease_number":null,"poll_year":2026}},{"type":"Feature","id":"8b4d4212-d617-4cea-995a-b2fab30b28b1","geometry":{"type":"Point","coordinates":[-94.69674838233243,29.53580249886733]},"properties":{"substrate":"Mud","lease_number":null,"poll_year":2026}},{"type":"Feature","id":"8f4c97e6-97f7-400b-9e1d-5243ad04af62","geometry":{"type":"Point","coordinates":[-94.69794582313145,29.53531271916574]},"properties":{"substrate":"Mud","lease_number":null,"poll_year":2026}},{"type":"Feature","id":"91616bb3-800c-489e-b1f0-e1068abc5634","geometry":{"type":"Point","coordinates":[-94.69628777656038,29.53527322352311]},"properties":{"substrate":"Mud","lease_number":null,"poll_year":2026}},{"type":"Feature","id":"91d61985-8090-4266-b822-eb6a9fc6d7e1","geometry":{"type":"Point","coordinates":[-94.69582308435213,29.535272005819362]},"properties":{"substrate":"Mud","lease_number":null,"poll_year":2026}},{"type":"Feature","id":"92492543-30f5-4fe3-a17a-2287c6b0e05d","geometry":{"type":"Point","coordinates":[-94.6970812494677,29.535326553930894]},"properties":{"substrate":"Mud","lease_number":null,"poll_year":2026}},{"type":"Feature","id":"95b1ed76-d346-48ce-81a6-a64a498e407f","geometry":{"type":"Point","coordinates":[-94.6962452997222,29.535636254903054]},"properties":{"substrate":"Mud","lease_number":null,"poll_year":2026}},{"type":"Feature","id":"9724b636-16a7-4420-89ff-aa6f33037062","geometry":{"type":"Point","coordinates":[-94.69576864015771,29.535820404800745]},"properties":{"substrate":"Mud","lease_number":null,"poll_year":2026}},{"type":"Feature","id":"a28f55f8-2bc5-41d0-8e5e-116db340af21","geometry":{"type":"Point","coordinates":[-94.6973677743141,29.535565187504222]},"properties":{"substrate":"Scattered Shell","lease_number":null,"poll_year":2026}},{"type":"Feature","id":"a422f49e-f13b-4248-a261-fac6cc2d8452","geometry":{"type":"Point","coordinates":[-94.69538368600732,29.53523846893928]},"properties":{"substrate":"Mud","lease_number":null,"poll_year":2026}},{"type":"Feature","id":"a65cc8a2-17f0-4dbf-824c-854b248ea8fb","geometry":{"type":"Point","coordinates":[-94.69746698784733,29.535531781245112]},"properties":{"substrate":"Mud","lease_number":null,"poll_year":2026}},{"type":"Feature","id":"a780606b-4096-4135-9c06-36778a87c555","geometry":{"type":"Point","coordinates":[-94.69552681637816,29.535922742893952]},"properties":{"substrate":"Mud","lease_number":null,"poll_year":2026}},{"type":"Feature","id":"a8074b60-1ac1-4d90-b7bd-283104f48c76","geometry":{"type":"Point","coordinates":[-94.69450066454091,29.535328450827773]},"properties":{"substrate":"Mud","lease_number":null,"poll_year":2026}},{"type":"Feature","id":"abeb7546-f6a0-4d4f-a8cc-d9f07982edab","geometry":{"type":"Point","coordinates":[-94.69766390574414,29.53544007693512]},"properties":{"substrate":"Mud","lease_number":null,"poll_year":2026}},{"type":"Feature","id":"b05a3005-23c3-4a52-ac89-c1774d1965fe","geometry":{"type":"Point","coordinates":[-94.69860044254698,29.535447644192956]},"properties":{"substrate":"Mud","lease_number":null,"poll_year":2026}},{"type":"Feature","id":"b0ddb386-abc6-4a71-bc41-7209e532d69f","geometry":{"type":"Point","coordinates":[-94.69432096105989,29.535292793536623]},"properties":{"substrate":"Mud","lease_number":null,"poll_year":2026}},{"type":"Feature","id":"b345529c-4924-4255-9a2a-7ad8926b32ae","geometry":{"type":"Point","coordinates":[-94.69448833516363,29.53523376225465]},"properties":{"substrate":"Mud","lease_number":null,"poll_year":2026}},{"type":"Feature","id":"b4383a16-2a6a-4a43-a388-11d52dd70b7e","geometry":{"type":"Point","coordinates":[-94.69713387816694,29.535305871734007]},"properties":{"substrate":"Mud","lease_number":null,"poll_year":2026}},{"type":"Feature","id":"b6a274e2-4b97-4d29-b48a-7455f7616331","geometry":{"type":"Point","coordinates":[-94.69899403849038,29.535290043152376]},"properties":{"substrate":"Mud","lease_number":null,"poll_year":2026}},{"type":"Feature","id":"b74976d7-5cb5-49a5-8a5e-b5a8c16e1b67","geometry":{"type":"Point","coordinates":[-94.69729547879835,29.535595050073837]},"properties":{"substrate":"Mud","lease_number":null,"poll_year":2026}},{"type":"Feature","id":"ba9d2747-422f-4343-8234-1b8ee901f42c","geometry":{"type":"Point","coordinates":[-94.69564869799927,29.535875434849242]},"properties":{"substrate":"Mud","lease_number":null,"poll_year":2026}},{"type":"Feature","id":"c98a4d88-2a5f-4a15-9600-662d74e56bf5","geometry":{"type":"Point","coordinates":[-94.69574371819678,29.53530532071932]},"properties":{"substrate":"Mud","lease_number":null,"poll_year":2026}},{"type":"Feature","id":"c9f742cd-9604-4994-9c47-a29fa509421b","geometry":{"type":"Point","coordinates":[-94.69883140479641,29.535360670714603]},"properties":{"substrate":"Mud","lease_number":null,"poll_year":2026}},{"type":"Feature","id":"ca184060-7701-4903-adae-288ebad94c32","geometry":{"type":"Point","coordinates":[-94.69717665594077,29.5352952766201]},"properties":{"substrate":"Mud","lease_number":null,"poll_year":2026}},{"type":"Feature","id":"cae7f558-9020-4b1d-b3a2-f4d131fd7b5d","geometry":{"type":"Point","coordinates":[-94.6947562684769,29.5354881589474]},"properties":{"substrate":"Mud","lease_number":null,"poll_year":2026}},{"type":"Feature","id":"ccb4884b-bdc5-4c31-8be1-86e9e7f7f738","geometry":{"type":"Point","coordinates":[-94.69493293924553,29.535264888739267]},"properties":{"substrate":"Mud","lease_number":null,"poll_year":2026}},{"type":"Feature","id":"cd0237f7-2294-4545-862c-b077c8eea4e6","geometry":{"type":"Point","coordinates":[-94.6990700700994,29.535265355343405]},"properties":{"substrate":"Mud","lease_number":null,"poll_year":2026}},{"type":"Feature","id":"d039bd2a-da97-41a2-9a92-39ae17470d1a","geometry":{"type":"Point","coordinates":[-94.69469635623734,29.535298989912178]},"properties":{"substrate":"Mud","lease_number":null,"poll_year":2026}},{"type":"Feature","id":"d2cd6d75-1ef6-40f3-b7ed-e51166242a05","geometry":{"type":"Point","coordinates":[-94.69468797765069,29.535513699405247]},"properties":{"substrate":"Mud","lease_number":null,"poll_year":2026}},{"type":"Feature","id":"d53ee256-06d2-4823-bce5-08a118f0770e","geometry":{"type":"Point","coordinates":[-94.69583981637261,29.535786904055115]},"properties":{"substrate":"Mud","lease_number":null,"poll_year":2026}},{"type":"Feature","id":"d6b54064-0718-4780-bd51-cf13f00b0c06","geometry":{"type":"Point","coordinates":[-94.69538100184124,29.535632183660315]},"properties":{"substrate":"Mud","lease_number":null,"poll_year":2026}},{"type":"Feature","id":"d83cda86-e7e9-461b-b521-969a57433c4f","geometry":{"type":"Point","coordinates":[-94.69505128419935,29.535381007441664]},"properties":{"substrate":"Mud","lease_number":null,"poll_year":2026}},{"type":"Feature","id":"dbffc911-c5a1-4d0c-aa69-ed12ae22c71c","geometry":{"type":"Point","coordinates":[-94.69475608252564,29.53528986182555]},"properties":{"substrate":"Mud","lease_number":null,"poll_year":2026}},{"type":"Feature","id":"dc45a520-4d80-48c9-a01a-6e6782469eed","geometry":{"type":"Point","coordinates":[-94.69437633501063,29.53527688210537]},"properties":{"substrate":"Mud","lease_number":null,"poll_year":2026}},{"type":"Feature","id":"e9a3e901-2b24-4b25-bfd6-5ee64e7cd7e9","geometry":{"type":"Point","coordinates":[-94.69825912226487,29.535579396611162]},"properties":{"substrate":"Mud","lease_number":null,"poll_year":2026}},{"type":"Feature","id":"ea301438-46a8-4478-857e-42b71d920235","geometry":{"type":"Point","coordinates":[-94.69819531762519,29.535599894299462]},"properties":{"substrate":"Mud","lease_number":null,"poll_year":2026}},{"type":"Feature","id":"ea58daff-8b7d-436f-8799-9fbfdf630cae","geometry":{"type":"Point","coordinates":[-94.69602512893425,29.535376288258416]},"properties":{"substrate":"Mud","lease_number":null,"poll_year":2026}},{"type":"Feature","id":"ee380fb1-59db-4cee-b1eb-3eb0973bdac1","geometry":{"type":"Point","coordinates":[-94.69526650706669,29.53528957029571]},"properties":{"substrate":"Mud","lease_number":null,"poll_year":2026}},{"type":"Feature","id":"eed14300-c5f4-4a7d-9dd0-2501a8c8649b","geometry":{"type":"Point","coordinates":[-94.69635581496001,29.535600444530964]},"properties":{"substrate":"Scattered Shell","lease_number":null,"poll_year":2026}},{"type":"Feature","id":"f23f0d09-8699-49b1-ab90-2fdbe45cf3ab","geometry":{"type":"Point","coordinates":[-94.69639526537404,29.535240637046677]},"properties":{"substrate":"Mud","lease_number":null,"poll_year":2026}},{"type":"Feature","id":"f2e8d540-c7c2-4f26-8e6b-416dfcf3c13e","geometry":{"type":"Point","coordinates":[-94.69671303901589,29.535466175453156]},"properties":{"substrate":"Mud","lease_number":null,"poll_year":2026}},{"type":"Feature","id":"f69499ff-092e-487e-92ee-f45c9f8863be","geometry":{"type":"Point","coordinates":[-94.69417772468785,29.535238364207373]},"properties":{"substrate":"Mud","lease_number":null,"poll_year":2026}},{"type":"Feature","id":"f6e335ba-f7c6-4634-85e6-677a91c5b176","geometry":{"type":"Point","coordinates":[-94.69491489298976,29.535785504250025]},"properties":{"substrate":"Mud","lease_number":null,"poll_year":2026}},{"type":"Feature","id":"f7ffe24a-bde8-4643-b462-8cbc952af0a9","geometry":{"type":"Point","coordinates":[-94.69486432412748,29.53527278974545]},"properties":{"substrate":"Mud","lease_number":null,"poll_year":2026}},{"type":"Feature","id":"f876a68f-0b8c-47a5-93d0-00c76c6cfab3","geometry":{"type":"Point","coordinates":[-94.69480281198841,29.535279240917752]},"properties":{"substrate":"Mud","lease_number":null,"poll_year":2026}},{"type":"Feature","id":"fa61eeaf-3164-480d-8c9d-191844545235","geometry":{"type":"Point","coordinates":[-94.69754572069041,29.53531211265888]},"properties":{"substrate":"Mud","lease_number":null,"poll_year":2026}},{"type":"Feature","id":"fce6a8f9-1f76-4637-a58f-59ed9ae52a20","geometry":{"type":"Point","coordinates":[-94.69847441340418,29.53529723448094]},"properties":{"substrate":"Mud","lease_number":null,"poll_year":2026}}]}