{"type":"FeatureCollection","features":[{"type":"Feature","id":"00da69fb-2c9d-44e0-9761-4770b1c47ea7","geometry":{"type":"Point","coordinates":[-94.65679871612116,29.48604111139032]},"properties":{"substrate":"Solid Reef","lease_number":null,"poll_year":2023}},{"type":"Feature","id":"0cc68e2d-22d3-4acd-9e2b-6b351c418647","geometry":{"type":"Point","coordinates":[-94.65743524167024,29.483755009221348]},"properties":{"substrate":"Solid Reef","lease_number":null,"poll_year":2023}},{"type":"Feature","id":"14a928c4-5733-4da3-ba52-761bf1e2bcc8","geometry":{"type":"Point","coordinates":[-94.65698916255465,29.48370055295635]},"properties":{"substrate":"Solid Reef","lease_number":null,"poll_year":2023}},{"type":"Feature","id":"16b39c31-86b9-4fcc-91cf-a7d2b408904d","geometry":{"type":"Point","coordinates":[-94.6560622637765,29.48440486627003]},"properties":{"substrate":"Solid Reef","lease_number":null,"poll_year":2023}},{"type":"Feature","id":"2164e2e7-064b-4aca-aafc-54ccfa711fce","geometry":{"type":"Point","coordinates":[-94.65707141859028,29.483846711100117]},"properties":{"substrate":"Solid Reef","lease_number":null,"poll_year":2023}},{"type":"Feature","id":"3f9ec594-9aea-4126-861b-d59cd2d51e84","geometry":{"type":"Point","coordinates":[-94.6562797108725,29.484826719358153]},"properties":{"substrate":"Solid Reef","lease_number":null,"poll_year":2023}},{"type":"Feature","id":"469cf068-90bf-4049-9fce-5da4030d7b12","geometry":{"type":"Point","coordinates":[-94.65630876059217,29.484137597302553]},"properties":{"substrate":"Solid Reef","lease_number":null,"poll_year":2023}},{"type":"Feature","id":"4cf29214-4baa-47c9-998c-1249d4c6d35b","geometry":{"type":"Point","coordinates":[-94.65692204223326,29.48634028866356]},"properties":{"substrate":"Solid Reef","lease_number":null,"poll_year":2023}},{"type":"Feature","id":"4dd19a66-8eba-4744-861a-0b356c43dcb1","geometry":{"type":"Point","coordinates":[-94.65666256655838,29.485724582235658]},"properties":{"substrate":"Solid Reef","lease_number":null,"poll_year":2023}},{"type":"Feature","id":"52a92c41-e171-4f4a-aa87-433cbf025751","geometry":{"type":"Point","coordinates":[-94.65808157861885,29.483577654616898]},"properties":{"substrate":"Solid Reef","lease_number":null,"poll_year":2023}},{"type":"Feature","id":"54c95bbf-fbb7-4da6-a08f-fe535e0cbdaa","geometry":{"type":"Point","coordinates":[-94.65614168203415,29.484557703011667]},"properties":{"substrate":"Solid Reef","lease_number":null,"poll_year":2023}},{"type":"Feature","id":"66957c46-ef8b-45c0-93b3-7cd0f5b18cdb","geometry":{"type":"Point","coordinates":[-94.65686279115376,29.48413567833282]},"properties":{"substrate":"Solid Reef","lease_number":null,"poll_year":2023}},{"type":"Feature","id":"67657d34-0aa3-4faa-9645-7c7d923ed1e3","geometry":{"type":"Point","coordinates":[-94.65731452067247,29.487238175663247]},"properties":{"substrate":"Solid Reef","lease_number":null,"poll_year":2023}},{"type":"Feature","id":"6a62d562-f39a-47ff-bfd3-e80da2237740","geometry":{"type":"Point","coordinates":[-94.656799835422,29.483979236820502]},"properties":{"substrate":"Solid Reef","lease_number":null,"poll_year":2023}},{"type":"Feature","id":"6c645922-5102-4526-bbc5-58c2a4290077","geometry":{"type":"Point","coordinates":[-94.65718754919695,29.486928024743246]},"properties":{"substrate":"Solid Reef","lease_number":null,"poll_year":2023}},{"type":"Feature","id":"6f928ffb-bf44-4a11-8f2b-bbb12dd2f512","geometry":{"type":"Point","coordinates":[-94.65706958423047,29.486649667245302]},"properties":{"substrate":"Solid Reef","lease_number":null,"poll_year":2023}},{"type":"Feature","id":"702eb978-bb63-4827-8fa2-6de8afb636ef","geometry":{"type":"Point","coordinates":[-94.65749882083277,29.487736510313365]},"properties":{"substrate":"Solid Reef","lease_number":null,"poll_year":2023}},{"type":"Feature","id":"7d16aeab-9995-4be6-846d-fb451dfed00c","geometry":{"type":"Point","coordinates":[-94.65647064598951,29.484433385646977]},"properties":{"substrate":"Solid Reef","lease_number":null,"poll_year":2023}},{"type":"Feature","id":"8804ad2f-d430-4ffd-99e1-1708560ceae6","geometry":{"type":"Point","coordinates":[-94.65744595318168,29.48757780983397]},"properties":{"substrate":"Solid Reef","lease_number":null,"poll_year":2023}},{"type":"Feature","id":"9acc55dd-86ee-4dab-b182-8f0d856849bf","geometry":{"type":"Point","coordinates":[-94.65713856855608,29.486802797744293]},"properties":{"substrate":"Solid Reef","lease_number":null,"poll_year":2023}},{"type":"Feature","id":"9cc1231e-14a4-483a-9f14-8bb17485547f","geometry":{"type":"Point","coordinates":[-94.65804060556043,29.48341544434529]},"properties":{"substrate":"Solid Reef","lease_number":null,"poll_year":2023}},{"type":"Feature","id":"a087c92c-1c88-4142-9081-b84bbddfde9f","geometry":{"type":"Point","coordinates":[-94.65638851841298,29.48428691634134]},"properties":{"substrate":"Solid Reef","lease_number":null,"poll_year":2023}},{"type":"Feature","id":"a1c617dd-50bd-40ce-af06-655dde5b0e42","geometry":{"type":"Point","coordinates":[-94.65787245980387,29.483704122693325]},"properties":{"substrate":"Solid Reef","lease_number":null,"poll_year":2023}},{"type":"Feature","id":"aee27a1b-a36d-4361-9789-4bd452aadaaf","geometry":{"type":"Point","coordinates":[-94.65781021823277,29.483543622816267]},"properties":{"substrate":"Solid Reef","lease_number":null,"poll_year":2023}},{"type":"Feature","id":"af8b770a-b60f-4e27-947f-63d423f5020b","geometry":{"type":"Point","coordinates":[-94.6562108262599,29.48467520924699]},"properties":{"substrate":"Solid Reef","lease_number":null,"poll_year":2023}},{"type":"Feature","id":"bc57c161-1e36-4c0a-8fcb-b69a2a63fe83","geometry":{"type":"Point","coordinates":[-94.6563593034033,29.484985301377165]},"properties":{"substrate":"Solid Reef","lease_number":null,"poll_year":2023}},{"type":"Feature","id":"bd593f38-de99-499a-b01a-342302e1e4a2","geometry":{"type":"Point","coordinates":[-94.65737328217014,29.487435175068722]},"properties":{"substrate":"Solid Reef","lease_number":null,"poll_year":2023}},{"type":"Feature","id":"c11b346c-29c5-444c-a47e-ba4d4f273b37","geometry":{"type":"Point","coordinates":[-94.65748826742484,29.483913269178675]},"properties":{"substrate":"Solid Reef","lease_number":null,"poll_year":2023}},{"type":"Feature","id":"caaaaa68-0141-41c1-a1a7-ebcbdd80b7e5","geometry":{"type":"Point","coordinates":[-94.6565573729403,29.48546886638731]},"properties":{"substrate":"Solid Reef","lease_number":null,"poll_year":2023}},{"type":"Feature","id":"cfd55a0e-d4f0-441a-9e45-1f94add40dff","geometry":{"type":"Point","coordinates":[-94.65615099217375,29.483836330334935]},"properties":{"substrate":"Solid Reef","lease_number":null,"poll_year":2023}},{"type":"Feature","id":"d127e84b-bca0-4199-ad11-08fb6806ee4a","geometry":{"type":"Point","coordinates":[-94.65673794060062,29.48591062928879]},"properties":{"substrate":"Solid Reef","lease_number":null,"poll_year":2023}},{"type":"Feature","id":"d776650a-644d-47c7-8628-e8da1f926a13","geometry":{"type":"Point","coordinates":[-94.65639765607605,29.485113221376725]},"properties":{"substrate":"Solid Reef","lease_number":null,"poll_year":2023}},{"type":"Feature","id":"d8e10ae6-ca23-4932-897e-b1fc18b7f7ec","geometry":{"type":"Point","coordinates":[-94.6571504541656,29.483995004613234]},"properties":{"substrate":"Solid Reef","lease_number":null,"poll_year":2023}},{"type":"Feature","id":"dd8d3ac4-abb2-4c3f-97ec-87533e06effb","geometry":{"type":"Point","coordinates":[-94.65596186895868,29.484262369357765]},"properties":{"substrate":"Solid Reef","lease_number":null,"poll_year":2023}},{"type":"Feature","id":"ddcc4ce3-3579-4d6c-a79f-a4b7894a3fb8","geometry":{"type":"Point","coordinates":[-94.65700432521834,29.48649860088418]},"properties":{"substrate":"Solid Reef","lease_number":null,"poll_year":2023}},{"type":"Feature","id":"de914789-0d75-4776-893f-fa0c56f8c7dc","geometry":{"type":"Point","coordinates":[-94.65623262118532,29.483983873164888]},"properties":{"substrate":"Solid Reef","lease_number":null,"poll_year":2023}},{"type":"Feature","id":"ef9a5071-a847-4720-ad44-acb9df1da143","geometry":{"type":"Point","coordinates":[-94.65685770579093,29.48618661869486]},"properties":{"substrate":"Solid Reef","lease_number":null,"poll_year":2023}},{"type":"Feature","id":"f52a5b28-b52f-4d09-a90e-27c5411ed164","geometry":{"type":"Point","coordinates":[-94.6572433588306,29.487087656765027]},"properties":{"substrate":"Solid Reef","lease_number":null,"poll_year":2023}},{"type":"Feature","id":"f62b8d0d-108f-41af-8c2d-379a758729fd","geometry":{"type":"Point","coordinates":[-94.6564608947771,29.48527127433734]},"properties":{"substrate":"Solid Reef","lease_number":null,"poll_year":2023}}]}