{"type":"FeatureCollection","features":[{"type":"Feature","id":"1352ac95-4164-449e-9337-52d2dfb91545","geometry":{"type":"Point","coordinates":[-94.65778290944813,29.506912360218465]},"properties":{"substrate":"Solid Reef","lease_number":null,"poll_year":2023}},{"type":"Feature","id":"17d79852-a435-4296-8aa0-4b8083c3a2a1","geometry":{"type":"Point","coordinates":[-94.65769848937099,29.50674305884368]},"properties":{"substrate":"Solid Reef","lease_number":null,"poll_year":2023}},{"type":"Feature","id":"28cf18f1-b5b0-4155-b75c-b6c9fd820875","geometry":{"type":"Point","coordinates":[-94.65802422298458,29.507357248260636]},"properties":{"substrate":"Solid Reef","lease_number":null,"poll_year":2023}},{"type":"Feature","id":"30bd82c4-3a60-433a-90c0-41a921dcfce6","geometry":{"type":"Point","coordinates":[-94.65806994004602,29.506794115176458]},"properties":{"substrate":"Solid Reef","lease_number":null,"poll_year":2023}},{"type":"Feature","id":"30ff753c-73f7-4f20-a0c6-057f1a73610e","geometry":{"type":"Point","coordinates":[-94.65764787199969,29.506533204270795]},"properties":{"substrate":"Solid Reef","lease_number":null,"poll_year":2023}},{"type":"Feature","id":"3b245561-eaeb-4d3c-b8db-9865bc090085","geometry":{"type":"Point","coordinates":[-94.65812796133191,29.50627883014917]},"properties":{"substrate":"Solid Reef","lease_number":null,"poll_year":2023}},{"type":"Feature","id":"4494a0c4-92b5-4431-a843-7c45c5e3a944","geometry":{"type":"Point","coordinates":[-94.65807770238838,29.508225505958276]},"properties":{"substrate":"Solid Reef","lease_number":null,"poll_year":2023}},{"type":"Feature","id":"61ba3d2a-506c-41bd-8695-f10c86b0faee","geometry":{"type":"Point","coordinates":[-94.65788717600485,29.506242393322765]},"properties":{"substrate":"Solid Reef","lease_number":null,"poll_year":2023}},{"type":"Feature","id":"6cbaf60c-3dc3-49bf-a781-c70d9baf2621","geometry":{"type":"Point","coordinates":[-94.65794860010904,29.50643677034156]},"properties":{"substrate":"Solid Reef","lease_number":null,"poll_year":2023}},{"type":"Feature","id":"927d109e-1f35-4cbb-9b39-c8772ee76849","geometry":{"type":"Point","coordinates":[-94.65800544100863,29.506598576302874]},"properties":{"substrate":"Solid Reef","lease_number":null,"poll_year":2023}},{"type":"Feature","id":"9f481424-4c59-411b-a989-d3d4e30fe10d","geometry":{"type":"Point","coordinates":[-94.6581979957881,29.508128276995937]},"properties":{"substrate":"Solid Reef","lease_number":null,"poll_year":2023}},{"type":"Feature","id":"a548aa30-94a2-4fbe-8e0a-7aec769cf320","geometry":{"type":"Point","coordinates":[-94.65773155905154,29.506310410389343]},"properties":{"substrate":"Solid Reef","lease_number":null,"poll_year":2023}},{"type":"Feature","id":"afd87374-0da9-4bbb-b941-7509e7acb6e1","geometry":{"type":"Point","coordinates":[-94.65814002570619,29.50698847471822]},"properties":{"substrate":"Solid Reef","lease_number":null,"poll_year":2023}},{"type":"Feature","id":"b2668880-5f8b-414d-8aa2-42137d5ccfee","geometry":{"type":"Point","coordinates":[-94.65812476422782,29.50779477610638]},"properties":{"substrate":"Solid Reef","lease_number":null,"poll_year":2023}},{"type":"Feature","id":"b5fd3a9e-8673-41c3-b8d8-8d73b2910fb7","geometry":{"type":"Point","coordinates":[-94.65813764427236,29.508591211169517]},"properties":{"substrate":"Solid Reef","lease_number":null,"poll_year":2023}},{"type":"Feature","id":"bd38bc6d-3d96-44c7-b89c-2071daa2ee87","geometry":{"type":"Point","coordinates":[-94.65810805556353,29.50842487167281]},"properties":{"substrate":"Solid Reef","lease_number":null,"poll_year":2023}},{"type":"Feature","id":"cbc0a0c0-be65-4cb5-99c8-87373f27340a","geometry":{"type":"Point","coordinates":[-94.65818377366051,29.508786434261847]},"properties":{"substrate":"Solid Reef","lease_number":null,"poll_year":2023}},{"type":"Feature","id":"cff3ddc5-76f2-46a5-b396-939de582a274","geometry":{"type":"Point","coordinates":[-94.65795797762229,29.507212259991196]},"properties":{"substrate":"Solid Reef","lease_number":null,"poll_year":2023}},{"type":"Feature","id":"ed920d57-36c4-4a44-bbb9-df746084d23f","geometry":{"type":"Point","coordinates":[-94.65809538931802,29.507610979382527]},"properties":{"substrate":"Solid Reef","lease_number":null,"poll_year":2023}}]}