{"type":"FeatureCollection","features":[{"type":"Feature","id":"2c149c29-eb3a-436a-9145-13ca18526fed","geometry":{"type":"Point","coordinates":[-97.12511772334935,28.135974078832145]},"properties":{"substrate":"Solid Reef","lease_number":null,"poll_year":2025}},{"type":"Feature","id":"71b631b4-4519-4a2b-be1f-62feab98568a","geometry":{"type":"Point","coordinates":[-97.12651482819497,28.13654039728175]},"properties":{"substrate":"Mud","lease_number":null,"poll_year":2025}},{"type":"Feature","id":"8f461b0f-3237-44fe-8c8a-6aad04813c11","geometry":{"type":"Point","coordinates":[-97.12643803122133,28.136565872289193]},"properties":{"substrate":"Mud","lease_number":null,"poll_year":2025}},{"type":"Feature","id":"b0e1f9d6-1759-496f-aa42-e4a0c78efc9a","geometry":{"type":"Point","coordinates":[-97.12512535184274,28.13595686435338]},"properties":{"substrate":"Solid Reef","lease_number":null,"poll_year":2025}},{"type":"Feature","id":"cc41a2f4-bc1d-4034-8b27-0248aa126af8","geometry":{"type":"Point","coordinates":[-97.12465964094494,28.136036194631007]},"properties":{"substrate":"Solid Reef","lease_number":null,"poll_year":2025}},{"type":"Feature","id":"ce2dc846-2d10-4d64-b875-93262df3f7ef","geometry":{"type":"Point","coordinates":[-97.12276655826464,28.13539571170599]},"properties":{"substrate":"Solid Reef","lease_number":null,"poll_year":2025}},{"type":"Feature","id":"dade9a8c-320a-4b4d-8cd4-8e10bfd5e67e","geometry":{"type":"Point","coordinates":[-97.12458726547912,28.13600148843395]},"properties":{"substrate":"Solid Reef","lease_number":null,"poll_year":2025}},{"type":"Feature","id":"df09da51-c1bc-447b-b856-8f0b82f212b7","geometry":{"type":"Point","coordinates":[-97.12264844238119,28.13541634843366]},"properties":{"substrate":"Solid Reef","lease_number":null,"poll_year":2025}},{"type":"Feature","id":"e06fe106-35d1-4657-b93e-90a3bbc910f8","geometry":{"type":"Point","coordinates":[-97.12500470540513,28.136037969865534]},"properties":{"substrate":"Solid Reef","lease_number":null,"poll_year":2025}}]}