{"type":"FeatureCollection","features":[{"type":"Feature","id":"2582a1a8-14d2-48b2-857c-11cfad350fb2","geometry":{"type":"Point","coordinates":[-97.03076500016356,28.152650199838572]},"properties":{"substrate":"Firm/Hard Bottom","lease_number":null,"poll_year":2025}},{"type":"Feature","id":"3c068018-788a-4c95-8414-4c6199bcce7c","geometry":{"type":"Point","coordinates":[-97.03083839970881,28.152887400178003]},"properties":{"substrate":"Firm/Hard Bottom","lease_number":null,"poll_year":2025}},{"type":"Feature","id":"4005dbed-aa1d-4c26-8a97-f9abf691fce8","geometry":{"type":"Point","coordinates":[-97.03106279976508,28.15295529991696]},"properties":{"substrate":"Firm/Hard Bottom","lease_number":null,"poll_year":2025}},{"type":"Feature","id":"42daf4b2-da59-44af-b10e-3d55e944da93","geometry":{"type":"Point","coordinates":[-97.03096120030645,28.152771700121157]},"properties":{"substrate":"Firm/Hard Bottom","lease_number":null,"poll_year":2025}},{"type":"Feature","id":"4a485a05-e783-40b3-8ed3-7943d15c4ce7","geometry":{"type":"Point","coordinates":[-97.0304292000289,28.152581999723186]},"properties":{"substrate":"Firm/Hard Bottom","lease_number":null,"poll_year":2025}},{"type":"Feature","id":"8181e5a0-585c-48b7-b1ce-d727baebef80","geometry":{"type":"Point","coordinates":[-97.03087450030512,28.15270860001898]},"properties":{"substrate":"Firm/Hard Bottom","lease_number":null,"poll_year":2025}},{"type":"Feature","id":"85b6adda-877c-46f5-bc37-a6f3aefde0ec","geometry":{"type":"Point","coordinates":[-97.0305488996422,28.15256169975129]},"properties":{"substrate":"Firm/Hard Bottom","lease_number":null,"poll_year":2025}},{"type":"Feature","id":"b3a1dc7e-c573-4460-9953-08ac288946e6","geometry":{"type":"Point","coordinates":[-97.03123589973045,28.15300559977634]},"properties":{"substrate":"Firm/Hard Bottom","lease_number":null,"poll_year":2025}},{"type":"Feature","id":"b3ca1207-0835-4bb2-b2c7-088d05395c78","geometry":{"type":"Point","coordinates":[-97.03118519971413,28.152892199923]},"properties":{"substrate":"Firm/Hard Bottom","lease_number":null,"poll_year":2025}},{"type":"Feature","id":"b83194c7-d55a-4aa1-9a8d-84fe9475bf08","geometry":{"type":"Point","coordinates":[-97.03072620012982,28.152854099763047]},"properties":{"substrate":"Firm/Hard Bottom","lease_number":null,"poll_year":2025}},{"type":"Feature","id":"c1b02e18-2cb2-46c3-bbb5-7748a47a2c23","geometry":{"type":"Point","coordinates":[-97.03039949992898,28.152662999978503]},"properties":{"substrate":"Firm/Hard Bottom","lease_number":null,"poll_year":2025}},{"type":"Feature","id":"d32b70c7-594b-4630-be3d-7d935c05140f","geometry":{"type":"Point","coordinates":[-97.03105059974521,28.15280910014909]},"properties":{"substrate":"Firm/Hard Bottom","lease_number":null,"poll_year":2025}},{"type":"Feature","id":"d646e85f-274a-4095-9cb9-55ff0303f580","geometry":{"type":"Point","coordinates":[-97.0306902001448,28.152607500220856]},"properties":{"substrate":"Firm/Hard Bottom","lease_number":null,"poll_year":2025}},{"type":"Feature","id":"dae11fe0-fc66-4a0d-adb7-d0168f72cb11","geometry":{"type":"Point","coordinates":[-97.03055799957602,28.152793999948805]},"properties":{"substrate":"Firm/Hard Bottom","lease_number":null,"poll_year":2025}},{"type":"Feature","id":"e9dbfa6d-f653-4830-aea5-be627f3ecadc","geometry":{"type":"Point","coordinates":[-97.03092400017222,28.152916300025506]},"properties":{"substrate":"Firm/Hard Bottom","lease_number":null,"poll_year":2025}},{"type":"Feature","id":"f0983631-3ce8-412b-b95b-5cd42c1ef24c","geometry":{"type":"Point","coordinates":[-97.02640610041885,28.167466900301648]},"properties":{"substrate":"Solid Reef","lease_number":null,"poll_year":2025}}]}