{"type":"FeatureCollection","features":[{"type":"Feature","id":"002af413-cc9d-4626-8df5-e97c1eb976de","geometry":{"type":"Point","coordinates":[-96.63428705649454,28.677491185417395]},"properties":{"substrate":"Mud","lease_number":null,"poll_year":2025}},{"type":"Feature","id":"004e8ae1-00c7-45f3-b9f8-095265c16ef1","geometry":{"type":"Point","coordinates":[-96.60155768831258,28.643942594504292]},"properties":{"substrate":"Mud","lease_number":null,"poll_year":2025}},{"type":"Feature","id":"004eeeff-4c77-4183-a194-87e0766c1f54","geometry":{"type":"Point","coordinates":[-96.59912358087938,28.661870172241294]},"properties":{"substrate":"Mud","lease_number":null,"poll_year":2025}},{"type":"Feature","id":"0070bdda-e105-4f24-91c0-bc0a1ff592aa","geometry":{"type":"Point","coordinates":[-96.60000694101066,28.667685237116245]},"properties":{"substrate":"Mud","lease_number":null,"poll_year":2025}},{"type":"Feature","id":"01111945-3144-4074-b8ff-d65bfa65058b","geometry":{"type":"Point","coordinates":[-96.64129244157529,28.688938657173665]},"properties":{"substrate":"Firm/Hard Bottom","lease_number":null,"poll_year":2025}},{"type":"Feature","id":"01c11f56-be24-41d0-8521-20e0c18f3a85","geometry":{"type":"Point","coordinates":[-96.60173255346749,28.663253393938827]},"properties":{"substrate":"Mud","lease_number":null,"poll_year":2025}},{"type":"Feature","id":"02b0c8b2-b49f-4961-854b-2bc9b95c568b","geometry":{"type":"Point","coordinates":[-96.60091804830444,28.657558044229397]},"properties":{"substrate":"Mud","lease_number":null,"poll_year":2025}},{"type":"Feature","id":"02b77384-6daf-4ca0-839b-69f85545a59d","geometry":{"type":"Point","coordinates":[-96.59827499902434,28.66369426599209]},"properties":{"substrate":"Mud","lease_number":null,"poll_year":2025}},{"type":"Feature","id":"0311934d-15f7-42d8-99bf-5d0c134c993a","geometry":{"type":"Point","coordinates":[-96.6020679269024,28.659045752613014]},"properties":{"substrate":"Mud","lease_number":null,"poll_year":2025}},{"type":"Feature","id":"03814b60-2dba-4113-9f36-1495cc9a3152","geometry":{"type":"Point","coordinates":[-96.59377923106464,28.661484786457347]},"properties":{"substrate":"Mud","lease_number":null,"poll_year":2025}},{"type":"Feature","id":"04e0f822-f141-4fce-a108-87514061dfc9","geometry":{"type":"Point","coordinates":[-96.59809297250001,28.666786773039316]},"properties":{"substrate":"Firm/Hard Bottom","lease_number":null,"poll_year":2025}},{"type":"Feature","id":"05b0dc3a-4cb4-4828-9b9e-020fce92a0fd","geometry":{"type":"Point","coordinates":[-96.61033017543988,28.689912690107175]},"properties":{"substrate":"Mud","lease_number":null,"poll_year":2025}},{"type":"Feature","id":"06182474-8825-43a9-8cf9-050af838eb96","geometry":{"type":"Point","coordinates":[-96.59884866675804,28.667137331584797]},"properties":{"substrate":"Mud","lease_number":null,"poll_year":2025}},{"type":"Feature","id":"0641d51f-9006-42a2-a667-1084353ed05d","geometry":{"type":"Point","coordinates":[-96.60168102430617,28.663850520055078]},"properties":{"substrate":"Mud","lease_number":null,"poll_year":2025}},{"type":"Feature","id":"076f2305-8baa-403e-b259-fe9eddab991a","geometry":{"type":"Point","coordinates":[-96.59849874510711,28.663210961915876]},"properties":{"substrate":"Mud","lease_number":null,"poll_year":2025}},{"type":"Feature","id":"09092732-8e98-443f-b5c2-079b7e2fd025","geometry":{"type":"Point","coordinates":[-96.64043008046211,28.689151712236246]},"properties":{"substrate":"Firm/Hard Bottom","lease_number":null,"poll_year":2025}},{"type":"Feature","id":"0b532009-8012-4f5c-b9d2-96a0148c0310","geometry":{"type":"Point","coordinates":[-96.6030049622702,28.642996740680278]},"properties":{"substrate":"Mud","lease_number":null,"poll_year":2025}},{"type":"Feature","id":"0bec0bf5-5038-47d2-87ff-5de935862654","geometry":{"type":"Point","coordinates":[-96.61097978225612,28.690507318325636]},"properties":{"substrate":"Firm/Hard Bottom","lease_number":null,"poll_year":2025}},{"type":"Feature","id":"0c1146de-6e39-4d15-a012-6cf4e0f349dd","geometry":{"type":"Point","coordinates":[-96.60170192271292,28.663640557766957]},"properties":{"substrate":"Mud","lease_number":null,"poll_year":2025}},{"type":"Feature","id":"0cf548af-cba2-4f87-830d-f56b4dc7208b","geometry":{"type":"Point","coordinates":[-96.60021961805249,28.643903546258688]},"properties":{"substrate":"Mud","lease_number":null,"poll_year":2025}},{"type":"Feature","id":"0d8e3cc8-5c59-411c-844d-0cab85376fb6","geometry":{"type":"Point","coordinates":[-96.61110718851624,28.68849089906721]},"properties":{"substrate":"Firm/Hard Bottom","lease_number":null,"poll_year":2025}},{"type":"Feature","id":"0d91ae99-18eb-4544-a114-f9c550f080ee","geometry":{"type":"Point","coordinates":[-96.59881532668459,28.66252282643004]},"properties":{"substrate":"Mud","lease_number":null,"poll_year":2025}},{"type":"Feature","id":"0f2c675e-c9c6-44dc-9787-93ec080e0dbd","geometry":{"type":"Point","coordinates":[-96.59934307164266,28.661402243129768]},"properties":{"substrate":"Mud","lease_number":null,"poll_year":2025}},{"type":"Feature","id":"102651b8-8429-41c1-94e1-0c9680009231","geometry":{"type":"Point","coordinates":[-96.6016653864337,28.664030335493702]},"properties":{"substrate":"Firm/Hard Bottom","lease_number":null,"poll_year":2025}},{"type":"Feature","id":"10ff7d34-dea7-45f9-9030-af68df7ee889","geometry":{"type":"Point","coordinates":[-96.59865263190517,28.66705248879524]},"properties":{"substrate":"Mud","lease_number":null,"poll_year":2025}},{"type":"Feature","id":"12ac9308-61cb-428e-83e6-a2216127fee5","geometry":{"type":"Point","coordinates":[-96.64138876522824,28.687477752332992]},"properties":{"substrate":"Mud","lease_number":null,"poll_year":2025}},{"type":"Feature","id":"130dc1fc-3454-4de3-9e47-9d9e448dd6bc","geometry":{"type":"Point","coordinates":[-96.63227824565283,28.67967203994482]},"properties":{"substrate":"Mud","lease_number":null,"poll_year":2025}},{"type":"Feature","id":"131a0e99-cd86-4b8b-bb58-a95496623016","geometry":{"type":"Point","coordinates":[-96.64196384062201,28.68734319619089]},"properties":{"substrate":"Mud","lease_number":null,"poll_year":2025}},{"type":"Feature","id":"1381c684-df99-4011-a35b-c40089df0b1a","geometry":{"type":"Point","coordinates":[-96.59941058722278,28.661255209464397]},"properties":{"substrate":"Mud","lease_number":null,"poll_year":2025}},{"type":"Feature","id":"13a638df-b609-4d84-921d-7cb13ae2d920","geometry":{"type":"Point","coordinates":[-96.60363897523143,28.642557300814527]},"properties":{"substrate":"Mud","lease_number":null,"poll_year":2025}},{"type":"Feature","id":"14067d6b-6c45-4062-a0ef-d2283d28df67","geometry":{"type":"Point","coordinates":[-96.6334815560439,28.678228107982815]},"properties":{"substrate":"Mud","lease_number":null,"poll_year":2025}},{"type":"Feature","id":"16088c4e-713e-4c43-be0f-c70f48331140","geometry":{"type":"Point","coordinates":[-96.5929339352469,28.66206244683517]},"properties":{"substrate":"Mud","lease_number":null,"poll_year":2025}},{"type":"Feature","id":"17634204-ac88-4dd4-a27f-c9109d589ad5","geometry":{"type":"Point","coordinates":[-96.60177426583938,28.662838908513383]},"properties":{"substrate":"Firm/Hard Bottom","lease_number":null,"poll_year":2025}},{"type":"Feature","id":"19fc8242-326c-41ca-8d53-65264c767cad","geometry":{"type":"Point","coordinates":[-96.61179563938367,28.689664404493808]},"properties":{"substrate":"Mud","lease_number":null,"poll_year":2025}},{"type":"Feature","id":"1aede621-2948-48de-8180-38c27c8ce7b5","geometry":{"type":"Point","coordinates":[-96.59784996204597,28.666668162496624]},"properties":{"substrate":"Firm/Hard Bottom","lease_number":null,"poll_year":2025}},{"type":"Feature","id":"1c429b09-ce0d-4018-83d2-d675c292a2ee","geometry":{"type":"Point","coordinates":[-96.59915853163216,28.64322846262795]},"properties":{"substrate":"Mud","lease_number":null,"poll_year":2025}},{"type":"Feature","id":"1c7dcb14-530a-4530-ad5d-0ecd9126171e","geometry":{"type":"Point","coordinates":[-96.64059427812299,28.69001665087936]},"properties":{"substrate":"Firm/Hard Bottom","lease_number":null,"poll_year":2025}},{"type":"Feature","id":"1cb3eae5-9357-46ed-9670-df9bcf42428c","geometry":{"type":"Point","coordinates":[-96.6329310756243,28.67922991739658]},"properties":{"substrate":"Mud","lease_number":null,"poll_year":2025}},{"type":"Feature","id":"1cd43d8e-8f55-407a-bdd0-e0b970d90f1d","geometry":{"type":"Point","coordinates":[-96.6413575811115,28.688200180299344]},"properties":{"substrate":"Mud","lease_number":null,"poll_year":2025}},{"type":"Feature","id":"1d17928d-2f4e-45e6-a915-1d2a31465668","geometry":{"type":"Point","coordinates":[-96.6348944460857,28.677864191650517]},"properties":{"substrate":"Mud","lease_number":null,"poll_year":2025}},{"type":"Feature","id":"1d1a67a3-bea7-4250-907c-881adf43b238","geometry":{"type":"Point","coordinates":[-96.61026987512813,28.689249261525624]},"properties":{"substrate":"Mud","lease_number":null,"poll_year":2025}},{"type":"Feature","id":"1d24ca56-2b92-4b7c-a1c0-514bcf32e58a","geometry":{"type":"Point","coordinates":[-96.64036611232903,28.68932460943978]},"properties":{"substrate":"Firm/Hard Bottom","lease_number":null,"poll_year":2025}},{"type":"Feature","id":"1e1cad09-f15b-4f09-982d-9bd7ba08b192","geometry":{"type":"Point","coordinates":[-96.6112227433028,28.68962293432203]},"properties":{"substrate":"Firm/Hard Bottom","lease_number":null,"poll_year":2025}},{"type":"Feature","id":"1eadff42-2cf0-41af-a237-257f03e42d6f","geometry":{"type":"Point","coordinates":[-96.59679738985791,28.65948891412516]},"properties":{"substrate":"Mud","lease_number":null,"poll_year":2025}},{"type":"Feature","id":"1f38429a-44ed-4c8e-9174-1aff05f00d87","geometry":{"type":"Point","coordinates":[-96.63192799342185,28.678696467142405]},"properties":{"substrate":"Mud","lease_number":null,"poll_year":2025}},{"type":"Feature","id":"1f50d890-9cfb-4559-a200-906fd3ffd789","geometry":{"type":"Point","coordinates":[-96.64085546508848,28.68782507369874]},"properties":{"substrate":"Mud","lease_number":null,"poll_year":2025}},{"type":"Feature","id":"1f96655b-a9b0-4d30-9425-ee714418da05","geometry":{"type":"Point","coordinates":[-96.60223209312225,28.656475914615143]},"properties":{"substrate":"Solid Reef","lease_number":null,"poll_year":2025}},{"type":"Feature","id":"1fac3354-298d-41bc-b919-e20556d90ce2","geometry":{"type":"Point","coordinates":[-96.63385884576829,28.67803554070971]},"properties":{"substrate":"Mud","lease_number":null,"poll_year":2025}},{"type":"Feature","id":"2127ed37-e8eb-4d6f-876b-c518ec923f2a","geometry":{"type":"Point","coordinates":[-96.63201849599179,28.679856277087794]},"properties":{"substrate":"Mud","lease_number":null,"poll_year":2025}},{"type":"Feature","id":"22337e27-d289-45bd-9e46-96d514cdbb7a","geometry":{"type":"Point","coordinates":[-96.61188927707396,28.69047569250281]},"properties":{"substrate":"Mud","lease_number":null,"poll_year":2025}},{"type":"Feature","id":"22673f27-8d3f-4853-ba4c-46bf32a3e02d","geometry":{"type":"Point","coordinates":[-96.61088278037512,28.6895613764022]},"properties":{"substrate":"Firm/Hard Bottom","lease_number":null,"poll_year":2025}},{"type":"Feature","id":"23706c8a-ebaf-4bb9-b707-2e78634302fc","geometry":{"type":"Point","coordinates":[-96.5981215541974,28.664032939787372]},"properties":{"substrate":"Mud","lease_number":null,"poll_year":2025}},{"type":"Feature","id":"274c68bf-d266-48ad-a52a-79156594f776","geometry":{"type":"Point","coordinates":[-96.63215587444988,28.678924365863146]},"properties":{"substrate":"Mud","lease_number":null,"poll_year":2025}},{"type":"Feature","id":"278c3508-c875-4d12-b9b4-c46bcffa5e22","geometry":{"type":"Point","coordinates":[-96.60193741965793,28.660826931247303]},"properties":{"substrate":"Mud","lease_number":null,"poll_year":2025}},{"type":"Feature","id":"286401c5-2210-48ef-953d-2d3a2f92b075","geometry":{"type":"Point","coordinates":[-96.63313884606806,28.678416914799342]},"properties":{"substrate":"Mud","lease_number":null,"poll_year":2025}},{"type":"Feature","id":"28a1a3fa-dc71-40b7-bda8-da68a7be55c3","geometry":{"type":"Point","coordinates":[-96.64161518200237,28.68953589379581]},"properties":{"substrate":"Mud","lease_number":null,"poll_year":2025}},{"type":"Feature","id":"28b17d27-2495-42f2-b055-dc3675da246d","geometry":{"type":"Point","coordinates":[-96.63997919356312,28.69053201582265]},"properties":{"substrate":"Firm/Hard Bottom","lease_number":null,"poll_year":2025}},{"type":"Feature","id":"2ad358f8-aa4b-47d1-af28-2348f8e38b0f","geometry":{"type":"Point","coordinates":[-96.63455368814897,28.678107161798543]},"properties":{"substrate":"Mud","lease_number":null,"poll_year":2025}},{"type":"Feature","id":"2ae9d7fb-80bb-4de0-8d65-66ffa25bedf8","geometry":{"type":"Point","coordinates":[-96.59535954282087,28.6654807097235]},"properties":{"substrate":"Mud","lease_number":null,"poll_year":2025}},{"type":"Feature","id":"2bd489c7-5827-4220-810c-bcb4641fae0a","geometry":{"type":"Point","coordinates":[-96.61084595843163,28.689219779565924]},"properties":{"substrate":"Firm/Hard Bottom","lease_number":null,"poll_year":2025}},{"type":"Feature","id":"2c050349-b559-427b-a2ad-db9f10b59a8b","geometry":{"type":"Point","coordinates":[-96.59954942005331,28.660959797552742]},"properties":{"substrate":"Mud","lease_number":null,"poll_year":2025}},{"type":"Feature","id":"2c167b19-a729-4f32-9b1a-a00ac5afa075","geometry":{"type":"Point","coordinates":[-96.63120110005015,28.67909745964232]},"properties":{"substrate":"Mud","lease_number":null,"poll_year":2025}},{"type":"Feature","id":"2c6e567d-feca-4c49-9094-6abbda906f50","geometry":{"type":"Point","coordinates":[-96.60038976884877,28.659169444241602]},"properties":{"substrate":"Mud","lease_number":null,"poll_year":2025}},{"type":"Feature","id":"2cd081ea-8732-4ab6-ba57-92fb8be3f596","geometry":{"type":"Point","coordinates":[-96.6417534569791,28.68790656071929]},"properties":{"substrate":"Mud","lease_number":null,"poll_year":2025}},{"type":"Feature","id":"2e09c552-6e76-4f36-b53a-c53e44a66b19","geometry":{"type":"Point","coordinates":[-96.59853104403315,28.65827558947438]},"properties":{"substrate":"Mud","lease_number":null,"poll_year":2025}},{"type":"Feature","id":"2ee7396b-c6c1-46c3-a1c1-4e5aa8001543","geometry":{"type":"Point","coordinates":[-96.60198326428012,28.660193995693454]},"properties":{"substrate":"Mud","lease_number":null,"poll_year":2025}},{"type":"Feature","id":"2f932a9c-a0be-46ae-8411-1575ca8e58d5","geometry":{"type":"Point","coordinates":[-96.63959025538446,28.690235660446884]},"properties":{"substrate":"Mud","lease_number":null,"poll_year":2025}},{"type":"Feature","id":"30834daa-38de-4fb7-9020-48b790516097","geometry":{"type":"Point","coordinates":[-96.59659808423908,28.659625440430087]},"properties":{"substrate":"Mud","lease_number":null,"poll_year":2025}},{"type":"Feature","id":"30d5cb21-3205-4cb4-9d2b-4ab10e1a6404","geometry":{"type":"Point","coordinates":[-96.64114215612321,28.68927181271323]},"properties":{"substrate":"Firm/Hard Bottom","lease_number":null,"poll_year":2025}},{"type":"Feature","id":"3140e483-a7cf-427a-8cd5-7fd2f49d4097","geometry":{"type":"Point","coordinates":[-96.59262371553825,28.662272320060737]},"properties":{"substrate":"Mud","lease_number":null,"poll_year":2025}},{"type":"Feature","id":"315f7579-33be-4bb2-9482-89bedc99d691","geometry":{"type":"Point","coordinates":[-96.59965119019184,28.64354475897673]},"properties":{"substrate":"Mud","lease_number":null,"poll_year":2025}},{"type":"Feature","id":"31e3e182-7b72-4793-b4d0-eafb9c4b3fc9","geometry":{"type":"Point","coordinates":[-96.59192185012867,28.662755306077386]},"properties":{"substrate":"Mud","lease_number":null,"poll_year":2025}},{"type":"Feature","id":"323482b2-6f86-4940-9c2e-831291fea6f4","geometry":{"type":"Point","coordinates":[-96.59986365163802,28.66029789215947]},"properties":{"substrate":"Mud","lease_number":null,"poll_year":2025}},{"type":"Feature","id":"32689216-e440-4be3-87aa-d12130593f10","geometry":{"type":"Point","coordinates":[-96.61023117301075,28.688677359514685]},"properties":{"substrate":"Mud","lease_number":null,"poll_year":2025}},{"type":"Feature","id":"340491b5-5f02-4b61-bacd-963f1c0c5023","geometry":{"type":"Point","coordinates":[-96.5992817086239,28.667347447660315]},"properties":{"substrate":"Firm/Hard Bottom","lease_number":null,"poll_year":2025}},{"type":"Feature","id":"35aa46d9-5276-4f70-a473-9269f86783ba","geometry":{"type":"Point","coordinates":[-96.59694207700915,28.659396301578436]},"properties":{"substrate":"Firm/Hard Bottom","lease_number":null,"poll_year":2025}},{"type":"Feature","id":"362b3078-97ad-446e-a4bd-edeb94c9ea5d","geometry":{"type":"Point","coordinates":[-96.61091685347384,28.689954295705252]},"properties":{"substrate":"Firm/Hard Bottom","lease_number":null,"poll_year":2025}},{"type":"Feature","id":"36461d9e-410b-4849-bf6b-bf677f0e40e4","geometry":{"type":"Point","coordinates":[-96.59364365103374,28.661579080845737]},"properties":{"substrate":"Mud","lease_number":null,"poll_year":2025}},{"type":"Feature","id":"36dcd113-1089-4dff-8da9-031cc7adeaa4","geometry":{"type":"Point","coordinates":[-96.59865267861757,28.662879284975006]},"properties":{"substrate":"Mud","lease_number":null,"poll_year":2025}},{"type":"Feature","id":"37697f33-1777-4df2-a1ad-2ed79d25fada","geometry":{"type":"Point","coordinates":[-96.63406847482635,28.6779168924611]},"properties":{"substrate":"Mud","lease_number":null,"poll_year":2025}},{"type":"Feature","id":"3776064f-9532-44f5-a5b2-335f062c9fe6","geometry":{"type":"Point","coordinates":[-96.59609936923773,28.6658391586879]},"properties":{"substrate":"Mud","lease_number":null,"poll_year":2025}},{"type":"Feature","id":"377c2323-221a-4865-910a-6a81f85c8b99","geometry":{"type":"Point","coordinates":[-96.6416973922239,28.688065257857293]},"properties":{"substrate":"Mud","lease_number":null,"poll_year":2025}},{"type":"Feature","id":"37920983-da3c-4cfb-a8d3-c95f1b3078f0","geometry":{"type":"Point","coordinates":[-96.64079296031102,28.68734680387954]},"properties":{"substrate":"Mud","lease_number":null,"poll_year":2025}},{"type":"Feature","id":"37d5d6e9-6a6a-4c14-a3b4-c7d29677e952","geometry":{"type":"Point","coordinates":[-96.60042853923812,28.644027061809286]},"properties":{"substrate":"Mud","lease_number":null,"poll_year":2025}},{"type":"Feature","id":"380c164d-5191-4e3e-bdca-eadec63ed3cd","geometry":{"type":"Point","coordinates":[-96.59666099415674,28.666104999018874]},"properties":{"substrate":"Mud","lease_number":null,"poll_year":2025}},{"type":"Feature","id":"3927650b-7529-44aa-bb3f-c6eeb7a4eba3","geometry":{"type":"Point","coordinates":[-96.64131785671132,28.690204504994487]},"properties":{"substrate":"Mud","lease_number":null,"poll_year":2025}},{"type":"Feature","id":"3994e37f-faff-4cd6-a7c9-06de499ad014","geometry":{"type":"Point","coordinates":[-96.6416379417184,28.688213913517355]},"properties":{"substrate":"Mud","lease_number":null,"poll_year":2025}},{"type":"Feature","id":"3a059355-2450-426d-8b25-ff5795af2236","geometry":{"type":"Point","coordinates":[-96.60201299671941,28.659802005253823]},"properties":{"substrate":"Mud","lease_number":null,"poll_year":2025}},{"type":"Feature","id":"3a253992-b1a7-4ac4-9c84-636183fac91c","geometry":{"type":"Point","coordinates":[-96.6102503250926,28.68899072907447]},"properties":{"substrate":"Mud","lease_number":null,"poll_year":2025}},{"type":"Feature","id":"3a86dce4-59f8-4331-bce7-99e4d1803580","geometry":{"type":"Point","coordinates":[-96.64074783613766,28.688694992674815]},"properties":{"substrate":"Firm/Hard Bottom","lease_number":null,"poll_year":2025}},{"type":"Feature","id":"3a87d9ba-07d5-4f8b-955d-5201fa8279df","geometry":{"type":"Point","coordinates":[-96.63940817046962,28.690542565901886]},"properties":{"substrate":"Mud","lease_number":null,"poll_year":2025}},{"type":"Feature","id":"3bc2a376-de48-409b-9fd0-f2279e2131bf","geometry":{"type":"Point","coordinates":[-96.59575672573723,28.66017906302143]},"properties":{"substrate":"Mud","lease_number":null,"poll_year":2025}},{"type":"Feature","id":"3bee8798-0c66-4a2c-ba43-d534e97f6d93","geometry":{"type":"Point","coordinates":[-96.6400133052894,28.690128513894553]},"properties":{"substrate":"Firm/Hard Bottom","lease_number":null,"poll_year":2025}},{"type":"Feature","id":"3d94ed8b-bb8b-4c5f-ac01-07a246a128a3","geometry":{"type":"Point","coordinates":[-96.64037272392954,28.690520182049287]},"properties":{"substrate":"Firm/Hard Bottom","lease_number":null,"poll_year":2025}},{"type":"Feature","id":"3d97b692-dfc4-4abc-8b80-ee5cce83a13b","geometry":{"type":"Point","coordinates":[-96.60194733256708,28.6606752271838]},"properties":{"substrate":"Mud","lease_number":null,"poll_year":2025}},{"type":"Feature","id":"3dd8ec62-ee6b-4a00-b29b-c42b1114b5af","geometry":{"type":"Point","coordinates":[-96.59889939462214,28.66234412927832]},"properties":{"substrate":"Mud","lease_number":null,"poll_year":2025}},{"type":"Feature","id":"3e118078-e792-43ef-b8b5-ac5863ecb2d5","geometry":{"type":"Point","coordinates":[-96.59968971354449,28.667540949676884]},"properties":{"substrate":"Mud","lease_number":null,"poll_year":2025}},{"type":"Feature","id":"3fef7d53-7485-4c31-9436-5ea267f9e0c2","geometry":{"type":"Point","coordinates":[-96.59848027035497,28.666958896890186]},"properties":{"substrate":"Mud","lease_number":null,"poll_year":2025}},{"type":"Feature","id":"40a48fda-081a-466d-bfc9-1cc57f0733bb","geometry":{"type":"Point","coordinates":[-96.61021783033381,28.688446042219475]},"properties":{"substrate":"Mud","lease_number":null,"poll_year":2025}},{"type":"Feature","id":"41953076-e754-4f9d-89d0-c7b65fc90d03","geometry":{"type":"Point","coordinates":[-96.60171899609323,28.6634327414057]},"properties":{"substrate":"Mud","lease_number":null,"poll_year":2025}},{"type":"Feature","id":"428d08b0-c22d-4b79-9638-26a6dc58c302","geometry":{"type":"Point","coordinates":[-96.64053049055131,28.68791142059173]},"properties":{"substrate":"Mud","lease_number":null,"poll_year":2025}},{"type":"Feature","id":"4311f038-ab2a-4740-8f22-0cf5bf5b7509","geometry":{"type":"Point","coordinates":[-96.63472531577558,28.677984416197873]},"properties":{"substrate":"Mud","lease_number":null,"poll_year":2025}},{"type":"Feature","id":"432fa1b3-dfde-44b1-8c40-8fed5a889d6b","geometry":{"type":"Point","coordinates":[-96.60155676125123,28.656048349188794]},"properties":{"substrate":"Solid Reef","lease_number":null,"poll_year":2025}},{"type":"Feature","id":"43b2a75d-4fc1-4e0f-a056-6913bf87f16c","geometry":{"type":"Point","coordinates":[-96.64002150870458,28.68927377649535]},"properties":{"substrate":"Mud","lease_number":null,"poll_year":2025}},{"type":"Feature","id":"457f61b0-ec95-4f62-9577-e1e200cd7f74","geometry":{"type":"Point","coordinates":[-96.60215318690433,28.657830420624496]},"properties":{"substrate":"Solid Reef","lease_number":null,"poll_year":2025}},{"type":"Feature","id":"45844558-cc38-41dc-ae62-ed3a60e1e4db","geometry":{"type":"Point","coordinates":[-96.6411642906118,28.687826580441662]},"properties":{"substrate":"Firm/Hard Bottom","lease_number":null,"poll_year":2025}},{"type":"Feature","id":"45d0d249-4ade-48b2-b2ca-bd6dcd34f76c","geometry":{"type":"Point","coordinates":[-96.64211659913609,28.688389814706525]},"properties":{"substrate":"Mud","lease_number":null,"poll_year":2025}},{"type":"Feature","id":"465f5af9-a16d-436c-9afc-f343e7d4ef26","geometry":{"type":"Point","coordinates":[-96.6337424214125,28.677759503987716]},"properties":{"substrate":"Mud","lease_number":null,"poll_year":2025}},{"type":"Feature","id":"485def22-6e2b-42c1-8fbf-4b61931a0dc8","geometry":{"type":"Point","coordinates":[-96.64065360466098,28.68986721447696]},"properties":{"substrate":"Firm/Hard Bottom","lease_number":null,"poll_year":2025}},{"type":"Feature","id":"487c2e3a-02a4-44a7-b11d-0bdf2bfba606","geometry":{"type":"Point","coordinates":[-96.61095727137341,28.690308078555738]},"properties":{"substrate":"Mud","lease_number":null,"poll_year":2025}},{"type":"Feature","id":"48d009f6-c926-41be-9082-0a0cd31ab15e","geometry":{"type":"Point","coordinates":[-96.63283108684497,28.678578242860212]},"properties":{"substrate":"Mud","lease_number":null,"poll_year":2025}},{"type":"Feature","id":"491cc028-3c78-46ef-9ccf-0f2dfd552774","geometry":{"type":"Point","coordinates":[-96.5990846020809,28.657860136075755]},"properties":{"substrate":"Mud","lease_number":null,"poll_year":2025}},{"type":"Feature","id":"495ff84f-629d-4814-b15a-46b1cb593b3c","geometry":{"type":"Point","coordinates":[-96.59728307389774,28.659158958792894]},"properties":{"substrate":"Firm/Hard Bottom","lease_number":null,"poll_year":2025}},{"type":"Feature","id":"497da7b0-315b-4087-a4fb-5acf74966ccb","geometry":{"type":"Point","coordinates":[-96.59823921643164,28.65849805022088]},"properties":{"substrate":"Mud","lease_number":null,"poll_year":2025}},{"type":"Feature","id":"4b908509-5c8e-486f-b686-128208cea44f","geometry":{"type":"Point","coordinates":[-96.59642617903306,28.659737443104103]},"properties":{"substrate":"Mud","lease_number":null,"poll_year":2025}},{"type":"Feature","id":"4bf2ff5e-f403-4f50-8394-464e98a07fc9","geometry":{"type":"Point","coordinates":[-96.59465738096726,28.660896614761906]},"properties":{"substrate":"Mud","lease_number":null,"poll_year":2025}},{"type":"Feature","id":"4c510cc9-526f-4d66-8285-8244ceb6ad59","geometry":{"type":"Point","coordinates":[-96.60020105346882,28.66777363337082]},"properties":{"substrate":"Mud","lease_number":null,"poll_year":2025}},{"type":"Feature","id":"4c57a9de-b66c-4c71-9897-3c69bdf5d0f5","geometry":{"type":"Point","coordinates":[-96.59837613315567,28.658398597007803]},"properties":{"substrate":"Mud","lease_number":null,"poll_year":2025}},{"type":"Feature","id":"4d28f5dd-eb9a-447e-8bef-9a69716589fe","geometry":{"type":"Point","coordinates":[-96.63315300441523,28.67806218937817]},"properties":{"substrate":"Mud","lease_number":null,"poll_year":2025}},{"type":"Feature","id":"4d2face1-e5b4-438a-a732-e0e4c5a2f1fc","geometry":{"type":"Point","coordinates":[-96.59971332666005,28.660627638961817]},"properties":{"substrate":"Mud","lease_number":null,"poll_year":2025}},{"type":"Feature","id":"4f3bc29b-2742-4747-9a16-104be4265c63","geometry":{"type":"Point","coordinates":[-96.64190677065201,28.688895540504326]},"properties":{"substrate":"Mud","lease_number":null,"poll_year":2025}},{"type":"Feature","id":"4f7c097a-2230-492d-96b4-251a51b84e65","geometry":{"type":"Point","coordinates":[-96.64055829430765,28.68876012643439]},"properties":{"substrate":"Firm/Hard Bottom","lease_number":null,"poll_year":2025}},{"type":"Feature","id":"4fd4086f-0f50-4ec7-bb84-c198baaa267d","geometry":{"type":"Point","coordinates":[-96.63445786036604,28.67739468047298]},"properties":{"substrate":"Mud","lease_number":null,"poll_year":2025}},{"type":"Feature","id":"50248848-7539-4f27-b63b-0d9156be3da7","geometry":{"type":"Point","coordinates":[-96.60199551101239,28.66004236323335]},"properties":{"substrate":"Mud","lease_number":null,"poll_year":2025}},{"type":"Feature","id":"5058b7fe-ff56-4ded-8c04-6d426388da40","geometry":{"type":"Point","coordinates":[-96.59743528354116,28.665157912124968]},"properties":{"substrate":"Mud","lease_number":null,"poll_year":2025}},{"type":"Feature","id":"509446d7-d41b-496e-8683-1df38204be43","geometry":{"type":"Point","coordinates":[-96.63528665503031,28.677596888450026]},"properties":{"substrate":"Mud","lease_number":null,"poll_year":2025}},{"type":"Feature","id":"51054dc2-e328-469a-aa6e-203d19017977","geometry":{"type":"Point","coordinates":[-96.61125338573547,28.689961630682912]},"properties":{"substrate":"Firm/Hard Bottom","lease_number":null,"poll_year":2025}},{"type":"Feature","id":"5152b271-fea5-4308-992b-ecb4110e9538","geometry":{"type":"Point","coordinates":[-96.59455145342558,28.665092365638895]},"properties":{"substrate":"Firm/Hard Bottom","lease_number":null,"poll_year":2025}},{"type":"Feature","id":"5198c553-3a3f-49ca-975d-288118581bd3","geometry":{"type":"Point","coordinates":[-96.63393081789052,28.677656803863865]},"properties":{"substrate":"Mud","lease_number":null,"poll_year":2025}},{"type":"Feature","id":"524a0c78-32a8-4955-9c07-b09e5aedbeb2","geometry":{"type":"Point","coordinates":[-96.6021246267665,28.658163560013875]},"properties":{"substrate":"Solid Reef","lease_number":null,"poll_year":2025}},{"type":"Feature","id":"52836b17-a628-460e-afbe-c7bb5ce5af84","geometry":{"type":"Point","coordinates":[-96.6005889325338,28.658724959459576]},"properties":{"substrate":"Mud","lease_number":null,"poll_year":2025}},{"type":"Feature","id":"5331a147-a709-4c51-a3a8-92533028d226","geometry":{"type":"Point","coordinates":[-96.6335856986331,28.67878152747995]},"properties":{"substrate":"Mud","lease_number":null,"poll_year":2025}},{"type":"Feature","id":"53b9b2ed-ff8f-47bd-9e09-01b6d53daa33","geometry":{"type":"Point","coordinates":[-96.60214225979722,28.658012891035423]},"properties":{"substrate":"Solid Reef","lease_number":null,"poll_year":2025}},{"type":"Feature","id":"541b0c2c-7fe2-433e-932e-e2838296f029","geometry":{"type":"Point","coordinates":[-96.63508680593074,28.67737593415516]},"properties":{"substrate":"Mud","lease_number":null,"poll_year":2025}},{"type":"Feature","id":"544d2d77-3578-49fe-8986-188080619632","geometry":{"type":"Point","coordinates":[-96.6418585805286,28.6876393808672]},"properties":{"substrate":"Mud","lease_number":null,"poll_year":2025}},{"type":"Feature","id":"5567839f-8bab-4a40-bcb9-9d56e6817101","geometry":{"type":"Point","coordinates":[-96.64140892701649,28.689999017941883]},"properties":{"substrate":"Mud","lease_number":null,"poll_year":2025}},{"type":"Feature","id":"56139bae-4d01-42ca-b6ab-88b6733a5bba","geometry":{"type":"Point","coordinates":[-96.60348757766504,28.642664159374387]},"properties":{"substrate":"Mud","lease_number":null,"poll_year":2025}},{"type":"Feature","id":"562ecd28-ecae-4aa6-ad42-07229550d631","geometry":{"type":"Point","coordinates":[-96.60182084348686,28.662298353183868]},"properties":{"substrate":"Mud","lease_number":null,"poll_year":2025}},{"type":"Feature","id":"573028c6-bc7a-40e7-9fb4-8344741860ba","geometry":{"type":"Point","coordinates":[-96.5996589166016,28.6572978057756]},"properties":{"substrate":"Mud","lease_number":null,"poll_year":2025}},{"type":"Feature","id":"57c420f9-99c4-4c16-8719-c5e462a9874e","geometry":{"type":"Point","coordinates":[-96.59717817582538,28.666358826402078]},"properties":{"substrate":"Mud","lease_number":null,"poll_year":2025}},{"type":"Feature","id":"59385285-b4a1-423d-a663-613d2229adb8","geometry":{"type":"Point","coordinates":[-96.59325009102294,28.661844507908643]},"properties":{"substrate":"Mud","lease_number":null,"poll_year":2025}},{"type":"Feature","id":"5a066d9a-a5a1-41fb-977d-b57f6a0e222a","geometry":{"type":"Point","coordinates":[-96.59555968117797,28.660318250355875]},"properties":{"substrate":"Mud","lease_number":null,"poll_year":2025}},{"type":"Feature","id":"5a7e3544-f414-4e9a-a8e9-7f6fa67ec712","geometry":{"type":"Point","coordinates":[-96.64041057444402,28.688145477517693]},"properties":{"substrate":"Mud","lease_number":null,"poll_year":2025}},{"type":"Feature","id":"5b7ae3b3-742b-4e83-8a8c-67dfbca882c9","geometry":{"type":"Point","coordinates":[-96.59735160637075,28.66537770119483]},"properties":{"substrate":"Mud","lease_number":null,"poll_year":2025}},{"type":"Feature","id":"5ba01200-5a2d-4b99-8459-52d297e6663d","geometry":{"type":"Point","coordinates":[-96.59510233269715,28.665362349931225]},"properties":{"substrate":"Mud","lease_number":null,"poll_year":2025}},{"type":"Feature","id":"5d03508c-2190-4144-b818-e98b3e8983cd","geometry":{"type":"Point","coordinates":[-96.60072012429451,28.658436079088517]},"properties":{"substrate":"Mud","lease_number":null,"poll_year":2025}},{"type":"Feature","id":"5e4bc528-db8c-4f92-9aa7-8ad0cd1dd8e2","geometry":{"type":"Point","coordinates":[-96.61106783601859,28.68815347536624]},"properties":{"substrate":"Mud","lease_number":null,"poll_year":2025}},{"type":"Feature","id":"5ea29719-1a65-4062-a57b-5743d228622c","geometry":{"type":"Point","coordinates":[-96.6004538339999,28.659023536235697]},"properties":{"substrate":"Mud","lease_number":null,"poll_year":2025}},{"type":"Feature","id":"5ead31c2-08e7-4b42-b9f1-06fb530a706a","geometry":{"type":"Point","coordinates":[-96.61128537653937,28.690298641146757]},"properties":{"substrate":"Firm/Hard Bottom","lease_number":null,"poll_year":2025}},{"type":"Feature","id":"5f81adbf-2007-4285-a81c-47eaa1dcce07","geometry":{"type":"Point","coordinates":[-96.63190276693206,28.679057805035033]},"properties":{"substrate":"Mud","lease_number":null,"poll_year":2025}},{"type":"Feature","id":"5fa50d2f-1d95-4ebf-a14a-2ce2b1cc55aa","geometry":{"type":"Point","coordinates":[-96.6009883414754,28.65723490613337]},"properties":{"substrate":"Mud","lease_number":null,"poll_year":2025}},{"type":"Feature","id":"5fa769df-8ce2-40a9-879f-d8044b3563d3","geometry":{"type":"Point","coordinates":[-96.64204167065823,28.688567770020143]},"properties":{"substrate":"Mud","lease_number":null,"poll_year":2025}},{"type":"Feature","id":"5fc61228-47b3-4054-9abc-66ac6917a707","geometry":{"type":"Point","coordinates":[-96.63172121831144,28.680064822972877]},"properties":{"substrate":"Mud","lease_number":null,"poll_year":2025}},{"type":"Feature","id":"5fdf2fa5-1c20-43a3-97f2-210b2ef87fd7","geometry":{"type":"Point","coordinates":[-96.60209018176525,28.658745667950768]},"properties":{"substrate":"Mud","lease_number":null,"poll_year":2025}},{"type":"Feature","id":"60d9a125-2773-4615-aef2-bfdadcafa05f","geometry":{"type":"Point","coordinates":[-96.599280261438,28.661545962814767]},"properties":{"substrate":"Mud","lease_number":null,"poll_year":2025}},{"type":"Feature","id":"6219a86e-2a7e-47a9-9c65-6edfa1710714","geometry":{"type":"Point","coordinates":[-96.61077309158733,28.68861708239116]},"properties":{"substrate":"Mud","lease_number":null,"poll_year":2025}},{"type":"Feature","id":"621bfe92-22be-407b-98bb-f655bc168f17","geometry":{"type":"Point","coordinates":[-96.6314038228603,28.67897477509859]},"properties":{"substrate":"Mud","lease_number":null,"poll_year":2025}},{"type":"Feature","id":"621cbd91-4393-441a-bf66-9e55213be975","geometry":{"type":"Point","coordinates":[-96.64156409121888,28.68838836943896]},"properties":{"substrate":"Mud","lease_number":null,"poll_year":2025}},{"type":"Feature","id":"62ef5d29-58e4-4317-9a35-0d82a898dbfa","geometry":{"type":"Point","coordinates":[-96.59748260948527,28.665004295809275]},"properties":{"substrate":"Mud","lease_number":null,"poll_year":2025}},{"type":"Feature","id":"63f01aad-205b-4eb4-850d-674f9d1422d5","geometry":{"type":"Point","coordinates":[-96.64084140914923,28.689916591642408]},"properties":{"substrate":"Firm/Hard Bottom","lease_number":null,"poll_year":2025}},{"type":"Feature","id":"63fafbc1-33f1-495b-a353-8df987f00781","geometry":{"type":"Point","coordinates":[-96.64056044667109,28.689158011003567]},"properties":{"substrate":"Firm/Hard Bottom","lease_number":null,"poll_year":2025}},{"type":"Feature","id":"64469c39-3b15-4601-9de1-e151b3fea32b","geometry":{"type":"Point","coordinates":[-96.59808702026294,28.658620522261277]},"properties":{"substrate":"Mud","lease_number":null,"poll_year":2025}},{"type":"Feature","id":"64a5ed8f-fbee-4924-8375-51ea60d835d2","geometry":{"type":"Point","coordinates":[-96.60168471817862,28.655888813686495]},"properties":{"substrate":"Mud","lease_number":null,"poll_year":2025}},{"type":"Feature","id":"64ca0c45-904d-473e-96e5-16e659d33b9b","geometry":{"type":"Point","coordinates":[-96.640801006521,28.68800196059631]},"properties":{"substrate":"Mud","lease_number":null,"poll_year":2025}},{"type":"Feature","id":"65107b5b-b11e-491c-b1af-122146752aba","geometry":{"type":"Point","coordinates":[-96.5989426386216,28.64308928650826]},"properties":{"substrate":"Mud","lease_number":null,"poll_year":2025}},{"type":"Feature","id":"6534ae22-c814-4881-8040-1895da3d79f5","geometry":{"type":"Point","coordinates":[-96.6322466060902,28.67853178504458]},"properties":{"substrate":"Mud","lease_number":null,"poll_year":2025}},{"type":"Feature","id":"65dc1bd7-454b-4953-ad54-5a3f90089b5e","geometry":{"type":"Point","coordinates":[-96.64118073427308,28.69052838460302]},"properties":{"substrate":"Mud","lease_number":null,"poll_year":2025}},{"type":"Feature","id":"66974c01-1f1d-4387-ab3c-2bef179aba07","geometry":{"type":"Point","coordinates":[-96.60122780448238,28.65647188807432]},"properties":{"substrate":"Mud","lease_number":null,"poll_year":2025}},{"type":"Feature","id":"66de6f60-e5a3-45f9-a715-f933407b23d9","geometry":{"type":"Point","coordinates":[-96.6113044271116,28.69045180350693]},"properties":{"substrate":"Firm/Hard Bottom","lease_number":null,"poll_year":2025}},{"type":"Feature","id":"66feb8d1-f6b5-49ef-82dd-da6f0eb68ac2","geometry":{"type":"Point","coordinates":[-96.6021854516944,28.65725650251706]},"properties":{"substrate":"Mud","lease_number":null,"poll_year":2025}},{"type":"Feature","id":"6732fc79-8ef1-445c-87ae-54ce8fa50135","geometry":{"type":"Point","coordinates":[-96.63997310478213,28.68942472204074]},"properties":{"substrate":"Mud","lease_number":null,"poll_year":2025}},{"type":"Feature","id":"677ae681-a3e1-4c40-bc0a-40a320d668f8","geometry":{"type":"Point","coordinates":[-96.60022511214876,28.659504173234517]},"properties":{"substrate":"Mud","lease_number":null,"poll_year":2025}},{"type":"Feature","id":"67e15a10-1605-4917-bb33-7d3cc919b34e","geometry":{"type":"Point","coordinates":[-96.59203720099768,28.663641931647312]},"properties":{"substrate":"Mud","lease_number":null,"poll_year":2025}},{"type":"Feature","id":"67ee885e-52be-470f-bb81-a8e3ff612321","geometry":{"type":"Point","coordinates":[-96.63975543131069,28.68992588408832]},"properties":{"substrate":"Mud","lease_number":null,"poll_year":2025}},{"type":"Feature","id":"681a6d47-a7fb-4d29-806a-b586a0e874b1","geometry":{"type":"Point","coordinates":[-96.60211551156131,28.655684891073683]},"properties":{"substrate":"Mud","lease_number":null,"poll_year":2025}},{"type":"Feature","id":"6864cf81-1af0-4198-b5f9-aaf29b82ab30","geometry":{"type":"Point","coordinates":[-96.60140994688939,28.64401360976818]},"properties":{"substrate":"Mud","lease_number":null,"poll_year":2025}},{"type":"Feature","id":"6889e9e9-33b9-4dca-8e05-cc4e785b759d","geometry":{"type":"Point","coordinates":[-96.59948587412843,28.643433259336504]},"properties":{"substrate":"Mud","lease_number":null,"poll_year":2025}},{"type":"Feature","id":"68e90126-2a70-41be-8c8a-5d9bdb008bf9","geometry":{"type":"Point","coordinates":[-96.61127073939012,28.69014376696574]},"properties":{"substrate":"Firm/Hard Bottom","lease_number":null,"poll_year":2025}},{"type":"Feature","id":"695451fc-acd9-4e86-a401-44591cf27ba1","geometry":{"type":"Point","coordinates":[-96.5924365856848,28.662408767858]},"properties":{"substrate":"Mud","lease_number":null,"poll_year":2025}},{"type":"Feature","id":"69707d39-dd41-4edc-aa96-975be98ae96e","geometry":{"type":"Point","coordinates":[-96.59738846604351,28.666457077141963]},"properties":{"substrate":"Firm/Hard Bottom","lease_number":null,"poll_year":2025}},{"type":"Feature","id":"697c35da-1c9b-47c3-8950-779893a3a465","geometry":{"type":"Point","coordinates":[-96.59414374854231,28.661237427436173]},"properties":{"substrate":"Mud","lease_number":null,"poll_year":2025}},{"type":"Feature","id":"69994526-cd2a-45db-9f6f-7beeaaa70e2d","geometry":{"type":"Point","coordinates":[-96.60196245570488,28.660491823388167]},"properties":{"substrate":"Mud","lease_number":null,"poll_year":2025}},{"type":"Feature","id":"6a5acdc9-73d8-4af1-8e9d-c37acaa7b6df","geometry":{"type":"Point","coordinates":[-96.59215847445935,28.66376541133702]},"properties":{"substrate":"Mud","lease_number":null,"poll_year":2025}},{"type":"Feature","id":"6a7bf625-0381-4418-a1b2-c71dbd31c040","geometry":{"type":"Point","coordinates":[-96.63332441644619,28.67831154045088]},"properties":{"substrate":"Mud","lease_number":null,"poll_year":2025}},{"type":"Feature","id":"6b7580a4-836f-46ed-b943-666957756ee7","geometry":{"type":"Point","coordinates":[-96.6398379577392,28.690434181675105]},"properties":{"substrate":"Firm/Hard Bottom","lease_number":null,"poll_year":2025}},{"type":"Feature","id":"6ba10785-274d-45fe-b7b9-4e623ba0267f","geometry":{"type":"Point","coordinates":[-96.59591068260389,28.665747355727728]},"properties":{"substrate":"Firm/Hard Bottom","lease_number":null,"poll_year":2025}},{"type":"Feature","id":"6c31e62c-8ec9-4c2a-b152-4d1bad7be0da","geometry":{"type":"Point","coordinates":[-96.6020248742441,28.659650164914954]},"properties":{"substrate":"Mud","lease_number":null,"poll_year":2025}},{"type":"Feature","id":"6d004237-25d1-4c64-bd0f-25b57dea795c","geometry":{"type":"Point","coordinates":[-96.60029936868678,28.659349246427652]},"properties":{"substrate":"Mud","lease_number":null,"poll_year":2025}},{"type":"Feature","id":"6e3dc5ac-f036-447b-84a9-0f5d0f8ddb51","geometry":{"type":"Point","coordinates":[-96.63251246160021,28.678749134433446]},"properties":{"substrate":"Mud","lease_number":null,"poll_year":2025}},{"type":"Feature","id":"6e67f472-90b3-4d84-95c7-4d646de43e32","geometry":{"type":"Point","coordinates":[-96.59553652799985,28.66556701986156]},"properties":{"substrate":"Firm/Hard Bottom","lease_number":null,"poll_year":2025}},{"type":"Feature","id":"6ea0dd4b-2d0a-4424-848e-cf95471f1dd2","geometry":{"type":"Point","coordinates":[-96.59788631776385,28.658751642205065]},"properties":{"substrate":"Mud","lease_number":null,"poll_year":2025}},{"type":"Feature","id":"6f065d19-493a-4ec7-9c3b-78b357633322","geometry":{"type":"Point","coordinates":[-96.59979583063068,28.643634347904467]},"properties":{"substrate":"Mud","lease_number":null,"poll_year":2025}},{"type":"Feature","id":"6f57e475-cd2d-461a-8708-9635b0c89543","geometry":{"type":"Point","coordinates":[-96.63310234033155,28.679105051516565]},"properties":{"substrate":"Mud","lease_number":null,"poll_year":2025}},{"type":"Feature","id":"71b97323-08b7-45a9-a402-285288cd1333","geometry":{"type":"Point","coordinates":[-96.63277531494056,28.678256562967565]},"properties":{"substrate":"Mud","lease_number":null,"poll_year":2025}},{"type":"Feature","id":"72a461b2-6715-4b3f-b54e-8b99264bfbeb","geometry":{"type":"Point","coordinates":[-96.61118769732863,28.68931443040194]},"properties":{"substrate":"Firm/Hard Bottom","lease_number":null,"poll_year":2025}},{"type":"Feature","id":"73cbc386-3072-4f67-960e-6df1980bc3f7","geometry":{"type":"Point","coordinates":[-96.59276621439346,28.662175062519527]},"properties":{"substrate":"Mud","lease_number":null,"poll_year":2025}},{"type":"Feature","id":"7462a483-657f-40b7-beb4-5c97473e0a4d","geometry":{"type":"Point","coordinates":[-96.63151732948803,28.68020238404591]},"properties":{"substrate":"Mud","lease_number":null,"poll_year":2025}},{"type":"Feature","id":"7488ecf6-3769-481f-9637-8f9fff4cd8c1","geometry":{"type":"Point","coordinates":[-96.59794374436501,28.664418185357473]},"properties":{"substrate":"Mud","lease_number":null,"poll_year":2025}},{"type":"Feature","id":"757ae192-9e83-466d-b7cb-1e45eed38c3e","geometry":{"type":"Point","coordinates":[-96.63445363019936,28.677636307961876]},"properties":{"substrate":"Mud","lease_number":null,"poll_year":2025}},{"type":"Feature","id":"75979eeb-863c-4533-a9e0-03d927086268","geometry":{"type":"Point","coordinates":[-96.60083717387772,28.657904610308965]},"properties":{"substrate":"Mud","lease_number":null,"poll_year":2025}},{"type":"Feature","id":"75c8f3bd-16f3-4723-8600-3ddf274c7856","geometry":{"type":"Point","coordinates":[-96.63171810385235,28.67916276802715]},"properties":{"substrate":"Mud","lease_number":null,"poll_year":2025}},{"type":"Feature","id":"767a5eb0-95af-4ed6-a80e-582295f2a404","geometry":{"type":"Point","coordinates":[-96.63298211879706,28.67849741769122]},"properties":{"substrate":"Mud","lease_number":null,"poll_year":2025}},{"type":"Feature","id":"7709a2fd-cad0-4b61-8b0d-b22fb564ba35","geometry":{"type":"Point","coordinates":[-96.64041081968409,28.68950714478735]},"properties":{"substrate":"Firm/Hard Bottom","lease_number":null,"poll_year":2025}},{"type":"Feature","id":"77d3902c-6350-4595-90a2-7d66f42ac275","geometry":{"type":"Point","coordinates":[-96.64078961139164,28.68954942667839]},"properties":{"substrate":"Firm/Hard Bottom","lease_number":null,"poll_year":2025}},{"type":"Feature","id":"77eb043e-b55a-4701-9259-e189c56866c0","geometry":{"type":"Point","coordinates":[-96.63261764533685,28.67835053253445]},"properties":{"substrate":"Mud","lease_number":null,"poll_year":2025}},{"type":"Feature","id":"79fdcf89-f067-423a-93f0-6d1f2b16443f","geometry":{"type":"Point","coordinates":[-96.5987524149703,28.662664863273854]},"properties":{"substrate":"Mud","lease_number":null,"poll_year":2025}},{"type":"Feature","id":"7a4a05d9-531f-4bd9-87ad-e6b983b24406","geometry":{"type":"Point","coordinates":[-96.60075556552741,28.658252569688806]},"properties":{"substrate":"Mud","lease_number":null,"poll_year":2025}},{"type":"Feature","id":"7b0cc238-2b47-4b1a-9a67-f15a58cfa4e5","geometry":{"type":"Point","coordinates":[-96.63208712548287,28.67861243680187]},"properties":{"substrate":"Mud","lease_number":null,"poll_year":2025}},{"type":"Feature","id":"7b235c1e-2408-4cf0-9cae-2b92377f6654","geometry":{"type":"Point","coordinates":[-96.59575870292916,28.66567227066763]},"properties":{"substrate":"Firm/Hard Bottom","lease_number":null,"poll_year":2025}},{"type":"Feature","id":"7b62c29d-2bcf-41a9-a51c-616667bf02be","geometry":{"type":"Point","coordinates":[-96.60065649841957,28.658579511182026]},"properties":{"substrate":"Mud","lease_number":null,"poll_year":2025}},{"type":"Feature","id":"7b7e43bf-9d3c-4c07-8747-54cb90288e2b","geometry":{"type":"Point","coordinates":[-96.64205363711612,28.68715958059386]},"properties":{"substrate":"Mud","lease_number":null,"poll_year":2025}},{"type":"Feature","id":"7b8b157c-8d23-4ba9-9f9e-7f3f0031b32f","geometry":{"type":"Point","coordinates":[-96.6406083322656,28.688607188554812]},"properties":{"substrate":"Mud","lease_number":null,"poll_year":2025}},{"type":"Feature","id":"7c2b3bca-346f-45c6-87f1-80a1de473d68","geometry":{"type":"Point","coordinates":[-96.61123637793219,28.68977516070211]},"properties":{"substrate":"Firm/Hard Bottom","lease_number":null,"poll_year":2025}},{"type":"Feature","id":"7cbcc252-788d-4df3-b84b-5997b3bf93a1","geometry":{"type":"Point","coordinates":[-96.64072713356362,28.68969767045491]},"properties":{"substrate":"Firm/Hard Bottom","lease_number":null,"poll_year":2025}},{"type":"Feature","id":"7ce1009e-0d0a-43b9-aba8-8882a4994475","geometry":{"type":"Point","coordinates":[-96.64176310668189,28.6891808939737]},"properties":{"substrate":"Mud","lease_number":null,"poll_year":2025}},{"type":"Feature","id":"7d165e58-d011-4518-9f5d-73ce4119d121","geometry":{"type":"Point","coordinates":[-96.60211242315337,28.658370302166343]},"properties":{"substrate":"Solid Reef","lease_number":null,"poll_year":2025}},{"type":"Feature","id":"7d5931b4-07b2-4a65-bc54-003efd42bbf3","geometry":{"type":"Point","coordinates":[-96.64055162611331,28.69048200064683]},"properties":{"substrate":"Firm/Hard Bottom","lease_number":null,"poll_year":2025}},{"type":"Feature","id":"7dddf001-08a2-458b-aff6-8c119181aea9","geometry":{"type":"Point","coordinates":[-96.64122214031947,28.68853005363736]},"properties":{"substrate":"Firm/Hard Bottom","lease_number":null,"poll_year":2025}},{"type":"Feature","id":"7eaa710c-9b74-43f8-aed0-8ee5cdb754e4","geometry":{"type":"Point","coordinates":[-96.60079474105696,28.644278256660364]},"properties":{"substrate":"Mud","lease_number":null,"poll_year":2025}},{"type":"Feature","id":"7ec3985c-e65e-408a-bd42-2d11c9b15ceb","geometry":{"type":"Point","coordinates":[-96.63174152922001,28.678794011197187]},"properties":{"substrate":"Mud","lease_number":null,"poll_year":2025}},{"type":"Feature","id":"7f0eb2d4-80a3-4b57-82ab-b72dfc0b89ed","geometry":{"type":"Point","coordinates":[-96.59538000105316,28.66042882397787]},"properties":{"substrate":"Mud","lease_number":null,"poll_year":2025}},{"type":"Feature","id":"7f2310cb-068b-47fc-905d-0c13e1751fa2","geometry":{"type":"Point","coordinates":[-96.59827398213145,28.66687489102785]},"properties":{"substrate":"Mud","lease_number":null,"poll_year":2025}},{"type":"Feature","id":"7ff9e9b2-6f29-4556-be4a-f22b7b99a419","geometry":{"type":"Point","coordinates":[-96.63991265355341,28.68960364093464]},"properties":{"substrate":"Mud","lease_number":null,"poll_year":2025}},{"type":"Feature","id":"804e8511-1a47-48f5-8064-d391a9b7a650","geometry":{"type":"Point","coordinates":[-96.64059947038534,28.687770299008974]},"properties":{"substrate":"Mud","lease_number":null,"poll_year":2025}},{"type":"Feature","id":"8085942f-b8a1-4943-850b-29567b5df065","geometry":{"type":"Point","coordinates":[-96.60186452227093,28.661729680850968]},"properties":{"substrate":"Firm/Hard Bottom","lease_number":null,"poll_year":2025}},{"type":"Feature","id":"80b6f48e-1c22-4a1d-920e-bfb1b0910818","geometry":{"type":"Point","coordinates":[-96.63403742366023,28.678461018563713]},"properties":{"substrate":"Mud","lease_number":null,"poll_year":2025}},{"type":"Feature","id":"818e2134-7056-4815-91e6-bdcd4a21e4fb","geometry":{"type":"Point","coordinates":[-96.60015841403556,28.65964417415847]},"properties":{"substrate":"Mud","lease_number":null,"poll_year":2025}},{"type":"Feature","id":"81ad6518-0d70-472d-adc0-7ff7235536f9","geometry":{"type":"Point","coordinates":[-96.60134742414562,28.65630848511416]},"properties":{"substrate":"Solid Reef","lease_number":null,"poll_year":2025}},{"type":"Feature","id":"826cb2f3-7768-43c2-9c68-a6e2c8c9b61f","geometry":{"type":"Point","coordinates":[-96.6409036022113,28.688345218657243]},"properties":{"substrate":"Firm/Hard Bottom","lease_number":null,"poll_year":2025}},{"type":"Feature","id":"83800861-bd17-4d83-933b-9844a6e9f4a1","geometry":{"type":"Point","coordinates":[-96.60216484613841,28.657679767721003]},"properties":{"substrate":"Mud","lease_number":null,"poll_year":2025}},{"type":"Feature","id":"83ebfe84-196d-44ef-868d-c35e8e29132d","geometry":{"type":"Point","coordinates":[-96.63231846502472,28.678845405636658]},"properties":{"substrate":"Mud","lease_number":null,"poll_year":2025}},{"type":"Feature","id":"841ca1d5-c96b-4fae-877f-50f810221e82","geometry":{"type":"Point","coordinates":[-96.63295873924349,28.67815677779224]},"properties":{"substrate":"Mud","lease_number":null,"poll_year":2025}},{"type":"Feature","id":"86460bc3-27b1-43f0-b695-5c096276fa6f","geometry":{"type":"Point","coordinates":[-96.63423223949928,28.678322234410516]},"properties":{"substrate":"Mud","lease_number":null,"poll_year":2025}},{"type":"Feature","id":"8877f50a-1815-4b08-ac3d-6edd442ff873","geometry":{"type":"Point","coordinates":[-96.61081635175648,28.68902341998308]},"properties":{"substrate":"Mud","lease_number":null,"poll_year":2025}},{"type":"Feature","id":"887a3ccb-9554-4513-9f5a-67eab066efff","geometry":{"type":"Point","coordinates":[-96.60269390084014,28.643198123362776]},"properties":{"substrate":"Mud","lease_number":null,"poll_year":2025}},{"type":"Feature","id":"88db8d99-b1fb-4553-8acc-817f6eca1dd6","geometry":{"type":"Point","coordinates":[-96.64138555734438,28.688766545795126]},"properties":{"substrate":"Mud","lease_number":null,"poll_year":2025}},{"type":"Feature","id":"893bb9c6-f1d8-4620-b3af-1a37f824dd93","geometry":{"type":"Point","coordinates":[-96.60220907918298,28.656831793842663]},"properties":{"substrate":"Solid Reef","lease_number":null,"poll_year":2025}},{"type":"Feature","id":"8989296b-9dbc-4c82-baff-926d58489760","geometry":{"type":"Point","coordinates":[-96.64049996400131,28.688942499642412]},"properties":{"substrate":"Firm/Hard Bottom","lease_number":null,"poll_year":2025}},{"type":"Feature","id":"8a853064-d385-4355-8f18-9caa76a07c50","geometry":{"type":"Point","coordinates":[-96.64091063332503,28.687677457708087]},"properties":{"substrate":"Mud","lease_number":null,"poll_year":2025}},{"type":"Feature","id":"8e85f79c-93e7-4863-93b0-6ff4509673f4","geometry":{"type":"Point","coordinates":[-96.64105668950876,28.688033486296746]},"properties":{"substrate":"Firm/Hard Bottom","lease_number":null,"poll_year":2025}},{"type":"Feature","id":"8ebea979-4a05-4eb5-970a-fe1e6cf343bb","geometry":{"type":"Point","coordinates":[-96.59999293178382,28.660005299501936]},"properties":{"substrate":"Mud","lease_number":null,"poll_year":2025}},{"type":"Feature","id":"8f2e61e2-285b-41a9-a5cb-1ccf75f8f0a0","geometry":{"type":"Point","coordinates":[-96.63159509484555,28.67887758980348]},"properties":{"substrate":"Mud","lease_number":null,"poll_year":2025}},{"type":"Feature","id":"8f4ea9b0-1296-4b36-861c-7f678361562d","geometry":{"type":"Point","coordinates":[-96.64092536210242,28.689735901001395]},"properties":{"substrate":"Firm/Hard Bottom","lease_number":null,"poll_year":2025}},{"type":"Feature","id":"8f72cef4-a5ba-4c31-bcee-f5af08fb84b9","geometry":{"type":"Point","coordinates":[-96.64107692945042,28.68941510330442]},"properties":{"substrate":"Firm/Hard Bottom","lease_number":null,"poll_year":2025}},{"type":"Feature","id":"90b13de3-b10f-4e80-9a33-c13570a75738","geometry":{"type":"Point","coordinates":[-96.64074989058473,28.688157812754763]},"properties":{"substrate":"Firm/Hard Bottom","lease_number":null,"poll_year":2025}},{"type":"Feature","id":"91fcceb4-790a-44c7-a699-8492a72cc9a0","geometry":{"type":"Point","coordinates":[-96.59625157977948,28.65985181830879]},"properties":{"substrate":"Mud","lease_number":null,"poll_year":2025}},{"type":"Feature","id":"9291118c-5320-4473-9fd1-20f3ae991b40","geometry":{"type":"Point","coordinates":[-96.59934722185928,28.643340788708066]},"properties":{"substrate":"Mud","lease_number":null,"poll_year":2025}},{"type":"Feature","id":"931d4d97-e07a-49d5-9a5d-275382813abb","geometry":{"type":"Point","coordinates":[-96.61035451888576,28.690481574325062]},"properties":{"substrate":"Mud","lease_number":null,"poll_year":2025}},{"type":"Feature","id":"93312a52-734a-4365-8caf-6063a668fdff","geometry":{"type":"Point","coordinates":[-96.64098968686667,28.68817296130327]},"properties":{"substrate":"Firm/Hard Bottom","lease_number":null,"poll_year":2025}},{"type":"Feature","id":"933950b7-f775-41b9-a478-93316484237a","geometry":{"type":"Point","coordinates":[-96.61116915340622,28.68914066791853]},"properties":{"substrate":"Firm/Hard Bottom","lease_number":null,"poll_year":2025}},{"type":"Feature","id":"93432df4-c6e4-421e-9f5d-7c6790c11aba","geometry":{"type":"Point","coordinates":[-96.60284763402629,28.643097217630007]},"properties":{"substrate":"Mud","lease_number":null,"poll_year":2025}},{"type":"Feature","id":"9361fdab-ead3-42b4-9388-20fc7e1ff226","geometry":{"type":"Point","coordinates":[-96.59436885647105,28.665004720658345]},"properties":{"substrate":"Mud","lease_number":null,"poll_year":2025}},{"type":"Feature","id":"95996d83-77d4-46dd-bb3c-3a376f16003d","geometry":{"type":"Point","coordinates":[-96.6419145635371,28.687490982083148]},"properties":{"substrate":"Mud","lease_number":null,"poll_year":2025}},{"type":"Feature","id":"95c97309-3a49-4c0a-8be7-67f9ab09f1b4","geometry":{"type":"Point","coordinates":[-96.64108207859364,28.68885216849304]},"properties":{"substrate":"Firm/Hard Bottom","lease_number":null,"poll_year":2025}},{"type":"Feature","id":"95cd192e-076c-4a76-9f4a-f64b5a7230fb","geometry":{"type":"Point","coordinates":[-96.60203885652149,28.659470746338773]},"properties":{"substrate":"Mud","lease_number":null,"poll_year":2025}},{"type":"Feature","id":"9633f4ea-9c86-4542-8c83-bbd90196446d","geometry":{"type":"Point","coordinates":[-96.59397909363895,28.66135224399766]},"properties":{"substrate":"Mud","lease_number":null,"poll_year":2025}},{"type":"Feature","id":"969ef800-a9a7-449e-b362-75ca5b8d8861","geometry":{"type":"Point","coordinates":[-96.59194369356312,28.663512879825976]},"properties":{"substrate":"Mud","lease_number":null,"poll_year":2025}},{"type":"Feature","id":"96c5063e-5c03-40f2-9c33-1b9aaade3e08","geometry":{"type":"Point","coordinates":[-96.61177500597994,28.6894792610312]},"properties":{"substrate":"Mud","lease_number":null,"poll_year":2025}},{"type":"Feature","id":"98667795-7a7e-4672-910c-cc2f77347a85","geometry":{"type":"Point","coordinates":[-96.59946637350025,28.667435629809688]},"properties":{"substrate":"Mud","lease_number":null,"poll_year":2025}},{"type":"Feature","id":"9929e363-b0e2-4eb1-8db4-2598476b7660","geometry":{"type":"Point","coordinates":[-96.59723918850115,28.665675889349437]},"properties":{"substrate":"Mud","lease_number":null,"poll_year":2025}},{"type":"Feature","id":"9964cb80-ad4b-4ea2-9a36-08d61ebbf830","geometry":{"type":"Point","coordinates":[-96.59937386858554,28.65759637715706]},"properties":{"substrate":"Mud","lease_number":null,"poll_year":2025}},{"type":"Feature","id":"9a0a16d6-6574-40a3-a28e-ffcdb12be2e5","geometry":{"type":"Point","coordinates":[-96.59974604060774,28.65720257579406]},"properties":{"substrate":"Mud","lease_number":null,"poll_year":2025}},{"type":"Feature","id":"9e2f66bb-19fe-4bc4-b456-246e01caccad","geometry":{"type":"Point","coordinates":[-96.5949473050387,28.660710953019013]},"properties":{"substrate":"Mud","lease_number":null,"poll_year":2025}},{"type":"Feature","id":"9e8cda8a-6c6f-44fa-a5e8-ecd7ee19dbf2","geometry":{"type":"Point","coordinates":[-96.64009345387737,28.68996071026458]},"properties":{"substrate":"Firm/Hard Bottom","lease_number":null,"poll_year":2025}},{"type":"Feature","id":"9f24dcfc-f5ca-454c-a5a5-3701d3397ef2","geometry":{"type":"Point","coordinates":[-96.61089994089198,28.689774986547295]},"properties":{"substrate":"Firm/Hard Bottom","lease_number":null,"poll_year":2025}},{"type":"Feature","id":"9f881b14-95cf-4038-8873-6ea88904eb85","geometry":{"type":"Point","coordinates":[-96.5990534107776,28.66202216937706]},"properties":{"substrate":"Mud","lease_number":null,"poll_year":2025}},{"type":"Feature","id":"a056e166-120c-4635-a3c6-46704b483692","geometry":{"type":"Point","coordinates":[-96.61079137589664,28.688790209796608]},"properties":{"substrate":"Firm/Hard Bottom","lease_number":null,"poll_year":2025}},{"type":"Feature","id":"a19c345c-64ce-4033-ad45-9beecedae711","geometry":{"type":"Point","coordinates":[-96.60379627203433,28.642454114451073]},"properties":{"substrate":"Mud","lease_number":null,"poll_year":2025}},{"type":"Feature","id":"a1d09b50-d3b3-48e7-a91b-46439bbc9555","geometry":{"type":"Point","coordinates":[-96.59765803608721,28.658913110113076]},"properties":{"substrate":"Mud","lease_number":null,"poll_year":2025}},{"type":"Feature","id":"a1dbfe57-e3ff-4e7e-ba65-9c50ce5a4597","geometry":{"type":"Point","coordinates":[-96.61112562014924,28.68867355959038]},"properties":{"substrate":"Firm/Hard Bottom","lease_number":null,"poll_year":2025}},{"type":"Feature","id":"a2e0fb7e-6328-4eda-87c6-4f63c278da14","geometry":{"type":"Point","coordinates":[-96.61187686145841,28.69032496596797]},"properties":{"substrate":"Mud","lease_number":null,"poll_year":2025}},{"type":"Feature","id":"a3823065-fd48-4848-8aeb-5342a076e2c8","geometry":{"type":"Point","coordinates":[-96.59948737521327,28.657481110318894]},"properties":{"substrate":"Mud","lease_number":null,"poll_year":2025}},{"type":"Feature","id":"a40308f2-0010-4325-82a4-c5436b99d649","geometry":{"type":"Point","coordinates":[-96.61021430444632,28.68824716260244]},"properties":{"substrate":"Mud","lease_number":null,"poll_year":2025}},{"type":"Feature","id":"a4d6d3f3-c9fd-447c-8c79-77552bf45793","geometry":{"type":"Point","coordinates":[-96.60179436474554,28.66259810686406]},"properties":{"substrate":"Firm/Hard Bottom","lease_number":null,"poll_year":2025}},{"type":"Feature","id":"a626dda1-a37b-44ce-b5c5-52aa3396ad2f","geometry":{"type":"Point","coordinates":[-96.59991304999548,28.643710519364372]},"properties":{"substrate":"Mud","lease_number":null,"poll_year":2025}},{"type":"Feature","id":"a7138378-aa21-4a33-bb76-853a7296392f","geometry":{"type":"Point","coordinates":[-96.5948051430517,28.660802492385983]},"properties":{"substrate":"Mud","lease_number":null,"poll_year":2025}},{"type":"Feature","id":"a7357059-e1d1-44a3-add4-aeffd0e2c19a","geometry":{"type":"Point","coordinates":[-96.59985057755736,28.667610033638585]},"properties":{"substrate":"Mud","lease_number":null,"poll_year":2025}},{"type":"Feature","id":"a7bdc973-887d-495b-9420-6c28a55147ac","geometry":{"type":"Point","coordinates":[-96.60409407433079,28.642118134255846]},"properties":{"substrate":"Mud","lease_number":null,"poll_year":2025}},{"type":"Feature","id":"a85785c1-e1f5-4bfb-9866-9a17291376e5","geometry":{"type":"Point","coordinates":[-96.59856542255908,28.663060284427537]},"properties":{"substrate":"Mud","lease_number":null,"poll_year":2025}},{"type":"Feature","id":"a8f73db1-7a65-4347-ad7f-433a25e5f1e5","geometry":{"type":"Point","coordinates":[-96.59978943372755,28.66045509009295]},"properties":{"substrate":"Mud","lease_number":null,"poll_year":2025}},{"type":"Feature","id":"a9608de8-d50e-4e88-bdf6-e2c59f817d46","geometry":{"type":"Point","coordinates":[-96.64069005470196,28.687490328791363]},"properties":{"substrate":"Mud","lease_number":null,"poll_year":2025}},{"type":"Feature","id":"a9939a7d-c1d2-49fc-b4f2-4f3a2f6e431a","geometry":{"type":"Point","coordinates":[-96.6402880693921,28.688447762512485]},"properties":{"substrate":"Mud","lease_number":null,"poll_year":2025}},{"type":"Feature","id":"aa4678c6-8a70-46b7-b3d0-0ad431bab00f","geometry":{"type":"Point","coordinates":[-96.60192926205681,28.6609753756882]},"properties":{"substrate":"Mud","lease_number":null,"poll_year":2025}},{"type":"Feature","id":"aa9c9464-1b93-46eb-8174-a072d0dd544a","geometry":{"type":"Point","coordinates":[-96.64150301476272,28.68784485284978]},"properties":{"substrate":"Mud","lease_number":null,"poll_year":2025}},{"type":"Feature","id":"aacb2438-ba65-407f-a808-1dc83a60670e","geometry":{"type":"Point","coordinates":[-96.64009435488761,28.69025007267741]},"properties":{"substrate":"Firm/Hard Bottom","lease_number":null,"poll_year":2025}},{"type":"Feature","id":"aacdaac1-97f5-4ba2-828b-d416c755d0c5","geometry":{"type":"Point","coordinates":[-96.61162926061327,28.68871488750319]},"properties":{"substrate":"Mud","lease_number":null,"poll_year":2025}},{"type":"Feature","id":"aad753de-2314-4d8a-9cbf-ae3901b935dd","geometry":{"type":"Point","coordinates":[-96.63128269672235,28.67939205832176]},"properties":{"substrate":"Mud","lease_number":null,"poll_year":2025}},{"type":"Feature","id":"aae2878d-1e7f-4f03-8b9d-1ea46638ab2a","geometry":{"type":"Point","coordinates":[-96.59879439234521,28.658079350823034]},"properties":{"substrate":"Mud","lease_number":null,"poll_year":2025}},{"type":"Feature","id":"ab518a9c-6f7e-411b-a3bf-7d8a379d1234","geometry":{"type":"Point","coordinates":[-96.597029995126,28.666277287936705]},"properties":{"substrate":"Mud","lease_number":null,"poll_year":2025}},{"type":"Feature","id":"ad3cab0a-d55a-4933-b9c0-5f0ac54de721","geometry":{"type":"Point","coordinates":[-96.6401565614244,28.690112876263438]},"properties":{"substrate":"Firm/Hard Bottom","lease_number":null,"poll_year":2025}},{"type":"Feature","id":"ad92291c-f021-42ce-ac8a-ce672d5ec5d8","geometry":{"type":"Point","coordinates":[-96.60087510793552,28.657719867121582]},"properties":{"substrate":"Mud","lease_number":null,"poll_year":2025}},{"type":"Feature","id":"af1d83ae-ca72-4011-a426-80a85444eab9","geometry":{"type":"Point","coordinates":[-96.63461282514243,28.677557446856]},"properties":{"substrate":"Mud","lease_number":null,"poll_year":2025}},{"type":"Feature","id":"af7c1b71-f9ee-4640-b3c5-1b8c497fccd4","geometry":{"type":"Point","coordinates":[-96.59182329236559,28.663358407446566]},"properties":{"substrate":"Mud","lease_number":null,"poll_year":2025}},{"type":"Feature","id":"af91d22b-6c74-40f1-9e10-6f8dda97fd3c","geometry":{"type":"Point","coordinates":[-96.59948250903938,28.661106922280837]},"properties":{"substrate":"Mud","lease_number":null,"poll_year":2025}},{"type":"Feature","id":"afc739fe-8660-4348-b4a9-c67bb80ce495","geometry":{"type":"Point","coordinates":[-96.6414448964588,28.687992518251235]},"properties":{"substrate":"Mud","lease_number":null,"poll_year":2025}},{"type":"Feature","id":"afcb021f-43fa-4d73-b4d3-6985cb8a10cf","geometry":{"type":"Point","coordinates":[-96.61086055874993,28.689398270907766]},"properties":{"substrate":"Firm/Hard Bottom","lease_number":null,"poll_year":2025}},{"type":"Feature","id":"b08498bd-595c-4d5b-a882-43b38935d6f0","geometry":{"type":"Point","coordinates":[-96.59902902690753,28.667231980307207]},"properties":{"substrate":"Firm/Hard Bottom","lease_number":null,"poll_year":2025}},{"type":"Feature","id":"b1e3d685-0214-4355-8143-9784d2fc6fbb","geometry":{"type":"Point","coordinates":[-96.61181774332955,28.68984317482843]},"properties":{"substrate":"Mud","lease_number":null,"poll_year":2025}},{"type":"Feature","id":"b237237a-6bf6-4722-8ac6-a1bf0386998c","geometry":{"type":"Point","coordinates":[-96.64100078914527,28.689055444202864]},"properties":{"substrate":"Firm/Hard Bottom","lease_number":null,"poll_year":2025}},{"type":"Feature","id":"b288df08-817a-4022-b1e9-5b907e8df199","geometry":{"type":"Point","coordinates":[-96.64023119435652,28.689936358577814]},"properties":{"substrate":"Firm/Hard Bottom","lease_number":null,"poll_year":2025}},{"type":"Feature","id":"b2a40ec0-2b3a-44e3-9441-b2da9fac1678","geometry":{"type":"Point","coordinates":[-96.59760170902396,28.66656036993998]},"properties":{"substrate":"Mud","lease_number":null,"poll_year":2025}},{"type":"Feature","id":"b3effc4f-cc69-4a0d-8659-acfb63d2e394","geometry":{"type":"Point","coordinates":[-96.6102895751823,28.689414218342804]},"properties":{"substrate":"Mud","lease_number":null,"poll_year":2025}},{"type":"Feature","id":"b52bce8e-3829-4364-8f1f-eeba83121deb","geometry":{"type":"Point","coordinates":[-96.60079520728257,28.658092617393223]},"properties":{"substrate":"Mud","lease_number":null,"poll_year":2025}},{"type":"Feature","id":"b5bfa8e5-87ba-41fe-9f60-5d5dec8612c2","geometry":{"type":"Point","coordinates":[-96.63348768075751,28.677895873298162]},"properties":{"substrate":"Mud","lease_number":null,"poll_year":2025}},{"type":"Feature","id":"b5e4b36b-8fef-4e26-a3b7-d8bc0ef28634","geometry":{"type":"Point","coordinates":[-96.60175598153009,28.663016213591863]},"properties":{"substrate":"Mud","lease_number":null,"poll_year":2025}},{"type":"Feature","id":"b684a2cb-8050-4eb4-93f4-d81afb0fcb34","geometry":{"type":"Point","coordinates":[-96.64065613970672,28.690286181653672]},"properties":{"substrate":"Firm/Hard Bottom","lease_number":null,"poll_year":2025}},{"type":"Feature","id":"b7d2ccda-3dc2-4630-832c-d42460d004ca","geometry":{"type":"Point","coordinates":[-96.59212800989312,28.66261860097841]},"properties":{"substrate":"Mud","lease_number":null,"poll_year":2025}},{"type":"Feature","id":"b824faef-02a4-4bae-b256-9fd82c545f54","geometry":{"type":"Point","coordinates":[-96.64018460503094,28.688782604439776]},"properties":{"substrate":"Mud","lease_number":null,"poll_year":2025}},{"type":"Feature","id":"b88ea2d7-67db-4dde-b084-02acbf7c9ed6","geometry":{"type":"Point","coordinates":[-96.60233400699124,28.643431436603528]},"properties":{"substrate":"Mud","lease_number":null,"poll_year":2025}},{"type":"Feature","id":"b97ac1a2-dda8-4f74-b034-2911eaf5242b","geometry":{"type":"Point","coordinates":[-96.61186055344274,28.69014094897753]},"properties":{"substrate":"Mud","lease_number":null,"poll_year":2025}},{"type":"Feature","id":"b9b731fe-1d03-4e56-9cbc-ff59738e9bb8","geometry":{"type":"Point","coordinates":[-96.59611514455244,28.659948917989805]},"properties":{"substrate":"Mud","lease_number":null,"poll_year":2025}},{"type":"Feature","id":"ba361e45-b5a9-4545-a09d-79590977dece","geometry":{"type":"Point","coordinates":[-96.63984751671215,28.68975384289132]},"properties":{"substrate":"Mud","lease_number":null,"poll_year":2025}},{"type":"Feature","id":"ba95d261-b896-4a61-af83-d18a1e4b253e","geometry":{"type":"Point","coordinates":[-96.60220137523112,28.65701441024642]},"properties":{"substrate":"Mud","lease_number":null,"poll_year":2025}},{"type":"Feature","id":"baebaeeb-ad1e-4b81-8bce-cc4da0763618","geometry":{"type":"Point","coordinates":[-96.64147660788664,28.688568375234787]},"properties":{"substrate":"Firm/Hard Bottom","lease_number":null,"poll_year":2025}},{"type":"Feature","id":"bb86648a-07eb-46cb-9403-4abc31bc9a05","geometry":{"type":"Point","coordinates":[-96.63327162335526,28.678985179753404]},"properties":{"substrate":"Mud","lease_number":null,"poll_year":2025}},{"type":"Feature","id":"bc85158d-2f07-4689-b851-bd9d303b89a7","geometry":{"type":"Point","coordinates":[-96.63993413227183,28.690294775087043]},"properties":{"substrate":"Firm/Hard Bottom","lease_number":null,"poll_year":2025}},{"type":"Feature","id":"bcf2ac2c-4174-4e94-b177-184a7da26646","geometry":{"type":"Point","coordinates":[-96.61034500662522,28.69027459135295]},"properties":{"substrate":"Mud","lease_number":null,"poll_year":2025}},{"type":"Feature","id":"bd402cd4-66cd-470a-ad8a-8ecbbc38c3bd","geometry":{"type":"Point","coordinates":[-96.60225201865357,28.656144322782072]},"properties":{"substrate":"Mud","lease_number":null,"poll_year":2025}},{"type":"Feature","id":"bd848b2b-98ae-4115-a0f5-052d795b458d","geometry":{"type":"Point","coordinates":[-96.59310712684042,28.661945411367387]},"properties":{"substrate":"Mud","lease_number":null,"poll_year":2025}},{"type":"Feature","id":"bebc7e0a-4d0a-454e-b7e3-14dd8390dc42","geometry":{"type":"Point","coordinates":[-96.63268047799939,28.67940643421553]},"properties":{"substrate":"Mud","lease_number":null,"poll_year":2025}},{"type":"Feature","id":"bf5805d8-9cde-4ebc-8081-6ffc2fb80290","geometry":{"type":"Point","coordinates":[-96.59963721420266,28.660778529621336]},"properties":{"substrate":"Mud","lease_number":null,"poll_year":2025}},{"type":"Feature","id":"bfc8ca9a-47a8-417d-b014-18d450116bba","geometry":{"type":"Point","coordinates":[-96.64168064583038,28.689387518188546]},"properties":{"substrate":"Mud","lease_number":null,"poll_year":2025}},{"type":"Feature","id":"bfdf0511-1e3c-4f22-858e-7cfafde5f1b8","geometry":{"type":"Point","coordinates":[-96.59341906861945,28.66173427708864]},"properties":{"substrate":"Mud","lease_number":null,"poll_year":2025}},{"type":"Feature","id":"bff49b6e-5fcd-4620-b0aa-5755b1718931","geometry":{"type":"Point","coordinates":[-96.60191078730469,28.6611884127445]},"properties":{"substrate":"Mud","lease_number":null,"poll_year":2025}},{"type":"Feature","id":"c0ed9230-8de4-4b00-bd51-3c53873df100","geometry":{"type":"Point","coordinates":[-96.59805057561186,28.664183106685105]},"properties":{"substrate":"Mud","lease_number":null,"poll_year":2025}},{"type":"Feature","id":"c1e2df66-42dd-4e9a-bde1-10e672e382fa","geometry":{"type":"Point","coordinates":[-96.61034285516011,28.69011436169667]},"properties":{"substrate":"Mud","lease_number":null,"poll_year":2025}},{"type":"Feature","id":"c1fa3cdc-3316-4dc8-a1a5-8c02fc6fce87","geometry":{"type":"Point","coordinates":[-96.59769792667572,28.66457802237924]},"properties":{"substrate":"Mud","lease_number":null,"poll_year":2025}},{"type":"Feature","id":"c21b8785-71ba-404f-810c-dc610c853a8e","geometry":{"type":"Point","coordinates":[-96.64155105307086,28.689677470845094]},"properties":{"substrate":"Mud","lease_number":null,"poll_year":2025}},{"type":"Feature","id":"c24e8180-7016-4c29-89fa-f94e211224c5","geometry":{"type":"Point","coordinates":[-96.639680030319,28.69006505318297]},"properties":{"substrate":"Mud","lease_number":null,"poll_year":2025}},{"type":"Feature","id":"c32c2a2d-7b88-46d1-9ca1-21dbb8212d1c","geometry":{"type":"Point","coordinates":[-96.64017932293706,28.689791973337417]},"properties":{"substrate":"Firm/Hard Bottom","lease_number":null,"poll_year":2025}},{"type":"Feature","id":"c3b9c037-9b06-43a3-8545-04e90d1811ac","geometry":{"type":"Point","coordinates":[-96.59517734382001,28.660557457094065]},"properties":{"substrate":"Mud","lease_number":null,"poll_year":2025}},{"type":"Feature","id":"c42b3961-17a5-4557-a253-096f2b14bea1","geometry":{"type":"Point","coordinates":[-96.6403016052068,28.689501964259584]},"properties":{"substrate":"Firm/Hard Bottom","lease_number":null,"poll_year":2025}},{"type":"Feature","id":"c63d1f4f-b6ea-4960-aa10-6e56d2a6042c","geometry":{"type":"Point","coordinates":[-96.60065596482029,28.64418518840118]},"properties":{"substrate":"Mud","lease_number":null,"poll_year":2025}},{"type":"Feature","id":"c6a1ab82-864a-435e-997f-53c5bef8b579","geometry":{"type":"Point","coordinates":[-96.64052975662771,28.69016140539501]},"properties":{"substrate":"Firm/Hard Bottom","lease_number":null,"poll_year":2025}},{"type":"Feature","id":"c6f2f136-d3d8-4634-8f5d-f4f688b36534","geometry":{"type":"Point","coordinates":[-96.61171346329813,28.689138267562207]},"properties":{"substrate":"Mud","lease_number":null,"poll_year":2025}},{"type":"Feature","id":"c76dd9a4-a5c0-4dd0-805f-efc723c71686","geometry":{"type":"Point","coordinates":[-96.59226699184399,28.66252143755851]},"properties":{"substrate":"Mud","lease_number":null,"poll_year":2025}},{"type":"Feature","id":"c774e050-340c-4c0e-9bcc-507eb5d792f3","geometry":{"type":"Point","coordinates":[-96.63344489579714,28.678873218141746]},"properties":{"substrate":"Mud","lease_number":null,"poll_year":2025}},{"type":"Feature","id":"c81d6cc9-0850-4858-8073-b8a92df8fa97","geometry":{"type":"Point","coordinates":[-96.64197964827606,28.68871686705651]},"properties":{"substrate":"Mud","lease_number":null,"poll_year":2025}},{"type":"Feature","id":"c840a86b-3db9-43a5-8584-d928d7ded8fe","geometry":{"type":"Point","coordinates":[-96.60051779674308,28.658877832975083]},"properties":{"substrate":"Mud","lease_number":null,"poll_year":2025}},{"type":"Feature","id":"c8689ea3-33e8-475b-a672-b9faf9bbf774","geometry":{"type":"Point","coordinates":[-96.63409876781435,28.67758737817634]},"properties":{"substrate":"Mud","lease_number":null,"poll_year":2025}},{"type":"Feature","id":"c87e0608-7ced-4101-ac29-6b720987a548","geometry":{"type":"Point","coordinates":[-96.599259009095,28.657711842513056]},"properties":{"substrate":"Mud","lease_number":null,"poll_year":2025}},{"type":"Feature","id":"c88d24e3-ec54-423e-8a1d-394372c390f0","geometry":{"type":"Point","coordinates":[-96.60398530362123,28.64224975653996]},"properties":{"substrate":"Mud","lease_number":null,"poll_year":2025}},{"type":"Feature","id":"ca4d8a77-f22a-49e5-a981-93aa4bd77e44","geometry":{"type":"Point","coordinates":[-96.59918769184459,28.661725442474875]},"properties":{"substrate":"Mud","lease_number":null,"poll_year":2025}},{"type":"Feature","id":"ca4fc6be-fafb-4407-9ced-4678caab98b4","geometry":{"type":"Point","coordinates":[-96.60164446467073,28.66420766141521]},"properties":{"substrate":"Mud","lease_number":null,"poll_year":2025}},{"type":"Feature","id":"ca56ffbb-4804-4d22-a415-38faa55fe06f","geometry":{"type":"Point","coordinates":[-96.59836089772844,28.66351057741085]},"properties":{"substrate":"Mud","lease_number":null,"poll_year":2025}},{"type":"Feature","id":"cb488f0f-d75d-452a-b2ca-c4deaa2fbe15","geometry":{"type":"Point","coordinates":[-96.63364286651947,28.67815126411713]},"properties":{"substrate":"Mud","lease_number":null,"poll_year":2025}},{"type":"Feature","id":"ccc1f62b-931a-4b48-a2bd-68c1456662a2","geometry":{"type":"Point","coordinates":[-96.61113950271364,28.688815935300195]},"properties":{"substrate":"Firm/Hard Bottom","lease_number":null,"poll_year":2025}},{"type":"Feature","id":"cce0fbe3-350e-4da4-8629-17034946bec8","geometry":{"type":"Point","coordinates":[-96.60107236000562,28.65692094496174]},"properties":{"substrate":"Mud","lease_number":null,"poll_year":2025}},{"type":"Feature","id":"cd421566-71c8-4c29-90cc-39e098b5abea","geometry":{"type":"Point","coordinates":[-96.64049934865535,28.689328356542145]},"properties":{"substrate":"Firm/Hard Bottom","lease_number":null,"poll_year":2025}},{"type":"Feature","id":"cd99b812-3eaf-416e-a42b-ac422a8e2773","geometry":{"type":"Point","coordinates":[-96.59473960196858,28.665182475297097]},"properties":{"substrate":"Mud","lease_number":null,"poll_year":2025}},{"type":"Feature","id":"cdecd79f-5244-4784-be58-b6d4f8f91d4a","geometry":{"type":"Point","coordinates":[-96.60170560580559,28.643859374342274]},"properties":{"substrate":"Mud","lease_number":null,"poll_year":2025}},{"type":"Feature","id":"d02d7c59-26ae-45e6-9225-504551de52ba","geometry":{"type":"Point","coordinates":[-96.5999280788102,28.66015213706888]},"properties":{"substrate":"Mud","lease_number":null,"poll_year":2025}},{"type":"Feature","id":"d02e2b2e-2f34-480d-a69f-3993ad24df50","geometry":{"type":"Point","coordinates":[-96.6117370072434,28.689286849199714]},"properties":{"substrate":"Mud","lease_number":null,"poll_year":2025}},{"type":"Feature","id":"d101a50c-69a0-460f-9dab-5d50eccef099","geometry":{"type":"Point","coordinates":[-96.61115473275096,28.68899543680552]},"properties":{"substrate":"Firm/Hard Bottom","lease_number":null,"poll_year":2025}},{"type":"Feature","id":"d1eee873-b299-47f0-884c-e04298b329ca","geometry":{"type":"Point","coordinates":[-96.64084230476956,28.68848618658521]},"properties":{"substrate":"Firm/Hard Bottom","lease_number":null,"poll_year":2025}},{"type":"Feature","id":"d1f84b93-01a9-4c65-9aef-71e0600e7c8e","geometry":{"type":"Point","coordinates":[-96.59683560688502,28.66619565088177]},"properties":{"substrate":"Mud","lease_number":null,"poll_year":2025}},{"type":"Feature","id":"d2a59125-f832-4fd2-b0b2-31201125d085","geometry":{"type":"Point","coordinates":[-96.63247028030774,28.678425354735964]},"properties":{"substrate":"Mud","lease_number":null,"poll_year":2025}},{"type":"Feature","id":"d2f5ccae-8986-4c61-b4d2-d1a3f6c4bc94","geometry":{"type":"Point","coordinates":[-96.60101844042732,28.65708767822465]},"properties":{"substrate":"Mud","lease_number":null,"poll_year":2025}},{"type":"Feature","id":"d39fe5a3-9c47-40db-a52e-0a3ff3115666","geometry":{"type":"Point","coordinates":[-96.60125804896138,28.64408406050792]},"properties":{"substrate":"Mud","lease_number":null,"poll_year":2025}},{"type":"Feature","id":"d3e88211-4b8a-43c7-986a-f02add1e910f","geometry":{"type":"Point","coordinates":[-96.64046433322389,28.6903107271137]},"properties":{"substrate":"Firm/Hard Bottom","lease_number":null,"poll_year":2025}},{"type":"Feature","id":"d40680d8-f833-48ae-b305-ce6a1240d202","geometry":{"type":"Point","coordinates":[-96.64028988668393,28.68979651081776]},"properties":{"substrate":"Firm/Hard Bottom","lease_number":null,"poll_year":2025}},{"type":"Feature","id":"d4223483-080c-420c-920c-c4b7ec710fac","geometry":{"type":"Point","coordinates":[-96.60227956459345,28.655813130349646]},"properties":{"substrate":"Mud","lease_number":null,"poll_year":2025}},{"type":"Feature","id":"d4320110-050a-4d2f-b07b-9c366a231bef","geometry":{"type":"Point","coordinates":[-96.64063210977287,28.68898217572397]},"properties":{"substrate":"Firm/Hard Bottom","lease_number":null,"poll_year":2025}},{"type":"Feature","id":"d44c9139-dfd2-41b6-9d20-e9166d7b8269","geometry":{"type":"Point","coordinates":[-96.60111234132397,28.64415939517653]},"properties":{"substrate":"Mud","lease_number":null,"poll_year":2025}},{"type":"Feature","id":"d5c304af-3d7c-470c-8d11-2b2e5d58eef0","geometry":{"type":"Point","coordinates":[-96.64012891577153,28.688930840633656]},"properties":{"substrate":"Mud","lease_number":null,"poll_year":2025}},{"type":"Feature","id":"d69b0c54-7121-42a3-af89-3821793e02b6","geometry":{"type":"Point","coordinates":[-96.60204703837711,28.65931790521832]},"properties":{"substrate":"Mud","lease_number":null,"poll_year":2025}},{"type":"Feature","id":"d6a70888-ca9d-4922-bb1a-c65b1ff89989","geometry":{"type":"Point","coordinates":[-96.64129336773834,28.688352122688926]},"properties":{"substrate":"Firm/Hard Bottom","lease_number":null,"poll_year":2025}},{"type":"Feature","id":"d6d5a01f-a03d-4164-b009-b512681a66cd","geometry":{"type":"Point","coordinates":[-96.6400341345259,28.69039063535938]},"properties":{"substrate":"Firm/Hard Bottom","lease_number":null,"poll_year":2025}},{"type":"Feature","id":"d6e7b646-5835-414e-a27d-8575b59a0e9b","geometry":{"type":"Point","coordinates":[-96.61093422689143,28.690110081915243]},"properties":{"substrate":"Mud","lease_number":null,"poll_year":2025}},{"type":"Feature","id":"d76bc0af-3da8-4e16-87a8-1716301af561","geometry":{"type":"Point","coordinates":[-96.64024912113632,28.688595624861552]},"properties":{"substrate":"Mud","lease_number":null,"poll_year":2025}},{"type":"Feature","id":"d7cf8a99-fefe-414c-a56a-9da3fe4d1747","geometry":{"type":"Point","coordinates":[-96.59650068260777,28.666024989482313]},"properties":{"substrate":"Firm/Hard Bottom","lease_number":null,"poll_year":2025}},{"type":"Feature","id":"d81ac4be-d031-40fb-ad11-98c8719f9f49","geometry":{"type":"Point","coordinates":[-96.60316120984083,28.64289163345872]},"properties":{"substrate":"Mud","lease_number":null,"poll_year":2025}},{"type":"Feature","id":"d8353c88-4ddb-455e-bfd9-2a1611dbf47d","geometry":{"type":"Point","coordinates":[-96.64147144526869,28.68985373049327]},"properties":{"substrate":"Mud","lease_number":null,"poll_year":2025}},{"type":"Feature","id":"d8e17d0e-08da-4640-bb24-168fed2a83e8","geometry":{"type":"Point","coordinates":[-96.6408669266932,28.689378384089608]},"properties":{"substrate":"Firm/Hard Bottom","lease_number":null,"poll_year":2025}},{"type":"Feature","id":"daf049ba-34cb-418b-88c0-17cd8ed70126","geometry":{"type":"Point","coordinates":[-96.60331116830616,28.642780912047925]},"properties":{"substrate":"Mud","lease_number":null,"poll_year":2025}},{"type":"Feature","id":"db2c878a-ff0f-4514-9f93-628fc32c5f46","geometry":{"type":"Point","coordinates":[-96.6018353800248,28.66209394487176]},"properties":{"substrate":"Firm/Hard Bottom","lease_number":null,"poll_year":2025}},{"type":"Feature","id":"db39e6b5-905d-427b-85d5-70a9104cebb6","geometry":{"type":"Point","coordinates":[-96.60005421934407,28.643803365722516]},"properties":{"substrate":"Mud","lease_number":null,"poll_year":2025}},{"type":"Feature","id":"dbd77468-ae7c-4e09-affd-04426c142a5f","geometry":{"type":"Point","coordinates":[-96.63384346481398,28.67860286987609]},"properties":{"substrate":"Mud","lease_number":null,"poll_year":2025}},{"type":"Feature","id":"dc6f4e26-e8cf-4971-ae21-a28c4b3adb7d","geometry":{"type":"Point","coordinates":[-96.60210359810402,28.658600919681582]},"properties":{"substrate":"Mud","lease_number":null,"poll_year":2025}},{"type":"Feature","id":"de6b4346-e06a-46bf-bd9e-89da6755256a","geometry":{"type":"Point","coordinates":[-96.60255906641093,28.643281471767015]},"properties":{"substrate":"Mud","lease_number":null,"poll_year":2025}},{"type":"Feature","id":"dec4243d-3b29-4279-bd47-92a4d551d69d","geometry":{"type":"Point","coordinates":[-96.634383455606,28.678227887309895]},"properties":{"substrate":"Mud","lease_number":null,"poll_year":2025}},{"type":"Feature","id":"df44604d-c32a-4451-b5cc-09c32c519792","geometry":{"type":"Point","coordinates":[-96.59896585108855,28.6621965956146]},"properties":{"substrate":"Mud","lease_number":null,"poll_year":2025}},{"type":"Feature","id":"df6ba5b3-f1d0-40a1-b3e7-7a0ea9b193f4","geometry":{"type":"Point","coordinates":[-96.64125640296272,28.6903528707756]},"properties":{"substrate":"Mud","lease_number":null,"poll_year":2025}},{"type":"Feature","id":"e04c405d-aeb0-4ccd-ac34-62f311e75614","geometry":{"type":"Point","coordinates":[-96.6348504546879,28.67745968649197]},"properties":{"substrate":"Mud","lease_number":null,"poll_year":2025}},{"type":"Feature","id":"e050f1f5-7aa0-49f8-830f-05fb92b44a53","geometry":{"type":"Point","coordinates":[-96.63188005033516,28.679948477500652]},"properties":{"substrate":"Mud","lease_number":null,"poll_year":2025}},{"type":"Feature","id":"e0801abc-e6e7-47da-af0e-8132ae2d1501","geometry":{"type":"Point","coordinates":[-96.60186410814758,28.643752174844327]},"properties":{"substrate":"Mud","lease_number":null,"poll_year":2025}},{"type":"Feature","id":"e0da8acb-9827-45b3-bfed-8c42c713e6d0","geometry":{"type":"Point","coordinates":[-96.64114449174293,28.68870603388733]},"properties":{"substrate":"Firm/Hard Bottom","lease_number":null,"poll_year":2025}},{"type":"Feature","id":"e2133a23-44d2-48b5-b04c-dc3d2127b9ee","geometry":{"type":"Point","coordinates":[-96.59820222470654,28.66386497769214]},"properties":{"substrate":"Mud","lease_number":null,"poll_year":2025}},{"type":"Feature","id":"e35eca6a-5f8f-4755-94e0-bdce6ecaced3","geometry":{"type":"Point","coordinates":[-96.61183179747218,28.689957793767807]},"properties":{"substrate":"Mud","lease_number":null,"poll_year":2025}},{"type":"Feature","id":"e3c44aac-1dd8-41bc-87c3-d4ad9fd12f1d","geometry":{"type":"Point","coordinates":[-96.59628679553524,28.665922936799507]},"properties":{"substrate":"Firm/Hard Bottom","lease_number":null,"poll_year":2025}},{"type":"Feature","id":"e3fa50b7-5c47-4f4b-9a8e-ce1870336ced","geometry":{"type":"Point","coordinates":[-96.60244755943305,28.643358935637764]},"properties":{"substrate":"Mud","lease_number":null,"poll_year":2025}},{"type":"Feature","id":"e4e758d7-c8c3-4bd7-83d7-98ad9f878e2c","geometry":{"type":"Point","coordinates":[-96.59431244137289,28.661121420496933]},"properties":{"substrate":"Mud","lease_number":null,"poll_year":2025}},{"type":"Feature","id":"e5724bdb-81ac-4454-a8ad-902d8d094756","geometry":{"type":"Point","coordinates":[-96.6009525229501,28.65740308695684]},"properties":{"substrate":"Mud","lease_number":null,"poll_year":2025}},{"type":"Feature","id":"e5a46d6d-cd9f-4837-a182-38a193d93665","geometry":{"type":"Point","coordinates":[-96.61086674005739,28.688090516229256]},"properties":{"substrate":"Mud","lease_number":null,"poll_year":2025}},{"type":"Feature","id":"e6cc0f1a-349c-44a0-b44a-51da5baf8a69","geometry":{"type":"Point","coordinates":[-96.64183614151112,28.689033127803473]},"properties":{"substrate":"Mud","lease_number":null,"poll_year":2025}},{"type":"Feature","id":"e8206458-227a-4b1b-8f7a-e34245e489e5","geometry":{"type":"Point","coordinates":[-96.63266126393377,28.678665346086262]},"properties":{"substrate":"Mud","lease_number":null,"poll_year":2025}},{"type":"Feature","id":"e89d14da-d07c-4bcd-a507-453ea8f169f2","geometry":{"type":"Point","coordinates":[-96.61121103915298,28.689463199341276]},"properties":{"substrate":"Firm/Hard Bottom","lease_number":null,"poll_year":2025}},{"type":"Feature","id":"e975c7e2-972d-4a95-a121-d3de1ead399a","geometry":{"type":"Point","coordinates":[-96.60217264980326,28.657433837533112]},"properties":{"substrate":"Solid Reef","lease_number":null,"poll_year":2025}},{"type":"Feature","id":"e97b6afb-fca6-4270-9cbb-6fe97e5e8e33","geometry":{"type":"Point","coordinates":[-96.60180629527083,28.662449987898224]},"properties":{"substrate":"Mud","lease_number":null,"poll_year":2025}},{"type":"Feature","id":"ea67182f-ae62-4feb-a414-607a2ff15f2f","geometry":{"type":"Point","coordinates":[-96.59448887947784,28.661005453629947]},"properties":{"substrate":"Mud","lease_number":null,"poll_year":2025}},{"type":"Feature","id":"eab4d713-e1b5-44a0-9610-af84c8875ff7","geometry":{"type":"Point","coordinates":[-96.63506001188077,28.677753328269795]},"properties":{"substrate":"Mud","lease_number":null,"poll_year":2025}},{"type":"Feature","id":"ead91fbf-003e-45f7-be2f-aa3ba3f82be8","geometry":{"type":"Point","coordinates":[-96.59729743885744,28.665518862405936]},"properties":{"substrate":"Mud","lease_number":null,"poll_year":2025}},{"type":"Feature","id":"ebc88d5b-189d-45c8-95c1-f948a7c8674e","geometry":{"type":"Point","coordinates":[-96.64094167371135,28.68920548539884]},"properties":{"substrate":"Firm/Hard Bottom","lease_number":null,"poll_year":2025}},{"type":"Feature","id":"ec36afd1-ddef-4b8a-93a0-cb512d01675f","geometry":{"type":"Point","coordinates":[-96.64097950715787,28.68746647300037]},"properties":{"substrate":"Mud","lease_number":null,"poll_year":2025}},{"type":"Feature","id":"ec62b9ac-a23c-468e-9f37-e02932a768d6","geometry":{"type":"Point","coordinates":[-96.59895575582138,28.657960717025983]},"properties":{"substrate":"Mud","lease_number":null,"poll_year":2025}},{"type":"Feature","id":"ec89b802-3de9-4247-9163-353ba2ab7172","geometry":{"type":"Point","coordinates":[-96.60188204570717,28.661580891439733]},"properties":{"substrate":"Mud","lease_number":null,"poll_year":2025}},{"type":"Feature","id":"ecfcaa11-4c94-409d-ac8a-c2635561887f","geometry":{"type":"Point","coordinates":[-96.63949975910273,28.69037591975806]},"properties":{"substrate":"Mud","lease_number":null,"poll_year":2025}},{"type":"Feature","id":"ed815045-9695-44fe-9d53-97ef395e08bd","geometry":{"type":"Point","coordinates":[-96.59843603461543,28.663365343077945]},"properties":{"substrate":"Mud","lease_number":null,"poll_year":2025}},{"type":"Feature","id":"eecc9865-26c2-40e8-a492-601ad0b09350","geometry":{"type":"Point","coordinates":[-96.64035038821831,28.688291285868363]},"properties":{"substrate":"Mud","lease_number":null,"poll_year":2025}},{"type":"Feature","id":"eee06410-9840-4abe-9f79-3bf9902f89ba","geometry":{"type":"Point","coordinates":[-96.63254138196247,28.679496528411338]},"properties":{"substrate":"Mud","lease_number":null,"poll_year":2025}},{"type":"Feature","id":"efe62f26-4abb-42fb-888a-cfe0c6d25356","geometry":{"type":"Point","coordinates":[-96.59491831460782,28.665272884399474]},"properties":{"substrate":"Mud","lease_number":null,"poll_year":2025}},{"type":"Feature","id":"f01d0182-f2ea-4b57-92b9-db3e74b7b99a","geometry":{"type":"Point","coordinates":[-96.60185219019871,28.661911175727248]},"properties":{"substrate":"Firm/Hard Bottom","lease_number":null,"poll_year":2025}},{"type":"Feature","id":"f0398fa3-ebe8-49e9-ac1f-8cf31d497b57","geometry":{"type":"Point","coordinates":[-96.59755820271643,28.664797100903762]},"properties":{"substrate":"Mud","lease_number":null,"poll_year":2025}},{"type":"Feature","id":"f07a8c3a-0169-453d-b8a3-34d0ff93004e","geometry":{"type":"Point","coordinates":[-96.60220143451993,28.643523974952597]},"properties":{"substrate":"Mud","lease_number":null,"poll_year":2025}},{"type":"Feature","id":"f0ef9d6e-8d39-445e-93c1-7a0b44a9631d","geometry":{"type":"Point","coordinates":[-96.59748384377048,28.659027712448324]},"properties":{"substrate":"Solid Reef","lease_number":null,"poll_year":2025}},{"type":"Feature","id":"f2281420-33e6-4aa1-9ad9-13e387e10833","geometry":{"type":"Point","coordinates":[-96.61021704879953,28.68809583000615]},"properties":{"substrate":"Mud","lease_number":null,"poll_year":2025}},{"type":"Feature","id":"f26501ba-e4c7-4322-9a5b-5f5bee694d1c","geometry":{"type":"Point","coordinates":[-96.6407467985835,28.690110579949135]},"properties":{"substrate":"Firm/Hard Bottom","lease_number":null,"poll_year":2025}},{"type":"Feature","id":"f266ede2-c2b5-4e50-bdc8-b2d781dd4888","geometry":{"type":"Point","coordinates":[-96.60222408823475,28.656626499091626]},"properties":{"substrate":"Solid Reef","lease_number":null,"poll_year":2025}},{"type":"Feature","id":"f2d18e7f-caba-4fae-a8e9-0dabf72d61f5","geometry":{"type":"Point","coordinates":[-96.64069093594924,28.68883346205184]},"properties":{"substrate":"Firm/Hard Bottom","lease_number":null,"poll_year":2025}},{"type":"Feature","id":"f3036ab4-5d69-4efb-bc98-6ed558ffa88e","geometry":{"type":"Point","coordinates":[-96.64008428656989,28.689087056270047]},"properties":{"substrate":"Mud","lease_number":null,"poll_year":2025}},{"type":"Feature","id":"f415ad87-bafe-4e51-9d24-6ce2981103a9","geometry":{"type":"Point","coordinates":[-96.6315590804875,28.679241183430353]},"properties":{"substrate":"Mud","lease_number":null,"poll_year":2025}},{"type":"Feature","id":"f5977996-05dd-4287-91b4-f474d69ec511","geometry":{"type":"Point","coordinates":[-96.64100377873851,28.689560141555432]},"properties":{"substrate":"Firm/Hard Bottom","lease_number":null,"poll_year":2025}},{"type":"Feature","id":"f5ee8f94-d2ab-49d6-a206-2630d7b27be0","geometry":{"type":"Point","coordinates":[-96.64035025167438,28.6896500678337]},"properties":{"substrate":"Firm/Hard Bottom","lease_number":null,"poll_year":2025}},{"type":"Feature","id":"f6af02cd-63a4-4616-953f-869f1e28748b","geometry":{"type":"Point","coordinates":[-96.64025041471032,28.68965027981424]},"properties":{"substrate":"Firm/Hard Bottom","lease_number":null,"poll_year":2025}},{"type":"Feature","id":"f7d352ce-7ee5-4851-b1c7-62bc6ea650ee","geometry":{"type":"Point","coordinates":[-96.60189826748459,28.66136690298172]},"properties":{"substrate":"Mud","lease_number":null,"poll_year":2025}},{"type":"Feature","id":"f8175a11-3f8c-4d44-b7b4-f263085515af","geometry":{"type":"Point","coordinates":[-96.59708171113691,28.659293838063967]},"properties":{"substrate":"Firm/Hard Bottom","lease_number":null,"poll_year":2025}},{"type":"Feature","id":"fa0e4dbd-28e1-41f4-89a6-c03bf429e948","geometry":{"type":"Point","coordinates":[-96.60005962181218,28.659857361324075]},"properties":{"substrate":"Mud","lease_number":null,"poll_year":2025}},{"type":"Feature","id":"fa1299f8-545b-4242-9140-0c0aa73444ba","geometry":{"type":"Point","coordinates":[-96.60197249617482,28.660341674849473]},"properties":{"substrate":"Mud","lease_number":null,"poll_year":2025}},{"type":"Feature","id":"fa81d772-fc1a-41cd-946b-c5df568bb2f4","geometry":{"type":"Point","coordinates":[-96.64124152506498,28.68769112007052]},"properties":{"substrate":"Mud","lease_number":null,"poll_year":2025}},{"type":"Feature","id":"fae42117-118d-42bf-8503-8df1fc90dc09","geometry":{"type":"Point","coordinates":[-96.64068612277596,28.688366858275707]},"properties":{"substrate":"Firm/Hard Bottom","lease_number":null,"poll_year":2025}},{"type":"Feature","id":"fba3d491-4e52-4071-8889-c187e80a690a","geometry":{"type":"Point","coordinates":[-96.5986638132355,28.65817712453889]},"properties":{"substrate":"Mud","lease_number":null,"poll_year":2025}},{"type":"Feature","id":"fce9d337-a066-42e2-97aa-fe067392c1fb","geometry":{"type":"Point","coordinates":[-96.60202111748957,28.643645073784064]},"properties":{"substrate":"Mud","lease_number":null,"poll_year":2025}},{"type":"Feature","id":"fd167d69-af5c-4aa8-9c0a-84fb1f4abe1e","geometry":{"type":"Point","coordinates":[-96.610308983284,28.689763499422007]},"properties":{"substrate":"Mud","lease_number":null,"poll_year":2025}},{"type":"Feature","id":"fd9d2d3c-e198-4000-acfa-9a03537754df","geometry":{"type":"Point","coordinates":[-96.6416017602737,28.687581141036404]},"properties":{"substrate":"Mud","lease_number":null,"poll_year":2025}},{"type":"Feature","id":"fe7c5788-acad-4425-8359-89d3b537c4bf","geometry":{"type":"Point","coordinates":[-96.60195011375119,28.655725557227267]},"properties":{"substrate":"Mud","lease_number":null,"poll_year":2025}},{"type":"Feature","id":"ff0469f8-933e-42a3-9b97-5971def1a751","geometry":{"type":"Point","coordinates":[-96.59296751517053,28.66432314392378]},"properties":{"substrate":"Mud","lease_number":null,"poll_year":2025}}]}