{"type":"FeatureCollection","features":[{"type":"Feature","id":"003bcb3c-71b2-481a-874d-c1129463fb00","geometry":{"type":"Point","coordinates":[-94.70327840142271,29.455702468369566]},"properties":{"substrate":"Solid Reef","lease_number":null,"poll_year":2024}},{"type":"Feature","id":"02bbd05a-a656-4fb0-9937-b6f601335655","geometry":{"type":"Point","coordinates":[-94.70312467991467,29.457168986111753]},"properties":{"substrate":"Solid Reef","lease_number":null,"poll_year":2024}},{"type":"Feature","id":"052f1a19-846b-4fe0-aeec-02e7c444c22e","geometry":{"type":"Point","coordinates":[-94.71081884913784,29.45730010514263]},"properties":{"substrate":"Mud","lease_number":null,"poll_year":2025}},{"type":"Feature","id":"05d83010-bcab-4d9f-abdf-668d12b17272","geometry":{"type":"Point","coordinates":[-94.71057716190222,29.458468612170204]},"properties":{"substrate":"Mud","lease_number":null,"poll_year":2025}},{"type":"Feature","id":"05ec3b5a-1bea-4b77-95b5-9362a91a9193","geometry":{"type":"Point","coordinates":[-94.70939853901179,29.458708751899067]},"properties":{"substrate":"Mud","lease_number":null,"poll_year":2025}},{"type":"Feature","id":"07abfd88-42fa-467b-982f-04e5df1c94c4","geometry":{"type":"Point","coordinates":[-94.71237544357393,29.458223584054235]},"properties":{"substrate":"Mud","lease_number":null,"poll_year":2025}},{"type":"Feature","id":"0849829e-c2f8-4df1-9653-a862b25c6fea","geometry":{"type":"Point","coordinates":[-94.71298100868675,29.458454436042913]},"properties":{"substrate":"Buried Shell","lease_number":null,"poll_year":2025}},{"type":"Feature","id":"097fd200-1e85-4ebc-8957-f3bedd3f7b0b","geometry":{"type":"Point","coordinates":[-94.70353881943034,29.455440864281794]},"properties":{"substrate":"Solid Reef","lease_number":null,"poll_year":2024}},{"type":"Feature","id":"0a30fb28-e693-4e01-8f94-e6f14b21ef5e","geometry":{"type":"Point","coordinates":[-94.69909435425647,29.456554056777385]},"properties":{"substrate":"Mud","lease_number":null,"poll_year":2025}},{"type":"Feature","id":"0b3e5d57-fc19-4a54-b41f-a2777f8a6f55","geometry":{"type":"Point","coordinates":[-94.70272453435452,29.456087641083602]},"properties":{"substrate":"Solid Reef","lease_number":null,"poll_year":2024}},{"type":"Feature","id":"0c6875e9-7717-4826-9792-8874dec143c2","geometry":{"type":"Point","coordinates":[-94.69966216766947,29.456620204917204]},"properties":{"substrate":"Mud","lease_number":null,"poll_year":2025}},{"type":"Feature","id":"0dd91efd-6568-4e61-99a4-a9204af53bd8","geometry":{"type":"Point","coordinates":[-94.69787421392856,29.457076811909705]},"properties":{"substrate":"Mud","lease_number":null,"poll_year":2025}},{"type":"Feature","id":"0f779289-ac9a-4229-bddd-e77395409e77","geometry":{"type":"Point","coordinates":[-94.70308062204155,29.45585632768968]},"properties":{"substrate":"Solid Reef","lease_number":null,"poll_year":2024}},{"type":"Feature","id":"110eb83f-18d5-457c-b004-5b469135f5cd","geometry":{"type":"Point","coordinates":[-94.69971011884103,29.457773633879043]},"properties":{"substrate":"Mud","lease_number":null,"poll_year":2025}},{"type":"Feature","id":"113a003d-e4cc-447f-b8dc-f0f79aa01dd0","geometry":{"type":"Point","coordinates":[-94.7003649520556,29.458622747313097]},"properties":{"substrate":"Mud","lease_number":null,"poll_year":2025}},{"type":"Feature","id":"12376984-46c3-4989-83af-b4bef1b956f9","geometry":{"type":"Point","coordinates":[-94.69751835531191,29.457272568376855]},"properties":{"substrate":"Mud","lease_number":null,"poll_year":2025}},{"type":"Feature","id":"12981104-38b7-4a96-a792-d696fba5ce0f","geometry":{"type":"Point","coordinates":[-94.70252176662858,29.456414962354575]},"properties":{"substrate":"Solid Reef","lease_number":null,"poll_year":2024}},{"type":"Feature","id":"12eb6ac4-7231-4b83-b4fa-194b5cbcd4cb","geometry":{"type":"Point","coordinates":[-94.69937069400417,29.456878565365134]},"properties":{"substrate":"Mud","lease_number":null,"poll_year":2025}},{"type":"Feature","id":"1306516d-558d-4f66-ae77-b5c54f32fb62","geometry":{"type":"Point","coordinates":[-94.70098599514074,29.458639087689477]},"properties":{"substrate":"Mud","lease_number":null,"poll_year":2025}},{"type":"Feature","id":"147a159b-6b0e-40d0-b45e-9250be81ae56","geometry":{"type":"Point","coordinates":[-94.71183010331443,29.458176383623464]},"properties":{"substrate":"Mud","lease_number":null,"poll_year":2025}},{"type":"Feature","id":"15521034-b13f-4001-90e0-171e6a77199c","geometry":{"type":"Point","coordinates":[-94.71115538139946,29.45762925124015]},"properties":{"substrate":"Mud","lease_number":null,"poll_year":2025}},{"type":"Feature","id":"15675bdb-1721-48d3-bcb8-4548b7668da1","geometry":{"type":"Point","coordinates":[-94.69848591902634,29.45779741995846]},"properties":{"substrate":"Mud","lease_number":null,"poll_year":2025}},{"type":"Feature","id":"1588f5bf-2e8b-4235-bd87-f2d5c15d524a","geometry":{"type":"Point","coordinates":[-94.71046101332924,29.457661843923916]},"properties":{"substrate":"Mud","lease_number":null,"poll_year":2025}},{"type":"Feature","id":"15a2ddfa-833f-43fe-9632-16ba9bd5fb1a","geometry":{"type":"Point","coordinates":[-94.70036026644307,29.458490808709005]},"properties":{"substrate":"Mud","lease_number":null,"poll_year":2025}},{"type":"Feature","id":"17c60b42-1623-491a-840b-e72dbac92cb9","geometry":{"type":"Point","coordinates":[-94.71212722828116,29.458015058024614]},"properties":{"substrate":"Mud","lease_number":null,"poll_year":2025}},{"type":"Feature","id":"1813122e-3892-413b-bf6a-3b006754beb5","geometry":{"type":"Point","coordinates":[-94.69877158238837,29.456659768786693]},"properties":{"substrate":"Mud","lease_number":null,"poll_year":2025}},{"type":"Feature","id":"1864e9c0-9567-421d-b192-5eef5c72afd3","geometry":{"type":"Point","coordinates":[-94.69880726975968,29.458205165368554]},"properties":{"substrate":"Mud","lease_number":null,"poll_year":2025}},{"type":"Feature","id":"18a9880c-4bc4-4646-aa1b-6ebd4c2fc77d","geometry":{"type":"Point","coordinates":[-94.6975529548234,29.458302293627582]},"properties":{"substrate":"Solid Reef","lease_number":null,"poll_year":2025}},{"type":"Feature","id":"199a60db-9573-4f9d-ac7f-e35b18ca9637","geometry":{"type":"Point","coordinates":[-94.6983878229973,29.45577371462977]},"properties":{"substrate":"Mud","lease_number":null,"poll_year":2025}},{"type":"Feature","id":"1abd5481-f417-4750-9bc1-f6f3bbf7d705","geometry":{"type":"Point","coordinates":[-94.69788014191111,29.45776307992885]},"properties":{"substrate":"Mud","lease_number":null,"poll_year":2025}},{"type":"Feature","id":"1b35b0be-1b52-47e4-ba4d-e8139ede00bc","geometry":{"type":"Point","coordinates":[-94.71053158857123,29.4586125368253]},"properties":{"substrate":"Mud","lease_number":null,"poll_year":2025}},{"type":"Feature","id":"1c6a72ca-9df0-49e9-96bb-95262d489529","geometry":{"type":"Point","coordinates":[-94.69814876872378,29.45682875336867]},"properties":{"substrate":"Mud","lease_number":null,"poll_year":2025}},{"type":"Feature","id":"1edbea56-fb30-4714-9257-b261c2552c97","geometry":{"type":"Point","coordinates":[-94.69754725141965,29.45799252269871]},"properties":{"substrate":"Mud","lease_number":null,"poll_year":2025}},{"type":"Feature","id":"2060b4a3-f57a-4705-baa9-c7f19c27fd1b","geometry":{"type":"Point","coordinates":[-94.69846013558104,29.456513091965576]},"properties":{"substrate":"Mud","lease_number":null,"poll_year":2025}},{"type":"Feature","id":"20a98f02-395c-4c85-8b36-de0edb1cda47","geometry":{"type":"Point","coordinates":[-94.6994050321059,29.457545158172483]},"properties":{"substrate":"Mud","lease_number":null,"poll_year":2025}},{"type":"Feature","id":"20bdd8ea-db59-4977-b27c-93cdaab729e8","geometry":{"type":"Point","coordinates":[-94.69816895296992,29.457693234386163]},"properties":{"substrate":"Mud","lease_number":null,"poll_year":2025}},{"type":"Feature","id":"2107db52-bb71-45d8-ac56-8d81783a1926","geometry":{"type":"Point","coordinates":[-94.71064139144504,29.458045136665863]},"properties":{"substrate":"Mud","lease_number":null,"poll_year":2025}},{"type":"Feature","id":"21859da3-d795-41e5-8993-fea189599c58","geometry":{"type":"Point","coordinates":[-94.71153384342529,29.45749148017879]},"properties":{"substrate":"Mud","lease_number":null,"poll_year":2025}},{"type":"Feature","id":"21c5866f-11ab-416c-ae30-8d2f616218a6","geometry":{"type":"Point","coordinates":[-94.69881651611888,29.458686997335494]},"properties":{"substrate":"Mud","lease_number":null,"poll_year":2025}},{"type":"Feature","id":"21d39280-f256-4d34-933b-85843125bb9b","geometry":{"type":"Point","coordinates":[-94.71138282225299,29.4570043596523]},"properties":{"substrate":"Mud","lease_number":null,"poll_year":2025}},{"type":"Feature","id":"21ee705b-14e8-4dd7-9eac-2f8a2964e6d7","geometry":{"type":"Point","coordinates":[-94.69879033112667,29.457267010963037]},"properties":{"substrate":"Mud","lease_number":null,"poll_year":2025}},{"type":"Feature","id":"24975d5c-9023-4787-80bc-f6986c3a2d98","geometry":{"type":"Point","coordinates":[-94.70973881095993,29.458152506118136]},"properties":{"substrate":"Mud","lease_number":null,"poll_year":2025}},{"type":"Feature","id":"25631ad4-4d22-42d0-b03f-d9a631dd67b8","geometry":{"type":"Point","coordinates":[-94.70034512893221,29.458050788680502]},"properties":{"substrate":"Mud","lease_number":null,"poll_year":2025}},{"type":"Feature","id":"2608472d-0260-4a62-a1c6-d47ef2def2e7","geometry":{"type":"Point","coordinates":[-94.71218605355922,29.45870378510416]},"properties":{"substrate":"Mud","lease_number":null,"poll_year":2025}},{"type":"Feature","id":"26f17716-0a39-47ea-bba2-89480c62ba06","geometry":{"type":"Point","coordinates":[-94.70449526828972,29.454527002276468]},"properties":{"substrate":"Solid Reef","lease_number":null,"poll_year":2024}},{"type":"Feature","id":"279e565f-0e58-493a-97ce-eec60db4bc76","geometry":{"type":"Point","coordinates":[-94.69939530155476,29.457390300219906]},"properties":{"substrate":"Mud","lease_number":null,"poll_year":2025}},{"type":"Feature","id":"282ca6c3-1541-4647-bb64-67ee9d59b12d","geometry":{"type":"Point","coordinates":[-94.69876475070063,29.456078886001297]},"properties":{"substrate":"Mud","lease_number":null,"poll_year":2025}},{"type":"Feature","id":"293edcda-c63b-460d-95e1-63867c48e96c","geometry":{"type":"Point","coordinates":[-94.70353394337496,29.457667585910656]},"properties":{"substrate":"Solid Reef","lease_number":null,"poll_year":2024}},{"type":"Feature","id":"29705f87-ad2c-4eea-956d-9fb4a94a4bc7","geometry":{"type":"Point","coordinates":[-94.71223048692812,29.458106295890428]},"properties":{"substrate":"Mud","lease_number":null,"poll_year":2025}},{"type":"Feature","id":"29855199-c9f7-4b01-b1de-e06b09a5fb9d","geometry":{"type":"Point","coordinates":[-94.71219995408993,29.45775888900996]},"properties":{"substrate":"Mud","lease_number":null,"poll_year":2025}},{"type":"Feature","id":"299baa24-84f1-454e-bf88-b5e3e583a384","geometry":{"type":"Point","coordinates":[-94.71066800762858,29.45855805610411]},"properties":{"substrate":"Mud","lease_number":null,"poll_year":2025}},{"type":"Feature","id":"2af8b23d-72b9-48c9-b808-98b9646a4ea3","geometry":{"type":"Point","coordinates":[-94.70265125877677,29.456623175669133]},"properties":{"substrate":"Solid Reef","lease_number":null,"poll_year":2024}},{"type":"Feature","id":"2b6a2ad0-27a0-4113-8123-fde957e6e19e","geometry":{"type":"Point","coordinates":[-94.70066160630512,29.458497773186867]},"properties":{"substrate":"Mud","lease_number":null,"poll_year":2025}},{"type":"Feature","id":"2bbe3d8d-85b6-4840-89fa-d88a7526e0b2","geometry":{"type":"Point","coordinates":[-94.69905681366075,29.45568715610751]},"properties":{"substrate":"Mud","lease_number":null,"poll_year":2025}},{"type":"Feature","id":"2bbe7872-4034-40cb-9e01-3d46dbbb2148","geometry":{"type":"Point","coordinates":[-94.70025167359994,29.4572525718541]},"properties":{"substrate":"Mud","lease_number":null,"poll_year":2025}},{"type":"Feature","id":"2ce07adc-71db-4c0c-b427-cb1094ee400d","geometry":{"type":"Point","coordinates":[-94.70429359022023,29.454619866352417]},"properties":{"substrate":"Solid Reef","lease_number":null,"poll_year":2024}},{"type":"Feature","id":"2d163678-8105-4e70-98e2-0593c312dc8b","geometry":{"type":"Point","coordinates":[-94.69968784511356,29.45705597919245]},"properties":{"substrate":"Mud","lease_number":null,"poll_year":2025}},{"type":"Feature","id":"2d2c1d71-bacd-4d12-a672-2c90223f3b1a","geometry":{"type":"Point","coordinates":[-94.71134771429504,29.458458073935834]},"properties":{"substrate":"Mud","lease_number":null,"poll_year":2025}},{"type":"Feature","id":"2d9a85d7-9f55-4641-9c2d-dbd459055e5e","geometry":{"type":"Point","coordinates":[-94.6978852829695,29.45790573923779]},"properties":{"substrate":"Solid Reef","lease_number":null,"poll_year":2025}},{"type":"Feature","id":"2da54235-285d-48f3-9706-161d95f2573b","geometry":{"type":"Point","coordinates":[-94.70942793727777,29.458471035346037]},"properties":{"substrate":"Mud","lease_number":null,"poll_year":2025}},{"type":"Feature","id":"2df6670a-e74d-4dee-8a58-8646486321d7","geometry":{"type":"Point","coordinates":[-94.69971873817617,29.45848957287393]},"properties":{"substrate":"Mud","lease_number":null,"poll_year":2025}},{"type":"Feature","id":"2ea09d1d-3d13-4e80-83ab-859caf5f0408","geometry":{"type":"Point","coordinates":[-94.6997121571184,29.458351738842573]},"properties":{"substrate":"Mud","lease_number":null,"poll_year":2025}},{"type":"Feature","id":"2fdae72e-d648-410a-80a9-c70c0b75ea2f","geometry":{"type":"Point","coordinates":[-94.7000560699384,29.458226116740555]},"properties":{"substrate":"Mud","lease_number":null,"poll_year":2025}},{"type":"Feature","id":"309c8bd1-56a3-4399-96d9-f017fbfbb0ac","geometry":{"type":"Point","coordinates":[-94.69847601959191,29.457142190039104]},"properties":{"substrate":"Mud","lease_number":null,"poll_year":2025}},{"type":"Feature","id":"30d85f17-51d2-444b-a448-63c42f45a84b","geometry":{"type":"Point","coordinates":[-94.69943400906203,29.45856936711554]},"properties":{"substrate":"Mud","lease_number":null,"poll_year":2025}},{"type":"Feature","id":"327bc6ac-1eca-4035-a54e-6304aa4e658e","geometry":{"type":"Point","coordinates":[-94.69880516590527,29.457791847712024]},"properties":{"substrate":"Mud","lease_number":null,"poll_year":2025}},{"type":"Feature","id":"33135c12-5fb0-4a84-91c0-135cdbc98e46","geometry":{"type":"Point","coordinates":[-94.69845917258708,29.456374687378513]},"properties":{"substrate":"Mud","lease_number":null,"poll_year":2025}},{"type":"Feature","id":"33fa1846-9475-4dc6-b16a-7e1131fc77af","geometry":{"type":"Point","coordinates":[-94.69909879103568,29.457407394036498]},"properties":{"substrate":"Mud","lease_number":null,"poll_year":2025}},{"type":"Feature","id":"340220f6-a647-4dfd-ab75-14d062883792","geometry":{"type":"Point","coordinates":[-94.69941075167932,29.45766933408397]},"properties":{"substrate":"Mud","lease_number":null,"poll_year":2025}},{"type":"Feature","id":"35b7d48f-09f2-4752-8263-3acd8e2800aa","geometry":{"type":"Point","coordinates":[-94.70532136890648,29.454803263285932]},"properties":{"substrate":"Mud","lease_number":null,"poll_year":2024}},{"type":"Feature","id":"3851d96e-65e2-4016-bffe-a6d5418c252a","geometry":{"type":"Point","coordinates":[-94.69750547886062,29.457119073356047]},"properties":{"substrate":"Mud","lease_number":null,"poll_year":2025}},{"type":"Feature","id":"38b2a768-dd14-43ea-81cc-b2a90548dde3","geometry":{"type":"Point","coordinates":[-94.69937630308482,29.457000112384677]},"properties":{"substrate":"Mud","lease_number":null,"poll_year":2025}},{"type":"Feature","id":"3bcdb1c0-41f3-43a9-b67f-5d70670c8f7c","geometry":{"type":"Point","coordinates":[-94.71138983001052,29.45736917268416]},"properties":{"substrate":"Mud","lease_number":null,"poll_year":2025}},{"type":"Feature","id":"3c1c6366-d529-4998-ae51-b7f158adfbea","geometry":{"type":"Point","coordinates":[-94.69911537573245,29.457291136628843]},"properties":{"substrate":"Mud","lease_number":null,"poll_year":2025}},{"type":"Feature","id":"3c218b59-7cb9-430b-8d93-2219c0436ba6","geometry":{"type":"Point","coordinates":[-94.71144635200818,29.458542903054393]},"properties":{"substrate":"Mud","lease_number":null,"poll_year":2025}},{"type":"Feature","id":"3c7f7a30-1897-4482-a282-c34f985cd423","geometry":{"type":"Point","coordinates":[-94.69912404806819,29.458671212309525]},"properties":{"substrate":"Mud","lease_number":null,"poll_year":2025}},{"type":"Feature","id":"3c94ad24-a525-45c7-9857-062ba05d212b","geometry":{"type":"Point","coordinates":[-94.71102166716942,29.45771925282636]},"properties":{"substrate":"Mud","lease_number":null,"poll_year":2025}},{"type":"Feature","id":"3d1e2ba0-f394-41bb-9a0d-28a38c1fb679","geometry":{"type":"Point","coordinates":[-94.70248896284934,29.45624092412674]},"properties":{"substrate":"Solid Reef","lease_number":null,"poll_year":2024}},{"type":"Feature","id":"3e9eafde-30f0-4bc7-a2ee-6c6b7f4ed682","geometry":{"type":"Point","coordinates":[-94.69754581591184,29.457866822716174]},"properties":{"substrate":"Mud","lease_number":null,"poll_year":2025}},{"type":"Feature","id":"3fe436b9-a08f-4507-996a-b7d759645da9","geometry":{"type":"Point","coordinates":[-94.6981754639591,29.458539765755667]},"properties":{"substrate":"Solid Reef","lease_number":null,"poll_year":2025}},{"type":"Feature","id":"4119b488-d571-4b7d-bbba-73790a10a2a1","geometry":{"type":"Point","coordinates":[-94.70035735140996,29.458355688044893]},"properties":{"substrate":"Mud","lease_number":null,"poll_year":2025}},{"type":"Feature","id":"41e30cce-1484-41ac-a6c6-d2d8dd6e45dc","geometry":{"type":"Point","coordinates":[-94.69876500492387,29.455857936663573]},"properties":{"substrate":"Mud","lease_number":null,"poll_year":2025}},{"type":"Feature","id":"4306e082-5807-449c-ae8e-934dfbca05fc","geometry":{"type":"Point","coordinates":[-94.69815983417146,29.457290022799782]},"properties":{"substrate":"Mud","lease_number":null,"poll_year":2025}},{"type":"Feature","id":"4343115f-e87c-4f3e-92e1-c3e28620152e","geometry":{"type":"Point","coordinates":[-94.69937007057337,29.456639004816378]},"properties":{"substrate":"Mud","lease_number":null,"poll_year":2025}},{"type":"Feature","id":"4375ae7e-bf7b-45f8-b7ba-655f5d4d4fe7","geometry":{"type":"Point","coordinates":[-94.69814121299393,29.45667589281311]},"properties":{"substrate":"Mud","lease_number":null,"poll_year":2025}},{"type":"Feature","id":"447276af-6796-4e79-856c-961f68054757","geometry":{"type":"Point","coordinates":[-94.70003120277471,29.457831148312355]},"properties":{"substrate":"Mud","lease_number":null,"poll_year":2025}},{"type":"Feature","id":"44b41352-2673-4969-8723-f0535a9cd3fb","geometry":{"type":"Point","coordinates":[-94.71128408931841,29.45727637135286]},"properties":{"substrate":"Mud","lease_number":null,"poll_year":2025}},{"type":"Feature","id":"46453dde-90d3-4023-95a1-5cacbe616d26","geometry":{"type":"Point","coordinates":[-94.71074129668102,29.457169248143494]},"properties":{"substrate":"Mud","lease_number":null,"poll_year":2025}},{"type":"Feature","id":"46c199d7-b0f1-4ed6-9f32-42cb7e849d15","geometry":{"type":"Point","coordinates":[-94.70674643830691,29.455673731281735]},"properties":{"substrate":"Solid Reef","lease_number":null,"poll_year":2024}},{"type":"Feature","id":"4741ba0a-f360-4802-a3c1-3e82ae753980","geometry":{"type":"Point","coordinates":[-94.6981783493478,29.458121015679346]},"properties":{"substrate":"Solid Reef","lease_number":null,"poll_year":2025}},{"type":"Feature","id":"4748396c-b444-47c2-a2a3-30ccca8c985b","geometry":{"type":"Point","coordinates":[-94.71039077136223,29.45753340902528]},"properties":{"substrate":"Mud","lease_number":null,"poll_year":2025}},{"type":"Feature","id":"48328570-876c-4205-8a7c-457e3b461283","geometry":{"type":"Point","coordinates":[-94.69942121974734,29.457915655697587]},"properties":{"substrate":"Mud","lease_number":null,"poll_year":2025}},{"type":"Feature","id":"495c589b-e7b8-4570-8a9b-c2afaec9e297","geometry":{"type":"Point","coordinates":[-94.69960935571392,29.456470997655355]},"properties":{"substrate":"Mud","lease_number":null,"poll_year":2025}},{"type":"Feature","id":"49afd177-c74f-4489-bd30-46d4744b3e14","geometry":{"type":"Point","coordinates":[-94.69878191570909,29.456880194659664]},"properties":{"substrate":"Mud","lease_number":null,"poll_year":2025}},{"type":"Feature","id":"4c4dbd8b-ee05-4df3-8bc6-798d45ae8fe9","geometry":{"type":"Point","coordinates":[-94.70724076324143,29.455942747619304]},"properties":{"substrate":"Solid Reef","lease_number":null,"poll_year":2024}},{"type":"Feature","id":"4cc4df82-a9b9-418c-9ecb-0a67abc4e080","geometry":{"type":"Point","coordinates":[-94.71175792188471,29.458338322191103]},"properties":{"substrate":"Mud","lease_number":null,"poll_year":2025}},{"type":"Feature","id":"4d0598a4-5937-4876-b5d5-bb2810b36876","geometry":{"type":"Point","coordinates":[-94.70098558640728,29.45847544837307]},"properties":{"substrate":"Mud","lease_number":null,"poll_year":2025}},{"type":"Feature","id":"4d0a934f-a8eb-4895-82ed-7b3741162594","geometry":{"type":"Point","coordinates":[-94.70259207327429,29.456165143827583]},"properties":{"substrate":"Solid Reef","lease_number":null,"poll_year":2024}},{"type":"Feature","id":"4d954dfc-3fa7-4f9c-ab6f-37816339ca06","geometry":{"type":"Point","coordinates":[-94.71214440137445,29.45843044362341]},"properties":{"substrate":"Mud","lease_number":null,"poll_year":2025}},{"type":"Feature","id":"4df6cd2c-d23b-4714-8973-c908184d0f7a","geometry":{"type":"Point","coordinates":[-94.69883692584213,29.455558226707183]},"properties":{"substrate":"Mud","lease_number":null,"poll_year":2025}},{"type":"Feature","id":"4f5ebbc4-5959-4661-8340-0e6e9d805da7","geometry":{"type":"Point","coordinates":[-94.70272343930816,29.45671167321852]},"properties":{"substrate":"Firm/Hard Bottom","lease_number":null,"poll_year":2024}},{"type":"Feature","id":"50e8ef8d-6de7-4a87-8e1a-206d2f7146be","geometry":{"type":"Point","coordinates":[-94.6965876090494,29.45836809725259]},"properties":{"substrate":"Mud","lease_number":null,"poll_year":2025}},{"type":"Feature","id":"51020351-717f-4dbe-913b-289cb25e324f","geometry":{"type":"Point","coordinates":[-94.69946401369086,29.456392232690018]},"properties":{"substrate":"Mud","lease_number":null,"poll_year":2025}},{"type":"Feature","id":"511c58aa-a6ba-46b1-a610-5684349b79b2","geometry":{"type":"Point","coordinates":[-94.69728556409255,29.45836585162801]},"properties":{"substrate":"Mud","lease_number":null,"poll_year":2025}},{"type":"Feature","id":"5161ee74-615e-4e45-8d91-39e282ac6f67","geometry":{"type":"Point","coordinates":[-94.71116111175266,29.45783298877997]},"properties":{"substrate":"Mud","lease_number":null,"poll_year":2025}},{"type":"Feature","id":"53364403-50dc-435b-a086-6a8b849ac202","geometry":{"type":"Point","coordinates":[-94.71040420476899,29.457839129668383]},"properties":{"substrate":"Mud","lease_number":null,"poll_year":2025}},{"type":"Feature","id":"534fe2f3-7402-4292-9300-79edc4a79517","geometry":{"type":"Point","coordinates":[-94.7096573768828,29.458531035132303]},"properties":{"substrate":"Mud","lease_number":null,"poll_year":2025}},{"type":"Feature","id":"53d0e350-1cac-44ba-98d6-1fe383da3a13","geometry":{"type":"Point","coordinates":[-94.70258601144275,29.456510747744098]},"properties":{"substrate":"Solid Reef","lease_number":null,"poll_year":2024}},{"type":"Feature","id":"544fb429-c9b0-4520-85c0-b5cd22b5b39b","geometry":{"type":"Point","coordinates":[-94.70653690536855,29.455489125862634]},"properties":{"substrate":"Solid Reef","lease_number":null,"poll_year":2024}},{"type":"Feature","id":"54e3d47f-08ef-4a57-9495-fbeb1f85b900","geometry":{"type":"Point","coordinates":[-94.69849072141986,29.458250981334576]},"properties":{"substrate":"Solid Reef","lease_number":null,"poll_year":2025}},{"type":"Feature","id":"55585e70-2087-4456-bff3-c7ae55e0a229","geometry":{"type":"Point","coordinates":[-94.70515733743392,29.454668482662008]},"properties":{"substrate":"Scattered Shell","lease_number":null,"poll_year":2024}},{"type":"Feature","id":"555e811d-b6e2-4ed9-995a-a72287bc6c1a","geometry":{"type":"Point","coordinates":[-94.69846216757023,29.45665047717255]},"properties":{"substrate":"Mud","lease_number":null,"poll_year":2025}},{"type":"Feature","id":"5767fa3c-235e-4d19-b6dc-5a6fe0c05012","geometry":{"type":"Point","coordinates":[-94.6981608708273,29.457140004615635]},"properties":{"substrate":"Mud","lease_number":null,"poll_year":2025}},{"type":"Feature","id":"5877243a-f225-4faa-acf3-e9a7c9543864","geometry":{"type":"Point","coordinates":[-94.69969715076157,29.45732871896705]},"properties":{"substrate":"Mud","lease_number":null,"poll_year":2025}},{"type":"Feature","id":"58d682c2-01c9-4565-bd16-d6debca91474","geometry":{"type":"Point","coordinates":[-94.71092453772764,29.457417190871176]},"properties":{"substrate":"Mud","lease_number":null,"poll_year":2025}},{"type":"Feature","id":"58e6314c-f748-4a92-8298-2c68e8aab446","geometry":{"type":"Point","coordinates":[-94.6987958692404,29.457412862273838]},"properties":{"substrate":"Mud","lease_number":null,"poll_year":2025}},{"type":"Feature","id":"58e6c107-ee49-4f05-b35e-69a82ed0b75f","geometry":{"type":"Point","coordinates":[-94.69848984556245,29.458448323350044]},"properties":{"substrate":"Solid Reef","lease_number":null,"poll_year":2025}},{"type":"Feature","id":"5a56c587-8ae8-4c33-b50a-748ef9cac371","geometry":{"type":"Point","coordinates":[-94.69727920402033,29.45819538738223]},"properties":{"substrate":"Mud","lease_number":null,"poll_year":2025}},{"type":"Feature","id":"5a91e76d-ba2f-4eab-80d7-ab07a0a53d59","geometry":{"type":"Point","coordinates":[-94.69881377535896,29.458563732337613]},"properties":{"substrate":"Mud","lease_number":null,"poll_year":2025}},{"type":"Feature","id":"5aec2f84-0a2b-4679-963c-98b437e54698","geometry":{"type":"Point","coordinates":[-94.70415250441499,29.454678507382337]},"properties":{"substrate":"Solid Reef","lease_number":null,"poll_year":2024}},{"type":"Feature","id":"5bf30092-2a45-475e-a0b1-14a383374b16","geometry":{"type":"Point","coordinates":[-94.69753868867836,29.457686689101692]},"properties":{"substrate":"Mud","lease_number":null,"poll_year":2025}},{"type":"Feature","id":"5caf5860-cee7-438d-ac1c-19be6e82a455","geometry":{"type":"Point","coordinates":[-94.69908822864456,29.45639440561458]},"properties":{"substrate":"Mud","lease_number":null,"poll_year":2025}},{"type":"Feature","id":"5ccb2d6c-39eb-4188-95d6-0dc3410698de","geometry":{"type":"Point","coordinates":[-94.70067727561863,29.45822772098379]},"properties":{"substrate":"Mud","lease_number":null,"poll_year":2025}},{"type":"Feature","id":"5d97ed8f-f35d-4961-bbb2-824f2a4fc069","geometry":{"type":"Point","coordinates":[-94.6984887136852,29.458083896683604]},"properties":{"substrate":"Solid Reef","lease_number":null,"poll_year":2025}},{"type":"Feature","id":"5e1ecb90-2b89-4134-ad10-76a68e5aa377","geometry":{"type":"Point","coordinates":[-94.69789129269876,29.45842670326465]},"properties":{"substrate":"Mud","lease_number":null,"poll_year":2025}},{"type":"Feature","id":"5e6e5287-9315-4076-9205-f1b66738c613","geometry":{"type":"Point","coordinates":[-94.71166621197904,29.458037033306372]},"properties":{"substrate":"Mud","lease_number":null,"poll_year":2025}},{"type":"Feature","id":"6035ce01-3d22-4a3b-a139-ee0a90f6bf3c","geometry":{"type":"Point","coordinates":[-94.7000325475527,29.457424249284585]},"properties":{"substrate":"Mud","lease_number":null,"poll_year":2025}},{"type":"Feature","id":"60419baf-7cd1-49dc-aa29-005e92c373a0","geometry":{"type":"Point","coordinates":[-94.70622833766174,29.455370068333977]},"properties":{"substrate":"Solid Reef","lease_number":null,"poll_year":2024}},{"type":"Feature","id":"60c2eea1-1591-496a-9bbe-203245a77e88","geometry":{"type":"Point","coordinates":[-94.70452767411528,29.454588910626956]},"properties":{"substrate":"Solid Reef","lease_number":null,"poll_year":2024}},{"type":"Feature","id":"6104a62f-688e-4559-8797-ab4779b39f44","geometry":{"type":"Point","coordinates":[-94.71000758060474,29.45867743527531]},"properties":{"substrate":"Mud","lease_number":null,"poll_year":2025}},{"type":"Feature","id":"6158eec7-1cb0-49ae-b785-a7de7118aa88","geometry":{"type":"Point","coordinates":[-94.70285381360198,29.456003891685302]},"properties":{"substrate":"Solid Reef","lease_number":null,"poll_year":2024}},{"type":"Feature","id":"61e3c686-1ee1-4766-9efd-188238dd25fb","geometry":{"type":"Point","coordinates":[-94.69912019429563,29.458479238007023]},"properties":{"substrate":"Mud","lease_number":null,"poll_year":2025}},{"type":"Feature","id":"6392d6ed-73ab-4945-8b67-010981600204","geometry":{"type":"Point","coordinates":[-94.69755664959415,29.45858668991021]},"properties":{"substrate":"Solid Reef","lease_number":null,"poll_year":2025}},{"type":"Feature","id":"650d3b9e-cea0-4c11-8c94-e9de49fe4988","geometry":{"type":"Point","coordinates":[-94.70004706163274,29.45810148706579]},"properties":{"substrate":"Mud","lease_number":null,"poll_year":2025}},{"type":"Feature","id":"6515fea5-3c8c-4cad-bb1d-e53fb52984c6","geometry":{"type":"Point","coordinates":[-94.710693070625,29.457434961270835]},"properties":{"substrate":"Mud","lease_number":null,"poll_year":2025}},{"type":"Feature","id":"659084d4-6aa6-44aa-8993-8ea5b2b32b2a","geometry":{"type":"Point","coordinates":[-94.71011115096711,29.457736500676955]},"properties":{"substrate":"Mud","lease_number":null,"poll_year":2025}},{"type":"Feature","id":"6614c76f-4445-4bd7-900f-e813e6c7296c","geometry":{"type":"Point","coordinates":[-94.71206076013665,29.458598782309465]},"properties":{"substrate":"Mud","lease_number":null,"poll_year":2025}},{"type":"Feature","id":"67722346-26b6-4f64-883b-2102f7f82f28","geometry":{"type":"Point","coordinates":[-94.69911565600681,29.458340964379097]},"properties":{"substrate":"Mud","lease_number":null,"poll_year":2025}},{"type":"Feature","id":"67ef3a75-b162-43ef-b17f-d3275d783238","geometry":{"type":"Point","coordinates":[-94.70336334970924,29.455615876152095]},"properties":{"substrate":"Solid Reef","lease_number":null,"poll_year":2024}},{"type":"Feature","id":"6958e221-2b75-4185-8d0f-05e6699c084b","geometry":{"type":"Point","coordinates":[-94.7107627942641,29.457988947363283]},"properties":{"substrate":"Mud","lease_number":null,"poll_year":2025}},{"type":"Feature","id":"6ac30e88-8dca-40a6-b9cd-539f3fe47f6a","geometry":{"type":"Point","coordinates":[-94.70006089029822,29.458371921306252]},"properties":{"substrate":"Mud","lease_number":null,"poll_year":2025}},{"type":"Feature","id":"6c20bbdc-7634-42a3-afc5-47c0443f744b","geometry":{"type":"Point","coordinates":[-94.71087759536415,29.45759305503808]},"properties":{"substrate":"Mud","lease_number":null,"poll_year":2025}},{"type":"Feature","id":"6cca1cab-9a95-4c73-b1cc-8d5a7c32f258","geometry":{"type":"Point","coordinates":[-94.71020478865738,29.458336005387945]},"properties":{"substrate":"Mud","lease_number":null,"poll_year":2025}},{"type":"Feature","id":"6d37bf45-46cb-414d-b16d-67e221eacd78","geometry":{"type":"Point","coordinates":[-94.6997154305793,29.458629559258206]},"properties":{"substrate":"Mud","lease_number":null,"poll_year":2025}},{"type":"Feature","id":"6d8f9bcd-9f0d-4bad-8920-dbe21b9da86b","geometry":{"type":"Point","coordinates":[-94.69843643802386,29.45593138312587]},"properties":{"substrate":"Mud","lease_number":null,"poll_year":2025}},{"type":"Feature","id":"6ebf676c-c348-40ec-8c73-a90485d400f3","geometry":{"type":"Point","coordinates":[-94.71140135539562,29.45803371687332]},"properties":{"substrate":"Mud","lease_number":null,"poll_year":2025}},{"type":"Feature","id":"6f507e15-93c7-4616-b6ca-756b949f7d05","geometry":{"type":"Point","coordinates":[-94.71152267377305,29.458137953719607]},"properties":{"substrate":"Mud","lease_number":null,"poll_year":2025}},{"type":"Feature","id":"6f9386ac-db4e-4741-ae8e-1dae0116e95e","geometry":{"type":"Point","coordinates":[-94.6987644542566,29.456516564104025]},"properties":{"substrate":"Mud","lease_number":null,"poll_year":2025}},{"type":"Feature","id":"704ed71d-a63d-4412-9123-866a7731e97e","geometry":{"type":"Point","coordinates":[-94.69788698707357,29.45863516978511]},"properties":{"substrate":"Mud","lease_number":null,"poll_year":2025}},{"type":"Feature","id":"70755601-fafa-42a2-ba2e-c4c978e2fbca","geometry":{"type":"Point","coordinates":[-94.70567678734864,29.45501691464003]},"properties":{"substrate":"Mud","lease_number":null,"poll_year":2024}},{"type":"Feature","id":"719cfb4d-72d7-4416-9e76-53b3945b38bd","geometry":{"type":"Point","coordinates":[-94.71165935603678,29.457601340681247]},"properties":{"substrate":"Mud","lease_number":null,"poll_year":2025}},{"type":"Feature","id":"71c17935-cb39-4647-8a00-02a9c53873bd","geometry":{"type":"Point","coordinates":[-94.71099742433483,29.458348713389007]},"properties":{"substrate":"Mud","lease_number":null,"poll_year":2025}},{"type":"Feature","id":"71f76bd2-c5d5-4f4c-bf59-0c405f44e30a","geometry":{"type":"Point","coordinates":[-94.69848716409132,29.457939037357587]},"properties":{"substrate":"Solid Reef","lease_number":null,"poll_year":2025}},{"type":"Feature","id":"729a1f06-c1f2-4d69-bcbd-8e970889e573","geometry":{"type":"Point","coordinates":[-94.7093569919299,29.458555175358818]},"properties":{"substrate":"Mud","lease_number":null,"poll_year":2025}},{"type":"Feature","id":"742b0b43-f882-4d4f-8ca1-91dce178e75b","geometry":{"type":"Point","coordinates":[-94.69816836726835,29.457560100182327]},"properties":{"substrate":"Mud","lease_number":null,"poll_year":2025}},{"type":"Feature","id":"74b7f2cd-d44f-4ffc-af1e-004516fe4514","geometry":{"type":"Point","coordinates":[-94.69816736924008,29.457438470922412]},"properties":{"substrate":"Mud","lease_number":null,"poll_year":2025}},{"type":"Feature","id":"74e76eb0-b9fa-4db8-8cf6-c6f27d57533d","geometry":{"type":"Point","coordinates":[-94.6984774766593,29.457288851089093]},"properties":{"substrate":"Mud","lease_number":null,"poll_year":2025}},{"type":"Feature","id":"76381272-3e29-4944-90b2-e3b8beb2a2c2","geometry":{"type":"Point","coordinates":[-94.69693622544824,29.457987756888432]},"properties":{"substrate":"Mud","lease_number":null,"poll_year":2025}},{"type":"Feature","id":"785d36de-41bc-446c-b950-30cdb67b0842","geometry":{"type":"Point","coordinates":[-94.69911356023725,29.457125248703854]},"properties":{"substrate":"Mud","lease_number":null,"poll_year":2025}},{"type":"Feature","id":"785ecc49-1f24-4e25-b713-348a00ca98cf","geometry":{"type":"Point","coordinates":[-94.70361904886666,29.455344613256322]},"properties":{"substrate":"Solid Reef","lease_number":null,"poll_year":2024}},{"type":"Feature","id":"78d2b9ef-d206-4040-8ec6-330166ac2364","geometry":{"type":"Point","coordinates":[-94.69722918762194,29.4575458300663]},"properties":{"substrate":"Mud","lease_number":null,"poll_year":2025}},{"type":"Feature","id":"794ac07c-2bec-4b36-a861-f8d221f785f1","geometry":{"type":"Point","coordinates":[-94.70974831064407,29.45838950381673]},"properties":{"substrate":"Mud","lease_number":null,"poll_year":2025}},{"type":"Feature","id":"79a4bb06-3cfd-49f9-83a7-172a8f709416","geometry":{"type":"Point","coordinates":[-94.71030967056006,29.458419205338814]},"properties":{"substrate":"Mud","lease_number":null,"poll_year":2025}},{"type":"Feature","id":"79aa277a-1620-4634-b58f-a81e0eb68b67","geometry":{"type":"Point","coordinates":[-94.71076137402764,29.458142929146188]},"properties":{"substrate":"Mud","lease_number":null,"poll_year":2025}},{"type":"Feature","id":"79ec6df0-f0ad-4180-a1d6-568faaa64c22","geometry":{"type":"Point","coordinates":[-94.69910672944783,29.456959401963395]},"properties":{"substrate":"Mud","lease_number":null,"poll_year":2025}},{"type":"Feature","id":"7b5d1f9c-ad7f-485a-84c5-915d8dc7c583","geometry":{"type":"Point","coordinates":[-94.71286592821065,29.458646042771104]},"properties":{"substrate":"Mud","lease_number":null,"poll_year":2025}},{"type":"Feature","id":"7c8930a5-3dc5-46ae-bb13-e90291b1f845","geometry":{"type":"Point","coordinates":[-94.71102546794138,29.457071479754475]},"properties":{"substrate":"Mud","lease_number":null,"poll_year":2025}},{"type":"Feature","id":"7cf38522-31d9-45e5-958c-d40cb1f76354","geometry":{"type":"Point","coordinates":[-94.7096945222198,29.458258211768715]},"properties":{"substrate":"Mud","lease_number":null,"poll_year":2025}},{"type":"Feature","id":"7d02d2be-3b1a-454a-b39f-bd5a56524297","geometry":{"type":"Point","coordinates":[-94.70006252074046,29.458616701897242]},"properties":{"substrate":"Mud","lease_number":null,"poll_year":2025}},{"type":"Feature","id":"7d635614-de57-4e4f-acac-c10e5fb16972","geometry":{"type":"Point","coordinates":[-94.69786452559823,29.45690859819441]},"properties":{"substrate":"Mud","lease_number":null,"poll_year":2025}},{"type":"Feature","id":"7d6f125a-a5d9-4178-b02e-6e587e6d62d4","geometry":{"type":"Point","coordinates":[-94.698786764815,29.457049371292094]},"properties":{"substrate":"Mud","lease_number":null,"poll_year":2025}},{"type":"Feature","id":"7e96b825-7510-4a00-b740-5f5af0dfbd34","geometry":{"type":"Point","coordinates":[-94.71041002764865,29.458505016118178]},"properties":{"substrate":"Mud","lease_number":null,"poll_year":2025}},{"type":"Feature","id":"7ee00bb6-d315-4abf-917e-38ea8c4c0b4e","geometry":{"type":"Point","coordinates":[-94.70606520180951,29.455241747081594]},"properties":{"substrate":"Mud","lease_number":null,"poll_year":2024}},{"type":"Feature","id":"7f80f098-9488-47d4-8a11-0899ca2c1f52","geometry":{"type":"Point","coordinates":[-94.69849223328447,29.458619844668778]},"properties":{"substrate":"Solid Reef","lease_number":null,"poll_year":2025}},{"type":"Feature","id":"7f9dcfb9-2b9e-492b-85cb-fddd05ecc407","geometry":{"type":"Point","coordinates":[-94.69911041343882,29.458204570132395]},"properties":{"substrate":"Mud","lease_number":null,"poll_year":2025}},{"type":"Feature","id":"8090ce91-d6ce-435e-9f90-da7fc4e34188","geometry":{"type":"Point","coordinates":[-94.70034778075895,29.457911708042516]},"properties":{"substrate":"Mud","lease_number":null,"poll_year":2025}},{"type":"Feature","id":"8175057c-3923-4c8e-a07d-225cf7a3a20d","geometry":{"type":"Point","coordinates":[-94.69788875495807,29.45807913869942]},"properties":{"substrate":"Solid Reef","lease_number":null,"poll_year":2025}},{"type":"Feature","id":"827d4fcc-8358-4576-b489-a146a5cbb0a5","geometry":{"type":"Point","coordinates":[-94.71011858811936,29.45802349537573]},"properties":{"substrate":"Mud","lease_number":null,"poll_year":2025}},{"type":"Feature","id":"82c43771-3459-4f5c-99d8-ff88b6f5d8c1","geometry":{"type":"Point","coordinates":[-94.69909611944603,29.456255848338277]},"properties":{"substrate":"Mud","lease_number":null,"poll_year":2025}},{"type":"Feature","id":"83830837-566a-4922-b79e-c3319370f0a8","geometry":{"type":"Point","coordinates":[-94.69845154139873,29.456069447281667]},"properties":{"substrate":"Mud","lease_number":null,"poll_year":2025}},{"type":"Feature","id":"83b6021a-a81b-4fc8-9dea-37cb5ae1c782","geometry":{"type":"Point","coordinates":[-94.6994173444152,29.457792230979987]},"properties":{"substrate":"Mud","lease_number":null,"poll_year":2025}},{"type":"Feature","id":"83bc8c6f-131e-4960-9e72-da81cbca44ab","geometry":{"type":"Point","coordinates":[-94.6972693926208,29.4577666451039]},"properties":{"substrate":"Mud","lease_number":null,"poll_year":2025}},{"type":"Feature","id":"86030625-9c94-4472-a163-90c16eaf95c9","geometry":{"type":"Point","coordinates":[-94.70002239838662,29.457593299078543]},"properties":{"substrate":"Mud","lease_number":null,"poll_year":2025}},{"type":"Feature","id":"884e98b2-0771-4d32-8bc0-5078767ea8fa","geometry":{"type":"Point","coordinates":[-94.7031100939694,29.457325382956284]},"properties":{"substrate":"Solid Reef","lease_number":null,"poll_year":2024}},{"type":"Feature","id":"88b29802-55c6-4d56-96dc-b549f253cc02","geometry":{"type":"Point","coordinates":[-94.71249893407774,29.458335267014448]},"properties":{"substrate":"Mud","lease_number":null,"poll_year":2025}},{"type":"Feature","id":"89be3396-e6dc-4098-a215-082a9e8eb130","geometry":{"type":"Point","coordinates":[-94.7111610910914,29.457164652028556]},"properties":{"substrate":"Mud","lease_number":null,"poll_year":2025}},{"type":"Feature","id":"8ada0bfc-28f1-4a73-9b73-12c73ae6ce63","geometry":{"type":"Point","coordinates":[-94.69847694575496,29.45699573762063]},"properties":{"substrate":"Mud","lease_number":null,"poll_year":2025}},{"type":"Feature","id":"8b44fccd-8e8c-41da-874d-1e8d17d36451","geometry":{"type":"Point","coordinates":[-94.70626672357214,29.455381095762924]},"properties":{"substrate":"Buried Shell","lease_number":null,"poll_year":2024}},{"type":"Feature","id":"8b95a11a-f3cf-4bf6-ab8e-5d24a024fdc6","geometry":{"type":"Point","coordinates":[-94.69943485976661,29.4586878053198]},"properties":{"substrate":"Mud","lease_number":null,"poll_year":2025}},{"type":"Feature","id":"8c0ecb07-311d-4d87-a62c-39249283724b","geometry":{"type":"Point","coordinates":[-94.71198318342535,29.458294801167803]},"properties":{"substrate":"Mud","lease_number":null,"poll_year":2025}},{"type":"Feature","id":"8ce3f076-5db5-4c7a-8eba-51c5773cbbf9","geometry":{"type":"Point","coordinates":[-94.7108077971649,29.45867131008108]},"properties":{"substrate":"Mud","lease_number":null,"poll_year":2025}},{"type":"Feature","id":"8d46cbc6-31f8-4087-a9bd-843c866dc10f","geometry":{"type":"Point","coordinates":[-94.71150705566352,29.457112147110596]},"properties":{"substrate":"Mud","lease_number":null,"poll_year":2025}},{"type":"Feature","id":"8f6a5bbd-a830-4d74-ae0f-95963436925a","geometry":{"type":"Point","coordinates":[-94.69910558229921,29.457551004978164]},"properties":{"substrate":"Mud","lease_number":null,"poll_year":2025}},{"type":"Feature","id":"8fcc6734-14da-4277-b077-8eed5ed59bf0","geometry":{"type":"Point","coordinates":[-94.71275250871949,29.45825059337532]},"properties":{"substrate":"Mud","lease_number":null,"poll_year":2025}},{"type":"Feature","id":"8fea5356-416f-4239-b82f-83863a66ea0f","geometry":{"type":"Point","coordinates":[-94.6997109048669,29.457939226644747]},"properties":{"substrate":"Mud","lease_number":null,"poll_year":2025}},{"type":"Feature","id":"9063fd69-95a1-4940-ad0a-051d61623869","geometry":{"type":"Point","coordinates":[-94.70345148162514,29.455529104737618]},"properties":{"substrate":"Solid Reef","lease_number":null,"poll_year":2024}},{"type":"Feature","id":"909e7a39-a274-4ba9-b579-fe70f0117d1e","geometry":{"type":"Point","coordinates":[-94.70097347532064,29.45833917163342]},"properties":{"substrate":"Mud","lease_number":null,"poll_year":2025}},{"type":"Feature","id":"926d2990-ff43-43a8-8ba6-faed61b5c74b","geometry":{"type":"Point","coordinates":[-94.69908901467042,29.455983096292996]},"properties":{"substrate":"Mud","lease_number":null,"poll_year":2025}},{"type":"Feature","id":"92d8abfe-1a18-4417-917c-c06dcb9cffb8","geometry":{"type":"Point","coordinates":[-94.71261015628968,29.458423652001525]},"properties":{"substrate":"Mud","lease_number":null,"poll_year":2025}},{"type":"Feature","id":"9343b757-5d60-44cb-a33a-279871d47071","geometry":{"type":"Point","coordinates":[-94.69787608601762,29.457390983847517]},"properties":{"substrate":"Mud","lease_number":null,"poll_year":2025}},{"type":"Feature","id":"9530d138-ea40-4391-909a-bf074d12bb9c","geometry":{"type":"Point","coordinates":[-94.7110142605599,29.45750917625819]},"properties":{"substrate":"Mud","lease_number":null,"poll_year":2025}},{"type":"Feature","id":"965fa5f1-e472-49d3-8a09-c846fa31152b","geometry":{"type":"Point","coordinates":[-94.69943118655542,29.45842649364186]},"properties":{"substrate":"Mud","lease_number":null,"poll_year":2025}},{"type":"Feature","id":"97191c6b-9546-4095-bc45-777be206b8bb","geometry":{"type":"Point","coordinates":[-94.70389020084359,29.458000009705593]},"properties":{"substrate":"Solid Reef","lease_number":null,"poll_year":2024}},{"type":"Feature","id":"9737f112-03db-408c-a246-bd165af9d2f6","geometry":{"type":"Point","coordinates":[-94.69627872962717,29.45868287137509]},"properties":{"substrate":"Firm/Hard Bottom","lease_number":null,"poll_year":2025}},{"type":"Feature","id":"97cd1b2b-2bf0-4e60-8cab-01b67bd7e988","geometry":{"type":"Point","coordinates":[-94.69847904062621,29.457572095713488]},"properties":{"substrate":"Mud","lease_number":null,"poll_year":2025}},{"type":"Feature","id":"97e81d47-cebb-4098-810a-58bdaf59dfe6","geometry":{"type":"Point","coordinates":[-94.69815624270696,29.45698336735432]},"properties":{"substrate":"Mud","lease_number":null,"poll_year":2025}},{"type":"Feature","id":"9886c4e8-ccf5-48bc-b145-8e27be23e966","geometry":{"type":"Point","coordinates":[-94.69814256136517,29.456147452206835]},"properties":{"substrate":"Mud","lease_number":null,"poll_year":2025}},{"type":"Feature","id":"9b19f68a-0d4b-4f01-afd6-207bb753d92b","geometry":{"type":"Point","coordinates":[-94.711278651816,29.457934913713284]},"properties":{"substrate":"Mud","lease_number":null,"poll_year":2025}},{"type":"Feature","id":"9bca05f0-9065-4655-879e-f1dc07d7fa15","geometry":{"type":"Point","coordinates":[-94.6984770239084,29.457428533297044]},"properties":{"substrate":"Mud","lease_number":null,"poll_year":2025}},{"type":"Feature","id":"9c1167ca-a74d-4385-97c9-2328847d8dde","geometry":{"type":"Point","coordinates":[-94.71121322392061,29.45836081833141]},"properties":{"substrate":"Mud","lease_number":null,"poll_year":2025}},{"type":"Feature","id":"9ef9b2e8-02d8-4b78-b3bf-e300e2a12498","geometry":{"type":"Point","coordinates":[-94.7117893242921,29.45770418881983]},"properties":{"substrate":"Mud","lease_number":null,"poll_year":2025}},{"type":"Feature","id":"9f38f98a-ec01-425a-adb0-7058b8ec2269","geometry":{"type":"Point","coordinates":[-94.70601526536117,29.45512818265347]},"properties":{"substrate":"Solid Reef","lease_number":null,"poll_year":2024}},{"type":"Feature","id":"9fd0b071-3791-4ddf-b72f-aded7faabee4","geometry":{"type":"Point","coordinates":[-94.71192816610576,29.457834236355698]},"properties":{"substrate":"Mud","lease_number":null,"poll_year":2025}},{"type":"Feature","id":"a0acfc3b-2ab4-4865-a393-430d8ab18bbe","geometry":{"type":"Point","coordinates":[-94.69788824112173,29.45828160899325]},"properties":{"substrate":"Solid Reef","lease_number":null,"poll_year":2025}},{"type":"Feature","id":"a0b1ebe0-fe0a-47c4-adcf-a9f3a0a96fa7","geometry":{"type":"Point","coordinates":[-94.69939092406437,29.45727230087012]},"properties":{"substrate":"Mud","lease_number":null,"poll_year":2025}},{"type":"Feature","id":"a0eee446-4bdb-4efd-9a1c-70da3f42d7c0","geometry":{"type":"Point","coordinates":[-94.70578313440355,29.454984783387406]},"properties":{"substrate":"Buried Shell","lease_number":null,"poll_year":2024}},{"type":"Feature","id":"a22b03ae-f437-4ed6-b48f-4806fd277277","geometry":{"type":"Point","coordinates":[-94.7108562460031,29.45823151766665]},"properties":{"substrate":"Mud","lease_number":null,"poll_year":2025}},{"type":"Feature","id":"a2cb4c6c-c92b-4b5f-b379-207dec8a655d","geometry":{"type":"Point","coordinates":[-94.70989142035366,29.458716334278158]},"properties":{"substrate":"Mud","lease_number":null,"poll_year":2025}},{"type":"Feature","id":"a3c6587c-dc06-4f39-9e3d-c6a54a8db7b0","geometry":{"type":"Point","coordinates":[-94.69813790629539,29.45654802062455]},"properties":{"substrate":"Mud","lease_number":null,"poll_year":2025}},{"type":"Feature","id":"a53d4c0f-f369-4c49-9304-527ade9bdd59","geometry":{"type":"Point","coordinates":[-94.69880927390106,29.45801123786839]},"properties":{"substrate":"Mud","lease_number":null,"poll_year":2025}},{"type":"Feature","id":"a54efc3c-7a64-4c40-827a-fb184286bed0","geometry":{"type":"Point","coordinates":[-94.69692569719311,29.45786000133372]},"properties":{"substrate":"Mud","lease_number":null,"poll_year":2025}},{"type":"Feature","id":"a5537944-c253-4027-a985-b261758b2bad","geometry":{"type":"Point","coordinates":[-94.69846770568395,29.45682225495968]},"properties":{"substrate":"Mud","lease_number":null,"poll_year":2025}},{"type":"Feature","id":"a59f94f9-c7d5-49e0-957f-9fbf0fa3a48e","geometry":{"type":"Point","coordinates":[-94.70300460121231,29.457228205266496]},"properties":{"substrate":"Solid Reef","lease_number":null,"poll_year":2024}},{"type":"Feature","id":"a606856c-6064-4154-a89b-57c5ea7ff48d","geometry":{"type":"Point","coordinates":[-94.71139210813807,29.457820296357927]},"properties":{"substrate":"Mud","lease_number":null,"poll_year":2025}},{"type":"Feature","id":"a6578eec-3b1e-4dc8-99b5-0811b42450d7","geometry":{"type":"Point","coordinates":[-94.69881150890949,29.458446682348058]},"properties":{"substrate":"Mud","lease_number":null,"poll_year":2025}},{"type":"Feature","id":"a68dad96-8b4f-479f-a548-27418d478310","geometry":{"type":"Point","coordinates":[-94.70295389041623,29.456959405874333]},"properties":{"substrate":"Firm/Hard Bottom","lease_number":null,"poll_year":2024}},{"type":"Feature","id":"a81f7645-54ff-467d-9595-793b2a65cc2b","geometry":{"type":"Point","coordinates":[-94.7112839410964,29.45773397267144]},"properties":{"substrate":"Mud","lease_number":null,"poll_year":2025}},{"type":"Feature","id":"a8e6609c-fb86-46dc-9744-d2e8baadd17d","geometry":{"type":"Point","coordinates":[-94.69753559398222,29.45755833167043]},"properties":{"substrate":"Mud","lease_number":null,"poll_year":2025}},{"type":"Feature","id":"a916fbb6-489b-4d9e-96d8-73672f15dbc2","geometry":{"type":"Point","coordinates":[-94.70462588423037,29.454466756856288]},"properties":{"substrate":"Solid Reef","lease_number":null,"poll_year":2024}},{"type":"Feature","id":"a96b6020-b8a7-41a9-99ee-a2b7535f64ea","geometry":{"type":"Point","coordinates":[-94.69911111681968,29.457689123246727]},"properties":{"substrate":"Mud","lease_number":null,"poll_year":2025}},{"type":"Feature","id":"a9f31b0e-a08c-4e26-82d4-4d8b17e23341","geometry":{"type":"Point","coordinates":[-94.69818333409931,29.45871994635002]},"properties":{"substrate":"Solid Reef","lease_number":null,"poll_year":2025}},{"type":"Feature","id":"aa81acc5-48ae-4630-a9a4-be872e0a6184","geometry":{"type":"Point","coordinates":[-94.69938360728639,29.457123952623903]},"properties":{"substrate":"Mud","lease_number":null,"poll_year":2025}},{"type":"Feature","id":"aac3a023-0eb1-42a6-b632-10ce38d3e155","geometry":{"type":"Point","coordinates":[-94.69876565440582,29.456250061686717]},"properties":{"substrate":"Mud","lease_number":null,"poll_year":2025}},{"type":"Feature","id":"abc032bc-c15a-4feb-a60d-7d10810567da","geometry":{"type":"Point","coordinates":[-94.69911394291957,29.458040287165105]},"properties":{"substrate":"Mud","lease_number":null,"poll_year":2025}},{"type":"Feature","id":"ac4dbc5b-69e3-45ca-8cf4-1bddfef79ca4","geometry":{"type":"Point","coordinates":[-94.71010243730885,29.458254964956573]},"properties":{"substrate":"Mud","lease_number":null,"poll_year":2025}},{"type":"Feature","id":"ad8f3ef0-5cff-4b40-b7f0-f1aa7e835259","geometry":{"type":"Point","coordinates":[-94.7119601757743,29.45850959809325]},"properties":{"substrate":"Mud","lease_number":null,"poll_year":2025}},{"type":"Feature","id":"aeb994d8-2cd8-479d-82e3-7824db0f21ec","geometry":{"type":"Point","coordinates":[-94.69813453761307,29.45639954616881]},"properties":{"substrate":"Mud","lease_number":null,"poll_year":2025}},{"type":"Feature","id":"aeef5fe2-0ff5-47ef-bca8-cc8f1ca866b5","geometry":{"type":"Point","coordinates":[-94.69912258740754,29.457895214241976]},"properties":{"substrate":"Mud","lease_number":null,"poll_year":2025}},{"type":"Feature","id":"afdf43e9-b473-4243-8ae8-ee1fe9eaa6e9","geometry":{"type":"Point","coordinates":[-94.71186081401905,29.4584251553411]},"properties":{"substrate":"Mud","lease_number":null,"poll_year":2025}},{"type":"Feature","id":"b059b6e1-8865-4e45-bb12-f88f4f4bbb5d","geometry":{"type":"Point","coordinates":[-94.69814776171236,29.45599018061859]},"properties":{"substrate":"Mud","lease_number":null,"poll_year":2025}},{"type":"Feature","id":"b1948e3e-b3bf-449b-aaab-2769961c6248","geometry":{"type":"Point","coordinates":[-94.7039102611222,29.454887411033944]},"properties":{"substrate":"Solid Reef","lease_number":null,"poll_year":2024}},{"type":"Feature","id":"b2c78a60-a112-41fb-907a-ca7bdb41d04d","geometry":{"type":"Point","coordinates":[-94.69752944591242,29.457430898616245]},"properties":{"substrate":"Mud","lease_number":null,"poll_year":2025}},{"type":"Feature","id":"b347e0c5-34f4-48fc-8558-29ad3345b7cf","geometry":{"type":"Point","coordinates":[-94.71035842482549,29.458277058294854]},"properties":{"substrate":"Mud","lease_number":null,"poll_year":2025}},{"type":"Feature","id":"b4a514cb-9573-4570-987e-0ac6530bfcca","geometry":{"type":"Point","coordinates":[-94.7106528332868,29.457875508030316]},"properties":{"substrate":"Mud","lease_number":null,"poll_year":2025}},{"type":"Feature","id":"b4ea9bec-5089-4ce5-a4e9-a34a684ad0b8","geometry":{"type":"Point","coordinates":[-94.70380754865094,29.455037456797307]},"properties":{"substrate":"Solid Reef","lease_number":null,"poll_year":2024}},{"type":"Feature","id":"b5a454d2-5de4-43d6-8d78-72fbadeb1762","geometry":{"type":"Point","coordinates":[-94.7029786812231,29.455925365708605]},"properties":{"substrate":"Solid Reef","lease_number":null,"poll_year":2024}},{"type":"Feature","id":"b89609dd-39cc-4ce0-8df1-9fb37b759767","geometry":{"type":"Point","coordinates":[-94.70643387669033,29.45543828694067]},"properties":{"substrate":"Solid Reef","lease_number":null,"poll_year":2024}},{"type":"Feature","id":"b9b35f25-95b2-44a4-a0e5-beb5f1937310","geometry":{"type":"Point","coordinates":[-94.70303867341272,29.457040375379655]},"properties":{"substrate":"Firm/Hard Bottom","lease_number":null,"poll_year":2024}},{"type":"Feature","id":"b9fa3b9a-0b5d-4124-af87-bba981606c07","geometry":{"type":"Point","coordinates":[-94.69936653031284,29.456757102676246]},"properties":{"substrate":"Mud","lease_number":null,"poll_year":2025}},{"type":"Feature","id":"bbc76245-3eea-404f-8371-65cf50471f04","geometry":{"type":"Point","coordinates":[-94.70656637280483,29.455420075031707]},"properties":{"substrate":"Solid Reef","lease_number":null,"poll_year":2024}},{"type":"Feature","id":"bd6125f5-6083-456b-adcc-3ebc4822b237","geometry":{"type":"Point","coordinates":[-94.71231990882475,29.45856345075509]},"properties":{"substrate":"Mud","lease_number":null,"poll_year":2025}},{"type":"Feature","id":"becc276b-01af-49d3-8479-45c023198129","geometry":{"type":"Point","coordinates":[-94.69969070175617,29.457192803620366]},"properties":{"substrate":"Mud","lease_number":null,"poll_year":2025}},{"type":"Feature","id":"bff5b1f3-b153-42c1-9c5a-f78dfab3902a","geometry":{"type":"Point","coordinates":[-94.7036910856676,29.455251173363003]},"properties":{"substrate":"Solid Reef","lease_number":null,"poll_year":2024}},{"type":"Feature","id":"bff725f1-5b9a-4279-8da2-21a41cc687b3","geometry":{"type":"Point","coordinates":[-94.69756349206168,29.45871565926341]},"properties":{"substrate":"Mud","lease_number":null,"poll_year":2025}},{"type":"Feature","id":"c0097cc8-37b1-46ad-8589-7de60b885f13","geometry":{"type":"Point","coordinates":[-94.70978882017181,29.458628056703795]},"properties":{"substrate":"Mud","lease_number":null,"poll_year":2025}},{"type":"Feature","id":"c1fdda49-2f68-413e-b56f-2906f4ac364b","geometry":{"type":"Point","coordinates":[-94.69817617272986,29.457818983861102]},"properties":{"substrate":"Solid Reef","lease_number":null,"poll_year":2025}},{"type":"Feature","id":"c2c4b742-cbbd-4463-9b96-1dde54010d1a","geometry":{"type":"Point","coordinates":[-94.69754901301593,29.458121561638883]},"properties":{"substrate":"Solid Reef","lease_number":null,"poll_year":2025}},{"type":"Feature","id":"c304d025-f8ea-461f-bc28-49100c370199","geometry":{"type":"Point","coordinates":[-94.69813393304688,29.456274994033485]},"properties":{"substrate":"Mud","lease_number":null,"poll_year":2025}},{"type":"Feature","id":"c34170b8-43aa-4244-b02f-f51a3acf5e4a","geometry":{"type":"Point","coordinates":[-94.70093876262142,29.45815245371229]},"properties":{"substrate":"Mud","lease_number":null,"poll_year":2025}},{"type":"Feature","id":"c474539e-eb7e-4e46-a387-426e848fba92","geometry":{"type":"Point","coordinates":[-94.6962674764316,29.458438305259605]},"properties":{"substrate":"Mud","lease_number":null,"poll_year":2025}},{"type":"Feature","id":"c68857c9-e525-4b97-8d3d-2446937bf840","geometry":{"type":"Point","coordinates":[-94.70549219164258,29.454859156333946]},"properties":{"substrate":"Mud","lease_number":null,"poll_year":2024}},{"type":"Feature","id":"c7df7a6a-8360-4e87-8ebe-0c07fb622232","geometry":{"type":"Point","coordinates":[-94.71102359136076,29.458211536194288]},"properties":{"substrate":"Mud","lease_number":null,"poll_year":2025}},{"type":"Feature","id":"c8188ed7-0794-4382-9905-2904e3a533cb","geometry":{"type":"Point","coordinates":[-94.71050140787263,29.4579256503743]},"properties":{"substrate":"Mud","lease_number":null,"poll_year":2025}},{"type":"Feature","id":"c82b6ecc-94fc-444b-8528-aca9718d5e12","geometry":{"type":"Point","coordinates":[-94.71259029633539,29.45811080983413]},"properties":{"substrate":"Mud","lease_number":null,"poll_year":2025}},{"type":"Feature","id":"c853a7ec-68e6-4310-b6b3-0e4c666b9fc0","geometry":{"type":"Point","coordinates":[-94.71202888341878,29.4579225998783]},"properties":{"substrate":"Mud","lease_number":null,"poll_year":2025}},{"type":"Feature","id":"c8ec353e-358a-4f9e-987f-7ed9b4f6200f","geometry":{"type":"Point","coordinates":[-94.6969303450764,29.457671015771837]},"properties":{"substrate":"Mud","lease_number":null,"poll_year":2025}},{"type":"Feature","id":"c9451bcb-dc39-448e-9d0b-cbaf3f98b32e","geometry":{"type":"Point","coordinates":[-94.70402600186004,29.45476165010323]},"properties":{"substrate":"Solid Reef","lease_number":null,"poll_year":2024}},{"type":"Feature","id":"c9a3d412-aa8c-4e0d-8393-8f80dc1b17b6","geometry":{"type":"Point","coordinates":[-94.69755628038658,29.45843340415406]},"properties":{"substrate":"Solid Reef","lease_number":null,"poll_year":2025}},{"type":"Feature","id":"ca98052d-a1b2-441b-9e92-945d06c45178","geometry":{"type":"Point","coordinates":[-94.71046247668484,29.458362525819627]},"properties":{"substrate":"Mud","lease_number":null,"poll_year":2025}},{"type":"Feature","id":"cb6c17dd-a15d-46f9-b3a4-99db69402e9c","geometry":{"type":"Point","coordinates":[-94.70034980825653,29.45821713735822]},"properties":{"substrate":"Mud","lease_number":null,"poll_year":2025}},{"type":"Feature","id":"cb83947b-8af8-4a81-8c6a-f31b5d231114","geometry":{"type":"Point","coordinates":[-94.70318211819392,29.455789737111704]},"properties":{"substrate":"Solid Reef","lease_number":null,"poll_year":2024}},{"type":"Feature","id":"cc42793e-0ac8-4807-ac97-371bd747a8af","geometry":{"type":"Point","coordinates":[-94.70477466680099,29.45430658537035]},"properties":{"substrate":"Solid Reef","lease_number":null,"poll_year":2024}},{"type":"Feature","id":"cc79cc3f-c7ed-41ff-96ad-3e34b0eda2db","geometry":{"type":"Point","coordinates":[-94.70729043199182,29.456014006225907]},"properties":{"substrate":"Solid Reef","lease_number":null,"poll_year":2024}},{"type":"Feature","id":"ce73c3eb-ac1c-4c98-89e6-971f52343ff5","geometry":{"type":"Point","coordinates":[-94.71179975373254,29.457383116654903]},"properties":{"substrate":"Mud","lease_number":null,"poll_year":2025}},{"type":"Feature","id":"cf31bc42-9fec-4b61-bdfa-89848115dfe5","geometry":{"type":"Point","coordinates":[-94.70034521786543,29.457556889328142]},"properties":{"substrate":"Mud","lease_number":null,"poll_year":2025}},{"type":"Feature","id":"d0b9e80a-ed22-4662-b932-aba292d37ac3","geometry":{"type":"Point","coordinates":[-94.69942319065107,29.458060913967522]},"properties":{"substrate":"Mud","lease_number":null,"poll_year":2025}},{"type":"Feature","id":"d1498293-ede2-49d1-929c-9883c019f0e1","geometry":{"type":"Point","coordinates":[-94.70066497858072,29.458645048629304]},"properties":{"substrate":"Mud","lease_number":null,"poll_year":2025}},{"type":"Feature","id":"d15cdc79-b830-4258-9abb-327b781a612e","geometry":{"type":"Point","coordinates":[-94.70991230708235,29.458585001980083]},"properties":{"substrate":"Mud","lease_number":null,"poll_year":2025}},{"type":"Feature","id":"d24721a0-958f-45bb-a0ad-b3db0b7d18e5","geometry":{"type":"Point","coordinates":[-94.71273898368459,29.458534934268553]},"properties":{"substrate":"Mud","lease_number":null,"poll_year":2025}},{"type":"Feature","id":"d24c9604-2efa-4056-b529-88f64ed64e2d","geometry":{"type":"Point","coordinates":[-94.71130189572398,29.458598101818758]},"properties":{"substrate":"Mud","lease_number":null,"poll_year":2025}},{"type":"Feature","id":"d2be0dcc-e479-46a6-b0a1-7f6e95aaea13","geometry":{"type":"Point","coordinates":[-94.69939163193682,29.456498518994945]},"properties":{"substrate":"Mud","lease_number":null,"poll_year":2025}},{"type":"Feature","id":"d31eb88b-3bd5-49c4-8cc6-b38d36f0d758","geometry":{"type":"Point","coordinates":[-94.71118149003486,29.45849722410066]},"properties":{"substrate":"Mud","lease_number":null,"poll_year":2025}},{"type":"Feature","id":"d333b5b4-4939-40f5-a8d4-ece4b0b0e7f9","geometry":{"type":"Point","coordinates":[-94.7115410209644,29.457938094050505]},"properties":{"substrate":"Mud","lease_number":null,"poll_year":2025}},{"type":"Feature","id":"d3e09bf7-b861-48ce-8b4c-ef8dc087a85f","geometry":{"type":"Point","coordinates":[-94.70438174459402,29.454713981086375]},"properties":{"substrate":"Solid Reef","lease_number":null,"poll_year":2024}},{"type":"Feature","id":"d47d4ceb-aa5c-4b9f-9284-444338197015","geometry":{"type":"Point","coordinates":[-94.69880183315557,29.45762363909328]},"properties":{"substrate":"Mud","lease_number":null,"poll_year":2025}},{"type":"Feature","id":"d4819a23-d482-4b8d-9071-06bd0c558b58","geometry":{"type":"Point","coordinates":[-94.69845380605156,29.456236761303817]},"properties":{"substrate":"Mud","lease_number":null,"poll_year":2025}},{"type":"Feature","id":"d5377417-a905-4c06-b6c4-4efdc2f8f2b9","geometry":{"type":"Point","coordinates":[-94.6990945968016,29.45611683720116]},"properties":{"substrate":"Mud","lease_number":null,"poll_year":2025}},{"type":"Feature","id":"d5d24631-6a14-48b8-ac18-c53e5047644c","geometry":{"type":"Point","coordinates":[-94.71121334968475,29.456868232680705]},"properties":{"substrate":"Mud","lease_number":null,"poll_year":2025}},{"type":"Feature","id":"d5f96f38-5eb5-4d5f-8362-0204a1be7ca3","geometry":{"type":"Point","coordinates":[-94.69970572428267,29.45763582781556]},"properties":{"substrate":"Mud","lease_number":null,"poll_year":2025}},{"type":"Feature","id":"d7999530-81f7-4e05-9b57-353846590c76","geometry":{"type":"Point","coordinates":[-94.69787223314337,29.457251288290752]},"properties":{"substrate":"Mud","lease_number":null,"poll_year":2025}},{"type":"Feature","id":"d8e7b56d-78c5-4395-97c3-ac0cf484eba2","geometry":{"type":"Point","coordinates":[-94.7131760374265,29.45862087870162]},"properties":{"substrate":"Mud","lease_number":null,"poll_year":2025}},{"type":"Feature","id":"d95367f2-3898-4b63-8302-f97d52e0f2a8","geometry":{"type":"Point","coordinates":[-94.7037445929192,29.455149703320252]},"properties":{"substrate":"Solid Reef","lease_number":null,"poll_year":2024}},{"type":"Feature","id":"d98b281a-05a9-42f4-be27-0906f577eedd","geometry":{"type":"Point","coordinates":[-94.70567214575357,29.45490596798949]},"properties":{"substrate":"Mud","lease_number":null,"poll_year":2024}},{"type":"Feature","id":"d9a532bf-503e-46d4-a1e2-7445a82db6d8","geometry":{"type":"Point","coordinates":[-94.69942705071185,29.458307397322905]},"properties":{"substrate":"Mud","lease_number":null,"poll_year":2025}},{"type":"Feature","id":"dc3046d9-7103-4de4-ace1-01d46390607a","geometry":{"type":"Point","coordinates":[-94.71160611019495,29.457200368904715]},"properties":{"substrate":"Mud","lease_number":null,"poll_year":2025}},{"type":"Feature","id":"dc625809-c046-42d0-93dd-350e36d4f092","geometry":{"type":"Point","coordinates":[-94.71140080113507,29.458681856897233]},"properties":{"substrate":"Mud","lease_number":null,"poll_year":2025}},{"type":"Feature","id":"dca3f168-bb68-422f-85e1-a9a2ec602320","geometry":{"type":"Point","coordinates":[-94.69968566310573,29.456890514827926]},"properties":{"substrate":"Mud","lease_number":null,"poll_year":2025}},{"type":"Feature","id":"df8c4b1f-8e03-4d9c-8e28-1348c92954b2","geometry":{"type":"Point","coordinates":[-94.69658795040922,29.45854359684243]},"properties":{"substrate":"Mud","lease_number":null,"poll_year":2025}},{"type":"Feature","id":"e1e14fdd-d59f-4241-adc5-bbaf712a4543","geometry":{"type":"Point","coordinates":[-94.7003487257866,29.457719899689252]},"properties":{"substrate":"Mud","lease_number":null,"poll_year":2025}},{"type":"Feature","id":"e21e9bd5-9248-4e6d-968b-2e27e6489738","geometry":{"type":"Point","coordinates":[-94.7044147864268,29.454384634672277]},"properties":{"substrate":"Solid Reef","lease_number":null,"poll_year":2024}},{"type":"Feature","id":"e2285a87-7153-4838-9b96-4aee36cbec5f","geometry":{"type":"Point","coordinates":[-94.70994424758058,29.458165772616294]},"properties":{"substrate":"Mud","lease_number":null,"poll_year":2025}},{"type":"Feature","id":"e542c0d4-fd21-4d8c-943b-bb1ea4809bbd","geometry":{"type":"Point","coordinates":[-94.71024362282711,29.45816495289521]},"properties":{"substrate":"Mud","lease_number":null,"poll_year":2025}},{"type":"Feature","id":"e5df810d-04e2-47cd-8793-cbd1add78031","geometry":{"type":"Point","coordinates":[-94.70657235288968,29.455583059885026]},"properties":{"substrate":"Solid Reef","lease_number":null,"poll_year":2024}},{"type":"Feature","id":"e77ebf25-79e0-49a3-8684-5980cec2b1d4","geometry":{"type":"Point","coordinates":[-94.69971161812923,29.458075000981605]},"properties":{"substrate":"Mud","lease_number":null,"poll_year":2025}},{"type":"Feature","id":"e9403590-bff8-4a18-9bdf-dfcbbe9d13d9","geometry":{"type":"Point","coordinates":[-94.70003867585956,29.45797972861344]},"properties":{"substrate":"Mud","lease_number":null,"poll_year":2025}},{"type":"Feature","id":"e9efb583-bf1a-4246-b52d-f33c8d25d8ea","geometry":{"type":"Point","coordinates":[-94.70006025069775,29.458493806000057]},"properties":{"substrate":"Mud","lease_number":null,"poll_year":2025}},{"type":"Feature","id":"ea0e5872-324f-48c9-a679-fd4ae1bc431d","geometry":{"type":"Point","coordinates":[-94.69967816037646,29.45675533571481]},"properties":{"substrate":"Mud","lease_number":null,"poll_year":2025}},{"type":"Feature","id":"eb1199ee-1810-49cd-8cde-1bcde6a64794","geometry":{"type":"Point","coordinates":[-94.7007125794093,29.458117266705198]},"properties":{"substrate":"Mud","lease_number":null,"poll_year":2025}},{"type":"Feature","id":"ec0be2aa-3131-4d86-ade7-f577b8f876d2","geometry":{"type":"Point","coordinates":[-94.70066394282317,29.458374460246326]},"properties":{"substrate":"Mud","lease_number":null,"poll_year":2025}},{"type":"Feature","id":"edb524d1-744c-4cc7-896c-4c3e689334ec","geometry":{"type":"Point","coordinates":[-94.69787767513735,29.457534235008907]},"properties":{"substrate":"Mud","lease_number":null,"poll_year":2025}},{"type":"Feature","id":"ef00a3e8-7266-4f6e-833e-34a388446fcd","geometry":{"type":"Point","coordinates":[-94.70288732974524,29.45686946775333]},"properties":{"substrate":"Firm/Hard Bottom","lease_number":null,"poll_year":2024}},{"type":"Feature","id":"ef6e7c70-5e4f-4448-b13a-15f177af9ea0","geometry":{"type":"Point","coordinates":[-94.7106340019035,29.458699067039817]},"properties":{"substrate":"Mud","lease_number":null,"poll_year":2025}},{"type":"Feature","id":"f0809e31-e5ef-42ad-beb5-dfcad963f2dc","geometry":{"type":"Point","coordinates":[-94.71164282344229,29.458236420346264]},"properties":{"substrate":"Mud","lease_number":null,"poll_year":2025}},{"type":"Feature","id":"f0aef7ee-7419-4315-95b6-72af0126b5a1","geometry":{"type":"Point","coordinates":[-94.70002086586074,29.45770863316737]},"properties":{"substrate":"Mud","lease_number":null,"poll_year":2025}},{"type":"Feature","id":"f1ab7062-ac89-4b0f-91a6-a6d639d56d54","geometry":{"type":"Point","coordinates":[-94.69910193424084,29.456825205368833]},"properties":{"substrate":"Mud","lease_number":null,"poll_year":2025}},{"type":"Feature","id":"f23a6dbd-f587-483d-b4f2-057afd0290c3","geometry":{"type":"Point","coordinates":[-94.71196674964553,29.457539040731717]},"properties":{"substrate":"Mud","lease_number":null,"poll_year":2025}},{"type":"Feature","id":"f35d2d01-8fc0-4772-9bb5-dd47206d1c8f","geometry":{"type":"Point","coordinates":[-94.69942331282193,29.458184363387947]},"properties":{"substrate":"Mud","lease_number":null,"poll_year":2025}},{"type":"Feature","id":"f49f6687-1a7a-4919-b1bb-0a6f77e2c55b","geometry":{"type":"Point","coordinates":[-94.69727729959193,29.457999948695736]},"properties":{"substrate":"Mud","lease_number":null,"poll_year":2025}},{"type":"Feature","id":"f5e63c6d-bb71-47a1-8725-009ce6bd0914","geometry":{"type":"Point","coordinates":[-94.69910074037983,29.45668988224606]},"properties":{"substrate":"Mud","lease_number":null,"poll_year":2025}},{"type":"Feature","id":"f7382618-ddb5-4515-9012-7ba2ddf7d690","geometry":{"type":"Point","coordinates":[-94.7124447665644,29.45866116138981]},"properties":{"substrate":"Mud","lease_number":null,"poll_year":2025}},{"type":"Feature","id":"f812812d-3e0b-4924-870d-5c0b6792f534","geometry":{"type":"Point","coordinates":[-94.69728370457992,29.458556387727892]},"properties":{"substrate":"Mud","lease_number":null,"poll_year":2025}},{"type":"Feature","id":"f86d0ca0-daca-4feb-993b-3d423977950c","geometry":{"type":"Point","coordinates":[-94.70505311399634,29.45453054566349]},"properties":{"substrate":"Mud","lease_number":null,"poll_year":2024}},{"type":"Feature","id":"fa4def33-dbd3-403f-bae2-ed2ee9c57ebc","geometry":{"type":"Point","coordinates":[-94.70623921356488,29.45527137365191]},"properties":{"substrate":"Mud","lease_number":null,"poll_year":2024}},{"type":"Feature","id":"faad613e-51a0-4a82-89fd-319b675dc933","geometry":{"type":"Point","coordinates":[-94.71242491110169,29.45796463179413]},"properties":{"substrate":"Mud","lease_number":null,"poll_year":2025}},{"type":"Feature","id":"fba3173f-2eeb-4d69-9e77-6ca450cf3a66","geometry":{"type":"Point","coordinates":[-94.699719427184,29.458212499835412]},"properties":{"substrate":"Mud","lease_number":null,"poll_year":2025}},{"type":"Feature","id":"fbd80f91-644f-493b-ad46-4ad05acb7399","geometry":{"type":"Point","coordinates":[-94.7032299058721,29.457280589668155]},"properties":{"substrate":"Solid Reef","lease_number":null,"poll_year":2024}},{"type":"Feature","id":"fbf2f6c4-2aa2-4d58-8153-0cbca1b69226","geometry":{"type":"Point","coordinates":[-94.71164678141943,29.45870158328872]},"properties":{"substrate":"Mud","lease_number":null,"poll_year":2025}},{"type":"Feature","id":"fd86fe2e-23ad-4529-bf94-19ed17078b8a","geometry":{"type":"Point","coordinates":[-94.71080731656622,29.456999693915357]},"properties":{"substrate":"Mud","lease_number":null,"poll_year":2025}},{"type":"Feature","id":"fe3d3e37-da77-41f8-9829-cbf5e00badd9","geometry":{"type":"Point","coordinates":[-94.69970035864546,29.45749485685752]},"properties":{"substrate":"Mud","lease_number":null,"poll_year":2025}}]}