{"type":"FeatureCollection","name":"COL_Applications","crs":{"type":"name","properties":{"name":"urn:ogc:def:crs:OGC:1.3:CRS84"}},"features":[{"type":"Feature","properties":{"app_no":1,"status":"Accept","entity":"Pepper Grove Reef, Inc.","owner":"Justin","bay":"Galveston Bay","acres":82.25},"geometry":{"type":"Polygon","coordinates":[[[-94.74382,29.48087],[-94.74645,29.48022],[-94.74827,29.47494],[-94.74625,29.47253],[-94.74499,29.47293],[-94.74366,29.47518],[-94.74208,29.47555],[-94.74382,29.48087]]]}},{"type":"Feature","properties":{"app_no":2,"status":"Decline","entity":"Pepper Grove Reef, Inc.","owner":"Justin","bay":"Galveston Bay","acres":10.84},"geometry":{"type":"Polygon","coordinates":[[[-94.67396,29.48727],[-94.67354,29.48506],[-94.67197,29.48325],[-94.67258,29.48723],[-94.67396,29.48727]]]}},{"type":"Feature","properties":{"app_no":3,"status":"Accept","entity":"Whitehead Reef, Inc.","owner":"Justin","bay":"Galveston Bay","acres":28.99},"geometry":{"type":"Polygon","coordinates":[[[-94.86135,29.51499],[-94.8623,29.51288],[-94.85787,29.51212],[-94.85582,29.51381],[-94.86135,29.51499]]]}},{"type":"Feature","properties":{"app_no":4,"status":"Decline","entity":"Whitehead Reef, Inc.","owner":"Justin","bay":"Galveston Bay","acres":33.82},"geometry":{"type":"Polygon","coordinates":[[[-94.71193,29.53236],[-94.71545,29.53188],[-94.71552,29.52923],[-94.71261,29.53061],[-94.71194,29.5267],[-94.7105,29.52691],[-94.71193,29.53236]]]}},{"type":"Feature","properties":{"app_no":5,"status":"Decline","entity":"Sassy Lady, Inc.","owner":"Justin","bay":"Galveston Bay","acres":53.53},"geometry":{"type":"Polygon","coordinates":[[[-94.88542,29.51506],[-94.88853,29.5127],[-94.88554,29.51133],[-94.88395,29.50773],[-94.88118,29.50929],[-94.88542,29.51506]]]}},{"type":"Feature","properties":{"app_no":6,"status":"Accept","entity":"Sassy Lady, Inc.","owner":"Justin","bay":"Galveston Bay","acres":92.47},"geometry":{"type":"Polygon","coordinates":[[[-94.84273,29.49443],[-94.84961,29.49143],[-94.84762,29.48757],[-94.84069,29.4897],[-94.84273,29.49443]]]}},{"type":"Feature","properties":{"app_no":7,"status":"Modify","entity":"Sassy Lady, Inc.","owner":"Justin","bay":"Galveston Bay","acres":92.34},"geometry":{"type":"Polygon","coordinates":[[[-94.70182,29.47505],[-94.70699,29.47286],[-94.70455,29.47106],[-94.70275,29.46837],[-94.70025,29.47058],[-94.69782,29.46775],[-94.69783,29.47257],[-94.70182,29.47505]]]}},{"type":"Feature","properties":{"app_no":8,"status":"Accept","entity":"Sassy Lady, Inc.","owner":"Justin","bay":"Galveston Bay","acres":52.27},"geometry":{"type":"Polygon","coordinates":[[[-94.71843,29.5297],[-94.72115,29.52856],[-94.71683,29.52013],[-94.71302,29.52215],[-94.71315,29.5241],[-94.7169,29.52233],[-94.71938,29.52741],[-94.71769,29.52821],[-94.71843,29.5297]]]}},{"type":"Feature","properties":{"app_no":9,"status":"Accept","entity":"Drum Village Reef, Inc.","owner":"Justin","bay":"Galveston Bay","acres":62.78},"geometry":{"type":"Polygon","coordinates":[[[-94.79242,29.4964],[-94.79607,29.49407],[-94.79115,29.4906],[-94.78831,29.49582],[-94.79242,29.4964]]]}},{"type":"Feature","properties":{"app_no":10,"status":"Decline","entity":"Big Ben, Inc.","owner":"Justin","bay":"San Antonio Bay","acres":62.69},"geometry":{"type":"Polygon","coordinates":[[[-96.7249,28.32997],[-96.72732,28.32741],[-96.72184,28.32163],[-96.72106,28.32226],[-96.72154,28.3259],[-96.7249,28.32997]]]}},{"type":"Feature","properties":{"app_no":11,"status":"Decline","entity":"Big Ben, Inc.","owner":"Justin","bay":"San Antonio Bay","acres":60.19},"geometry":{"type":"Polygon","coordinates":[[[-96.71772,28.26781],[-96.72078,28.26776],[-96.71986,28.25922],[-96.71693,28.26228],[-96.71772,28.26781]]]}},{"type":"Feature","properties":{"app_no":12,"status":"Accept","entity":"Justin Woody","owner":"Justin","bay":"Galveston Bay","acres":39.3},"geometry":{"type":"Polygon","coordinates":[[[-94.86479,29.50842],[-94.86559,29.50597],[-94.86141,29.50364],[-94.86035,29.50732],[-94.86479,29.50842]]]}},{"type":"Feature","properties":{"app_no":13,"status":"Modify","entity":"Justin Woody","owner":"Justin","bay":"Galveston Bay","acres":74.49},"geometry":{"type":"Polygon","coordinates":[[[-94.8345,29.49132],[-94.84093,29.48933],[-94.83903,29.48488],[-94.83694,29.48525],[-94.83682,29.48671],[-94.8332,29.48755],[-94.8345,29.49132]]]}},{"type":"Feature","properties":{"app_no":14,"status":"Accept","entity":"Justin Woody","owner":"Justin","bay":"Galveston Bay","acres":33.05},"geometry":{"type":"Polygon","coordinates":[[[-94.80522,29.54912],[-94.80897,29.54754],[-94.80805,29.54491],[-94.80328,29.54721],[-94.80522,29.54912]]]}},{"type":"Feature","properties":{"app_no":15,"status":"Accept","entity":"Justin Woody","owner":"Justin","bay":"Galveston Bay","acres":49.01},"geometry":{"type":"Polygon","coordinates":[[[-94.81266,29.51773],[-94.81484,29.51682],[-94.81452,29.51436],[-94.81656,29.51343],[-94.81595,29.51234],[-94.80859,29.51542],[-94.81266,29.51773]]]}},{"type":"Feature","properties":{"app_no":16,"status":"Modify","entity":"Justin Woody","owner":"Justin","bay":"Galveston Bay","acres":93.76},"geometry":{"type":"Polygon","coordinates":[[[-94.71944,29.48726],[-94.73056,29.4797],[-94.72813,29.47804],[-94.71796,29.48493],[-94.71944,29.48726]]]}},{"type":"Feature","properties":{"app_no":17,"status":"Accept","entity":"Sheldon Reef, Inc.","owner":"Justin","bay":"Galveston Bay","acres":71.19},"geometry":{"type":"Polygon","coordinates":[[[-94.69617,29.53479],[-94.69847,29.53447],[-94.69612,29.52684],[-94.69335,29.52581],[-94.69534,29.52804],[-94.69168,29.52825],[-94.69617,29.53479]]]}},{"type":"Feature","properties":{"app_no":18,"status":"Decline","entity":"Miss Terri, Inc.","owner":"Justin","bay":"Aransas Bay","acres":81.94},"geometry":{"type":"Polygon","coordinates":[[[-96.93451,28.09284],[-96.93937,28.08768],[-96.93569,28.08531],[-96.93084,28.0905],[-96.93451,28.09284]]]}},{"type":"Feature","properties":{"app_no":19,"status":"Accept","entity":"Miss Terri, Inc.","owner":"Justin","bay":"San Antonio Bay","acres":98.98},"geometry":{"type":"Polygon","coordinates":[[[-96.77959,28.3364],[-96.77966,28.33276],[-96.76894,28.33258],[-96.76867,28.33385],[-96.77108,28.33626],[-96.77959,28.3364]]]}},{"type":"Feature","properties":{"app_no":20,"status":"Decline","entity":"Miss Terri, Inc.","owner":"Justin","bay":"San Antonio Bay","acres":98.68},"geometry":{"type":"Polygon","coordinates":[[[-96.70855,28.25087],[-96.71572,28.24922],[-96.71404,28.24451],[-96.7068,28.24617],[-96.70855,28.25087]]]}},{"type":"Feature","properties":{"app_no":21,"status":"Decline","entity":"Miss Britney, Inc.","owner":"Justin","bay":"Aransas Bay","acres":62.9},"geometry":{"type":"Polygon","coordinates":[[[-96.97742,28.0774],[-96.97802,28.07604],[-96.98136,28.07648],[-96.98201,28.07314],[-96.9772,28.07232],[-96.97519,28.07448],[-96.97583,28.07717],[-96.97742,28.0774]]]}},{"type":"Feature","properties":{"app_no":22,"status":"Accept","entity":"Miss Britney, Inc.","owner":"Justin","bay":"Galveston Bay","acres":32.59},"geometry":{"type":"Polygon","coordinates":[[[-94.74768,29.4886],[-94.74983,29.48833],[-94.7488,29.48273],[-94.74666,29.48299],[-94.74768,29.4886]]]}},{"type":"Feature","properties":{"app_no":23,"status":"Accept","entity":"Miss Britney, Inc.","owner":"Justin","bay":"San Antonio Bay","acres":70.97},"geometry":{"type":"Polygon","coordinates":[[[-96.77985,28.3238],[-96.77993,28.31975],[-96.77216,28.31961],[-96.77213,28.32111],[-96.77412,28.32114],[-96.77405,28.3237],[-96.77985,28.3238]]]}},{"type":"Feature","properties":{"app_no":24,"status":"Accept","entity":"Miss Britney, Inc.","owner":"Justin","bay":"San Antonio Bay","acres":99.05},"geometry":{"type":"Polygon","coordinates":[[[-96.66173,28.25938],[-96.6637,28.25491],[-96.65736,28.25272],[-96.65349,28.25623],[-96.66173,28.25938]]]}},{"type":"Feature","properties":{"app_no":25,"status":"Accept","entity":"Nightmare, Inc.","owner":"Justin","bay":"Galveston Bay","acres":25.63},"geometry":{"type":"Polygon","coordinates":[[[-94.86871,29.44648],[-94.87214,29.4438],[-94.86837,29.44216],[-94.86785,29.44613],[-94.86871,29.44648]]]}},{"type":"Feature","properties":{"app_no":26,"status":"Modify","entity":"Nightmare, Inc.","owner":"Justin","bay":"Galveston Bay","acres":91.22},"geometry":{"type":"Polygon","coordinates":[[[-94.72691,29.49113],[-94.73234,29.48811],[-94.73117,29.48603],[-94.73042,29.48665],[-94.73034,29.48427],[-94.72153,29.49025],[-94.72209,29.49106],[-94.72691,29.49113]]]}},{"type":"Feature","properties":{"app_no":27,"status":"Modify","entity":"Nightmare, Inc.","owner":"Justin","bay":"Galveston Bay","acres":84},"geometry":{"type":"Polygon","coordinates":[[[-94.72222,29.48143],[-94.71611,29.47565],[-94.71148,29.4788],[-94.71722,29.48143],[-94.72222,29.48143]]]}},{"type":"Feature","properties":{"app_no":28,"status":"Accept","entity":"Nightmare, Inc.","owner":"Justin","bay":"Galveston Bay","acres":72.82},"geometry":{"type":"Polygon","coordinates":[[[-94.69707,29.46687],[-94.70224,29.46229],[-94.69872,29.45765],[-94.69701,29.45827],[-94.69707,29.46687]]]}},{"type":"Feature","properties":{"app_no":29,"status":"Decline","entity":"Mr. Clint Incorporated","owner":"Justin","bay":"Aransas Bay","acres":85.29},"geometry":{"type":"Polygon","coordinates":[[[-96.95809,28.07638],[-96.95964,28.07376],[-96.9506,28.06939],[-96.94876,28.07208],[-96.95809,28.07638]]]}},{"type":"Feature","properties":{"app_no":30,"status":"Decline","entity":"Mr. Clint Incorporated","owner":"Justin","bay":"Matagorda Bay","acres":61.77},"geometry":{"type":"Polygon","coordinates":[[[-96.51719,28.60677],[-96.5229,28.60486],[-96.52123,28.60104],[-96.5168,28.6021],[-96.51719,28.60677]]]}},{"type":"Feature","properties":{"app_no":31,"status":"Decline","entity":"Mr. Clint Incorporated","owner":"Justin","bay":"San Antonio Bay","acres":18.76},"geometry":{"type":"Polygon","coordinates":[[[-96.7269,28.29468],[-96.72848,28.29438],[-96.72701,28.29023],[-96.72544,28.29053],[-96.7269,28.29468]]]}},{"type":"Feature","properties":{"app_no":32,"status":"Decline","entity":"Mr. Clint Incorporated","owner":"Justin","bay":"San Antonio Bay","acres":98.66},"geometry":{"type":"Polygon","coordinates":[[[-96.70671,28.24591],[-96.71394,28.24424],[-96.71227,28.23957],[-96.70499,28.24125],[-96.70671,28.24591]]]}},{"type":"Feature","properties":{"app_no":33,"status":"Decline","entity":"Moses Lake Properties, LLC","owner":"Johny","bay":"Aransas Bay","acres":84.2},"geometry":{"type":"Polygon","coordinates":[[[-96.94786,28.06751],[-96.95486,28.07112],[-96.95848,28.0671],[-96.95569,28.06521],[-96.94786,28.06751]]]}},{"type":"Feature","properties":{"app_no":34,"status":"Modify","entity":"Moses Lake Properties, LLC","owner":"Johny","bay":"Galveston Bay","acres":19.42},"geometry":{"type":"Polygon","coordinates":[[[-94.87429,29.44182],[-94.87449,29.44191],[-94.87918,29.43821],[-94.87695,29.43711],[-94.87429,29.44182]]]}},{"type":"Feature","properties":{"app_no":37,"status":"Decline","entity":"John Jurisich","owner":"Johny","bay":"San Antonio Bay","acres":98.52},"geometry":{"type":"Polygon","coordinates":[[[-96.71529,28.25499],[-96.71706,28.25298],[-96.71581,28.24948],[-96.70864,28.25113],[-96.71048,28.2561],[-96.71529,28.25499]]]}},{"type":"Feature","properties":{"app_no":50,"status":"Accept","entity":"Calhoun County Channel & Dock, Inc.","owner":"Johny","bay":"San Antonio Bay","acres":77.46},"geometry":{"type":"Polygon","coordinates":[[[-96.72012,28.31973],[-96.72316,28.32091],[-96.72495,28.31746],[-96.72555,28.31411],[-96.72146,28.31277],[-96.72012,28.31973]]]}},{"type":"Feature","properties":{"app_no":51,"status":"Decline","entity":"Calhoun County Channel & Dock, Inc.","owner":"Johny","bay":"San Antonio Bay","acres":60.66},"geometry":{"type":"Polygon","coordinates":[[[-96.7316,28.30676],[-96.72962,28.29874],[-96.72663,28.29932],[-96.72856,28.30623],[-96.7316,28.30676]]]}},{"type":"Feature","properties":{"app_no":52,"status":"Decline","entity":"Calhoun County Channel & Dock, Inc.","owner":"Johny","bay":"San Antonio Bay","acres":63.17},"geometry":{"type":"Polygon","coordinates":[[[-96.72239,28.27795],[-96.72005,28.2716],[-96.72102,28.27],[-96.72081,28.26803],[-96.71776,28.26809],[-96.71866,28.27435],[-96.72046,28.2781],[-96.72239,28.27795]]]}},{"type":"Feature","properties":{"app_no":53,"status":"Accept","entity":"Calhoun County Channel & Dock, Inc.","owner":"Johny","bay":"San Antonio Bay","acres":18},"geometry":{"type":"Polygon","coordinates":[[[-96.71161,28.25916],[-96.71498,28.25535],[-96.71057,28.25636],[-96.71161,28.25916]]]}},{"type":"Feature","properties":{"app_no":54,"status":"Decline","entity":"Calhoun County Channel & Dock, Inc.","owner":"Johny","bay":"San Antonio Bay","acres":76.23},"geometry":{"type":"Polygon","coordinates":[[[-96.70923,28.22518],[-96.70772,28.22117],[-96.70094,28.22221],[-96.70123,28.22567],[-96.70923,28.22518]]]}},{"type":"Feature","properties":{"app_no":55,"status":"Modify","entity":"Ruzica Jurisich","owner":"Johny","bay":"Galveston Bay","acres":91.99},"geometry":{"type":"Polygon","coordinates":[[[-94.8404,29.48979],[-94.83459,29.49158],[-94.83651,29.49713],[-94.84244,29.49455],[-94.8404,29.48979]]]}},{"type":"Feature","properties":{"app_no":56,"status":"Accept","entity":"Ruzica Jurisich","owner":"Johny","bay":"Galveston Bay","acres":82},"geometry":{"type":"Polygon","coordinates":[[[-94.74178,29.47562],[-94.73894,29.4763],[-94.73709,29.47917],[-94.73602,29.47955],[-94.73761,29.48242],[-94.74352,29.48095],[-94.74178,29.47562]]]}},{"type":"Feature","properties":{"app_no":57,"status":"Accept","entity":"Ruzica Jurisich","owner":"Johny","bay":"Galveston Bay","acres":78.16},"geometry":{"type":"Polygon","coordinates":[[[-94.70705,29.46496],[-94.70314,29.46841],[-94.70355,29.46903],[-94.70492,29.46933],[-94.7061,29.46875],[-94.70992,29.4724],[-94.7127,29.47039],[-94.70705,29.46496]]]}},{"type":"Feature","properties":{"app_no":72,"status":"Modify","entity":"Moses Lake Harbor, Inc.","owner":"Johny","bay":"Galveston Bay","acres":98.56},"geometry":{"type":"Polygon","coordinates":[[[-94.87959,29.42601],[-94.87734,29.42906],[-94.88612,29.43273],[-94.88939,29.4301],[-94.87959,29.42601]]]}},{"type":"Feature","properties":{"app_no":73,"status":"Accept","entity":"Moses Lake Harbor, Inc.","owner":"Johny","bay":"Galveston Bay","acres":22.6},"geometry":{"type":"Polygon","coordinates":[[[-94.80781,29.52055],[-94.80719,29.52084],[-94.80999,29.5259],[-94.81101,29.52297],[-94.8091,29.52114],[-94.80781,29.52055]]]}},{"type":"Feature","properties":{"app_no":74,"status":"Modify","entity":"Moses Lake Harbor, Inc.","owner":"Johny","bay":"Galveston Bay","acres":71.64},"geometry":{"type":"Polygon","coordinates":[[[-94.80877,29.5019],[-94.80738,29.5055],[-94.80809,29.50949],[-94.81436,29.50677],[-94.80877,29.5019]]]}},{"type":"Feature","properties":{"app_no":75,"status":"Accept","entity":"Moses Lake Harbor, Inc.","owner":"Johny","bay":"Galveston Bay","acres":80.74},"geometry":{"type":"Polygon","coordinates":[[[-94.75314,29.47562],[-94.75185,29.47626],[-94.75799,29.48254],[-94.76177,29.48171],[-94.76168,29.47951],[-94.7576,29.47716],[-94.75585,29.47745],[-94.75314,29.47562]]]}},{"type":"Feature","properties":{"app_no":87,"status":"Decline","entity":"Mermaid Seafood, Inc.","owner":"Johny","bay":"Matagorda Bay","acres":83.4},"geometry":{"type":"Polygon","coordinates":[[[-96.49734,28.61127],[-96.48758,28.6038],[-96.48526,28.6062],[-96.4931,28.61127],[-96.49734,28.61127]]]}},{"type":"Feature","properties":{"app_no":88,"status":"Decline","entity":"Mermaid Seafood, Inc.","owner":"Johny","bay":"San Antonio Bay","acres":98.63},"geometry":{"type":"Polygon","coordinates":[[[-96.71042,28.23441],[-96.70878,28.22981],[-96.70138,28.23151],[-96.70308,28.2361],[-96.71042,28.23441]]]}},{"type":"Feature","properties":{"app_no":89,"status":"Decline","entity":"Mermaid Seafood, Inc.","owner":"Johny","bay":"San Antonio Bay","acres":99},"geometry":{"type":"Polygon","coordinates":[[[-96.69937,28.22606],[-96.70129,28.23125],[-96.70868,28.22955],[-96.70727,28.22558],[-96.69937,28.22606]]]}},{"type":"Feature","properties":{"app_no":90,"status":"Decline","entity":"Jurisich Holdings, LLC","owner":"Johny","bay":"Aransas Bay","acres":63},"geometry":{"type":"Polygon","coordinates":[[[-96.98231,28.07319],[-96.98166,28.07652],[-96.98459,28.07691],[-96.98781,28.0794],[-96.99034,28.07975],[-96.99055,28.07815],[-96.98656,28.07611],[-96.9848,28.07361],[-96.98231,28.07319]]]}},{"type":"Feature","properties":{"app_no":91,"status":"Decline","entity":"Jurisich Holdings, LLC","owner":"Johny","bay":"Aransas Bay","acres":76.71},"geometry":{"type":"Polygon","coordinates":[[[-96.97287,28.08353],[-96.97561,28.0823],[-96.97583,28.08001],[-96.97508,28.07861],[-96.96876,28.08001],[-96.97287,28.08353]]]}},{"type":"Feature","properties":{"app_no":92,"status":"Decline","entity":"Jurisich Holdings, LLC","owner":"Johny","bay":"Aransas Bay","acres":76.79},"geometry":{"type":"Polygon","coordinates":[[[-96.94144,28.06812],[-96.94848,28.07195],[-96.95033,28.06926],[-96.94243,28.06475],[-96.94144,28.06812]]]}},{"type":"Feature","properties":{"app_no":93,"status":"Accept","entity":"Jurisich Holdings, LLC","owner":"Johny","bay":"San Antonio Bay","acres":80.54},"geometry":{"type":"Polygon","coordinates":[[[-96.66547,28.25523],[-96.66781,28.25201],[-96.66081,28.24959],[-96.6576,28.25251],[-96.66547,28.25523]]]}},{"type":"Feature","properties":{"app_no":94,"status":"Modify","entity":"Jurisich & Sons, Inc.","owner":"Johny","bay":"Galveston Bay","acres":73.43},"geometry":{"type":"Polygon","coordinates":[[[-94.70749,29.47287],[-94.70416,29.47511],[-94.71108,29.47872],[-94.71533,29.47585],[-94.7115,29.47593],[-94.70901,29.47288],[-94.70749,29.47287]]]}},{"type":"Feature","properties":{"app_no":95,"status":"Decline","entity":"Jurisich & Sons, Inc.","owner":"Johny","bay":"Matagorda Bay","acres":62.23},"geometry":{"type":"Polygon","coordinates":[[[-96.52302,28.60512],[-96.51722,28.60706],[-96.51756,28.61101],[-96.52426,28.60797],[-96.52302,28.60512]]]}},{"type":"Feature","properties":{"app_no":96,"status":"Accept","entity":"Jurisich & Sons, Inc.","owner":"Johny","bay":"San Antonio Bay","acres":71.13},"geometry":{"type":"Polygon","coordinates":[[[-96.77395,28.32854],[-96.77975,28.32864],[-96.77984,28.32407],[-96.77405,28.32398],[-96.77395,28.32854]]]}},{"type":"Feature","properties":{"app_no":97,"status":"Decline","entity":"Frances Jurisich","owner":"Johny","bay":"Aransas Bay","acres":92.08},"geometry":{"type":"Polygon","coordinates":[[[-96.93891,28.09565],[-96.94376,28.0905],[-96.93962,28.08784],[-96.93476,28.093],[-96.93891,28.09565]]]}},{"type":"Feature","properties":{"app_no":98,"status":"Accept","entity":"Frances Jurisich","owner":"Johny","bay":"Galveston Bay","acres":74.54},"geometry":{"type":"Polygon","coordinates":[[[-94.84563,29.4837],[-94.83934,29.48482],[-94.84123,29.48924],[-94.84749,29.48731],[-94.84563,29.4837]]]}},{"type":"Feature","properties":{"app_no":99,"status":"Accept","entity":"John Jurisich","owner":"Johny","bay":"Galveston Bay","acres":29.49},"geometry":{"type":"Polygon","coordinates":[[[-94.88692,29.43956],[-94.89195,29.44163],[-94.8906,29.43666],[-94.88692,29.43956]]]}},{"type":"Feature","properties":{"app_no":100,"status":"Decline","entity":"John Jurisich","owner":"Johny","bay":"Galveston Bay","acres":60.55},"geometry":{"type":"Polygon","coordinates":[[[-94.88101,29.50906],[-94.88383,29.50747],[-94.88301,29.50518],[-94.88156,29.5041],[-94.88262,29.50227],[-94.88121,29.50208],[-94.87898,29.50313],[-94.87816,29.5052],[-94.88101,29.50906]]]}},{"type":"Feature","properties":{"app_no":101,"status":"Decline","entity":"John Jurisich","owner":"Johny","bay":"Galveston Bay","acres":45.11},"geometry":{"type":"Polygon","coordinates":[[[-94.87337,29.49718],[-94.87513,29.49947],[-94.88027,29.49641],[-94.87855,29.49417],[-94.87337,29.49718]]]}},{"type":"Feature","properties":{"app_no":102,"status":"Accept","entity":"John Jurisich","owner":"Johny","bay":"Galveston Bay","acres":39.05},"geometry":{"type":"Polygon","coordinates":[[[-94.86028,29.50758],[-94.85937,29.51072],[-94.8637,29.51179],[-94.86471,29.50869],[-94.86028,29.50758]]]}},{"type":"Feature","properties":{"app_no":103,"status":"Modify","entity":"Fisher Channel & Dock, Inc.","owner":"Johny","bay":"San Antonio Bay","acres":94.5},"geometry":{"type":"Polygon","coordinates":[[[-96.76672,28.3347],[-96.76711,28.33631],[-96.76918,28.34036],[-96.77974,28.34058],[-96.77969,28.33736],[-96.77239,28.33885],[-96.76756,28.33416],[-96.76672,28.3347]]]}},{"type":"Feature","properties":{"app_no":104,"status":"Accept","entity":"Fisher Channel & Dock, Inc.","owner":"Johny","bay":"San Antonio Bay","acres":99.03},"geometry":{"type":"Polygon","coordinates":[[[-96.77967,28.33249],[-96.77974,28.32891],[-96.76977,28.32875],[-96.769,28.33231],[-96.77967,28.33249]]]}},{"type":"Feature","properties":{"app_no":105,"status":"Decline","entity":"Fisher Channel & Dock, Inc.","owner":"Johny","bay":"San Antonio Bay","acres":98.65},"geometry":{"type":"Polygon","coordinates":[[[-96.71217,28.23931],[-96.71052,28.23467],[-96.70318,28.23636],[-96.70489,28.24099],[-96.71217,28.23931]]]}},{"type":"Feature","properties":{"app_no":106,"status":"Accept","entity":"Adrian Oysters, Inc.","owner":"Johny","bay":"Galveston Bay","acres":93.54},"geometry":{"type":"Polygon","coordinates":[[[-94.87634,29.43429],[-94.87736,29.4354],[-94.87703,29.43684],[-94.87943,29.43802],[-94.88587,29.43293],[-94.88077,29.4308],[-94.87634,29.43429]]]}},{"type":"Feature","properties":{"app_no":107,"status":"Accept","entity":"Capt. Johny Jurisich, LP","owner":"Johny","bay":"Galveston Bay","acres":99.72},"geometry":{"type":"Polygon","coordinates":[[[-94.75181,29.47077],[-94.74656,29.47243],[-94.74838,29.47462],[-94.75465,29.47458],[-94.75533,29.47372],[-94.76134,29.47391],[-94.76087,29.47192],[-94.75739,29.4711],[-94.75336,29.472],[-94.75181,29.47077]]]}},{"type":"Feature","properties":{"app_no":108,"status":"Accept","entity":"Capt. Johny Jurisich, LP","owner":"Johny","bay":"Galveston Bay","acres":93.69},"geometry":{"type":"Polygon","coordinates":[[[-94.72989,29.4805],[-94.7196,29.48749],[-94.72136,29.49002],[-94.73002,29.48414],[-94.72989,29.4805]]]}},{"type":"Feature","properties":{"app_no":109,"status":"Modify","entity":"Capt. Johny Jurisich, LP","owner":"Johny","bay":"Galveston Bay","acres":82.87},"geometry":{"type":"Polygon","coordinates":[[[-94.71825,29.48483],[-94.72787,29.47787],[-94.72537,29.47615],[-94.72377,29.47617],[-94.72235,29.47831],[-94.71735,29.48169],[-94.71825,29.48483]]]}},{"type":"Feature","properties":{"app_no":112,"status":"Accept","entity":"Frances Jurisich","owner":"Johny","bay":"Aransas Bay","acres":56.25},"geometry":{"type":"Polygon","coordinates":[[[-97.03189,28.14468],[-97.03791,28.14716],[-97.03932,28.14636],[-97.03577,28.14105],[-97.03189,28.14468]]]}},{"type":"Feature","properties":{"app_no":113,"status":"Accept","entity":"John Jurisich","owner":"Johny","bay":"Aransas Bay","acres":21.62},"geometry":{"type":"Polygon","coordinates":[[[-97.01646,28.09904],[-97.01847,28.10032],[-97.02,28.09666],[-97.01753,28.09641],[-97.01646,28.09904]]]}},{"type":"Feature","properties":{"app_no":115,"status":"Decline","entity":"Moses Lake Properties, LLC","owner":"Johny","bay":"Aransas Bay","acres":68.73},"geometry":{"type":"Polygon","coordinates":[[[-97.0872,28.14833],[-97.08791,28.15009],[-97.09091,28.15352],[-97.09364,28.15145],[-97.09088,28.14601],[-97.0872,28.14833]]]}},{"type":"Feature","properties":{"app_no":116,"status":"Decline","entity":"Moses Lake Properties, LLC","owner":"Johny","bay":"Aransas Bay","acres":68.74},"geometry":{"type":"Polygon","coordinates":[[[-97.08488,28.14254],[-97.08709,28.14806],[-97.09075,28.14575],[-97.08767,28.13967],[-97.08488,28.14254]]]}},{"type":"Feature","properties":{"app_no":117,"status":"Decline","entity":"Sea Gun Holdings, LLC","owner":"Johny","bay":"Aransas Bay","acres":89.06},"geometry":{"type":"Polygon","coordinates":[[[-97.06996,28.13928],[-97.07427,28.14635],[-97.07835,28.14152],[-97.07702,28.1392],[-97.06996,28.13928]]]}},{"type":"Feature","properties":{"app_no":118,"status":"Decline","entity":"Sea Gun Holdings, LLC","owner":"Johny","bay":"Aransas Bay","acres":97.77},"geometry":{"type":"Polygon","coordinates":[[[-97.01169,28.10658],[-97.01067,28.10999],[-97.01899,28.11518],[-97.02125,28.11251],[-97.01169,28.10658]]]}},{"type":"Feature","properties":{"app_no":119,"status":"Decline","entity":"Sea Gun Holdings, LLC","owner":"Johny","bay":"Aransas Bay","acres":85.98},"geometry":{"type":"Polygon","coordinates":[[[-96.99596,28.11514],[-97.0027,28.11832],[-97.00581,28.1179],[-97.00617,28.11546],[-96.99524,28.11255],[-96.99596,28.11514]]]}},{"type":"Feature","properties":{"app_no":120,"status":"Modify","entity":"Captain J Seafood, Inc.","owner":"Johny","bay":"Galveston Bay","acres":97.67},"geometry":{"type":"Polygon","coordinates":[[[-94.93202,29.25777],[-94.93623,29.25104],[-94.93154,29.25105],[-94.92571,29.25651],[-94.93202,29.25777]]]}}]}